<?xml version="1.0" encoding="UTF-8"?>
<gpx xmlns="http://www.topografix.com/GPX/1/1" xmlns:gpxtpx="http://www.garmin.com/xmlschemas/TrackPointExtension/v1" xmlns:xsi="http://www.w3.org/2001/XMLSchema-instance" xsi:schemaLocation="http://www.topografix.com/GPX/1/1 http://www.topografix.com/GPX/1/1/gpx.xsd" version="1.1" creator="gpx.py -- https://github.com/tkrajina/gpxpy">
  <trk>
    <name>gpx from keep</name>
    <type>Ride</type>
    <trkseg>
      <trkpt lat="34.328278519400044" lon="108.98023254398184">
        <ele>398.92114639282227</ele>
        <time>2022-04-14T23:21:29Z</time>
      </trkpt>
      <trkpt lat="34.32833570271378" lon="108.98035165904852">
        <ele>404.8620834350586</ele>
        <time>2022-04-14T23:23:42Z</time>
      </trkpt>
      <trkpt lat="34.32831311855754" lon="108.98064866790489">
        <ele>402.3353500366211</ele>
        <time>2022-04-14T23:26:12Z</time>
      </trkpt>
      <trkpt lat="34.328340235227884" lon="108.9801989020053">
        <ele>399.7269973754883</ele>
        <time>2022-04-14T23:26:21Z</time>
      </trkpt>
      <trkpt lat="34.32819136855189" lon="108.98014197430925">
        <ele>398.4434585571289</ele>
        <time>2022-04-14T23:26:28Z</time>
      </trkpt>
      <trkpt lat="34.32811004920377" lon="108.98024090427306">
        <ele>397.97083282470703</ele>
        <time>2022-04-14T23:26:29Z</time>
      </trkpt>
      <trkpt lat="34.32865416521085" lon="108.98035910160775">
        <ele>397.5309295654297</ele>
        <time>2022-04-14T23:26:39Z</time>
      </trkpt>
      <trkpt lat="34.32874975020548" lon="108.98056022372216">
        <ele>397.2240447998047</ele>
        <time>2022-04-14T23:26:46Z</time>
      </trkpt>
      <trkpt lat="34.32854937001106" lon="108.98042721392655">
        <ele>397.12939834594727</ele>
        <time>2022-04-14T23:26:54Z</time>
      </trkpt>
      <trkpt lat="34.32869727864129" lon="108.98035171378642">
        <ele>397.1673221588135</ele>
        <time>2022-04-14T23:27:07Z</time>
      </trkpt>
      <trkpt lat="34.32908441039706" lon="108.98028745039129">
        <ele>395.9332004252659</ele>
        <time>2022-04-14T23:27:15Z</time>
      </trkpt>
      <trkpt lat="34.32866696359508" lon="108.98048624428563">
        <ele>395.8412228189409</ele>
        <time>2022-04-14T23:27:25Z</time>
      </trkpt>
      <trkpt lat="34.32867332223321" lon="108.98070750192063">
        <ele>395.7948618521914</ele>
        <time>2022-04-14T23:27:35Z</time>
      </trkpt>
      <trkpt lat="34.328543476552525" lon="108.98081908455558">
        <ele>395.07746655121446</ele>
        <time>2022-04-14T23:27:41Z</time>
      </trkpt>
      <trkpt lat="34.3284745947754" lon="108.98077766391746">
        <ele>395.0164847401902</ele>
        <time>2022-04-14T23:27:49Z</time>
      </trkpt>
      <trkpt lat="34.328299958009715" lon="108.98077274545807">
        <ele>395.15562460478395</ele>
        <time>2022-04-14T23:27:58Z</time>
      </trkpt>
      <trkpt lat="34.32822878171858" lon="108.98081723355251">
        <ele>395.4414548575878</ele>
        <time>2022-04-14T23:28:03Z</time>
      </trkpt>
      <trkpt lat="34.32818920966361" lon="108.98089891067376">
        <ele>394.9632060462609</ele>
        <time>2022-04-14T23:28:11Z</time>
      </trkpt>
      <trkpt lat="34.32818317918798" lon="108.98098913399635">
        <ele>394.81157799530774</ele>
        <time>2022-04-14T23:28:16Z</time>
      </trkpt>
      <trkpt lat="34.32825310007391" lon="108.98137669879739">
        <ele>394.5277281468734</ele>
        <time>2022-04-14T23:28:52Z</time>
      </trkpt>
      <trkpt lat="34.3281673637528" lon="108.98138143957621">
        <ele>394.55301532521844</ele>
        <time>2022-04-14T23:29:19Z</time>
      </trkpt>
      <trkpt lat="34.32823463654333" lon="108.98181138221742">
        <ele>394.4967286475003</ele>
        <time>2022-04-14T23:29:31Z</time>
      </trkpt>
      <trkpt lat="34.32824439795296" lon="108.98197210494624">
        <ele>394.62411000207067</ele>
        <time>2022-04-14T23:29:35Z</time>
      </trkpt>
      <trkpt lat="34.328235338788346" lon="108.9820928999726">
        <ele>394.49486878328025</ele>
        <time>2022-04-14T23:29:39Z</time>
      </trkpt>
      <trkpt lat="34.328125168359755" lon="108.98230072115992">
        <ele>394.2531780898571</ele>
        <time>2022-04-14T23:29:45Z</time>
      </trkpt>
      <trkpt lat="34.328035887163" lon="108.98271379058508">
        <ele>393.63494159653783</ele>
        <time>2022-04-14T23:29:57Z</time>
      </trkpt>
      <trkpt lat="34.32802831598913" lon="108.98297127722849">
        <ele>393.02629414666444</ele>
        <time>2022-04-14T23:30:03Z</time>
      </trkpt>
      <trkpt lat="34.3280764682455" lon="108.98332207396196">
        <ele>392.159439236857</ele>
        <time>2022-04-14T23:30:11Z</time>
      </trkpt>
      <trkpt lat="34.32824492517622" lon="108.98359853329171">
        <ele>393.09392205718905</ele>
        <time>2022-04-14T23:30:21Z</time>
      </trkpt>
      <trkpt lat="34.32824226509871" lon="108.98370614906649">
        <ele>392.5969473356381</ele>
        <time>2022-04-14T23:30:24Z</time>
      </trkpt>
      <trkpt lat="34.32807281544215" lon="108.98421169737203">
        <ele>392.20968671515584</ele>
        <time>2022-04-14T23:30:34Z</time>
      </trkpt>
      <trkpt lat="34.327940887957055" lon="108.98450694975827">
        <ele>392.1697576418519</ele>
        <time>2022-04-14T23:30:40Z</time>
      </trkpt>
      <trkpt lat="34.32791485400282" lon="108.98460112200178">
        <ele>392.1119076041505</ele>
        <time>2022-04-14T23:30:43Z</time>
      </trkpt>
      <trkpt lat="34.32790791171163" lon="108.98520222374913">
        <ele>391.9829860795289</ele>
        <time>2022-04-14T23:30:58Z</time>
      </trkpt>
      <trkpt lat="34.327914199742246" lon="108.98575488940084">
        <ele>391.70272874832153</ele>
        <time>2022-04-14T23:31:08Z</time>
      </trkpt>
      <trkpt lat="34.327884361228065" lon="108.98622869013516">
        <ele>391.50227486528456</ele>
        <time>2022-04-14T23:31:17Z</time>
      </trkpt>
      <trkpt lat="34.327886990753036" lon="108.98679975705727">
        <ele>392.29402200039476</ele>
        <time>2022-04-14T23:31:29Z</time>
      </trkpt>
      <trkpt lat="34.32790766693935" lon="108.98737157404575">
        <ele>392.327095516026</ele>
        <time>2022-04-14T23:31:39Z</time>
      </trkpt>
      <trkpt lat="34.32791356470472" lon="108.98796055017476">
        <ele>392.1525538954884</ele>
        <time>2022-04-14T23:31:51Z</time>
      </trkpt>
      <trkpt lat="34.32791454199474" lon="108.98835615225482">
        <ele>391.74377268739045</ele>
        <time>2022-04-14T23:32:01Z</time>
      </trkpt>
      <trkpt lat="34.32792815133901" lon="108.98850251728243">
        <ele>391.63005545176566</ele>
        <time>2022-04-14T23:32:05Z</time>
      </trkpt>
      <trkpt lat="34.32792658807837" lon="108.98879812902416">
        <ele>391.2249532705173</ele>
        <time>2022-04-14T23:32:13Z</time>
      </trkpt>
      <trkpt lat="34.327961636873034" lon="108.98892056333715">
        <ele>390.2654744386673</ele>
        <time>2022-04-14T23:32:17Z</time>
      </trkpt>
      <trkpt lat="34.32797775574798" lon="108.98904655186304">
        <ele>390.51125158183277</ele>
        <time>2022-04-14T23:32:23Z</time>
      </trkpt>
      <trkpt lat="34.32804145312608" lon="108.98920627558752">
        <ele>390.8710525408387</ele>
        <time>2022-04-14T23:32:31Z</time>
      </trkpt>
      <trkpt lat="34.32788892379107" lon="108.98952284509788">
        <ele>391.56604629568756</ele>
        <time>2022-04-14T23:32:47Z</time>
      </trkpt>
      <trkpt lat="34.32787935371594" lon="108.99052305759827">
        <ele>393.47482902836055</ele>
        <time>2022-04-14T23:33:36Z</time>
      </trkpt>
      <trkpt lat="34.327874601883636" lon="108.99070399494818">
        <ele>391.5194021575153</ele>
        <time>2022-04-14T23:33:40Z</time>
      </trkpt>
      <trkpt lat="34.327920222450615" lon="108.99100097899496">
        <ele>391.5845447424799</ele>
        <time>2022-04-14T23:33:48Z</time>
      </trkpt>
      <trkpt lat="34.32803222042986" lon="108.99113867942724">
        <ele>391.48241868801415</ele>
        <time>2022-04-14T23:33:52Z</time>
      </trkpt>
      <trkpt lat="34.32809984472142" lon="108.9911725708601">
        <ele>392.3460058234632</ele>
        <time>2022-04-14T23:33:56Z</time>
      </trkpt>
      <trkpt lat="34.32802920248731" lon="108.99160391038127">
        <ele>393.5193720879033</ele>
        <time>2022-04-14T23:34:04Z</time>
      </trkpt>
      <trkpt lat="34.327991095353525" lon="108.99175586058003">
        <ele>394.5697650620714</ele>
        <time>2022-04-14T23:34:06Z</time>
      </trkpt>
      <trkpt lat="34.32801583463881" lon="108.99216993871494">
        <ele>393.559526655823</ele>
        <time>2022-04-14T23:34:14Z</time>
      </trkpt>
      <trkpt lat="34.32799434567112" lon="108.99227576633156">
        <ele>393.96929137408733</ele>
        <time>2022-04-14T23:34:16Z</time>
      </trkpt>
      <trkpt lat="34.327974712171034" lon="108.99288377457877">
        <ele>394.15647745970637</ele>
        <time>2022-04-14T23:34:28Z</time>
      </trkpt>
      <trkpt lat="34.327952007520494" lon="108.99315888350543">
        <ele>394.5230643330142</ele>
        <time>2022-04-14T23:34:34Z</time>
      </trkpt>
      <trkpt lat="34.3279673976329" lon="108.9933250582819">
        <ele>394.60362547263503</ele>
        <time>2022-04-14T23:34:38Z</time>
      </trkpt>
      <trkpt lat="34.32795633202272" lon="108.99341164471238">
        <ele>394.77342280652374</ele>
        <time>2022-04-14T23:34:40Z</time>
      </trkpt>
      <trkpt lat="34.32797860062153" lon="108.99350534090522">
        <ele>394.44908053055406</ele>
        <time>2022-04-14T23:34:42Z</time>
      </trkpt>
      <trkpt lat="34.327971144484415" lon="108.99391527024852">
        <ele>394.5673299888149</ele>
        <time>2022-04-14T23:34:52Z</time>
      </trkpt>
      <trkpt lat="34.32799541851691" lon="108.99410033764468">
        <ele>394.52893815003335</ele>
        <time>2022-04-14T23:34:56Z</time>
      </trkpt>
      <trkpt lat="34.328042980032095" lon="108.9942697787139">
        <ele>394.6994732050225</ele>
        <time>2022-04-14T23:35:00Z</time>
      </trkpt>
      <trkpt lat="34.32808294276903" lon="108.99435240004489">
        <ele>394.40037974435836</ele>
        <time>2022-04-14T23:35:02Z</time>
      </trkpt>
      <trkpt lat="34.328109089595195" lon="108.99447545091527">
        <ele>394.28731278982013</ele>
        <time>2022-04-14T23:35:04Z</time>
      </trkpt>
      <trkpt lat="34.32810903626742" lon="108.99480127170922">
        <ele>394.49670952931046</ele>
        <time>2022-04-14T23:35:12Z</time>
      </trkpt>
      <trkpt lat="34.32812386831595" lon="108.99490549869813">
        <ele>394.5246999617666</ele>
        <time>2022-04-14T23:35:14Z</time>
      </trkpt>
      <trkpt lat="34.32810401593815" lon="108.99502844568084">
        <ele>394.39532565604895</ele>
        <time>2022-04-14T23:35:18Z</time>
      </trkpt>
      <trkpt lat="34.32815957183658" lon="108.99530973171215">
        <ele>393.52927929442376</ele>
        <time>2022-04-14T23:35:26Z</time>
      </trkpt>
      <trkpt lat="34.32815974359182" lon="108.99540239378759">
        <ele>393.17175909969956</ele>
        <time>2022-04-14T23:35:30Z</time>
      </trkpt>
      <trkpt lat="34.32811565440661" lon="108.99550454039647">
        <ele>393.6659169550985</ele>
        <time>2022-04-14T23:35:34Z</time>
      </trkpt>
      <trkpt lat="34.3280989931741" lon="108.99567165951893">
        <ele>394.06898202653974</ele>
        <time>2022-04-14T23:35:38Z</time>
      </trkpt>
      <trkpt lat="34.328131999777945" lon="108.99633590535106">
        <ele>393.4940055711195</ele>
        <time>2022-04-14T23:35:51Z</time>
      </trkpt>
      <trkpt lat="34.32813021238786" lon="108.99674447376195">
        <ele>393.88888256344944</ele>
        <time>2022-04-14T23:36:01Z</time>
      </trkpt>
      <trkpt lat="34.328146878007004" lon="108.99714106846127">
        <ele>392.73281219415367</ele>
        <time>2022-04-14T23:36:11Z</time>
      </trkpt>
      <trkpt lat="34.328172302327985" lon="108.99729510367297">
        <ele>391.09608511812985</ele>
        <time>2022-04-14T23:36:15Z</time>
      </trkpt>
      <trkpt lat="34.3281510780359" lon="108.99741086441566">
        <ele>392.29063989035785</ele>
        <time>2022-04-14T23:36:17Z</time>
      </trkpt>
      <trkpt lat="34.32817658942017" lon="108.99764485449847">
        <ele>393.0900006685406</ele>
        <time>2022-04-14T23:36:21Z</time>
      </trkpt>
      <trkpt lat="34.32814858674206" lon="108.9977895763781">
        <ele>393.75714827887714</ele>
        <time>2022-04-14T23:36:25Z</time>
      </trkpt>
      <trkpt lat="34.32809044409131" lon="108.99789868460158">
        <ele>393.8156794095412</ele>
        <time>2022-04-14T23:36:29Z</time>
      </trkpt>
      <trkpt lat="34.32810189883256" lon="108.99803815056211">
        <ele>394.50234799366444</ele>
        <time>2022-04-14T23:36:31Z</time>
      </trkpt>
      <trkpt lat="34.32808737091266" lon="108.9981708694743">
        <ele>394.78553121350706</ele>
        <time>2022-04-14T23:36:33Z</time>
      </trkpt>
      <trkpt lat="34.32809147084818" lon="108.99844113415256">
        <ele>394.29098146315664</ele>
        <time>2022-04-14T23:36:37Z</time>
      </trkpt>
      <trkpt lat="34.32807851577754" lon="108.99858252265867">
        <ele>394.13818107172847</ele>
        <time>2022-04-14T23:36:39Z</time>
      </trkpt>
      <trkpt lat="34.32809459727896" lon="108.99871560713858">
        <ele>394.31071775313467</ele>
        <time>2022-04-14T23:36:41Z</time>
      </trkpt>
      <trkpt lat="34.328048917407266" lon="108.99900584249231">
        <ele>394.2393807442859</ele>
        <time>2022-04-14T23:36:45Z</time>
      </trkpt>
      <trkpt lat="34.32801189341189" lon="108.99939856139767">
        <ele>394.78146947547793</ele>
        <time>2022-04-14T23:36:51Z</time>
      </trkpt>
      <trkpt lat="34.32796709094905" lon="108.99955455465096">
        <ele>393.77005726192147</ele>
        <time>2022-04-14T23:36:53Z</time>
      </trkpt>
      <trkpt lat="34.327910520870844" lon="109.00013183998708">
        <ele>393.468644823879</ele>
        <time>2022-04-14T23:37:01Z</time>
      </trkpt>
      <trkpt lat="34.327913085806" lon="109.00040241564835">
        <ele>393.45978008862585</ele>
        <time>2022-04-14T23:37:05Z</time>
      </trkpt>
      <trkpt lat="34.327888747057735" lon="109.00053788737893">
        <ele>393.4749481631443</ele>
        <time>2022-04-14T23:37:07Z</time>
      </trkpt>
      <trkpt lat="34.32784569545351" lon="109.0009202677785">
        <ele>393.19887661747634</ele>
        <time>2022-04-14T23:37:13Z</time>
      </trkpt>
      <trkpt lat="34.32785274474805" lon="109.00147325814316">
        <ele>393.62852491345257</ele>
        <time>2022-04-14T23:37:23Z</time>
      </trkpt>
      <trkpt lat="34.32786225627122" lon="109.0016965731728">
        <ele>393.2430329080671</ele>
        <time>2022-04-14T23:37:27Z</time>
      </trkpt>
      <trkpt lat="34.32784122284323" lon="109.0020274416249">
        <ele>393.9640072900802</ele>
        <time>2022-04-14T23:37:33Z</time>
      </trkpt>
      <trkpt lat="34.32785753720831" lon="109.00223850345395">
        <ele>394.0917199673131</ele>
        <time>2022-04-14T23:37:37Z</time>
      </trkpt>
      <trkpt lat="34.32786070358593" lon="109.00256717858893">
        <ele>393.83785353414714</ele>
        <time>2022-04-14T23:37:43Z</time>
      </trkpt>
      <trkpt lat="34.32783310654387" lon="109.0029731594153">
        <ele>394.04868537187576</ele>
        <time>2022-04-14T23:37:51Z</time>
      </trkpt>
      <trkpt lat="34.327842743363306" lon="109.00310406506057">
        <ele>394.22087948955595</ele>
        <time>2022-04-14T23:37:53Z</time>
      </trkpt>
      <trkpt lat="34.32783003192471" lon="109.00321118052958">
        <ele>394.0285856099799</ele>
        <time>2022-04-14T23:37:55Z</time>
      </trkpt>
      <trkpt lat="34.32784391990316" lon="109.00339923120704">
        <ele>394.3442546315491</ele>
        <time>2022-04-14T23:37:59Z</time>
      </trkpt>
      <trkpt lat="34.32783093600392" lon="109.0035083998999">
        <ele>393.9220791384578</ele>
        <time>2022-04-14T23:38:01Z</time>
      </trkpt>
      <trkpt lat="34.327857775894266" lon="109.00382432768524">
        <ele>393.01183567754924</ele>
        <time>2022-04-14T23:38:07Z</time>
      </trkpt>
      <trkpt lat="34.327843247612144" lon="109.00392879855998">
        <ele>392.99645032081753</ele>
        <time>2022-04-14T23:38:09Z</time>
      </trkpt>
      <trkpt lat="34.32786266334072" lon="109.00434976917632">
        <ele>393.3507524933666</ele>
        <time>2022-04-14T23:38:17Z</time>
      </trkpt>
      <trkpt lat="34.327826512235696" lon="109.00487878346878">
        <ele>393.93100521340966</ele>
        <time>2022-04-14T23:38:29Z</time>
      </trkpt>
      <trkpt lat="34.327857417652886" lon="109.00526303117874">
        <ele>394.2579668266699</ele>
        <time>2022-04-14T23:38:37Z</time>
      </trkpt>
      <trkpt lat="34.32783900783241" lon="109.00547585118">
        <ele>393.6629013568163</ele>
        <time>2022-04-14T23:38:41Z</time>
      </trkpt>
      <trkpt lat="34.32785544705746" lon="109.00557938066028">
        <ele>394.0685558523983</ele>
        <time>2022-04-14T23:38:43Z</time>
      </trkpt>
      <trkpt lat="34.32782549232458" lon="109.00601163462466">
        <ele>393.2610351089388</ele>
        <time>2022-04-14T23:38:51Z</time>
      </trkpt>
      <trkpt lat="34.32784885011592" lon="109.00654331097674">
        <ele>393.34624423552305</ele>
        <time>2022-04-14T23:39:01Z</time>
      </trkpt>
      <trkpt lat="34.3278226583153" lon="109.00677527522964">
        <ele>393.5819054264575</ele>
        <time>2022-04-14T23:39:09Z</time>
      </trkpt>
      <trkpt lat="34.32780003056193" lon="109.00681671164605">
        <ele>392.9050737340003</ele>
        <time>2022-04-14T23:39:19Z</time>
      </trkpt>
      <trkpt lat="34.32777243736067" lon="109.0069663980725">
        <ele>393.2315298980102</ele>
        <time>2022-04-14T23:40:02Z</time>
      </trkpt>
      <trkpt lat="34.32779663786052" lon="109.00724962902139">
        <ele>392.98829058837146</ele>
        <time>2022-04-14T23:40:07Z</time>
      </trkpt>
      <trkpt lat="34.32782443362913" lon="109.00734560157242">
        <ele>393.3697967203334</ele>
        <time>2022-04-14T23:40:09Z</time>
      </trkpt>
      <trkpt lat="34.327871219723015" lon="109.00743399987851">
        <ele>393.4242961490527</ele>
        <time>2022-04-14T23:40:11Z</time>
      </trkpt>
      <trkpt lat="34.32786905264479" lon="109.00755266473065">
        <ele>393.2838848019019</ele>
        <time>2022-04-14T23:40:13Z</time>
      </trkpt>
      <trkpt lat="34.32782905462753" lon="109.00768177603759">
        <ele>393.05963794514537</ele>
        <time>2022-04-14T23:40:15Z</time>
      </trkpt>
      <trkpt lat="34.327853888318415" lon="109.00802609444744">
        <ele>391.7311709364876</ele>
        <time>2022-04-14T23:40:21Z</time>
      </trkpt>
      <trkpt lat="34.32783553167951" lon="109.0082950490895">
        <ele>392.4543959405273</ele>
        <time>2022-04-14T23:40:25Z</time>
      </trkpt>
      <trkpt lat="34.32788148988513" lon="109.00876516701544">
        <ele>392.3018479887396</ele>
        <time>2022-04-14T23:40:33Z</time>
      </trkpt>
      <trkpt lat="34.32789876402683" lon="109.0093791574743">
        <ele>390.600465673022</ele>
        <time>2022-04-14T23:40:43Z</time>
      </trkpt>
      <trkpt lat="34.32789278027147" lon="109.0099729702902">
        <ele>386.54277018550783</ele>
        <time>2022-04-14T23:40:53Z</time>
      </trkpt>
      <trkpt lat="34.32790896150967" lon="109.01030171846695">
        <ele>384.7317149071023</ele>
        <time>2022-04-14T23:40:59Z</time>
      </trkpt>
      <trkpt lat="34.32789211217567" lon="109.01039364785566">
        <ele>386.10105018969625</ele>
        <time>2022-04-14T23:41:01Z</time>
      </trkpt>
      <trkpt lat="34.327899076694194" lon="109.01049250059569">
        <ele>385.35722738690674</ele>
        <time>2022-04-14T23:41:03Z</time>
      </trkpt>
      <trkpt lat="34.3278766955772" lon="109.01079159543511">
        <ele>386.4674851587042</ele>
        <time>2022-04-14T23:41:09Z</time>
      </trkpt>
      <trkpt lat="34.32789374277672" lon="109.011341687115">
        <ele>387.4567052172497</ele>
        <time>2022-04-14T23:41:21Z</time>
      </trkpt>
      <trkpt lat="34.32789420856444" lon="109.0119211243052">
        <ele>387.34588701836765</ele>
        <time>2022-04-14T23:41:31Z</time>
      </trkpt>
      <trkpt lat="34.327884872100356" lon="109.01203015050083">
        <ele>387.5916192047298</ele>
        <time>2022-04-14T23:41:33Z</time>
      </trkpt>
      <trkpt lat="34.32784516796361" lon="109.0121326914342">
        <ele>386.7948052128777</ele>
        <time>2022-04-14T23:41:35Z</time>
      </trkpt>
      <trkpt lat="34.32785099746697" lon="109.01233271969865">
        <ele>387.7289732610807</ele>
        <time>2022-04-14T23:41:39Z</time>
      </trkpt>
      <trkpt lat="34.327830121339325" lon="109.01268129113537">
        <ele>387.93235241714865</ele>
        <time>2022-04-14T23:41:45Z</time>
      </trkpt>
      <trkpt lat="34.32784336188626" lon="109.01299568365408">
        <ele>389.7911526542157</ele>
        <time>2022-04-14T23:41:51Z</time>
      </trkpt>
      <trkpt lat="34.327860540085254" lon="109.01308734289977">
        <ele>390.6994937872514</ele>
        <time>2022-04-14T23:41:53Z</time>
      </trkpt>
      <trkpt lat="34.32784760532828" lon="109.01331974612278">
        <ele>390.0107724526897</ele>
        <time>2022-04-14T23:41:57Z</time>
      </trkpt>
      <trkpt lat="34.32788873273553" lon="109.01383997639722">
        <ele>389.785164963454</ele>
        <time>2022-04-14T23:42:07Z</time>
      </trkpt>
      <trkpt lat="34.32791508395164" lon="109.01405441018603">
        <ele>388.9384657526389</ele>
        <time>2022-04-14T23:42:11Z</time>
      </trkpt>
      <trkpt lat="34.327919564722635" lon="109.01425454582585">
        <ele>388.5988468416035</ele>
        <time>2022-04-14T23:42:15Z</time>
      </trkpt>
      <trkpt lat="34.32790720775809" lon="109.01434027059656">
        <ele>388.50786679331213</ele>
        <time>2022-04-14T23:42:17Z</time>
      </trkpt>
      <trkpt lat="34.32798762020539" lon="109.01483093357947">
        <ele>387.336236695759</ele>
        <time>2022-04-14T23:42:27Z</time>
      </trkpt>
      <trkpt lat="34.32795545120257" lon="109.01506934390218">
        <ele>387.2553468197584</ele>
        <time>2022-04-14T23:42:31Z</time>
      </trkpt>
      <trkpt lat="34.327946651589976" lon="109.01555194105218">
        <ele>386.79861593805254</ele>
        <time>2022-04-14T23:42:39Z</time>
      </trkpt>
      <trkpt lat="34.32796341341868" lon="109.01582852035312">
        <ele>387.29985792934895</ele>
        <time>2022-04-14T23:42:45Z</time>
      </trkpt>
      <trkpt lat="34.327922951598204" lon="109.01601590142285">
        <ele>387.4450892843306</ele>
        <time>2022-04-14T23:42:49Z</time>
      </trkpt>
      <trkpt lat="34.32791991497992" lon="109.01622349899361">
        <ele>387.9261013325304</ele>
        <time>2022-04-14T23:42:53Z</time>
      </trkpt>
      <trkpt lat="34.32787162951066" lon="109.0165794417552">
        <ele>387.4713338576257</ele>
        <time>2022-04-14T23:42:59Z</time>
      </trkpt>
      <trkpt lat="34.327742758341245" lon="109.0171679079775">
        <ele>389.1380752809346</ele>
        <time>2022-04-14T23:43:09Z</time>
      </trkpt>
      <trkpt lat="34.327703201429344" lon="109.01727934622977">
        <ele>388.5977005781606</ele>
        <time>2022-04-14T23:43:11Z</time>
      </trkpt>
      <trkpt lat="34.3276474482118" lon="109.01780405408016">
        <ele>389.41793079394847</ele>
        <time>2022-04-14T23:43:21Z</time>
      </trkpt>
      <trkpt lat="34.327641598881584" lon="109.01833745957846">
        <ele>388.2024558549747</ele>
        <time>2022-04-14T23:43:31Z</time>
      </trkpt>
      <trkpt lat="34.327606885783986" lon="109.01845996745793">
        <ele>388.30851422809064</ele>
        <time>2022-04-14T23:43:33Z</time>
      </trkpt>
      <trkpt lat="34.32733535100153" lon="109.0189290945166">
        <ele>389.071361284703</ele>
        <time>2022-04-14T23:43:43Z</time>
      </trkpt>
      <trkpt lat="34.32708271319195" lon="109.01937927095935">
        <ele>388.8985608741641</ele>
        <time>2022-04-14T23:43:53Z</time>
      </trkpt>
      <trkpt lat="34.326777207175574" lon="109.01983475296254">
        <ele>388.18580270186067</ele>
        <time>2022-04-14T23:44:03Z</time>
      </trkpt>
      <trkpt lat="34.32658839721807" lon="109.02010338995379">
        <ele>389.2645147526637</ele>
        <time>2022-04-14T23:44:09Z</time>
      </trkpt>
      <trkpt lat="34.32623483647722" lon="109.0204987682215">
        <ele>387.9313739929348</ele>
        <time>2022-04-14T23:44:19Z</time>
      </trkpt>
      <trkpt lat="34.325949334244505" lon="109.02077398328723">
        <ele>389.35081867780536</ele>
        <time>2022-04-14T23:44:27Z</time>
      </trkpt>
      <trkpt lat="34.325856987069855" lon="109.02084461068387">
        <ele>388.9677898315713</ele>
        <time>2022-04-14T23:44:29Z</time>
      </trkpt>
      <trkpt lat="34.32579323736791" lon="109.0209221152897">
        <ele>389.18648716341704</ele>
        <time>2022-04-14T23:44:31Z</time>
      </trkpt>
      <trkpt lat="34.32536924270355" lon="109.02119801838829">
        <ele>387.48658721521497</ele>
        <time>2022-04-14T23:44:41Z</time>
      </trkpt>
      <trkpt lat="34.325265186117676" lon="109.02123737763544">
        <ele>387.4462005421519</ele>
        <time>2022-04-14T23:44:43Z</time>
      </trkpt>
      <trkpt lat="34.324840935735544" lon="109.0214758502257">
        <ele>388.5449802298099</ele>
        <time>2022-04-14T23:44:53Z</time>
      </trkpt>
      <trkpt lat="34.324566436131555" lon="109.0215821632972">
        <ele>388.24762344826013</ele>
        <time>2022-04-14T23:44:59Z</time>
      </trkpt>
      <trkpt lat="34.32412696934807" lon="109.02169545741268">
        <ele>387.82096480671316</ele>
        <time>2022-04-14T23:45:09Z</time>
      </trkpt>
      <trkpt lat="34.323846185011575" lon="109.0217567127961">
        <ele>388.49868121929467</ele>
        <time>2022-04-14T23:45:15Z</time>
      </trkpt>
      <trkpt lat="34.3234841272733" lon="109.02179816957936">
        <ele>389.3760515721515</ele>
        <time>2022-04-14T23:45:23Z</time>
      </trkpt>
      <trkpt lat="34.323307083014754" lon="109.0218364056491">
        <ele>389.8827015319839</ele>
        <time>2022-04-14T23:45:27Z</time>
      </trkpt>
      <trkpt lat="34.32284278545352" lon="109.02184623850225">
        <ele>389.41622287221253</ele>
        <time>2022-04-14T23:45:37Z</time>
      </trkpt>
      <trkpt lat="34.32237879593608" lon="109.0218284806427">
        <ele>389.2119193421677</ele>
        <time>2022-04-14T23:45:47Z</time>
      </trkpt>
      <trkpt lat="34.321895004208756" lon="109.02177605112098">
        <ele>389.2351534822956</ele>
        <time>2022-04-14T23:45:57Z</time>
      </trkpt>
      <trkpt lat="34.321418456305764" lon="109.0217068228149">
        <ele>388.5805843202397</ele>
        <time>2022-04-14T23:46:07Z</time>
      </trkpt>
      <trkpt lat="34.321320442634054" lon="109.02170141894702">
        <ele>389.16784253157675</ele>
        <time>2022-04-14T23:46:09Z</time>
      </trkpt>
      <trkpt lat="34.321134503767276" lon="109.02166190369333">
        <ele>389.64215757139027</ele>
        <time>2022-04-14T23:46:13Z</time>
      </trkpt>
      <trkpt lat="34.32066482854563" lon="109.02161334081163">
        <ele>389.8963918611407</ele>
        <time>2022-04-14T23:46:23Z</time>
      </trkpt>
      <trkpt lat="34.32019103394932" lon="109.02154281208377">
        <ele>389.9745989050716</ele>
        <time>2022-04-14T23:46:33Z</time>
      </trkpt>
      <trkpt lat="34.31971982184628" lon="109.02148329046246">
        <ele>389.78221131581813</ele>
        <time>2022-04-14T23:46:43Z</time>
      </trkpt>
      <trkpt lat="34.31923349378862" lon="109.02148605390299">
        <ele>389.9942508423701</ele>
        <time>2022-04-14T23:46:53Z</time>
      </trkpt>
      <trkpt lat="34.31894083012203" lon="109.02147333573143">
        <ele>390.01896017882973</ele>
        <time>2022-04-14T23:46:59Z</time>
      </trkpt>
      <trkpt lat="34.31885401030315" lon="109.02148644177763">
        <ele>389.78057769313455</ele>
        <time>2022-04-14T23:47:01Z</time>
      </trkpt>
      <trkpt lat="34.31875142677639" lon="109.02147312130394">
        <ele>389.9413393838331</ele>
        <time>2022-04-14T23:47:03Z</time>
      </trkpt>
      <trkpt lat="34.31829634560252" lon="109.02152143862493">
        <ele>390.411323800683</ele>
        <time>2022-04-14T23:47:13Z</time>
      </trkpt>
      <trkpt lat="34.31784209894266" lon="109.02157101328028">
        <ele>390.34228047635406</ele>
        <time>2022-04-14T23:47:23Z</time>
      </trkpt>
      <trkpt lat="34.31765625521189" lon="109.02161327733054">
        <ele>391.05651224497706</ele>
        <time>2022-04-14T23:47:27Z</time>
      </trkpt>
      <trkpt lat="34.317202035028075" lon="109.02166181544813">
        <ele>390.4065357455984</ele>
        <time>2022-04-14T23:47:37Z</time>
      </trkpt>
      <trkpt lat="34.31701756403875" lon="109.02169238894543">
        <ele>390.4633665466681</ele>
        <time>2022-04-14T23:47:41Z</time>
      </trkpt>
      <trkpt lat="34.31694618919601" lon="109.02172139552478">
        <ele>390.6217887122184</ele>
        <time>2022-04-14T23:47:43Z</time>
      </trkpt>
      <trkpt lat="34.316773276819355" lon="109.0217220080199">
        <ele>390.56995062343776</ele>
        <time>2022-04-14T23:47:47Z</time>
      </trkpt>
      <trkpt lat="34.316702957601564" lon="109.0217573335659">
        <ele>390.64454765059054</ele>
        <time>2022-04-14T23:47:49Z</time>
      </trkpt>
      <trkpt lat="34.31653435177447" lon="109.02180567953774">
        <ele>390.68639532569796</ele>
        <time>2022-04-14T23:47:53Z</time>
      </trkpt>
      <trkpt lat="34.31645574855283" lon="109.02186547291575">
        <ele>391.31204856559634</ele>
        <time>2022-04-14T23:47:55Z</time>
      </trkpt>
      <trkpt lat="34.316394490011966" lon="109.02198992612075">
        <ele>390.72094331122935</ele>
        <time>2022-04-14T23:47:59Z</time>
      </trkpt>
      <trkpt lat="34.31628626846023" lon="109.02204553735903">
        <ele>391.1710964804515</ele>
        <time>2022-04-14T23:48:03Z</time>
      </trkpt>
      <trkpt lat="34.31600592618828" lon="109.02225727718103">
        <ele>390.2303200364113</ele>
        <time>2022-04-14T23:48:15Z</time>
      </trkpt>
      <trkpt lat="34.31592691878945" lon="109.02234276870723">
        <ele>390.80605833325535</ele>
        <time>2022-04-14T23:48:23Z</time>
      </trkpt>
      <trkpt lat="34.31590255631871" lon="109.022493385571">
        <ele>391.05900171305984</ele>
        <time>2022-04-14T23:48:27Z</time>
      </trkpt>
      <trkpt lat="34.31590362301496" lon="109.02258462346215">
        <ele>391.5187322497368</ele>
        <time>2022-04-14T23:48:29Z</time>
      </trkpt>
      <trkpt lat="34.31605033000908" lon="109.02317926833014">
        <ele>388.1932312641293</ele>
        <time>2022-04-14T23:48:41Z</time>
      </trkpt>
      <trkpt lat="34.3161872630543" lon="109.02358796758524">
        <ele>388.29415414854884</ele>
        <time>2022-04-14T23:48:49Z</time>
      </trkpt>
      <trkpt lat="34.31618922072171" lon="109.02367632920908">
        <ele>388.05602338258177</ele>
        <time>2022-04-14T23:48:51Z</time>
      </trkpt>
      <trkpt lat="34.31605583371184" lon="109.02387196155247">
        <ele>389.83005021791905</ele>
        <time>2022-04-14T23:48:57Z</time>
      </trkpt>
      <trkpt lat="34.315742900999844" lon="109.02405407990086">
        <ele>389.73581015784293</ele>
        <time>2022-04-14T23:49:05Z</time>
      </trkpt>
      <trkpt lat="34.31532267391891" lon="109.02435553252127">
        <ele>390.8833998152986</ele>
        <time>2022-04-14T23:49:17Z</time>
      </trkpt>
      <trkpt lat="34.31508092260057" lon="109.0245167076745">
        <ele>390.76720741018653</ele>
        <time>2022-04-14T23:49:23Z</time>
      </trkpt>
      <trkpt lat="34.314792163265174" lon="109.02473271693432">
        <ele>391.4128869455308</ele>
        <time>2022-04-14T23:49:31Z</time>
      </trkpt>
      <trkpt lat="34.31463500103873" lon="109.02482756840047">
        <ele>390.55589690990746</ele>
        <time>2022-04-14T23:49:35Z</time>
      </trkpt>
      <trkpt lat="34.3145580052016" lon="109.02498942174678">
        <ele>390.45555698126554</ele>
        <time>2022-04-14T23:49:39Z</time>
      </trkpt>
      <trkpt lat="34.31446690883927" lon="109.0250530818094">
        <ele>390.44268340524286</ele>
        <time>2022-04-14T23:49:41Z</time>
      </trkpt>
      <trkpt lat="34.3139715383804" lon="109.02528964250111">
        <ele>389.99396842811257</ele>
        <time>2022-04-14T23:49:51Z</time>
      </trkpt>
      <trkpt lat="34.31379506317244" lon="109.02539757440056">
        <ele>390.1597582520917</ele>
        <time>2022-04-14T23:49:55Z</time>
      </trkpt>
      <trkpt lat="34.31332748299494" lon="109.02560852217263">
        <ele>390.4631785005331</ele>
        <time>2022-04-14T23:50:05Z</time>
      </trkpt>
      <trkpt lat="34.31290417146402" lon="109.0258558547733">
        <ele>391.745602007024</ele>
        <time>2022-04-14T23:50:15Z</time>
      </trkpt>
      <trkpt lat="34.312604479464156" lon="109.02607187298277">
        <ele>392.5396934803575</ele>
        <time>2022-04-14T23:50:23Z</time>
      </trkpt>
      <trkpt lat="34.31254652447226" lon="109.02613705583009">
        <ele>391.9931980166584</ele>
        <time>2022-04-14T23:50:25Z</time>
      </trkpt>
      <trkpt lat="34.312609296319316" lon="109.0261878637277">
        <ele>392.8313249340281</ele>
        <time>2022-04-14T23:50:27Z</time>
      </trkpt>
      <trkpt lat="34.31260308151079" lon="109.02631715585204">
        <ele>392.7119200602174</ele>
        <time>2022-04-14T23:50:31Z</time>
      </trkpt>
      <trkpt lat="34.31215175453015" lon="109.02642317188624">
        <ele>392.65551560744643</ele>
        <time>2022-04-14T23:50:35Z</time>
      </trkpt>
      <trkpt lat="34.311909286250845" lon="109.02664324221911">
        <ele>393.06223465595394</ele>
        <time>2022-04-14T23:50:41Z</time>
      </trkpt>
      <trkpt lat="34.31178017629862" lon="109.02680690632637">
        <ele>392.90670242812485</ele>
        <time>2022-04-14T23:50:45Z</time>
      </trkpt>
      <trkpt lat="34.3116785107638" lon="109.02698183263018">
        <ele>392.3495464939624</ele>
        <time>2022-04-14T23:50:49Z</time>
      </trkpt>
      <trkpt lat="34.311646444043376" lon="109.02708042255772">
        <ele>392.6252116188407</ele>
        <time>2022-04-14T23:50:51Z</time>
      </trkpt>
      <trkpt lat="34.31162032516088" lon="109.02735741870944">
        <ele>393.2293495647609</ele>
        <time>2022-04-14T23:50:57Z</time>
      </trkpt>
      <trkpt lat="34.3115860089733" lon="109.02746446586664">
        <ele>392.84861927106977</ele>
        <time>2022-04-14T23:50:59Z</time>
      </trkpt>
      <trkpt lat="34.31151029311412" lon="109.02800271064987">
        <ele>392.4445570940152</ele>
        <time>2022-04-14T23:51:09Z</time>
      </trkpt>
      <trkpt lat="34.3115054164741" lon="109.02811635196512">
        <ele>392.5403267564252</ele>
        <time>2022-04-14T23:51:11Z</time>
      </trkpt>
      <trkpt lat="34.311471945014006" lon="109.02821823183683">
        <ele>392.16739090532064</ele>
        <time>2022-04-14T23:51:13Z</time>
      </trkpt>
      <trkpt lat="34.311478364732345" lon="109.02841397657072">
        <ele>392.77110996842384</ele>
        <time>2022-04-14T23:51:17Z</time>
      </trkpt>
      <trkpt lat="34.311454643098045" lon="109.02851619144037">
        <ele>393.8831252800301</ele>
        <time>2022-04-14T23:51:19Z</time>
      </trkpt>
      <trkpt lat="34.31145822927102" lon="109.02861487338242">
        <ele>394.24026676733047</ele>
        <time>2022-04-14T23:51:21Z</time>
      </trkpt>
      <trkpt lat="34.31139590443952" lon="109.02880416267448">
        <ele>394.1991786789149</ele>
        <time>2022-04-14T23:51:25Z</time>
      </trkpt>
      <trkpt lat="34.31115229326787" lon="109.02905664140643">
        <ele>393.1149000925943</ele>
        <time>2022-04-14T23:51:31Z</time>
      </trkpt>
      <trkpt lat="34.310976839476965" lon="109.0292014041302">
        <ele>392.53921541944146</ele>
        <time>2022-04-14T23:51:35Z</time>
      </trkpt>
      <trkpt lat="34.310823652405816" lon="109.02935030868301">
        <ele>392.823382996954</ele>
        <time>2022-04-14T23:51:39Z</time>
      </trkpt>
      <trkpt lat="34.31038620610372" lon="109.02969469650368">
        <ele>392.8107942696661</ele>
        <time>2022-04-14T23:51:49Z</time>
      </trkpt>
      <trkpt lat="34.310207378904444" lon="109.02981927288893">
        <ele>391.8204002454877</ele>
        <time>2022-04-14T23:51:53Z</time>
      </trkpt>
      <trkpt lat="34.30998791000367" lon="109.03000748129178">
        <ele>392.6802983833477</ele>
        <time>2022-04-14T23:51:59Z</time>
      </trkpt>
      <trkpt lat="34.30969033240486" lon="109.03021471632032">
        <ele>393.29850579611957</ele>
        <time>2022-04-14T23:52:07Z</time>
      </trkpt>
      <trkpt lat="34.30922154150201" lon="109.03041749347966">
        <ele>393.63945534452796</ele>
        <time>2022-04-14T23:52:17Z</time>
      </trkpt>
      <trkpt lat="34.308721289555066" lon="109.03056399202912">
        <ele>393.2821415429935</ele>
        <time>2022-04-14T23:52:27Z</time>
      </trkpt>
      <trkpt lat="34.30821651247377" lon="109.03065141657927">
        <ele>394.2834891192615</ele>
        <time>2022-04-14T23:52:37Z</time>
      </trkpt>
      <trkpt lat="34.307735176924695" lon="109.03070411383763">
        <ele>393.77970853820443</ele>
        <time>2022-04-14T23:52:47Z</time>
      </trkpt>
      <trkpt lat="34.30722869770033" lon="109.03074714247242">
        <ele>393.1440837616101</ele>
        <time>2022-04-14T23:52:57Z</time>
      </trkpt>
      <trkpt lat="34.306955099738765" lon="109.03079131469929">
        <ele>392.3521374873817</ele>
        <time>2022-04-14T23:53:03Z</time>
      </trkpt>
      <trkpt lat="34.30674641046014" lon="109.03078873131817">
        <ele>391.5804721582681</ele>
        <time>2022-04-14T23:53:07Z</time>
      </trkpt>
      <trkpt lat="34.30644813787664" lon="109.03083683976779">
        <ele>391.5418055392802</ele>
        <time>2022-04-14T23:53:13Z</time>
      </trkpt>
      <trkpt lat="34.306361432089794" lon="109.03086919050564">
        <ele>391.0093855652958</ele>
        <time>2022-04-14T23:53:15Z</time>
      </trkpt>
      <trkpt lat="34.30627300565832" lon="109.03097967258034">
        <ele>390.9126321831718</ele>
        <time>2022-04-14T23:53:19Z</time>
      </trkpt>
      <trkpt lat="34.30626028453283" lon="109.03112451598356">
        <ele>391.5266451658681</ele>
        <time>2022-04-14T23:53:23Z</time>
      </trkpt>
      <trkpt lat="34.30629074085312" lon="109.03121909967608">
        <ele>391.1968742040917</ele>
        <time>2022-04-14T23:53:25Z</time>
      </trkpt>
      <trkpt lat="34.30629392999321" lon="109.0314489302707">
        <ele>391.4063498135656</ele>
        <time>2022-04-14T23:53:29Z</time>
      </trkpt>
      <trkpt lat="34.306330053401304" lon="109.03196987839452">
        <ele>391.3033825419843</ele>
        <time>2022-04-14T23:53:39Z</time>
      </trkpt>
      <trkpt lat="34.30635490051616" lon="109.03254200577862">
        <ele>392.2882673954591</ele>
        <time>2022-04-14T23:53:49Z</time>
      </trkpt>
      <trkpt lat="34.30635960399551" lon="109.03278984790508">
        <ele>392.068182005547</ele>
        <time>2022-04-14T23:53:53Z</time>
      </trkpt>
      <trkpt lat="34.30644241608815" lon="109.03336326147328">
        <ele>392.0440202159807</ele>
        <time>2022-04-14T23:54:03Z</time>
      </trkpt>
      <trkpt lat="34.30647566622147" lon="109.03391056202582">
        <ele>391.3717361539602</ele>
        <time>2022-04-14T23:54:13Z</time>
      </trkpt>
      <trkpt lat="34.30650524238233" lon="109.03447033993066">
        <ele>391.67270438652486</ele>
        <time>2022-04-14T23:54:23Z</time>
      </trkpt>
      <trkpt lat="34.306522771917784" lon="109.034703252004">
        <ele>392.26958214957267</ele>
        <time>2022-04-14T23:54:27Z</time>
      </trkpt>
      <trkpt lat="34.30651258897443" lon="109.03480662610882">
        <ele>392.4822248322889</ele>
        <time>2022-04-14T23:54:29Z</time>
      </trkpt>
      <trkpt lat="34.30656555073356" lon="109.03540200601147">
        <ele>392.2624490587041</ele>
        <time>2022-04-14T23:54:39Z</time>
      </trkpt>
      <trkpt lat="34.30658000369619" lon="109.03581965018259">
        <ele>391.63823172077537</ele>
        <time>2022-04-14T23:54:47Z</time>
      </trkpt>
      <trkpt lat="34.30653747363611" lon="109.03591354636208">
        <ele>392.0188381522894</ele>
        <time>2022-04-14T23:55:01Z</time>
      </trkpt>
      <trkpt lat="34.306542192435124" lon="109.03599944217214">
        <ele>392.246791546233</ele>
        <time>2022-04-14T23:55:06Z</time>
      </trkpt>
      <trkpt lat="34.30654700967256" lon="109.03637731156883">
        <ele>391.8657132582739</ele>
        <time>2022-04-14T23:55:30Z</time>
      </trkpt>
      <trkpt lat="34.30656404144922" lon="109.03647200804569">
        <ele>392.2134256148711</ele>
        <time>2022-04-14T23:55:36Z</time>
      </trkpt>
      <trkpt lat="34.30653571454126" lon="109.03658264818819">
        <ele>391.65448861569166</ele>
        <time>2022-04-14T23:55:42Z</time>
      </trkpt>
      <trkpt lat="34.306555826030156" lon="109.03668512578572">
        <ele>391.66845907457173</ele>
        <time>2022-04-14T23:55:48Z</time>
      </trkpt>
      <trkpt lat="34.30654614114905" lon="109.03690921208289">
        <ele>391.8553515272215</ele>
        <time>2022-04-14T23:56:04Z</time>
      </trkpt>
      <trkpt lat="34.30640822254265" lon="109.03713079714197">
        <ele>391.4561143955216</ele>
        <time>2022-04-14T23:56:30Z</time>
      </trkpt>
      <trkpt lat="34.30640935908372" lon="109.03718911151202">
        <ele>392.08121776767075</ele>
        <time>2022-04-14T23:56:41Z</time>
      </trkpt>
    </trkseg>
  </trk>
</gpx>