<?xml version="1.0" encoding="UTF-8"?>
<gpx xmlns="http://www.topografix.com/GPX/1/1" xmlns:gpxtpx="http://www.garmin.com/xmlschemas/TrackPointExtension/v1" xmlns:xsi="http://www.w3.org/2001/XMLSchema-instance" xsi:schemaLocation="http://www.topografix.com/GPX/1/1 http://www.topografix.com/GPX/1/1/gpx.xsd" version="1.1" creator="gpx.py -- https://github.com/tkrajina/gpxpy">
  <trk>
    <name>gpx from keep</name>
    <type>Ride</type>
    <trkseg>
      <trkpt lat="34.32834255384591" lon="108.98033037134682">
        <ele>480.07501220703125</ele>
        <time>2022-04-30T03:11:05Z</time>
      </trkpt>
      <trkpt lat="34.32839510247646" lon="108.9804038179652">
        <ele>480.07501220703125</ele>
        <time>2022-04-30T03:11:48Z</time>
      </trkpt>
      <trkpt lat="34.328274536089694" lon="108.98050282906465">
        <ele>464.6220703125</ele>
        <time>2022-04-30T03:12:00Z</time>
      </trkpt>
      <trkpt lat="34.32837468659099" lon="108.98063005768985">
        <ele>458.31683349609375</ele>
        <time>2022-04-30T03:12:22Z</time>
      </trkpt>
      <trkpt lat="34.32829529863906" lon="108.98062892270524">
        <ele>451.8181457519531</ele>
        <time>2022-04-30T03:12:26Z</time>
      </trkpt>
      <trkpt lat="34.32824469377177" lon="108.98044900480993">
        <ele>395.6728210449219</ele>
        <time>2022-04-30T03:13:03Z</time>
      </trkpt>
      <trkpt lat="34.32834739828823" lon="108.98041611130851">
        <ele>393.0819091796875</ele>
        <time>2022-04-30T03:13:09Z</time>
      </trkpt>
      <trkpt lat="34.32861821131315" lon="108.98051213873966">
        <ele>392.9082336425781</ele>
        <time>2022-04-30T03:13:15Z</time>
      </trkpt>
      <trkpt lat="34.32876325874624" lon="108.98050770788457">
        <ele>392.89593505859375</ele>
        <time>2022-04-30T03:13:21Z</time>
      </trkpt>
      <trkpt lat="34.328708616067644" lon="108.98057315038847">
        <ele>392.89508056640625</ele>
        <time>2022-04-30T03:13:27Z</time>
      </trkpt>
      <trkpt lat="34.32864711183732" lon="108.98071469840008">
        <ele>395.796122100359</ele>
        <time>2022-04-30T03:13:35Z</time>
      </trkpt>
      <trkpt lat="34.32856741159259" lon="108.98077886451459">
        <ele>395.624787204614</ele>
        <time>2022-04-30T03:13:37Z</time>
      </trkpt>
      <trkpt lat="34.32815424011804" lon="108.98077513367122">
        <ele>394.74470181111246</ele>
        <time>2022-04-30T03:13:50Z</time>
      </trkpt>
      <trkpt lat="34.32808620836847" lon="108.98073079663386">
        <ele>394.6993927434087</ele>
        <time>2022-04-30T03:13:53Z</time>
      </trkpt>
      <trkpt lat="34.32807743617579" lon="108.98063053872671">
        <ele>394.7515936708078</ele>
        <time>2022-04-30T03:13:56Z</time>
      </trkpt>
      <trkpt lat="34.32811759723604" lon="108.9804750151165">
        <ele>395.3803840400651</ele>
        <time>2022-04-30T03:13:59Z</time>
      </trkpt>
      <trkpt lat="34.32816844485883" lon="108.98038315476003">
        <ele>395.6842543743551</ele>
        <time>2022-04-30T03:14:00Z</time>
      </trkpt>
      <trkpt lat="34.328184390217785" lon="108.98025105534589">
        <ele>397.1056824726984</ele>
        <time>2022-04-30T03:14:02Z</time>
      </trkpt>
      <trkpt lat="34.328157302911755" lon="108.98014755568656">
        <ele>394.9885369781405</ele>
        <time>2022-04-30T03:14:03Z</time>
      </trkpt>
      <trkpt lat="34.328045928849306" lon="108.98005486716654">
        <ele>394.33255868870765</ele>
        <time>2022-04-30T03:14:04Z</time>
      </trkpt>
      <trkpt lat="34.32816270795076" lon="108.97997221296818">
        <ele>395.44946584198624</ele>
        <time>2022-04-30T03:14:05Z</time>
      </trkpt>
      <trkpt lat="34.32813699631481" lon="108.97983534680358">
        <ele>395.5711606796831</ele>
        <time>2022-04-30T03:14:07Z</time>
      </trkpt>
      <trkpt lat="34.328175176183514" lon="108.97971235552106">
        <ele>396.0901311263442</ele>
        <time>2022-04-30T03:14:17Z</time>
      </trkpt>
      <trkpt lat="34.32817828634849" lon="108.9794113316728">
        <ele>396.31605486012995</ele>
        <time>2022-04-30T03:15:29Z</time>
      </trkpt>
      <trkpt lat="34.32812609389517" lon="108.97898570249171">
        <ele>395.46029453445226</ele>
        <time>2022-04-30T03:15:38Z</time>
      </trkpt>
      <trkpt lat="34.328160594643975" lon="108.97841973089295">
        <ele>395.4368682941422</ele>
        <time>2022-04-30T03:15:48Z</time>
      </trkpt>
      <trkpt lat="34.32813429893404" lon="108.97782364829573">
        <ele>396.09812202118337</ele>
        <time>2022-04-30T03:15:58Z</time>
      </trkpt>
      <trkpt lat="34.32809475300782" lon="108.9777476716954">
        <ele>397.1434615282342</ele>
        <time>2022-04-30T03:16:00Z</time>
      </trkpt>
      <trkpt lat="34.32809428907376" lon="108.97717705220839">
        <ele>395.39968717005104</ele>
        <time>2022-04-30T03:16:08Z</time>
      </trkpt>
      <trkpt lat="34.32812639125109" lon="108.97701642690323">
        <ele>395.35228328220546</ele>
        <time>2022-04-30T03:16:10Z</time>
      </trkpt>
      <trkpt lat="34.32813969841414" lon="108.9764116409307">
        <ele>394.8091663112864</ele>
        <time>2022-04-30T03:16:18Z</time>
      </trkpt>
      <trkpt lat="34.32811710856893" lon="108.97627822309546">
        <ele>396.7649871101603</ele>
        <time>2022-04-30T03:16:20Z</time>
      </trkpt>
      <trkpt lat="34.32810206466556" lon="108.97602852822904">
        <ele>396.34057153295726</ele>
        <time>2022-04-30T03:16:24Z</time>
      </trkpt>
      <trkpt lat="34.32806819386124" lon="108.97577486029044">
        <ele>396.1763318600133</ele>
        <time>2022-04-30T03:16:28Z</time>
      </trkpt>
      <trkpt lat="34.32806497690747" lon="108.97522616130199">
        <ele>397.22815009765327</ele>
        <time>2022-04-30T03:16:36Z</time>
      </trkpt>
      <trkpt lat="34.32807788389747" lon="108.97492844825182">
        <ele>396.59179698862135</ele>
        <time>2022-04-30T03:16:40Z</time>
      </trkpt>
      <trkpt lat="34.32804737788789" lon="108.97459405817294">
        <ele>395.6447353689</ele>
        <time>2022-04-30T03:16:44Z</time>
      </trkpt>
      <trkpt lat="34.32806357316902" lon="108.97406933339771">
        <ele>397.877041047439</ele>
        <time>2022-04-30T03:16:51Z</time>
      </trkpt>
      <trkpt lat="34.32796040896827" lon="108.97366930442267">
        <ele>398.3320887759328</ele>
        <time>2022-04-30T03:16:56Z</time>
      </trkpt>
      <trkpt lat="34.32798411138475" lon="108.97342171208173">
        <ele>396.97547447215766</ele>
        <time>2022-04-30T03:16:59Z</time>
      </trkpt>
      <trkpt lat="34.32795750856621" lon="108.97281591128774">
        <ele>398.5004664417356</ele>
        <time>2022-04-30T03:17:07Z</time>
      </trkpt>
      <trkpt lat="34.32795855799209" lon="108.972453376283">
        <ele>397.3881309479475</ele>
        <time>2022-04-30T03:17:11Z</time>
      </trkpt>
      <trkpt lat="34.328009010914286" lon="108.97229724494554">
        <ele>397.291869812645</ele>
        <time>2022-04-30T03:17:13Z</time>
      </trkpt>
      <trkpt lat="34.328065105478665" lon="108.97223647834157">
        <ele>397.12386942096055</ele>
        <time>2022-04-30T03:17:14Z</time>
      </trkpt>
      <trkpt lat="34.328041921253295" lon="108.97199499877802">
        <ele>397.0242261271924</ele>
        <time>2022-04-30T03:17:17Z</time>
      </trkpt>
      <trkpt lat="34.3280487134307" lon="108.97185109502125">
        <ele>396.88247361406684</ele>
        <time>2022-04-30T03:17:19Z</time>
      </trkpt>
      <trkpt lat="34.32807238271152" lon="108.9717410378195">
        <ele>396.48116632550955</ele>
        <time>2022-04-30T03:17:21Z</time>
      </trkpt>
      <trkpt lat="34.32811313135699" lon="108.97166594064147">
        <ele>397.0204051891342</ele>
        <time>2022-04-30T03:17:29Z</time>
      </trkpt>
      <trkpt lat="34.32810476877272" lon="108.97152246373207">
        <ele>396.3011690750718</ele>
        <time>2022-04-30T03:17:34Z</time>
      </trkpt>
      <trkpt lat="34.32805682329485" lon="108.9710877272835">
        <ele>395.08418892137706</ele>
        <time>2022-04-30T03:17:40Z</time>
      </trkpt>
      <trkpt lat="34.328073873993674" lon="108.97094049635474">
        <ele>395.2337476173416</ele>
        <time>2022-04-30T03:17:42Z</time>
      </trkpt>
      <trkpt lat="34.3280463375636" lon="108.97035507680005">
        <ele>397.2413809383288</ele>
        <time>2022-04-30T03:17:50Z</time>
      </trkpt>
      <trkpt lat="34.32804387480411" lon="108.97007253986824">
        <ele>397.1250315262005</ele>
        <time>2022-04-30T03:17:54Z</time>
      </trkpt>
      <trkpt lat="34.32806855108198" lon="108.9699557191658">
        <ele>396.83779666759074</ele>
        <time>2022-04-30T03:17:56Z</time>
      </trkpt>
      <trkpt lat="34.32806633910915" lon="108.9698263478298">
        <ele>397.27955351863056</ele>
        <time>2022-04-30T03:17:58Z</time>
      </trkpt>
      <trkpt lat="34.32796600202095" lon="108.96940662499013">
        <ele>397.2006780980155</ele>
        <time>2022-04-30T03:18:04Z</time>
      </trkpt>
      <trkpt lat="34.327896334467766" lon="108.9691639977358">
        <ele>397.2743204962462</ele>
        <time>2022-04-30T03:18:08Z</time>
      </trkpt>
      <trkpt lat="34.32787817478353" lon="108.96904482102143">
        <ele>397.37701536808163</ele>
        <time>2022-04-30T03:18:10Z</time>
      </trkpt>
      <trkpt lat="34.32779361933992" lon="108.96876184541676">
        <ele>398.2930093165487</ele>
        <time>2022-04-30T03:18:14Z</time>
      </trkpt>
      <trkpt lat="34.32777044795441" lon="108.96849294833541">
        <ele>397.82549308240414</ele>
        <time>2022-04-30T03:18:18Z</time>
      </trkpt>
      <trkpt lat="34.327707854320344" lon="108.96816931398543">
        <ele>397.03845958970487</ele>
        <time>2022-04-30T03:18:22Z</time>
      </trkpt>
      <trkpt lat="34.327626807289434" lon="108.96784466297879">
        <ele>397.59184645023197</ele>
        <time>2022-04-30T03:18:26Z</time>
      </trkpt>
      <trkpt lat="34.32758067232237" lon="108.96748122588134">
        <ele>397.4150746827945</ele>
        <time>2022-04-30T03:18:32Z</time>
      </trkpt>
      <trkpt lat="34.32758249852798" lon="108.96729479841153">
        <ele>398.322098499164</ele>
        <time>2022-04-30T03:18:38Z</time>
      </trkpt>
      <trkpt lat="34.32769694883329" lon="108.9672355901503">
        <ele>398.9846072047949</ele>
        <time>2022-04-30T03:18:44Z</time>
      </trkpt>
      <trkpt lat="34.32778289155548" lon="108.9671432502041">
        <ele>397.46656632982194</ele>
        <time>2022-04-30T03:18:58Z</time>
      </trkpt>
      <trkpt lat="34.32807797721897" lon="108.96664340444549">
        <ele>396.0435904832557</ele>
        <time>2022-04-30T03:19:53Z</time>
      </trkpt>
      <trkpt lat="34.32805860860847" lon="108.96639727486269">
        <ele>396.67017718963325</ele>
        <time>2022-04-30T03:19:57Z</time>
      </trkpt>
      <trkpt lat="34.32807723294582" lon="108.96584679057622">
        <ele>396.8725474886596</ele>
        <time>2022-04-30T03:20:05Z</time>
      </trkpt>
      <trkpt lat="34.328022252905" lon="108.96548003488884">
        <ele>394.4744800897315</ele>
        <time>2022-04-30T03:20:11Z</time>
      </trkpt>
      <trkpt lat="34.32796808356247" lon="108.96531259341386">
        <ele>394.7822043383494</ele>
        <time>2022-04-30T03:20:15Z</time>
      </trkpt>
      <trkpt lat="34.32795041919801" lon="108.96501615593073">
        <ele>395.1766026476398</ele>
        <time>2022-04-30T03:20:19Z</time>
      </trkpt>
      <trkpt lat="34.32791293210543" lon="108.96474504995741">
        <ele>395.5298941992223</ele>
        <time>2022-04-30T03:20:23Z</time>
      </trkpt>
      <trkpt lat="34.32792708607398" lon="108.9643079765503">
        <ele>396.8604768719524</ele>
        <time>2022-04-30T03:20:29Z</time>
      </trkpt>
      <trkpt lat="34.32789776225276" lon="108.964014801637">
        <ele>396.1081819823012</ele>
        <time>2022-04-30T03:20:33Z</time>
      </trkpt>
      <trkpt lat="34.3279350330015" lon="108.96365395115598">
        <ele>396.09546834323555</ele>
        <time>2022-04-30T03:20:37Z</time>
      </trkpt>
      <trkpt lat="34.32794332367132" lon="108.96316255904502">
        <ele>397.58446892444044</ele>
        <time>2022-04-30T03:20:43Z</time>
      </trkpt>
      <trkpt lat="34.32796484744964" lon="108.9628326140368">
        <ele>397.63576262816787</ele>
        <time>2022-04-30T03:20:47Z</time>
      </trkpt>
      <trkpt lat="34.32796171525118" lon="108.9626615411904">
        <ele>397.64584703184664</ele>
        <time>2022-04-30T03:20:49Z</time>
      </trkpt>
      <trkpt lat="34.32802178866719" lon="108.96218616776666">
        <ele>396.6951221860945</ele>
        <time>2022-04-30T03:20:55Z</time>
      </trkpt>
      <trkpt lat="34.32804218180431" lon="108.96152939014378">
        <ele>395.54371793568134</ele>
        <time>2022-04-30T03:21:03Z</time>
      </trkpt>
      <trkpt lat="34.32802878731892" lon="108.9609952652646">
        <ele>394.6771287638694</ele>
        <time>2022-04-30T03:21:13Z</time>
      </trkpt>
      <trkpt lat="34.32802360132931" lon="108.96046294548007">
        <ele>394.99319594260305</ele>
        <time>2022-04-30T03:21:25Z</time>
      </trkpt>
      <trkpt lat="34.32805122029365" lon="108.96019307416807">
        <ele>394.81018986646086</ele>
        <time>2022-04-30T03:21:29Z</time>
      </trkpt>
      <trkpt lat="34.32804257558289" lon="108.95980546803054">
        <ele>393.8551467359066</ele>
        <time>2022-04-30T03:21:35Z</time>
      </trkpt>
      <trkpt lat="34.3280015478947" lon="108.95966108241215">
        <ele>393.71767324302346</ele>
        <time>2022-04-30T03:21:37Z</time>
      </trkpt>
      <trkpt lat="34.3279647415725" lon="108.95907882048789">
        <ele>394.8598773702979</ele>
        <time>2022-04-30T03:21:45Z</time>
      </trkpt>
      <trkpt lat="34.32793407962266" lon="108.95840696919473">
        <ele>396.3217481765896</ele>
        <time>2022-04-30T03:21:53Z</time>
      </trkpt>
      <trkpt lat="34.32792128494169" lon="108.95830760273796">
        <ele>396.6795078245923</ele>
        <time>2022-04-30T03:21:54Z</time>
      </trkpt>
      <trkpt lat="34.327927644801136" lon="108.95815868055594">
        <ele>396.4904923001304</ele>
        <time>2022-04-30T03:21:56Z</time>
      </trkpt>
      <trkpt lat="34.32790757321153" lon="108.95801725193832">
        <ele>395.98005931731313</ele>
        <time>2022-04-30T03:21:58Z</time>
      </trkpt>
      <trkpt lat="34.327968676217694" lon="108.95747800048892">
        <ele>395.78027274739</ele>
        <time>2022-04-30T03:22:06Z</time>
      </trkpt>
      <trkpt lat="34.328020626487906" lon="108.95702067252265">
        <ele>393.8390442626551</ele>
        <time>2022-04-30T03:22:12Z</time>
      </trkpt>
      <trkpt lat="34.32801855269979" lon="108.95687263459519">
        <ele>395.2873598719016</ele>
        <time>2022-04-30T03:22:14Z</time>
      </trkpt>
      <trkpt lat="34.32803595130304" lon="108.95671170507849">
        <ele>393.1337744947523</ele>
        <time>2022-04-30T03:22:16Z</time>
      </trkpt>
      <trkpt lat="34.32804064162918" lon="108.95613384665933">
        <ele>391.9841375108808</ele>
        <time>2022-04-30T03:22:24Z</time>
      </trkpt>
      <trkpt lat="34.32805879006958" lon="108.95593286780519">
        <ele>391.5680640731007</ele>
        <time>2022-04-30T03:22:30Z</time>
      </trkpt>
      <trkpt lat="34.32810344234598" lon="108.95588933737581">
        <ele>391.97558005992323</ele>
        <time>2022-04-30T03:22:46Z</time>
      </trkpt>
      <trkpt lat="34.32808891416261" lon="108.95552153275999">
        <ele>392.0805904213339</ele>
        <time>2022-04-30T03:24:03Z</time>
      </trkpt>
      <trkpt lat="34.32803835049124" lon="108.95494785856178">
        <ele>391.041287898086</ele>
        <time>2022-04-30T03:24:12Z</time>
      </trkpt>
      <trkpt lat="34.32802252591157" lon="108.95470160059115">
        <ele>389.41899250634015</ele>
        <time>2022-04-30T03:24:16Z</time>
      </trkpt>
      <trkpt lat="34.32806240270042" lon="108.95454479560999">
        <ele>389.5291666723788</ele>
        <time>2022-04-30T03:24:20Z</time>
      </trkpt>
      <trkpt lat="34.32793094283099" lon="108.95413292525352">
        <ele>388.41844428516924</ele>
        <time>2022-04-30T03:24:26Z</time>
      </trkpt>
      <trkpt lat="34.32787729598748" lon="108.95405523013659">
        <ele>387.57772020064294</ele>
        <time>2022-04-30T03:24:28Z</time>
      </trkpt>
      <trkpt lat="34.32788696140622" lon="108.95362238155465">
        <ele>387.9594423417002</ele>
        <time>2022-04-30T03:24:38Z</time>
      </trkpt>
      <trkpt lat="34.327906601436" lon="108.95348971929091">
        <ele>388.2615998350084</ele>
        <time>2022-04-30T03:24:40Z</time>
      </trkpt>
      <trkpt lat="34.327956155427245" lon="108.95338579542998">
        <ele>389.08386392798275</ele>
        <time>2022-04-30T03:24:42Z</time>
      </trkpt>
      <trkpt lat="34.327978671959656" lon="108.95326908875737">
        <ele>387.531188653782</ele>
        <time>2022-04-30T03:24:44Z</time>
      </trkpt>
      <trkpt lat="34.32798290132225" lon="108.95314280871354">
        <ele>389.5193011527881</ele>
        <time>2022-04-30T03:24:46Z</time>
      </trkpt>
      <trkpt lat="34.327923703371766" lon="108.95297745316752">
        <ele>387.8220055196434</ele>
        <time>2022-04-30T03:24:48Z</time>
      </trkpt>
      <trkpt lat="34.32785431361555" lon="108.95264987216434">
        <ele>387.3170932997018</ele>
        <time>2022-04-30T03:24:52Z</time>
      </trkpt>
      <trkpt lat="34.32790017789295" lon="108.95201122002067">
        <ele>390.63205544743687</ele>
        <time>2022-04-30T03:25:00Z</time>
      </trkpt>
      <trkpt lat="34.32793283588952" lon="108.9516583997593">
        <ele>390.76018347684294</ele>
        <time>2022-04-30T03:25:04Z</time>
      </trkpt>
      <trkpt lat="34.327916594934706" lon="108.95120415770222">
        <ele>391.7549693156034</ele>
        <time>2022-04-30T03:25:10Z</time>
      </trkpt>
      <trkpt lat="34.32789675942904" lon="108.95104992857375">
        <ele>393.0876080831513</ele>
        <time>2022-04-30T03:25:12Z</time>
      </trkpt>
      <trkpt lat="34.327903390749135" lon="108.95088620277897">
        <ele>393.1298086717725</ele>
        <time>2022-04-30T03:25:14Z</time>
      </trkpt>
      <trkpt lat="34.327936085007565" lon="108.95071279891292">
        <ele>393.0656955912709</ele>
        <time>2022-04-30T03:25:16Z</time>
      </trkpt>
      <trkpt lat="34.32793807732604" lon="108.95008426201431">
        <ele>393.86138114798814</ele>
        <time>2022-04-30T03:25:24Z</time>
      </trkpt>
      <trkpt lat="34.32793533139942" lon="108.94979069489644">
        <ele>393.0010739322752</ele>
        <time>2022-04-30T03:25:28Z</time>
      </trkpt>
      <trkpt lat="34.32788738757794" lon="108.94950069330363">
        <ele>393.1206899229437</ele>
        <time>2022-04-30T03:25:34Z</time>
      </trkpt>
      <trkpt lat="34.32794036768906" lon="108.9492279184513">
        <ele>392.6483901599422</ele>
        <time>2022-04-30T03:25:38Z</time>
      </trkpt>
      <trkpt lat="34.3279212519595" lon="108.94866255043407">
        <ele>392.6204045722261</ele>
        <time>2022-04-30T03:25:46Z</time>
      </trkpt>
      <trkpt lat="34.32791327541699" lon="108.9481994329229">
        <ele>392.7237798376009</ele>
        <time>2022-04-30T03:25:52Z</time>
      </trkpt>
      <trkpt lat="34.32784027349397" lon="108.94757914407232">
        <ele>393.8729475494474</ele>
        <time>2022-04-30T03:26:00Z</time>
      </trkpt>
      <trkpt lat="34.32787060611319" lon="108.94742463146332">
        <ele>392.7084032986313</ele>
        <time>2022-04-30T03:26:02Z</time>
      </trkpt>
      <trkpt lat="34.32787041380794" lon="108.9472855830543">
        <ele>393.56633168738335</ele>
        <time>2022-04-30T03:26:04Z</time>
      </trkpt>
      <trkpt lat="34.327835893457596" lon="108.94700803535635">
        <ele>393.51998008415103</ele>
        <time>2022-04-30T03:26:08Z</time>
      </trkpt>
      <trkpt lat="34.3278707418366" lon="108.94670248096035">
        <ele>394.21350900270045</ele>
        <time>2022-04-30T03:26:12Z</time>
      </trkpt>
      <trkpt lat="34.32786736579796" lon="108.94640165405201">
        <ele>393.90573733486235</ele>
        <time>2022-04-30T03:26:16Z</time>
      </trkpt>
      <trkpt lat="34.32782294222184" lon="108.94611919237474">
        <ele>394.0720177432522</ele>
        <time>2022-04-30T03:26:20Z</time>
      </trkpt>
      <trkpt lat="34.32782396913423" lon="108.94596506603935">
        <ele>395.0502159036696</ele>
        <time>2022-04-30T03:26:22Z</time>
      </trkpt>
      <trkpt lat="34.32786392414591" lon="108.94571071751736">
        <ele>395.3491897145286</ele>
        <time>2022-04-30T03:26:26Z</time>
      </trkpt>
      <trkpt lat="34.32786863077686" lon="108.94554370913912">
        <ele>394.44000768568367</ele>
        <time>2022-04-30T03:26:28Z</time>
      </trkpt>
      <trkpt lat="34.32790984908956" lon="108.94518636821658">
        <ele>394.6017558882013</ele>
        <time>2022-04-30T03:26:32Z</time>
      </trkpt>
      <trkpt lat="34.32788391905482" lon="108.94485827944024">
        <ele>393.3104440141469</ele>
        <time>2022-04-30T03:26:36Z</time>
      </trkpt>
      <trkpt lat="34.32791650654742" lon="108.9444487656138">
        <ele>393.05716351326555</ele>
        <time>2022-04-30T03:26:42Z</time>
      </trkpt>
      <trkpt lat="34.32791258613563" lon="108.94430409813303">
        <ele>392.5120550664142</ele>
        <time>2022-04-30T03:26:44Z</time>
      </trkpt>
      <trkpt lat="34.32803492915458" lon="108.94361073086355">
        <ele>391.93870683107525</ele>
        <time>2022-04-30T03:26:52Z</time>
      </trkpt>
      <trkpt lat="34.328070784409945" lon="108.94345353883607">
        <ele>390.9641411136836</ele>
        <time>2022-04-30T03:26:54Z</time>
      </trkpt>
      <trkpt lat="34.32808558498744" lon="108.94329715830503">
        <ele>392.9284509504214</ele>
        <time>2022-04-30T03:26:56Z</time>
      </trkpt>
      <trkpt lat="34.32804808476133" lon="108.94303925531311">
        <ele>391.7289175866172</ele>
        <time>2022-04-30T03:27:00Z</time>
      </trkpt>
      <trkpt lat="34.32801489568376" lon="108.94292839827278">
        <ele>391.89866793807596</ele>
        <time>2022-04-30T03:27:04Z</time>
      </trkpt>
      <trkpt lat="34.32808495090265" lon="108.94280717860829">
        <ele>392.04553056601435</ele>
        <time>2022-04-30T03:27:16Z</time>
      </trkpt>
      <trkpt lat="34.32813408343036" lon="108.94252208110564">
        <ele>392.01786338258535</ele>
        <time>2022-04-30T03:28:57Z</time>
      </trkpt>
      <trkpt lat="34.3280708129588" lon="108.94190347857759">
        <ele>390.91179775912315</ele>
        <time>2022-04-30T03:29:05Z</time>
      </trkpt>
      <trkpt lat="34.328052192844325" lon="108.94148831563182">
        <ele>391.2947415737435</ele>
        <time>2022-04-30T03:29:09Z</time>
      </trkpt>
      <trkpt lat="34.328065838452275" lon="108.94128405082745">
        <ele>392.5338448975235</ele>
        <time>2022-04-30T03:29:11Z</time>
      </trkpt>
      <trkpt lat="34.328046640561915" lon="108.94110948362709">
        <ele>390.82473434787244</ele>
        <time>2022-04-30T03:29:13Z</time>
      </trkpt>
      <trkpt lat="34.327994101328564" lon="108.94101678551753">
        <ele>391.47845519613475</ele>
        <time>2022-04-30T03:29:15Z</time>
      </trkpt>
      <trkpt lat="34.327989518839104" lon="108.9408712983341">
        <ele>392.30167240835726</ele>
        <time>2022-04-30T03:29:17Z</time>
      </trkpt>
      <trkpt lat="34.32802278377517" lon="108.94070339916999">
        <ele>391.06766668614</ele>
        <time>2022-04-30T03:29:19Z</time>
      </trkpt>
      <trkpt lat="34.3280235986157" lon="108.9401820823294">
        <ele>392.2244989508763</ele>
        <time>2022-04-30T03:29:25Z</time>
      </trkpt>
      <trkpt lat="34.328031625882936" lon="108.93965436411732">
        <ele>391.3703007372096</ele>
        <time>2022-04-30T03:29:31Z</time>
      </trkpt>
      <trkpt lat="34.328020169045494" lon="108.93949319706712">
        <ele>391.2002653358504</ele>
        <time>2022-04-30T03:29:33Z</time>
      </trkpt>
      <trkpt lat="34.328051357982325" lon="108.93936318648171">
        <ele>393.5206789923832</ele>
        <time>2022-04-30T03:29:35Z</time>
      </trkpt>
      <trkpt lat="34.32802933945498" lon="108.93919588252483">
        <ele>396.6957627367228</ele>
        <time>2022-04-30T03:29:37Z</time>
      </trkpt>
      <trkpt lat="34.327904204348194" lon="108.93885416926629">
        <ele>395.2571831876412</ele>
        <time>2022-04-30T03:29:41Z</time>
      </trkpt>
      <trkpt lat="34.32796428824964" lon="108.93874446952877">
        <ele>394.30426902044564</ele>
        <time>2022-04-30T03:29:45Z</time>
      </trkpt>
      <trkpt lat="34.3280058137859" lon="108.93859292736258">
        <ele>392.80128609295934</ele>
        <time>2022-04-30T03:29:47Z</time>
      </trkpt>
      <trkpt lat="34.32795881358275" lon="108.93844800528382">
        <ele>392.34017518535256</ele>
        <time>2022-04-30T03:29:49Z</time>
      </trkpt>
      <trkpt lat="34.32793788699637" lon="108.93829902398154">
        <ele>393.6452336059883</ele>
        <time>2022-04-30T03:29:51Z</time>
      </trkpt>
      <trkpt lat="34.327896164905205" lon="108.93817749867051">
        <ele>392.0321187870577</ele>
        <time>2022-04-30T03:29:53Z</time>
      </trkpt>
      <trkpt lat="34.32787927191126" lon="108.93795129623852">
        <ele>392.83104325737804</ele>
        <time>2022-04-30T03:29:57Z</time>
      </trkpt>
      <trkpt lat="34.32795154806845" lon="108.93767153638348">
        <ele>393.0749870017171</ele>
        <time>2022-04-30T03:30:01Z</time>
      </trkpt>
      <trkpt lat="34.32800513151543" lon="108.93737680035697">
        <ele>393.4938082266599</ele>
        <time>2022-04-30T03:30:05Z</time>
      </trkpt>
      <trkpt lat="34.32804718002959" lon="108.93723845944234">
        <ele>393.1809144951403</ele>
        <time>2022-04-30T03:30:07Z</time>
      </trkpt>
      <trkpt lat="34.328155927662856" lon="108.936642981414">
        <ele>393.30019264202565</ele>
        <time>2022-04-30T03:30:17Z</time>
      </trkpt>
      <trkpt lat="34.32819891665806" lon="108.93642634197576">
        <ele>392.74596286099404</ele>
        <time>2022-04-30T03:30:20Z</time>
      </trkpt>
      <trkpt lat="34.32819481018885" lon="108.9362038445081">
        <ele>393.16458607371897</ele>
        <time>2022-04-30T03:30:24Z</time>
      </trkpt>
      <trkpt lat="34.328266913883375" lon="108.93575027002619">
        <ele>391.15037664212286</ele>
        <time>2022-04-30T03:30:30Z</time>
      </trkpt>
      <trkpt lat="34.32825993043127" lon="108.93562592341881">
        <ele>391.4773205574602</ele>
        <time>2022-04-30T03:30:32Z</time>
      </trkpt>
      <trkpt lat="34.3282287815038" lon="108.93551022040486">
        <ele>392.2813811507076</ele>
        <time>2022-04-30T03:30:34Z</time>
      </trkpt>
      <trkpt lat="34.32825900307287" lon="108.93536369868838">
        <ele>391.3646400794387</ele>
        <time>2022-04-30T03:30:36Z</time>
      </trkpt>
      <trkpt lat="34.32824974051295" lon="108.93515607668209">
        <ele>391.32812314573675</ele>
        <time>2022-04-30T03:30:40Z</time>
      </trkpt>
      <trkpt lat="34.3282659318539" lon="108.93500114771129">
        <ele>392.4838209860027</ele>
        <time>2022-04-30T03:30:42Z</time>
      </trkpt>
      <trkpt lat="34.328250352341485" lon="108.93447627527688">
        <ele>392.17849966418</ele>
        <time>2022-04-30T03:30:50Z</time>
      </trkpt>
      <trkpt lat="34.32825811090612" lon="108.9343533305065">
        <ele>392.99940937012434</ele>
        <time>2022-04-30T03:30:52Z</time>
      </trkpt>
      <trkpt lat="34.32823970479094" lon="108.93417734271188">
        <ele>392.892878155224</ele>
        <time>2022-04-30T03:30:56Z</time>
      </trkpt>
      <trkpt lat="34.328271299934976" lon="108.93360904318534">
        <ele>393.402568125166</ele>
        <time>2022-04-30T03:31:06Z</time>
      </trkpt>
      <trkpt lat="34.32827980875351" lon="108.93348306420151">
        <ele>393.84662663191557</ele>
        <time>2022-04-30T03:31:08Z</time>
      </trkpt>
      <trkpt lat="34.32826830332775" lon="108.93336109304487">
        <ele>394.9057028256357</ele>
        <time>2022-04-30T03:31:10Z</time>
      </trkpt>
      <trkpt lat="34.32831821827039" lon="108.93300675957772">
        <ele>394.1156130377203</ele>
        <time>2022-04-30T03:31:16Z</time>
      </trkpt>
      <trkpt lat="34.32837536233284" lon="108.9328653172788">
        <ele>392.67944910377264</ele>
        <time>2022-04-30T03:31:27Z</time>
      </trkpt>
      <trkpt lat="34.32822157038882" lon="108.93290016579542">
        <ele>392.914015436545</ele>
        <time>2022-04-30T03:32:20Z</time>
      </trkpt>
      <trkpt lat="34.32811924648084" lon="108.93293659766779">
        <ele>392.431962559931</ele>
        <time>2022-04-30T03:32:22Z</time>
      </trkpt>
      <trkpt lat="34.32799371430777" lon="108.93290718387837">
        <ele>391.6384174982086</ele>
        <time>2022-04-30T03:32:24Z</time>
      </trkpt>
      <trkpt lat="34.32778029804928" lon="108.93296365290405">
        <ele>391.78070529550314</ele>
        <time>2022-04-30T03:32:28Z</time>
      </trkpt>
      <trkpt lat="34.32752917056175" lon="108.93298407842171">
        <ele>392.7230272702873</ele>
        <time>2022-04-30T03:32:32Z</time>
      </trkpt>
      <trkpt lat="34.32725034082066" lon="108.93293678124355">
        <ele>392.68848658539355</ele>
        <time>2022-04-30T03:32:36Z</time>
      </trkpt>
      <trkpt lat="34.32715635180981" lon="108.9329596395153">
        <ele>391.77942091971636</ele>
        <time>2022-04-30T03:32:38Z</time>
      </trkpt>
      <trkpt lat="34.32708129817281" lon="108.93294370470225">
        <ele>391.0728226341307</ele>
        <time>2022-04-30T03:32:40Z</time>
      </trkpt>
      <trkpt lat="34.326897272970825" lon="108.93298189298184">
        <ele>391.6072976673022</ele>
        <time>2022-04-30T03:32:44Z</time>
      </trkpt>
      <trkpt lat="34.32667990736033" lon="108.93298735719053">
        <ele>391.7219283664599</ele>
        <time>2022-04-30T03:32:48Z</time>
      </trkpt>
      <trkpt lat="34.32657937664588" lon="108.93296913889967">
        <ele>391.66271254606545</ele>
        <time>2022-04-30T03:32:50Z</time>
      </trkpt>
      <trkpt lat="34.326478320527826" lon="108.93297618701608">
        <ele>391.7091362820938</ele>
        <time>2022-04-30T03:32:52Z</time>
      </trkpt>
      <trkpt lat="34.32640757476994" lon="108.93300582723498">
        <ele>391.5843708664179</ele>
        <time>2022-04-30T03:32:54Z</time>
      </trkpt>
      <trkpt lat="34.32625861755745" lon="108.93302395611802">
        <ele>392.31127637065947</ele>
        <time>2022-04-30T03:32:58Z</time>
      </trkpt>
      <trkpt lat="34.326050493526736" lon="108.9329958085676">
        <ele>391.4411473274231</ele>
        <time>2022-04-30T03:33:02Z</time>
      </trkpt>
      <trkpt lat="34.325846686557554" lon="108.93300686653659">
        <ele>391.60026932135224</ele>
        <time>2022-04-30T03:33:06Z</time>
      </trkpt>
      <trkpt lat="34.325749183966494" lon="108.93298771081928">
        <ele>391.6952170925215</ele>
        <time>2022-04-30T03:33:08Z</time>
      </trkpt>
      <trkpt lat="34.325284554069725" lon="108.93304990906307">
        <ele>392.0847260719165</ele>
        <time>2022-04-30T03:33:18Z</time>
      </trkpt>
      <trkpt lat="34.32519046891393" lon="108.93309755550244">
        <ele>391.90381324198097</ele>
        <time>2022-04-30T03:33:20Z</time>
      </trkpt>
      <trkpt lat="34.32479479064908" lon="108.93314124250197">
        <ele>392.7556284433231</ele>
        <time>2022-04-30T03:33:28Z</time>
      </trkpt>
      <trkpt lat="34.32469510280158" lon="108.93312298215456">
        <ele>392.6208940735087</ele>
        <time>2022-04-30T03:33:30Z</time>
      </trkpt>
      <trkpt lat="34.324595244655704" lon="108.93313708562346">
        <ele>392.500411269255</ele>
        <time>2022-04-30T03:33:32Z</time>
      </trkpt>
      <trkpt lat="34.32455197883297" lon="108.93321753038205">
        <ele>392.4212140403688</ele>
        <time>2022-04-30T03:33:34Z</time>
      </trkpt>
      <trkpt lat="34.32449277997132" lon="108.93326757040325">
        <ele>392.4793920116499</ele>
        <time>2022-04-30T03:33:36Z</time>
      </trkpt>
      <trkpt lat="34.32437658683212" lon="108.9332780328925">
        <ele>392.08310328703374</ele>
        <time>2022-04-30T03:33:40Z</time>
      </trkpt>
      <trkpt lat="34.32424903697625" lon="108.93312209242865">
        <ele>391.84361850842834</ele>
        <time>2022-04-30T03:33:44Z</time>
      </trkpt>
      <trkpt lat="34.32414926151528" lon="108.9329467337892">
        <ele>393.0618172166869</ele>
        <time>2022-04-30T03:33:54Z</time>
      </trkpt>
      <trkpt lat="34.323828861572665" lon="108.93289081313269">
        <ele>392.51670936867595</ele>
        <time>2022-04-30T03:34:41Z</time>
      </trkpt>
      <trkpt lat="34.32366081186771" lon="108.93288942366556">
        <ele>392.07703460007906</ele>
        <time>2022-04-30T03:34:44Z</time>
      </trkpt>
      <trkpt lat="34.32354101261762" lon="108.93291916836097">
        <ele>391.7208181610331</ele>
        <time>2022-04-30T03:34:46Z</time>
      </trkpt>
      <trkpt lat="34.323138190443544" lon="108.9329260720749">
        <ele>391.83753479924053</ele>
        <time>2022-04-30T03:34:52Z</time>
      </trkpt>
      <trkpt lat="34.323009831745985" lon="108.9329522449361">
        <ele>392.72985394578427</ele>
        <time>2022-04-30T03:34:54Z</time>
      </trkpt>
      <trkpt lat="34.322574663422614" lon="108.93293230347368">
        <ele>392.4145946810022</ele>
        <time>2022-04-30T03:35:00Z</time>
      </trkpt>
      <trkpt lat="34.322337214874814" lon="108.93291899966401">
        <ele>392.8295967336744</ele>
        <time>2022-04-30T03:35:04Z</time>
      </trkpt>
      <trkpt lat="34.32224661576205" lon="108.93294231208277">
        <ele>393.7940653581172</ele>
        <time>2022-04-30T03:35:06Z</time>
      </trkpt>
      <trkpt lat="34.322146882513664" lon="108.93293021102345">
        <ele>392.9522870481014</ele>
        <time>2022-04-30T03:35:08Z</time>
      </trkpt>
      <trkpt lat="34.32185920097983" lon="108.93297911984897">
        <ele>393.1208780929446</ele>
        <time>2022-04-30T03:35:12Z</time>
      </trkpt>
      <trkpt lat="34.3213661159433" lon="108.93301004358668">
        <ele>393.02083344291896</ele>
        <time>2022-04-30T03:35:20Z</time>
      </trkpt>
      <trkpt lat="34.32086077878603" lon="108.9330132460493">
        <ele>394.0761113734916</ele>
        <time>2022-04-30T03:35:28Z</time>
      </trkpt>
      <trkpt lat="34.320754350155546" lon="108.93302431936324">
        <ele>393.0540141137317</ele>
        <time>2022-04-30T03:35:30Z</time>
      </trkpt>
      <trkpt lat="34.32058425601591" lon="108.93298155514913">
        <ele>393.31944762635976</ele>
        <time>2022-04-30T03:35:32Z</time>
      </trkpt>
      <trkpt lat="34.32045819451024" lon="108.93299059973072">
        <ele>393.63084354251623</ele>
        <time>2022-04-30T03:35:34Z</time>
      </trkpt>
      <trkpt lat="34.320059527591035" lon="108.93295316882465">
        <ele>393.7070414563641</ele>
        <time>2022-04-30T03:35:40Z</time>
      </trkpt>
      <trkpt lat="34.31980366064386" lon="108.93294944182836">
        <ele>394.21196287870407</ele>
        <time>2022-04-30T03:35:44Z</time>
      </trkpt>
      <trkpt lat="34.31968599792827" lon="108.93296924514337">
        <ele>393.8425591159612</ele>
        <time>2022-04-30T03:35:46Z</time>
      </trkpt>
      <trkpt lat="34.31927034861776" lon="108.93297818249111">
        <ele>393.6861555315554</ele>
        <time>2022-04-30T03:36:00Z</time>
      </trkpt>
      <trkpt lat="34.319104547968735" lon="108.93296612662404">
        <ele>393.3129239389673</ele>
        <time>2022-04-30T03:36:04Z</time>
      </trkpt>
      <trkpt lat="34.31892016578403" lon="108.93297927821733">
        <ele>394.25341965816915</ele>
        <time>2022-04-30T03:36:08Z</time>
      </trkpt>
      <trkpt lat="34.318736160802764" lon="108.93301907301606">
        <ele>396.261064930819</ele>
        <time>2022-04-30T03:36:12Z</time>
      </trkpt>
      <trkpt lat="34.318243902926326" lon="108.93300387959435">
        <ele>396.79860618151724</ele>
        <time>2022-04-30T03:36:22Z</time>
      </trkpt>
      <trkpt lat="34.317782463225925" lon="108.93308643089559">
        <ele>396.9547796593979</ele>
        <time>2022-04-30T03:36:30Z</time>
      </trkpt>
      <trkpt lat="34.31766009084327" lon="108.93309423137813">
        <ele>397.28829165175557</ele>
        <time>2022-04-30T03:36:32Z</time>
      </trkpt>
      <trkpt lat="34.31742481297633" lon="108.93307983177667">
        <ele>397.44077828526497</ele>
        <time>2022-04-30T03:36:36Z</time>
      </trkpt>
      <trkpt lat="34.31733318137293" lon="108.93309565557377">
        <ele>397.3280359664932</ele>
        <time>2022-04-30T03:36:38Z</time>
      </trkpt>
      <trkpt lat="34.3171819398195" lon="108.93307676837458">
        <ele>398.4663054635748</ele>
        <time>2022-04-30T03:36:40Z</time>
      </trkpt>
      <trkpt lat="34.3170327902031" lon="108.9331050518076">
        <ele>397.71141102258116</ele>
        <time>2022-04-30T03:36:42Z</time>
      </trkpt>
      <trkpt lat="34.316807429902795" lon="108.93305386125104">
        <ele>396.26497412938625</ele>
        <time>2022-04-30T03:36:46Z</time>
      </trkpt>
      <trkpt lat="34.31670432740023" lon="108.93307163576972">
        <ele>396.2955554481596</ele>
        <time>2022-04-30T03:36:48Z</time>
      </trkpt>
      <trkpt lat="34.316579008578486" lon="108.93306880503029">
        <ele>397.02477458585054</ele>
        <time>2022-04-30T03:36:50Z</time>
      </trkpt>
      <trkpt lat="34.31644499324184" lon="108.93304310226164">
        <ele>395.7811569403857</ele>
        <time>2022-04-30T03:36:52Z</time>
      </trkpt>
      <trkpt lat="34.31635280115185" lon="108.93307738199876">
        <ele>395.70015668310225</ele>
        <time>2022-04-30T03:36:54Z</time>
      </trkpt>
      <trkpt lat="34.316230895372364" lon="108.93309007060995">
        <ele>396.2033403282985</ele>
        <time>2022-04-30T03:36:56Z</time>
      </trkpt>
      <trkpt lat="34.31589356168184" lon="108.93305932018627">
        <ele>396.34718405175954</ele>
        <time>2022-04-30T03:37:02Z</time>
      </trkpt>
      <trkpt lat="34.31569653568595" lon="108.93307270521757">
        <ele>394.91426952183247</ele>
        <time>2022-04-30T03:37:06Z</time>
      </trkpt>
      <trkpt lat="34.315627590953156" lon="108.93310306383528">
        <ele>395.00465397164226</ele>
        <time>2022-04-30T03:37:08Z</time>
      </trkpt>
      <trkpt lat="34.31554471117278" lon="108.93307518428148">
        <ele>395.6609582770616</ele>
        <time>2022-04-30T03:37:12Z</time>
      </trkpt>
      <trkpt lat="34.315468296259006" lon="108.9329930137136">
        <ele>395.422842156142</ele>
        <time>2022-04-30T03:37:16Z</time>
      </trkpt>
      <trkpt lat="34.3154326587963" lon="108.93292784344473">
        <ele>395.7035456392914</ele>
        <time>2022-04-30T03:37:22Z</time>
      </trkpt>
      <trkpt lat="34.315315190154465" lon="108.9328744840231">
        <ele>395.45286536216736</ele>
        <time>2022-04-30T03:37:50Z</time>
      </trkpt>
      <trkpt lat="34.31519344252445" lon="108.93291402126029">
        <ele>395.7808928200975</ele>
        <time>2022-04-30T03:37:53Z</time>
      </trkpt>
      <trkpt lat="34.314738978053995" lon="108.9330554369449">
        <ele>396.04843946918845</ele>
        <time>2022-04-30T03:38:03Z</time>
      </trkpt>
      <trkpt lat="34.31453011999695" lon="108.9330975502855">
        <ele>395.7717381119728</ele>
        <time>2022-04-30T03:38:07Z</time>
      </trkpt>
      <trkpt lat="34.31438211081789" lon="108.93320035858318">
        <ele>395.2157902866602</ele>
        <time>2022-04-30T03:38:11Z</time>
      </trkpt>
      <trkpt lat="34.31406722078116" lon="108.9332903835151">
        <ele>395.6055827913806</ele>
        <time>2022-04-30T03:38:17Z</time>
      </trkpt>
      <trkpt lat="34.313789229195216" lon="108.93326079938242">
        <ele>395.11005587596446</ele>
        <time>2022-04-30T03:38:21Z</time>
      </trkpt>
      <trkpt lat="34.31354130218747" lon="108.93327207530723">
        <ele>395.35104919504374</ele>
        <time>2022-04-30T03:38:25Z</time>
      </trkpt>
      <trkpt lat="34.31342004677348" lon="108.9332543918794">
        <ele>395.24316967185587</ele>
        <time>2022-04-30T03:38:27Z</time>
      </trkpt>
      <trkpt lat="34.31293163052116" lon="108.93326015458533">
        <ele>394.82439513970166</ele>
        <time>2022-04-30T03:38:35Z</time>
      </trkpt>
      <trkpt lat="34.3128011861997" lon="108.93325269958002">
        <ele>395.35740591119975</ele>
        <time>2022-04-30T03:38:37Z</time>
      </trkpt>
      <trkpt lat="34.31267729053502" lon="108.93322428550132">
        <ele>394.86779441777617</ele>
        <time>2022-04-30T03:38:39Z</time>
      </trkpt>
      <trkpt lat="34.312192965260174" lon="108.93318637245078">
        <ele>395.3791555650532</ele>
        <time>2022-04-30T03:38:46Z</time>
      </trkpt>
      <trkpt lat="34.31206129641868" lon="108.93318172596085">
        <ele>394.72129123751074</ele>
        <time>2022-04-30T03:38:48Z</time>
      </trkpt>
      <trkpt lat="34.31181826219356" lon="108.93320255812117">
        <ele>395.2820638604462</ele>
        <time>2022-04-30T03:38:52Z</time>
      </trkpt>
      <trkpt lat="34.311501258005016" lon="108.93331230744633">
        <ele>395.2906848480925</ele>
        <time>2022-04-30T03:38:58Z</time>
      </trkpt>
      <trkpt lat="34.31139707003092" lon="108.93330661244951">
        <ele>394.4198971353471</ele>
        <time>2022-04-30T03:39:00Z</time>
      </trkpt>
      <trkpt lat="34.31128184666317" lon="108.9333266740859">
        <ele>395.2770151710138</ele>
        <time>2022-04-30T03:39:02Z</time>
      </trkpt>
      <trkpt lat="34.311137859393625" lon="108.93324658927087">
        <ele>395.3181448765099</ele>
        <time>2022-04-30T03:39:04Z</time>
      </trkpt>
      <trkpt lat="34.31092008170756" lon="108.93318698453989">
        <ele>394.17259059567004</ele>
        <time>2022-04-30T03:39:08Z</time>
      </trkpt>
      <trkpt lat="34.31069648290937" lon="108.93319091288198">
        <ele>395.15517887379974</ele>
        <time>2022-04-30T03:39:12Z</time>
      </trkpt>
      <trkpt lat="34.31046393556165" lon="108.93316488891483">
        <ele>395.95956811029464</ele>
        <time>2022-04-30T03:39:16Z</time>
      </trkpt>
      <trkpt lat="34.309931336187866" lon="108.93321706741158">
        <ele>396.17187611572444</ele>
        <time>2022-04-30T03:39:26Z</time>
      </trkpt>
      <trkpt lat="34.3093600152052" lon="108.93319454224583">
        <ele>395.9928757920861</ele>
        <time>2022-04-30T03:39:40Z</time>
      </trkpt>
      <trkpt lat="34.30956939272734" lon="108.93313362585492">
        <ele>396.78658612817526</ele>
        <time>2022-04-30T03:39:54Z</time>
      </trkpt>
      <trkpt lat="34.30964168749243" lon="108.93315293820856">
        <ele>396.4600432133302</ele>
        <time>2022-04-30T03:39:56Z</time>
      </trkpt>
      <trkpt lat="34.309685861407736" lon="108.93305346089181">
        <ele>396.85495722386986</ele>
        <time>2022-04-30T03:40:00Z</time>
      </trkpt>
      <trkpt lat="34.30982720068417" lon="108.93297405245121">
        <ele>397.0163880651817</ele>
        <time>2022-04-30T03:40:04Z</time>
      </trkpt>
      <trkpt lat="34.309838173821596" lon="108.93287839141216">
        <ele>397.28338580112904</ele>
        <time>2022-04-30T03:40:06Z</time>
      </trkpt>
      <trkpt lat="34.309886175146204" lon="108.93280607383612">
        <ele>397.7018313780427</ele>
        <time>2022-04-30T03:40:14Z</time>
      </trkpt>
      <trkpt lat="34.30987767980383" lon="108.93263829072178">
        <ele>397.75329693593085</ele>
        <time>2022-04-30T03:40:22Z</time>
      </trkpt>
      <trkpt lat="34.30990761083337" lon="108.93252810368303">
        <ele>397.74513735435903</ele>
        <time>2022-04-30T03:40:24Z</time>
      </trkpt>
      <trkpt lat="34.309892312778786" lon="108.93238271146758">
        <ele>396.8839097348973</ele>
        <time>2022-04-30T03:40:26Z</time>
      </trkpt>
      <trkpt lat="34.30984297617942" lon="108.93224972606738">
        <ele>398.1725581791252</ele>
        <time>2022-04-30T03:40:28Z</time>
      </trkpt>
      <trkpt lat="34.30983497905791" lon="108.93195491275935">
        <ele>399.92255300376564</ele>
        <time>2022-04-30T03:40:32Z</time>
      </trkpt>
      <trkpt lat="34.3097720411258" lon="108.93168063809149">
        <ele>398.29726012051105</ele>
        <time>2022-04-30T03:40:36Z</time>
      </trkpt>
      <trkpt lat="34.309782475671966" lon="108.93157961612347">
        <ele>397.8114044414833</ele>
        <time>2022-04-30T03:40:38Z</time>
      </trkpt>
      <trkpt lat="34.30976903882742" lon="108.93147264538356">
        <ele>397.7336932551116</ele>
        <time>2022-04-30T03:40:40Z</time>
      </trkpt>
      <trkpt lat="34.30972200480269" lon="108.93132822885077">
        <ele>398.0607678927481</ele>
        <time>2022-04-30T03:40:42Z</time>
      </trkpt>
      <trkpt lat="34.30971991437678" lon="108.931199968788">
        <ele>398.89431579224765</ele>
        <time>2022-04-30T03:40:44Z</time>
      </trkpt>
      <trkpt lat="34.309682903716975" lon="108.9311104013683">
        <ele>398.2958369338885</ele>
        <time>2022-04-30T03:40:46Z</time>
      </trkpt>
      <trkpt lat="34.309669851479434" lon="108.93064208942201">
        <ele>397.5204160306603</ele>
        <time>2022-04-30T03:40:52Z</time>
      </trkpt>
      <trkpt lat="34.30968613229188" lon="108.93051171772065">
        <ele>398.58507410716265</ele>
        <time>2022-04-30T03:40:54Z</time>
      </trkpt>
      <trkpt lat="34.309639651443156" lon="108.93038980298026">
        <ele>398.722051310353</ele>
        <time>2022-04-30T03:40:58Z</time>
      </trkpt>
      <trkpt lat="34.30954028390297" lon="108.93036251789773">
        <ele>399.3119158837944</ele>
        <time>2022-04-30T03:41:00Z</time>
      </trkpt>
      <trkpt lat="34.3094538284161" lon="108.93031540685163">
        <ele>398.7219540756196</ele>
        <time>2022-04-30T03:41:02Z</time>
      </trkpt>
      <trkpt lat="34.30909986661824" lon="108.93022291149926">
        <ele>398.6228545056656</ele>
        <time>2022-04-30T03:41:10Z</time>
      </trkpt>
      <trkpt lat="34.30885596210181" lon="108.93023351940042">
        <ele>398.5112003944814</ele>
        <time>2022-04-30T03:41:14Z</time>
      </trkpt>
      <trkpt lat="34.30877691375013" lon="108.93025154230196">
        <ele>397.84295031800866</ele>
        <time>2022-04-30T03:41:16Z</time>
      </trkpt>
      <trkpt lat="34.30826432734651" lon="108.93019201724688">
        <ele>397.7931266296655</ele>
        <time>2022-04-30T03:41:24Z</time>
      </trkpt>
      <trkpt lat="34.308130535886555" lon="108.93015977184254">
        <ele>397.1870366996154</ele>
        <time>2022-04-30T03:41:26Z</time>
      </trkpt>
      <trkpt lat="34.308040431635185" lon="108.93020028894458">
        <ele>397.00675358437</ele>
        <time>2022-04-30T03:41:30Z</time>
      </trkpt>
      <trkpt lat="34.308013319938624" lon="108.93008335777002">
        <ele>397.35606275871396</ele>
        <time>2022-04-30T03:41:54Z</time>
      </trkpt>
      <trkpt lat="34.3081880005483" lon="108.9300657334214">
        <ele>397.344216812402</ele>
        <time>2022-04-30T03:44:00Z</time>
      </trkpt>
      <trkpt lat="34.308649073377424" lon="108.93007343702963">
        <ele>396.77163435611874</ele>
        <time>2022-04-30T03:44:14Z</time>
      </trkpt>
      <trkpt lat="34.30874413078143" lon="108.93004896972654">
        <ele>396.3957928745076</ele>
        <time>2022-04-30T03:44:16Z</time>
      </trkpt>
      <trkpt lat="34.30901303798789" lon="108.93006769793399">
        <ele>396.93805607780814</ele>
        <time>2022-04-30T03:44:22Z</time>
      </trkpt>
      <trkpt lat="34.30909703205006" lon="108.93004399888612">
        <ele>396.13525416888297</ele>
        <time>2022-04-30T03:44:24Z</time>
      </trkpt>
      <trkpt lat="34.30942869964818" lon="108.9300592931795">
        <ele>397.47751841135323</ele>
        <time>2022-04-30T03:44:32Z</time>
      </trkpt>
      <trkpt lat="34.30950266189896" lon="108.93008111357597">
        <ele>397.3832616591826</ele>
        <time>2022-04-30T03:44:34Z</time>
      </trkpt>
      <trkpt lat="34.309755238886254" lon="108.93009097769271">
        <ele>398.0436228374019</ele>
        <time>2022-04-30T03:44:42Z</time>
      </trkpt>
      <trkpt lat="34.309819053581734" lon="108.93018033831443">
        <ele>397.8399546351284</ele>
        <time>2022-04-30T03:44:46Z</time>
      </trkpt>
      <trkpt lat="34.30986930576701" lon="108.93035945207252">
        <ele>398.09847559500486</ele>
        <time>2022-04-30T03:44:50Z</time>
      </trkpt>
      <trkpt lat="34.30989530234524" lon="108.93053385056338">
        <ele>397.3422303199768</ele>
        <time>2022-04-30T03:44:54Z</time>
      </trkpt>
      <trkpt lat="34.30989281122622" lon="108.93076523853068">
        <ele>398.0686359247193</ele>
        <time>2022-04-30T03:44:58Z</time>
      </trkpt>
      <trkpt lat="34.30987219703494" lon="108.93086982050512">
        <ele>397.19625573046505</ele>
        <time>2022-04-30T03:45:00Z</time>
      </trkpt>
      <trkpt lat="34.30988584915809" lon="108.93140727723998">
        <ele>396.63017046637833</ele>
        <time>2022-04-30T03:45:10Z</time>
      </trkpt>
      <trkpt lat="34.309901602322874" lon="108.93201054570908">
        <ele>397.2345288116485</ele>
        <time>2022-04-30T03:45:20Z</time>
      </trkpt>
      <trkpt lat="34.309811363838676" lon="108.93217063370545">
        <ele>397.3880061386153</ele>
        <time>2022-04-30T03:45:24Z</time>
      </trkpt>
      <trkpt lat="34.309787785938354" lon="108.9322581897799">
        <ele>396.97832126915455</ele>
        <time>2022-04-30T03:45:26Z</time>
      </trkpt>
      <trkpt lat="34.30979931300098" lon="108.93265492950171">
        <ele>396.7974406564608</ele>
        <time>2022-04-30T03:45:34Z</time>
      </trkpt>
      <trkpt lat="34.30978910321148" lon="108.93275625953466">
        <ele>396.67996931727976</ele>
        <time>2022-04-30T03:45:36Z</time>
      </trkpt>
      <trkpt lat="34.309824470098185" lon="108.93309266289907">
        <ele>395.45418746210635</ele>
        <time>2022-04-30T03:45:48Z</time>
      </trkpt>
      <trkpt lat="34.30991776357388" lon="108.93311764348458">
        <ele>394.9041088121012</ele>
        <time>2022-04-30T03:45:58Z</time>
      </trkpt>
      <trkpt lat="34.310001998783065" lon="108.93321425972594">
        <ele>395.09517881367356</ele>
        <time>2022-04-30T03:46:02Z</time>
      </trkpt>
      <trkpt lat="34.31000985273874" lon="108.93331453455512">
        <ele>395.64557452034205</ele>
        <time>2022-04-30T03:46:06Z</time>
      </trkpt>
      <trkpt lat="34.31004576228323" lon="108.93341363635905">
        <ele>395.88850978855044</ele>
        <time>2022-04-30T03:46:08Z</time>
      </trkpt>
      <trkpt lat="34.31012397146252" lon="108.93344380761776">
        <ele>395.9660639949143</ele>
        <time>2022-04-30T03:46:10Z</time>
      </trkpt>
      <trkpt lat="34.31016457790834" lon="108.93342139370222">
        <ele>395.710488778539</ele>
        <time>2022-04-30T03:46:20Z</time>
      </trkpt>
      <trkpt lat="34.31033455806063" lon="108.93340133974489">
        <ele>395.8691704040393</ele>
        <time>2022-04-30T03:46:27Z</time>
      </trkpt>
      <trkpt lat="34.31048920466994" lon="108.93339834719274">
        <ele>395.91920225694776</ele>
        <time>2022-04-30T03:46:31Z</time>
      </trkpt>
      <trkpt lat="34.31056739324673" lon="108.93342053565385">
        <ele>395.57451672293246</ele>
        <time>2022-04-30T03:46:33Z</time>
      </trkpt>
      <trkpt lat="34.310948944519566" lon="108.93340539239793">
        <ele>395.44470086414367</ele>
        <time>2022-04-30T03:46:41Z</time>
      </trkpt>
      <trkpt lat="34.31103833727685" lon="108.93338586576786">
        <ele>394.84475512988865</ele>
        <time>2022-04-30T03:46:43Z</time>
      </trkpt>
      <trkpt lat="34.31144000747891" lon="108.93338730896356">
        <ele>394.9116611275822</ele>
        <time>2022-04-30T03:46:53Z</time>
      </trkpt>
      <trkpt lat="34.31156519414746" lon="108.93332929078318">
        <ele>395.2802312914282</ele>
        <time>2022-04-30T03:46:57Z</time>
      </trkpt>
      <trkpt lat="34.311717856530315" lon="108.93328400804982">
        <ele>394.03605297394097</ele>
        <time>2022-04-30T03:46:59Z</time>
      </trkpt>
      <trkpt lat="34.31184872456326" lon="108.93335927437171">
        <ele>395.489993352443</ele>
        <time>2022-04-30T03:47:01Z</time>
      </trkpt>
      <trkpt lat="34.31203191866109" lon="108.93339464045674">
        <ele>393.83865327667445</ele>
        <time>2022-04-30T03:47:03Z</time>
      </trkpt>
      <trkpt lat="34.312160284475894" lon="108.93337679193714">
        <ele>394.15042252559215</ele>
        <time>2022-04-30T03:47:05Z</time>
      </trkpt>
      <trkpt lat="34.312416617405844" lon="108.93339052696804">
        <ele>394.435310928151</ele>
        <time>2022-04-30T03:47:10Z</time>
      </trkpt>
      <trkpt lat="34.31279421969312" lon="108.93340246696567">
        <ele>395.42709600552917</ele>
        <time>2022-04-30T03:47:18Z</time>
      </trkpt>
      <trkpt lat="34.312989805983804" lon="108.93341709599746">
        <ele>395.20681057684124</ele>
        <time>2022-04-30T03:47:22Z</time>
      </trkpt>
      <trkpt lat="34.313497565786186" lon="108.93336199668335">
        <ele>394.53850163239986</ele>
        <time>2022-04-30T03:47:32Z</time>
      </trkpt>
      <trkpt lat="34.31379474623296" lon="108.93336131589355">
        <ele>394.94005015399307</ele>
        <time>2022-04-30T03:47:38Z</time>
      </trkpt>
      <trkpt lat="34.31388020816359" lon="108.93339000388752">
        <ele>394.6104751145467</ele>
        <time>2022-04-30T03:47:40Z</time>
      </trkpt>
      <trkpt lat="34.314095642537005" lon="108.93339810503754">
        <ele>394.3681234261021</ele>
        <time>2022-04-30T03:47:44Z</time>
      </trkpt>
      <trkpt lat="34.31419703925699" lon="108.93337552580812">
        <ele>395.6206753635779</ele>
        <time>2022-04-30T03:47:46Z</time>
      </trkpt>
      <trkpt lat="34.314303446560345" lon="108.93337945193923">
        <ele>394.47990150377154</ele>
        <time>2022-04-30T03:47:48Z</time>
      </trkpt>
      <trkpt lat="34.31473547347293" lon="108.93333518120201">
        <ele>395.2087833629921</ele>
        <time>2022-04-30T03:47:56Z</time>
      </trkpt>
      <trkpt lat="34.31499573734061" lon="108.93333791665525">
        <ele>394.89087845757604</ele>
        <time>2022-04-30T03:48:01Z</time>
      </trkpt>
      <trkpt lat="34.315430937386516" lon="108.93328499857962">
        <ele>394.74900158215314</ele>
        <time>2022-04-30T03:48:09Z</time>
      </trkpt>
      <trkpt lat="34.315872795579025" lon="108.9332920770436">
        <ele>394.8542166072875</ele>
        <time>2022-04-30T03:48:17Z</time>
      </trkpt>
      <trkpt lat="34.31598193396159" lon="108.933297285373">
        <ele>395.40253892727196</ele>
        <time>2022-04-30T03:48:19Z</time>
      </trkpt>
      <trkpt lat="34.31606777395468" lon="108.93333705757586">
        <ele>394.110062119551</ele>
        <time>2022-04-30T03:48:21Z</time>
      </trkpt>
      <trkpt lat="34.31626718453862" lon="108.9333587598799">
        <ele>394.9886646056548</ele>
        <time>2022-04-30T03:48:25Z</time>
      </trkpt>
      <trkpt lat="34.3163983413714" lon="108.93333345797993">
        <ele>394.10330787394196</ele>
        <time>2022-04-30T03:48:27Z</time>
      </trkpt>
      <trkpt lat="34.316506292326444" lon="108.93327980527577">
        <ele>394.83835871331394</ele>
        <time>2022-04-30T03:48:29Z</time>
      </trkpt>
      <trkpt lat="34.316851638744524" lon="108.93331412286032">
        <ele>394.9748152354732</ele>
        <time>2022-04-30T03:48:35Z</time>
      </trkpt>
      <trkpt lat="34.316952326187646" lon="108.93330184253406">
        <ele>395.19589914381504</ele>
        <time>2022-04-30T03:48:37Z</time>
      </trkpt>
      <trkpt lat="34.31704600079719" lon="108.93331675183104">
        <ele>395.1566203907132</ele>
        <time>2022-04-30T03:48:39Z</time>
      </trkpt>
      <trkpt lat="34.31730719336595" lon="108.9332755440197">
        <ele>395.108409573324</ele>
        <time>2022-04-30T03:48:45Z</time>
      </trkpt>
      <trkpt lat="34.317832316625505" lon="108.93326437474227">
        <ele>397.11133632436395</ele>
        <time>2022-04-30T03:48:55Z</time>
      </trkpt>
      <trkpt lat="34.31795380404792" lon="108.93328824567045">
        <ele>396.0884462054819</ele>
        <time>2022-04-30T03:48:57Z</time>
      </trkpt>
      <trkpt lat="34.318285175057255" lon="108.93327696729273">
        <ele>396.50741433538496</ele>
        <time>2022-04-30T03:49:03Z</time>
      </trkpt>
      <trkpt lat="34.31875116616211" lon="108.93334103276969">
        <ele>395.3667451683432</ele>
        <time>2022-04-30T03:49:11Z</time>
      </trkpt>
      <trkpt lat="34.31887133135901" lon="108.93333111172213">
        <ele>395.17650057934225</ele>
        <time>2022-04-30T03:49:14Z</time>
      </trkpt>
      <trkpt lat="34.3191389453118" lon="108.93338309318084">
        <ele>393.69697926100343</ele>
        <time>2022-04-30T03:49:28Z</time>
      </trkpt>
      <trkpt lat="34.31919259776432" lon="108.93336732898365">
        <ele>393.5160464690998</ele>
        <time>2022-04-30T03:49:38Z</time>
      </trkpt>
      <trkpt lat="34.31938382901585" lon="108.93336808419829">
        <ele>393.87819222267717</ele>
        <time>2022-04-30T03:49:51Z</time>
      </trkpt>
      <trkpt lat="34.31951730694742" lon="108.93336068910291">
        <ele>393.856462857686</ele>
        <time>2022-04-30T03:49:55Z</time>
      </trkpt>
      <trkpt lat="34.31966336340525" lon="108.93328864938795">
        <ele>393.0517588881776</ele>
        <time>2022-04-30T03:50:09Z</time>
      </trkpt>
      <trkpt lat="34.319819754458315" lon="108.93328357426232">
        <ele>393.99615005403757</ele>
        <time>2022-04-30T03:50:26Z</time>
      </trkpt>
      <trkpt lat="34.320185519405165" lon="108.9332806390571">
        <ele>392.64873241633177</ele>
        <time>2022-04-30T03:50:36Z</time>
      </trkpt>
      <trkpt lat="34.32030318403333" lon="108.93329934565904">
        <ele>392.6522526675835</ele>
        <time>2022-04-30T03:50:40Z</time>
      </trkpt>
      <trkpt lat="34.320427892412724" lon="108.93334718770313">
        <ele>393.15663112699986</ele>
        <time>2022-04-30T03:50:42Z</time>
      </trkpt>
      <trkpt lat="34.32087631558997" lon="108.93331674742596">
        <ele>393.1643850831315</ele>
        <time>2022-04-30T03:50:52Z</time>
      </trkpt>
      <trkpt lat="34.32106375244931" lon="108.93325509701198">
        <ele>393.2574867522344</ele>
        <time>2022-04-30T03:50:56Z</time>
      </trkpt>
      <trkpt lat="34.321450496068586" lon="108.93320994092764">
        <ele>392.91932702064514</ele>
        <time>2022-04-30T03:51:04Z</time>
      </trkpt>
      <trkpt lat="34.32189211528005" lon="108.93319261014588">
        <ele>393.43332015536726</ele>
        <time>2022-04-30T03:51:14Z</time>
      </trkpt>
      <trkpt lat="34.32217291934847" lon="108.93316827521001">
        <ele>392.8572280248627</ele>
        <time>2022-04-30T03:51:20Z</time>
      </trkpt>
      <trkpt lat="34.322346200008575" lon="108.93312104265458">
        <ele>393.2211633520201</ele>
        <time>2022-04-30T03:51:24Z</time>
      </trkpt>
      <trkpt lat="34.322869123754394" lon="108.93315530120726">
        <ele>393.3407823070884</ele>
        <time>2022-04-30T03:51:34Z</time>
      </trkpt>
      <trkpt lat="34.32334604912447" lon="108.933100037694">
        <ele>392.64047814626247</ele>
        <time>2022-04-30T03:51:44Z</time>
      </trkpt>
      <trkpt lat="34.32353769911302" lon="108.93309477872549">
        <ele>392.74075425602496</ele>
        <time>2022-04-30T03:51:48Z</time>
      </trkpt>
      <trkpt lat="34.32363890125359" lon="108.93311932741491">
        <ele>392.92063388228416</ele>
        <time>2022-04-30T03:51:52Z</time>
      </trkpt>
      <trkpt lat="34.32370756344059" lon="108.93317096039605">
        <ele>392.7465440649539</ele>
        <time>2022-04-30T03:51:56Z</time>
      </trkpt>
      <trkpt lat="34.32373673971611" lon="108.9332557146667">
        <ele>392.13247060310096</ele>
        <time>2022-04-30T03:52:02Z</time>
      </trkpt>
      <trkpt lat="34.32375927930958" lon="108.9332648312383">
        <ele>392.2245961930603</ele>
        <time>2022-04-30T03:52:04Z</time>
      </trkpt>
      <trkpt lat="34.323851307417534" lon="108.93330970674327">
        <ele>391.7708785366267</ele>
        <time>2022-04-30T03:52:09Z</time>
      </trkpt>
      <trkpt lat="34.3238585450172" lon="108.93332222111438">
        <ele>391.67102907504886</ele>
        <time>2022-04-30T03:52:17Z</time>
      </trkpt>
      <trkpt lat="34.324016575821716" lon="108.93333605651918">
        <ele>391.3361451243982</ele>
        <time>2022-04-30T03:52:56Z</time>
      </trkpt>
      <trkpt lat="34.32409686581139" lon="108.93328365184539">
        <ele>391.8417678605765</ele>
        <time>2022-04-30T03:53:00Z</time>
      </trkpt>
      <trkpt lat="34.3246075925537" lon="108.93326504274293">
        <ele>391.00243543367833</ele>
        <time>2022-04-30T03:53:22Z</time>
      </trkpt>
      <trkpt lat="34.3246997064834" lon="108.93326322798397">
        <ele>391.15054604038596</ele>
        <time>2022-04-30T03:53:24Z</time>
      </trkpt>
      <trkpt lat="34.32477758127725" lon="108.93330080361547">
        <ele>391.44213010929525</ele>
        <time>2022-04-30T03:53:26Z</time>
      </trkpt>
      <trkpt lat="34.324975206120286" lon="108.93329861968729">
        <ele>391.5269197681919</ele>
        <time>2022-04-30T03:53:30Z</time>
      </trkpt>
      <trkpt lat="34.32506597833043" lon="108.93327689908891">
        <ele>390.8110321406275</ele>
        <time>2022-04-30T03:53:32Z</time>
      </trkpt>
      <trkpt lat="34.325209542715875" lon="108.9333128158958">
        <ele>391.42428021505475</ele>
        <time>2022-04-30T03:53:36Z</time>
      </trkpt>
      <trkpt lat="34.32549051998682" lon="108.93326364197351">
        <ele>391.5436940845102</ele>
        <time>2022-04-30T03:53:42Z</time>
      </trkpt>
      <trkpt lat="34.325895229250946" lon="108.93320196335357">
        <ele>391.94686550926417</ele>
        <time>2022-04-30T03:53:50Z</time>
      </trkpt>
      <trkpt lat="34.32600652662537" lon="108.93320139362633">
        <ele>392.2335231155157</ele>
        <time>2022-04-30T03:53:52Z</time>
      </trkpt>
      <trkpt lat="34.32622634452326" lon="108.93315737979188">
        <ele>393.9724167874083</ele>
        <time>2022-04-30T03:53:56Z</time>
      </trkpt>
      <trkpt lat="34.326455151383136" lon="108.93315512769075">
        <ele>392.6779081877321</ele>
        <time>2022-04-30T03:54:00Z</time>
      </trkpt>
      <trkpt lat="34.326570175989815" lon="108.93311564337814">
        <ele>392.5811654124409</ele>
        <time>2022-04-30T03:54:02Z</time>
      </trkpt>
      <trkpt lat="34.32691626750304" lon="108.93313906550678">
        <ele>392.84077814407647</ele>
        <time>2022-04-30T03:54:08Z</time>
      </trkpt>
      <trkpt lat="34.32723394803932" lon="108.93309699662223">
        <ele>392.4811631301418</ele>
        <time>2022-04-30T03:54:14Z</time>
      </trkpt>
      <trkpt lat="34.32732488965942" lon="108.93311908137684">
        <ele>392.21365230251104</ele>
        <time>2022-04-30T03:54:16Z</time>
      </trkpt>
      <trkpt lat="34.327403639489816" lon="108.93309396624353">
        <ele>392.100086257793</ele>
        <time>2022-04-30T03:54:18Z</time>
      </trkpt>
      <trkpt lat="34.32750062428554" lon="108.93310870350943">
        <ele>393.0530975004658</ele>
        <time>2022-04-30T03:54:20Z</time>
      </trkpt>
      <trkpt lat="34.32758271460731" lon="108.93315207676207">
        <ele>391.8431581435725</ele>
        <time>2022-04-30T03:54:22Z</time>
      </trkpt>
      <trkpt lat="34.32780876717181" lon="108.93306317446361">
        <ele>392.258029775694</ele>
        <time>2022-04-30T03:54:28Z</time>
      </trkpt>
      <trkpt lat="34.327943049398826" lon="108.93306162487563">
        <ele>392.08131850045174</ele>
        <time>2022-04-30T03:54:32Z</time>
      </trkpt>
      <trkpt lat="34.32805692041849" lon="108.93308857797479">
        <ele>393.10260698664933</ele>
        <time>2022-04-30T03:54:34Z</time>
      </trkpt>
      <trkpt lat="34.328130423029016" lon="108.9331509029655">
        <ele>392.7987292986363</ele>
        <time>2022-04-30T03:54:36Z</time>
      </trkpt>
      <trkpt lat="34.32818565652128" lon="108.93329388639673">
        <ele>392.6918626856059</ele>
        <time>2022-04-30T03:54:38Z</time>
      </trkpt>
      <trkpt lat="34.328184712349646" lon="108.9336713066536">
        <ele>391.92234208248556</ele>
        <time>2022-04-30T03:54:44Z</time>
      </trkpt>
      <trkpt lat="34.32820429676798" lon="108.9338749838471">
        <ele>392.30416845344007</ele>
        <time>2022-04-30T03:54:48Z</time>
      </trkpt>
      <trkpt lat="34.328266832883145" lon="108.93406909551769">
        <ele>392.0586213506758</ele>
        <time>2022-04-30T03:54:52Z</time>
      </trkpt>
      <trkpt lat="34.328342127675825" lon="108.93443055807646">
        <ele>392.1211232095957</ele>
        <time>2022-04-30T03:54:58Z</time>
      </trkpt>
      <trkpt lat="34.32834666792089" lon="108.9345646463304">
        <ele>392.0969599671662</ele>
        <time>2022-04-30T03:55:00Z</time>
      </trkpt>
      <trkpt lat="34.328390708614194" lon="108.93472188728747">
        <ele>392.21919889189303</ele>
        <time>2022-04-30T03:55:04Z</time>
      </trkpt>
      <trkpt lat="34.32839320119063" lon="108.93481142010313">
        <ele>391.8737965039909</ele>
        <time>2022-04-30T03:55:06Z</time>
      </trkpt>
      <trkpt lat="34.32842952243107" lon="108.93488958290999">
        <ele>392.31595867313445</ele>
        <time>2022-04-30T03:55:08Z</time>
      </trkpt>
      <trkpt lat="34.32839008952725" lon="108.9352198511715">
        <ele>392.80575132742524</ele>
        <time>2022-04-30T03:55:14Z</time>
      </trkpt>
      <trkpt lat="34.328406973919954" lon="108.93575402480708">
        <ele>391.92602592986077</ele>
        <time>2022-04-30T03:55:24Z</time>
      </trkpt>
      <trkpt lat="34.32836708257514" lon="108.936112950952">
        <ele>393.0627517635003</ele>
        <time>2022-04-30T03:55:30Z</time>
      </trkpt>
      <trkpt lat="34.328390592825855" lon="108.93655790958309">
        <ele>392.59690650738776</ele>
        <time>2022-04-30T03:55:38Z</time>
      </trkpt>
      <trkpt lat="34.32833243319974" lon="108.93680176735717">
        <ele>392.6201892038807</ele>
        <time>2022-04-30T03:55:44Z</time>
      </trkpt>
      <trkpt lat="34.32824026141578" lon="108.93683491406422">
        <ele>392.77420905884355</ele>
        <time>2022-04-30T03:55:48Z</time>
      </trkpt>
      <trkpt lat="34.328342021412666" lon="108.93687615551548">
        <ele>391.47620791196823</ele>
        <time>2022-04-30T03:55:58Z</time>
      </trkpt>
      <trkpt lat="34.328374348595744" lon="108.93696805550388">
        <ele>392.83238518889993</ele>
        <time>2022-04-30T03:56:14Z</time>
      </trkpt>
      <trkpt lat="34.32829411548577" lon="108.93708235840843">
        <ele>393.1264102207497</ele>
        <time>2022-04-30T03:58:01Z</time>
      </trkpt>
      <trkpt lat="34.32836376542551" lon="108.93710916470502">
        <ele>392.7695365976542</ele>
        <time>2022-04-30T03:58:05Z</time>
      </trkpt>
      <trkpt lat="34.32833279035744" lon="108.93708491325538">
        <ele>392.8427176801488</ele>
        <time>2022-04-30T03:58:11Z</time>
      </trkpt>
      <trkpt lat="34.328318181225924" lon="108.936958995221">
        <ele>392.64374170731753</ele>
        <time>2022-04-30T03:58:32Z</time>
      </trkpt>
      <trkpt lat="34.328318181225924" lon="108.936958995221">
        <ele>392.64374170731753</ele>
        <time>2022-04-30T03:58:38Z</time>
      </trkpt>
      <trkpt lat="34.328177841800446" lon="108.9376525999424">
        <ele>391.8908371552825</ele>
        <time>2022-04-30T04:25:07Z</time>
      </trkpt>
      <trkpt lat="34.32813594562429" lon="108.93775506337123">
        <ele>391.9832069389522</ele>
        <time>2022-04-30T04:25:16Z</time>
      </trkpt>
      <trkpt lat="34.32805689838029" lon="108.93773620432744">
        <ele>391.47387835849077</ele>
        <time>2022-04-30T04:25:22Z</time>
      </trkpt>
      <trkpt lat="34.3279675425772" lon="108.93775898908609">
        <ele>391.6051176022738</ele>
        <time>2022-04-30T04:25:28Z</time>
      </trkpt>
      <trkpt lat="34.327931942270006" lon="108.93805163363827">
        <ele>391.826857524924</ele>
        <time>2022-04-30T04:25:58Z</time>
      </trkpt>
      <trkpt lat="34.327906234782084" lon="108.93814261721397">
        <ele>391.1584808100015</ele>
        <time>2022-04-30T04:26:04Z</time>
      </trkpt>
      <trkpt lat="34.327905830066754" lon="108.93823378067688">
        <ele>390.6759824687615</ele>
        <time>2022-04-30T04:26:14Z</time>
      </trkpt>
      <trkpt lat="34.3279212530165" lon="108.93826048461656">
        <ele>391.26668636500835</ele>
        <time>2022-04-30T04:26:24Z</time>
      </trkpt>
      <trkpt lat="34.32791353087567" lon="108.93843396123127">
        <ele>391.0758547820151</ele>
        <time>2022-04-30T04:32:15Z</time>
      </trkpt>
      <trkpt lat="34.3279168269275" lon="108.93852741079787">
        <ele>390.89123054314405</ele>
        <time>2022-04-30T04:32:23Z</time>
      </trkpt>
      <trkpt lat="34.327978523524045" lon="108.93859805389334">
        <ele>390.9116928316653</ele>
        <time>2022-04-30T04:32:31Z</time>
      </trkpt>
      <trkpt lat="34.327995564868196" lon="108.93868548777955">
        <ele>390.9361343747005</ele>
        <time>2022-04-30T04:32:41Z</time>
      </trkpt>
      <trkpt lat="34.32796122617583" lon="108.93877200699355">
        <ele>390.98306080605835</ele>
        <time>2022-04-30T04:32:49Z</time>
      </trkpt>
      <trkpt lat="34.32797429280866" lon="108.93888808665385">
        <ele>390.8718894822523</ele>
        <time>2022-04-30T04:32:57Z</time>
      </trkpt>
      <trkpt lat="34.32792842684785" lon="108.93896762043649">
        <ele>390.90087208896875</ele>
        <time>2022-04-30T04:33:03Z</time>
      </trkpt>
      <trkpt lat="34.32788782768013" lon="108.939147999324">
        <ele>389.74558657966554</ele>
        <time>2022-04-30T04:33:15Z</time>
      </trkpt>
      <trkpt lat="34.327952194806855" lon="108.93959912390886">
        <ele>390.96087792981416</ele>
        <time>2022-04-30T04:33:58Z</time>
      </trkpt>
      <trkpt lat="34.32791592437567" lon="108.93980336718889">
        <ele>391.1602464141324</ele>
        <time>2022-04-30T04:34:14Z</time>
      </trkpt>
      <trkpt lat="34.32798780193998" lon="108.9398348230426">
        <ele>391.08015101682395</ele>
        <time>2022-04-30T04:34:22Z</time>
      </trkpt>
      <trkpt lat="34.32798715059902" lon="108.94004653526956">
        <ele>392.36867928132415</ele>
        <time>2022-04-30T04:34:42Z</time>
      </trkpt>
      <trkpt lat="34.327942550027025" lon="108.9401499819423">
        <ele>391.80528513435274</ele>
        <time>2022-04-30T04:34:50Z</time>
      </trkpt>
      <trkpt lat="34.32794225011672" lon="108.94032902663777">
        <ele>391.8999455664307</ele>
        <time>2022-04-30T04:35:04Z</time>
      </trkpt>
      <trkpt lat="34.327963716654715" lon="108.94041331311273">
        <ele>391.2576038893312</ele>
        <time>2022-04-30T04:35:12Z</time>
      </trkpt>
      <trkpt lat="34.327969634648674" lon="108.94062079954534">
        <ele>390.9775853510946</ele>
        <time>2022-04-30T04:35:28Z</time>
      </trkpt>
      <trkpt lat="34.328000800889505" lon="108.94080706958648">
        <ele>390.4488914171234</ele>
        <time>2022-04-30T04:35:44Z</time>
      </trkpt>
      <trkpt lat="34.327969375389955" lon="108.94111716456388">
        <ele>390.86817524861544</ele>
        <time>2022-04-30T04:36:06Z</time>
      </trkpt>
      <trkpt lat="34.32794217492399" lon="108.94120397533644">
        <ele>390.3110427893698</ele>
        <time>2022-04-30T04:36:12Z</time>
      </trkpt>
      <trkpt lat="34.32788457374317" lon="108.94160971296003">
        <ele>390.19102141354233</ele>
        <time>2022-04-30T04:36:46Z</time>
      </trkpt>
      <trkpt lat="34.327873035169844" lon="108.94193087419511">
        <ele>390.12378258630633</ele>
        <time>2022-04-30T04:37:11Z</time>
      </trkpt>
      <trkpt lat="34.327887948094116" lon="108.94202557488248">
        <ele>390.00795925874263</ele>
        <time>2022-04-30T04:37:19Z</time>
      </trkpt>
      <trkpt lat="34.32787015207872" lon="108.94224786794577">
        <ele>391.28987981006503</ele>
        <time>2022-04-30T04:37:35Z</time>
      </trkpt>
      <trkpt lat="34.32781556896916" lon="108.94233124756038">
        <ele>390.5950729744509</ele>
        <time>2022-04-30T04:37:49Z</time>
      </trkpt>
      <trkpt lat="34.32781806945144" lon="108.9425120521214">
        <ele>391.4117015078664</ele>
        <time>2022-04-30T04:38:23Z</time>
      </trkpt>
      <trkpt lat="34.32784860429435" lon="108.94270662611993">
        <ele>389.8508661976084</ele>
        <time>2022-04-30T04:38:35Z</time>
      </trkpt>
      <trkpt lat="34.32784539445091" lon="108.94281907666716">
        <ele>390.3657943783328</ele>
        <time>2022-04-30T04:38:43Z</time>
      </trkpt>
      <trkpt lat="34.32788891707514" lon="108.94289278820125">
        <ele>390.1211087303236</ele>
        <time>2022-04-30T04:38:49Z</time>
      </trkpt>
      <trkpt lat="34.32787044297287" lon="108.94298411434468">
        <ele>391.09864929690957</ele>
        <time>2022-04-30T04:38:57Z</time>
      </trkpt>
      <trkpt lat="34.32788620775283" lon="108.94304072955144">
        <ele>390.47389882430434</ele>
        <time>2022-04-30T04:39:05Z</time>
      </trkpt>
      <trkpt lat="34.327902787493365" lon="108.94353799447735">
        <ele>391.1420153286308</ele>
        <time>2022-04-30T04:39:44Z</time>
      </trkpt>
      <trkpt lat="34.32789017786884" lon="108.94382490763648">
        <ele>390.48990584537387</ele>
        <time>2022-04-30T04:40:02Z</time>
      </trkpt>
      <trkpt lat="34.32790350655299" lon="108.94392007977864">
        <ele>390.6923157721758</ele>
        <time>2022-04-30T04:40:08Z</time>
      </trkpt>
      <trkpt lat="34.32788907595203" lon="108.94412982231195">
        <ele>390.4900033874437</ele>
        <time>2022-04-30T04:40:26Z</time>
      </trkpt>
      <trkpt lat="34.32791073420303" lon="108.94424942088058">
        <ele>391.4687413647771</ele>
        <time>2022-04-30T04:40:36Z</time>
      </trkpt>
      <trkpt lat="34.32789448105268" lon="108.94463215737504">
        <ele>391.1744782635942</ele>
        <time>2022-04-30T04:41:06Z</time>
      </trkpt>
      <trkpt lat="34.327878198525944" lon="108.94472710230819">
        <ele>391.7910389220342</ele>
        <time>2022-04-30T04:41:14Z</time>
      </trkpt>
      <trkpt lat="34.32791388439699" lon="108.94504664845707">
        <ele>392.20720342639834</ele>
        <time>2022-04-30T04:41:40Z</time>
      </trkpt>
      <trkpt lat="34.32785204067571" lon="108.94523846117443">
        <ele>391.94265476055443</ele>
        <time>2022-04-30T04:41:56Z</time>
      </trkpt>
      <trkpt lat="34.32787833775007" lon="108.94533377999818">
        <ele>393.44318790826946</ele>
        <time>2022-04-30T04:42:04Z</time>
      </trkpt>
      <trkpt lat="34.32788663221698" lon="108.94544484914029">
        <ele>392.1317605031654</ele>
        <time>2022-04-30T04:42:12Z</time>
      </trkpt>
      <trkpt lat="34.327853174081724" lon="108.94554028633272">
        <ele>392.5362636651844</ele>
        <time>2022-04-30T04:42:18Z</time>
      </trkpt>
      <trkpt lat="34.327874296968645" lon="108.94573715586601">
        <ele>392.89028570987284</ele>
        <time>2022-04-30T04:42:34Z</time>
      </trkpt>
      <trkpt lat="34.32783987532404" lon="108.94582098698766">
        <ele>393.09391733817756</ele>
        <time>2022-04-30T04:42:42Z</time>
      </trkpt>
      <trkpt lat="34.327818242183106" lon="108.94604083571849">
        <ele>392.15689351409674</ele>
        <time>2022-04-30T04:43:02Z</time>
      </trkpt>
      <trkpt lat="34.327821454222935" lon="108.94622487180553">
        <ele>392.78540576808155</ele>
        <time>2022-04-30T04:43:16Z</time>
      </trkpt>
      <trkpt lat="34.3278474164768" lon="108.94632701698558">
        <ele>392.6491749212146</ele>
        <time>2022-04-30T04:43:26Z</time>
      </trkpt>
      <trkpt lat="34.327856511323766" lon="108.94638992065748">
        <ele>392.4604743178934</ele>
        <time>2022-04-30T04:43:31Z</time>
      </trkpt>
      <trkpt lat="34.32785938898251" lon="108.94686402569629">
        <ele>392.82795694097877</ele>
        <time>2022-04-30T04:44:07Z</time>
      </trkpt>
      <trkpt lat="34.32781080478912" lon="108.94723620159169">
        <ele>392.58788901846856</ele>
        <time>2022-04-30T04:44:38Z</time>
      </trkpt>
      <trkpt lat="34.32784153258542" lon="108.94741548074732">
        <ele>392.3452310571447</ele>
        <time>2022-04-30T04:44:54Z</time>
      </trkpt>
      <trkpt lat="34.32780411769129" lon="108.94751407347663">
        <ele>393.0241845045239</ele>
        <time>2022-04-30T04:45:02Z</time>
      </trkpt>
      <trkpt lat="34.327805645629596" lon="108.94762116105711">
        <ele>392.6157986819744</ele>
        <time>2022-04-30T04:45:10Z</time>
      </trkpt>
      <trkpt lat="34.327842634052296" lon="108.947698122143">
        <ele>392.6120384046808</ele>
        <time>2022-04-30T04:45:16Z</time>
      </trkpt>
      <trkpt lat="34.3278060082352" lon="108.94790802197568">
        <ele>392.28196988627315</ele>
        <time>2022-04-30T04:45:34Z</time>
      </trkpt>
      <trkpt lat="34.32782302994167" lon="108.94811078161409">
        <ele>391.0397544344887</ele>
        <time>2022-04-30T04:45:50Z</time>
      </trkpt>
      <trkpt lat="34.32780250495477" lon="108.94830153459313">
        <ele>392.56371062155813</ele>
        <time>2022-04-30T04:46:06Z</time>
      </trkpt>
      <trkpt lat="34.3278554630439" lon="108.94878897577861">
        <ele>392.2216635029763</ele>
        <time>2022-04-30T04:46:50Z</time>
      </trkpt>
      <trkpt lat="34.327891462538126" lon="108.94887937062772">
        <ele>391.786007209681</ele>
        <time>2022-04-30T04:46:58Z</time>
      </trkpt>
      <trkpt lat="34.327933518255534" lon="108.9489170648953">
        <ele>391.9794787084684</ele>
        <time>2022-04-30T04:47:10Z</time>
      </trkpt>
      <trkpt lat="34.32794193289811" lon="108.94907748944199">
        <ele>392.28363814856857</ele>
        <time>2022-04-30T04:48:23Z</time>
      </trkpt>
      <trkpt lat="34.327917988039935" lon="108.9492639960192">
        <ele>392.7333091236651</ele>
        <time>2022-04-30T04:48:36Z</time>
      </trkpt>
      <trkpt lat="34.32793125849221" lon="108.94935055636458">
        <ele>392.00489256344736</ele>
        <time>2022-04-30T04:48:44Z</time>
      </trkpt>
      <trkpt lat="34.327911388378965" lon="108.94944513834872">
        <ele>392.160810184665</ele>
        <time>2022-04-30T04:48:52Z</time>
      </trkpt>
      <trkpt lat="34.32793347007095" lon="108.9495522348798">
        <ele>391.68115917779505</ele>
        <time>2022-04-30T04:49:00Z</time>
      </trkpt>
      <trkpt lat="34.327936598964676" lon="108.94974790040554">
        <ele>393.04496795125306</ele>
        <time>2022-04-30T04:49:18Z</time>
      </trkpt>
      <trkpt lat="34.327908878966674" lon="108.94994721063179">
        <ele>392.8873136937618</ele>
        <time>2022-04-30T04:49:34Z</time>
      </trkpt>
      <trkpt lat="34.32792330071285" lon="108.95024327665529">
        <ele>393.2019814886153</ele>
        <time>2022-04-30T04:49:58Z</time>
      </trkpt>
      <trkpt lat="34.32796069019686" lon="108.95044755300586">
        <ele>393.0462227491662</ele>
        <time>2022-04-30T04:50:16Z</time>
      </trkpt>
      <trkpt lat="34.327948218099095" lon="108.95075497863947">
        <ele>392.2751260539517</ele>
        <time>2022-04-30T04:50:40Z</time>
      </trkpt>
      <trkpt lat="34.3279300400101" lon="108.95084272206306">
        <ele>392.92865153588355</ele>
        <time>2022-04-30T04:50:46Z</time>
      </trkpt>
      <trkpt lat="34.327935035175436" lon="108.95095889937063">
        <ele>392.89186520595104</ele>
        <time>2022-04-30T04:51:00Z</time>
      </trkpt>
      <trkpt lat="34.327939702537684" lon="108.95267552479477">
        <ele>388.5066809626296</ele>
        <time>2022-04-30T04:53:17Z</time>
      </trkpt>
      <trkpt lat="34.32794688250979" lon="108.95298038681874">
        <ele>387.8334512775764</ele>
        <time>2022-04-30T04:53:25Z</time>
      </trkpt>
      <trkpt lat="34.32792122211784" lon="108.95324317936773">
        <ele>386.73584085702896</ele>
        <time>2022-04-30T04:53:31Z</time>
      </trkpt>
      <trkpt lat="34.327981272750115" lon="108.95355616838197">
        <ele>386.31057776510715</ele>
        <time>2022-04-30T04:53:39Z</time>
      </trkpt>
      <trkpt lat="34.3279699812671" lon="108.95365043999941">
        <ele>386.5342307090759</ele>
        <time>2022-04-30T04:53:41Z</time>
      </trkpt>
      <trkpt lat="34.32802264433897" lon="108.95381992148627">
        <ele>387.0833146730438</ele>
        <time>2022-04-30T04:53:45Z</time>
      </trkpt>
      <trkpt lat="34.327994074078056" lon="108.95407528836287">
        <ele>387.42050960473716</ele>
        <time>2022-04-30T04:53:51Z</time>
      </trkpt>
      <trkpt lat="34.32796642971123" lon="108.95416783047754">
        <ele>387.8951841397211</ele>
        <time>2022-04-30T04:53:53Z</time>
      </trkpt>
      <trkpt lat="34.32791614208437" lon="108.95470131862812">
        <ele>387.8181859338656</ele>
        <time>2022-04-30T04:54:05Z</time>
      </trkpt>
      <trkpt lat="34.32796816548287" lon="108.95524646497735">
        <ele>389.5328792883083</ele>
        <time>2022-04-30T04:54:27Z</time>
      </trkpt>
      <trkpt lat="34.32794588457279" lon="108.95545409921965">
        <ele>390.2360888114199</ele>
        <time>2022-04-30T04:54:35Z</time>
      </trkpt>
      <trkpt lat="34.327954739353245" lon="108.95608150907242">
        <ele>391.2561629656702</ele>
        <time>2022-04-30T04:54:52Z</time>
      </trkpt>
      <trkpt lat="34.327995327134104" lon="108.95642880584283">
        <ele>391.972017865628</ele>
        <time>2022-04-30T04:55:02Z</time>
      </trkpt>
      <trkpt lat="34.32799514865105" lon="108.95668622987462">
        <ele>392.4605469079688</ele>
        <time>2022-04-30T04:55:08Z</time>
      </trkpt>
      <trkpt lat="34.3280217555125" lon="108.95688500643435">
        <ele>391.67287968471646</ele>
        <time>2022-04-30T04:55:14Z</time>
      </trkpt>
      <trkpt lat="34.3280443595818" lon="108.95742910006773">
        <ele>393.87517665326595</ele>
        <time>2022-04-30T04:55:38Z</time>
      </trkpt>
      <trkpt lat="34.328078767179235" lon="108.95768456241102">
        <ele>393.6802292410284</ele>
        <time>2022-04-30T04:55:44Z</time>
      </trkpt>
      <trkpt lat="34.32807089667169" lon="108.95806154138236">
        <ele>394.53004999272525</ele>
        <time>2022-04-30T04:55:52Z</time>
      </trkpt>
      <trkpt lat="34.32802127447129" lon="108.95823327452595">
        <ele>394.56510305032134</ele>
        <time>2022-04-30T04:55:56Z</time>
      </trkpt>
      <trkpt lat="34.328016600111745" lon="108.95842399538067">
        <ele>395.0196990510449</ele>
        <time>2022-04-30T04:56:00Z</time>
      </trkpt>
      <trkpt lat="34.328043330677154" lon="108.95850853675715">
        <ele>395.0971267269924</ele>
        <time>2022-04-30T04:56:02Z</time>
      </trkpt>
      <trkpt lat="34.32802215041696" lon="108.95869516730362">
        <ele>394.35905243083835</ele>
        <time>2022-04-30T04:56:06Z</time>
      </trkpt>
      <trkpt lat="34.32802295526581" lon="108.9588608393011">
        <ele>394.14335293881595</ele>
        <time>2022-04-30T04:56:10Z</time>
      </trkpt>
      <trkpt lat="34.32798285404275" lon="108.95905912101442">
        <ele>394.06356908380985</ele>
        <time>2022-04-30T04:56:14Z</time>
      </trkpt>
      <trkpt lat="34.327980648133796" lon="108.95932768089007">
        <ele>394.0027194675058</ele>
        <time>2022-04-30T04:56:20Z</time>
      </trkpt>
      <trkpt lat="34.32803767066393" lon="108.95947642286886">
        <ele>394.3431036295369</ele>
        <time>2022-04-30T04:56:24Z</time>
      </trkpt>
      <trkpt lat="34.32806620161571" lon="108.95983673007045">
        <ele>393.75144871417433</ele>
        <time>2022-04-30T04:56:32Z</time>
      </trkpt>
      <trkpt lat="34.328034477704854" lon="108.95993489823987">
        <ele>393.2297202507034</ele>
        <time>2022-04-30T04:56:34Z</time>
      </trkpt>
      <trkpt lat="34.32803216449753" lon="108.96002927734764">
        <ele>393.66888098046184</ele>
        <time>2022-04-30T04:56:36Z</time>
      </trkpt>
      <trkpt lat="34.32797947433898" lon="108.96024938290098">
        <ele>394.05265286937356</ele>
        <time>2022-04-30T04:56:40Z</time>
      </trkpt>
      <trkpt lat="34.32798900995318" lon="108.96054592388049">
        <ele>393.32785992883146</ele>
        <time>2022-04-30T04:56:46Z</time>
      </trkpt>
      <trkpt lat="34.32802217283781" lon="108.96065035952856">
        <ele>393.36260879132897</ele>
        <time>2022-04-30T04:56:48Z</time>
      </trkpt>
      <trkpt lat="34.3280390772019" lon="108.9608512799889">
        <ele>393.2510977573693</ele>
        <time>2022-04-30T04:56:52Z</time>
      </trkpt>
      <trkpt lat="34.3280314474767" lon="108.96139380716569">
        <ele>393.86856004875153</ele>
        <time>2022-04-30T04:57:02Z</time>
      </trkpt>
      <trkpt lat="34.328014437614875" lon="108.9618571862258">
        <ele>394.70565506163985</ele>
        <time>2022-04-30T04:57:10Z</time>
      </trkpt>
      <trkpt lat="34.32800974655805" lon="108.96247594876183">
        <ele>394.99657950084656</ele>
        <time>2022-04-30T04:57:22Z</time>
      </trkpt>
      <trkpt lat="34.32801309263822" lon="108.9630617531358">
        <ele>396.97312670759857</ele>
        <time>2022-04-30T04:57:34Z</time>
      </trkpt>
      <trkpt lat="34.32800829490445" lon="108.96359725193093">
        <ele>397.3107148865238</ele>
        <time>2022-04-30T04:57:46Z</time>
      </trkpt>
      <trkpt lat="34.32802758941475" lon="108.96392550851903">
        <ele>397.26704230718315</ele>
        <time>2022-04-30T04:57:54Z</time>
      </trkpt>
      <trkpt lat="34.32806951549695" lon="108.9641141719712">
        <ele>396.56983095034957</ele>
        <time>2022-04-30T04:57:58Z</time>
      </trkpt>
      <trkpt lat="34.32808702782322" lon="108.96451815486444">
        <ele>396.4927404727787</ele>
        <time>2022-04-30T04:58:08Z</time>
      </trkpt>
      <trkpt lat="34.327992042342544" lon="108.96481875602598">
        <ele>395.3032593745738</ele>
        <time>2022-04-30T04:58:16Z</time>
      </trkpt>
      <trkpt lat="34.32799808133737" lon="108.96492256478972">
        <ele>394.29358270857483</ele>
        <time>2022-04-30T04:58:18Z</time>
      </trkpt>
      <trkpt lat="34.32797219070461" lon="108.96503069782402">
        <ele>394.3320846641436</ele>
        <time>2022-04-30T04:58:20Z</time>
      </trkpt>
      <trkpt lat="34.32799229918296" lon="108.96524152409329">
        <ele>394.05462892726064</ele>
        <time>2022-04-30T04:58:24Z</time>
      </trkpt>
      <trkpt lat="34.3280469666028" lon="108.96554080436775">
        <ele>394.05043687019497</ele>
        <time>2022-04-30T04:58:30Z</time>
      </trkpt>
      <trkpt lat="34.328033220694124" lon="108.96564753424572">
        <ele>394.050865707919</ele>
        <time>2022-04-30T04:58:32Z</time>
      </trkpt>
      <trkpt lat="34.32805909677283" lon="108.96582977109848">
        <ele>394.57891120854765</ele>
        <time>2022-04-30T04:58:36Z</time>
      </trkpt>
      <trkpt lat="34.32804800871462" lon="108.96639393086954">
        <ele>394.7946928795427</ele>
        <time>2022-04-30T04:58:52Z</time>
      </trkpt>
      <trkpt lat="34.328017315089895" lon="108.96651499057151">
        <ele>394.603808212094</ele>
        <time>2022-04-30T04:58:58Z</time>
      </trkpt>
      <trkpt lat="34.32789721633404" lon="108.96661689853151">
        <ele>395.00178107619286</ele>
        <time>2022-04-30T04:59:10Z</time>
      </trkpt>
      <trkpt lat="34.32784631289171" lon="108.96681552287812">
        <ele>394.92296934966</ele>
        <time>2022-04-30T05:00:01Z</time>
      </trkpt>
      <trkpt lat="34.32789909046137" lon="108.96742260936585">
        <ele>395.53103565517813</ele>
        <time>2022-04-30T05:00:17Z</time>
      </trkpt>
      <trkpt lat="34.32791381766349" lon="108.9678557648176">
        <ele>395.6192234624177</ele>
        <time>2022-04-30T05:00:29Z</time>
      </trkpt>
      <trkpt lat="34.328021946349445" lon="108.96837216271061">
        <ele>393.5724021187052</ele>
        <time>2022-04-30T05:00:45Z</time>
      </trkpt>
      <trkpt lat="34.3280765874904" lon="108.96849907004098">
        <ele>393.93310672882944</ele>
        <time>2022-04-30T05:00:49Z</time>
      </trkpt>
      <trkpt lat="34.3280941156524" lon="108.96858788245075">
        <ele>393.2478896258399</ele>
        <time>2022-04-30T05:00:51Z</time>
      </trkpt>
      <trkpt lat="34.32810648267285" lon="108.96892392517897">
        <ele>393.9774681208655</ele>
        <time>2022-04-30T05:01:02Z</time>
      </trkpt>
      <trkpt lat="34.328192660812036" lon="108.96920532699181">
        <ele>395.80793324578553</ele>
        <time>2022-04-30T05:01:16Z</time>
      </trkpt>
      <trkpt lat="34.328185301480154" lon="108.96929781029316">
        <ele>394.93696365412325</ele>
        <time>2022-04-30T05:01:20Z</time>
      </trkpt>
      <trkpt lat="34.32813114842703" lon="108.96943724054123">
        <ele>394.4675821280107</ele>
        <time>2022-04-30T05:01:24Z</time>
      </trkpt>
      <trkpt lat="34.32820797422929" lon="108.9700462019705">
        <ele>395.85419171024114</ele>
        <time>2022-04-30T05:01:36Z</time>
      </trkpt>
      <trkpt lat="34.32813206198651" lon="108.9701746007364">
        <ele>394.98506013303995</ele>
        <time>2022-04-30T05:01:40Z</time>
      </trkpt>
      <trkpt lat="34.328118594345746" lon="108.97040768514192">
        <ele>395.9061619155109</ele>
        <time>2022-04-30T05:01:48Z</time>
      </trkpt>
      <trkpt lat="34.328404428330224" lon="108.97065450546036">
        <ele>394.93659799173474</ele>
        <time>2022-04-30T05:01:54Z</time>
      </trkpt>
      <trkpt lat="34.328470726969314" lon="108.97085280796941">
        <ele>395.30935688409954</ele>
        <time>2022-04-30T05:02:02Z</time>
      </trkpt>
      <trkpt lat="34.328466195910174" lon="108.97095821840804">
        <ele>396.0404684115201</ele>
        <time>2022-04-30T05:02:06Z</time>
      </trkpt>
      <trkpt lat="34.3283963748679" lon="108.97109031224554">
        <ele>396.7258353205398</ele>
        <time>2022-04-30T05:02:08Z</time>
      </trkpt>
      <trkpt lat="34.328447037417824" lon="108.97121553562364">
        <ele>396.89116755872965</ele>
        <time>2022-04-30T05:02:12Z</time>
      </trkpt>
      <trkpt lat="34.32838726378494" lon="108.97148038176411">
        <ele>395.71241038292646</ele>
        <time>2022-04-30T05:02:18Z</time>
      </trkpt>
      <trkpt lat="34.32836788360169" lon="108.97164550801885">
        <ele>395.30700826179236</ele>
        <time>2022-04-30T05:02:22Z</time>
      </trkpt>
      <trkpt lat="34.32842536313764" lon="108.9718551312373">
        <ele>396.84261468425393</ele>
        <time>2022-04-30T05:02:32Z</time>
      </trkpt>
      <trkpt lat="34.32837130486549" lon="108.97195478308042">
        <ele>396.5458538560197</ele>
        <time>2022-04-30T05:02:36Z</time>
      </trkpt>
      <trkpt lat="34.32784226634227" lon="108.97334450674637">
        <ele>396.81948792003095</ele>
        <time>2022-04-30T05:02:40Z</time>
      </trkpt>
      <trkpt lat="34.327893928593284" lon="108.9734829913677">
        <ele>396.5851669823751</ele>
        <time>2022-04-30T05:02:42Z</time>
      </trkpt>
      <trkpt lat="34.32819863600717" lon="108.97390987287618">
        <ele>395.42899120692164</ele>
        <time>2022-04-30T05:02:48Z</time>
      </trkpt>
      <trkpt lat="34.32822637022128" lon="108.97401831660531">
        <ele>395.59767382685095</ele>
        <time>2022-04-30T05:02:52Z</time>
      </trkpt>
      <trkpt lat="34.32812866795931" lon="108.97431991680281">
        <ele>394.43777144048363</ele>
        <time>2022-04-30T05:03:00Z</time>
      </trkpt>
      <trkpt lat="34.32813406090168" lon="108.97456353236609">
        <ele>396.74476653989404</ele>
        <time>2022-04-30T05:03:10Z</time>
      </trkpt>
      <trkpt lat="34.32815430936528" lon="108.97470580539597">
        <ele>395.41284439340234</ele>
        <time>2022-04-30T05:03:14Z</time>
      </trkpt>
      <trkpt lat="34.3281053377499" lon="108.9748170282587">
        <ele>396.21883600205183</ele>
        <time>2022-04-30T05:03:18Z</time>
      </trkpt>
      <trkpt lat="34.32802886222476" lon="108.97493290898393">
        <ele>397.39948323741555</ele>
        <time>2022-04-30T05:03:22Z</time>
      </trkpt>
      <trkpt lat="34.328057584529546" lon="108.97514780886307">
        <ele>395.94553810171783</ele>
        <time>2022-04-30T05:03:26Z</time>
      </trkpt>
      <trkpt lat="34.327964553315184" lon="108.97536530058733">
        <ele>396.28109260462224</ele>
        <time>2022-04-30T05:03:34Z</time>
      </trkpt>
      <trkpt lat="34.32798541965796" lon="108.97590621151481">
        <ele>395.5712142176926</ele>
        <time>2022-04-30T05:03:46Z</time>
      </trkpt>
      <trkpt lat="34.32794827868493" lon="108.97629894091463">
        <ele>395.7735282443464</ele>
        <time>2022-04-30T05:03:54Z</time>
      </trkpt>
      <trkpt lat="34.32795635033764" lon="108.97657378426484">
        <ele>395.8364603575319</ele>
        <time>2022-04-30T05:04:00Z</time>
      </trkpt>
      <trkpt lat="34.3279819629568" lon="108.97670112495814">
        <ele>395.6711953934282</ele>
        <time>2022-04-30T05:04:02Z</time>
      </trkpt>
      <trkpt lat="34.32792311920156" lon="108.97692801706181">
        <ele>395.78891224227846</ele>
        <time>2022-04-30T05:04:08Z</time>
      </trkpt>
      <trkpt lat="34.32800913874259" lon="108.97721331989841">
        <ele>395.51611023023725</ele>
        <time>2022-04-30T05:04:14Z</time>
      </trkpt>
      <trkpt lat="34.328058774832186" lon="108.97731525312693">
        <ele>394.2901530349627</ele>
        <time>2022-04-30T05:04:18Z</time>
      </trkpt>
      <trkpt lat="34.32809004037888" lon="108.97748215420677">
        <ele>394.29155119974166</ele>
        <time>2022-04-30T05:04:22Z</time>
      </trkpt>
      <trkpt lat="34.32806666924382" lon="108.97783391417008">
        <ele>393.67261743638664</ele>
        <time>2022-04-30T05:04:34Z</time>
      </trkpt>
      <trkpt lat="34.32803939219621" lon="108.97794038850407">
        <ele>393.75480759330094</ele>
        <time>2022-04-30T05:04:36Z</time>
      </trkpt>
      <trkpt lat="34.32803234641934" lon="108.97816944154727">
        <ele>395.325816125609</ele>
        <time>2022-04-30T05:04:44Z</time>
      </trkpt>
      <trkpt lat="34.32819035181549" lon="108.97848227112529">
        <ele>394.51365914195776</ele>
        <time>2022-04-30T05:04:54Z</time>
      </trkpt>
      <trkpt lat="34.328320078771235" lon="108.97903044303342">
        <ele>397.2684264080599</ele>
        <time>2022-04-30T05:05:20Z</time>
      </trkpt>
      <trkpt lat="34.32836306838063" lon="108.97925099072332">
        <ele>396.05200710054487</ele>
        <time>2022-04-30T05:05:32Z</time>
      </trkpt>
      <trkpt lat="34.328394023656955" lon="108.97933559369322">
        <ele>396.5557600753382</ele>
        <time>2022-04-30T05:05:36Z</time>
      </trkpt>
      <trkpt lat="34.32848829526228" lon="108.97941369727722">
        <ele>396.48115850798786</ele>
        <time>2022-04-30T05:05:40Z</time>
      </trkpt>
      <trkpt lat="34.32881211980962" lon="108.97947970774354">
        <ele>396.35190137382597</ele>
        <time>2022-04-30T05:05:50Z</time>
      </trkpt>
      <trkpt lat="34.32904992624931" lon="108.97948681479379">
        <ele>397.5128583833575</ele>
        <time>2022-04-30T05:05:58Z</time>
      </trkpt>
      <trkpt lat="34.32906742049243" lon="108.97962691434088">
        <ele>396.78578866366297</ele>
        <time>2022-04-30T05:06:02Z</time>
      </trkpt>
      <trkpt lat="34.32910559088034" lon="108.9796978433268">
        <ele>396.1722982721403</ele>
        <time>2022-04-30T05:06:12Z</time>
      </trkpt>
    </trkseg>
  </trk>
</gpx>