<?xml version="1.0" encoding="UTF-8"?>
<gpx xmlns="http://www.topografix.com/GPX/1/1" xmlns:gpxtpx="http://www.garmin.com/xmlschemas/TrackPointExtension/v1" xmlns:xsi="http://www.w3.org/2001/XMLSchema-instance" xsi:schemaLocation="http://www.topografix.com/GPX/1/1 http://www.topografix.com/GPX/1/1/gpx.xsd" version="1.1" creator="gpx.py -- https://github.com/tkrajina/gpxpy">
  <trk>
    <name>gpx from keep</name>
    <type>Ride</type>
    <trkseg>
      <trkpt lat="34.32914356126036" lon="108.98037031677929">
        <ele>395.88892551039675</ele>
        <time>2022-03-10T23:35:00Z</time>
      </trkpt>
      <trkpt lat="34.32900327491653" lon="108.98048851388715">
        <ele>395.8607258507982</ele>
        <time>2022-03-10T23:35:10Z</time>
      </trkpt>
      <trkpt lat="34.32884138532763" lon="108.98057019150305">
        <ele>395.8162740394473</ele>
        <time>2022-03-10T23:35:14Z</time>
      </trkpt>
      <trkpt lat="34.32882451257304" lon="108.98066995077241">
        <ele>395.7822370938957</ele>
        <time>2022-03-10T23:35:18Z</time>
      </trkpt>
      <trkpt lat="34.32867440137942" lon="108.98073691279201">
        <ele>396.52404407504946</ele>
        <time>2022-03-10T23:35:26Z</time>
      </trkpt>
      <trkpt lat="34.32839697688398" lon="108.98076367334325">
        <ele>395.2943933205679</ele>
        <time>2022-03-10T23:35:42Z</time>
      </trkpt>
      <trkpt lat="34.32829548685303" lon="108.9808204168468">
        <ele>395.27202917728573</ele>
        <time>2022-03-10T23:35:46Z</time>
      </trkpt>
      <trkpt lat="34.328213343218884" lon="108.98084237771424">
        <ele>394.93083680793643</ele>
        <time>2022-03-10T23:35:50Z</time>
      </trkpt>
      <trkpt lat="34.32815312541359" lon="108.98090041371798">
        <ele>395.5112116485834</ele>
        <time>2022-03-10T23:35:56Z</time>
      </trkpt>
      <trkpt lat="34.328137013942076" lon="108.9810000893399">
        <ele>395.52891857083887</ele>
        <time>2022-03-10T23:36:04Z</time>
      </trkpt>
      <trkpt lat="34.328165886962985" lon="108.9810770488477">
        <ele>394.9604253936559</ele>
        <time>2022-03-10T23:36:16Z</time>
      </trkpt>
      <trkpt lat="34.32817872869493" lon="108.98125684427947">
        <ele>395.34762662276626</ele>
        <time>2022-03-10T23:36:49Z</time>
      </trkpt>
      <trkpt lat="34.328233522869034" lon="108.98135000440045">
        <ele>395.24194279592484</ele>
        <time>2022-03-10T23:36:53Z</time>
      </trkpt>
      <trkpt lat="34.32830497708714" lon="108.98161029774974">
        <ele>395.12053859606385</ele>
        <time>2022-03-10T23:36:59Z</time>
      </trkpt>
      <trkpt lat="34.3283416398742" lon="108.98169180278022">
        <ele>395.0361378826201</ele>
        <time>2022-03-10T23:37:01Z</time>
      </trkpt>
      <trkpt lat="34.328361247983864" lon="108.9818964926056">
        <ele>394.99613489583135</ele>
        <time>2022-03-10T23:37:05Z</time>
      </trkpt>
      <trkpt lat="34.328344127984835" lon="108.98210844793537">
        <ele>394.3159292014316</ele>
        <time>2022-03-10T23:37:09Z</time>
      </trkpt>
      <trkpt lat="34.32825160679986" lon="108.98255084181794">
        <ele>394.10774663835764</ele>
        <time>2022-03-10T23:37:17Z</time>
      </trkpt>
      <trkpt lat="34.32827730940748" lon="108.98309964345822">
        <ele>393.29040153417736</ele>
        <time>2022-03-10T23:37:27Z</time>
      </trkpt>
      <trkpt lat="34.328282390846596" lon="108.98330213045254">
        <ele>392.6794681698084</ele>
        <time>2022-03-10T23:37:31Z</time>
      </trkpt>
      <trkpt lat="34.32825072330377" lon="108.98341066948372">
        <ele>392.5661435909569</ele>
        <time>2022-03-10T23:37:33Z</time>
      </trkpt>
      <trkpt lat="34.32826129653583" lon="108.98370855953024">
        <ele>392.9555633403361</ele>
        <time>2022-03-10T23:37:37Z</time>
      </trkpt>
      <trkpt lat="34.32844639952411" lon="108.98412323692615">
        <ele>392.2263266183436</ele>
        <time>2022-03-10T23:37:45Z</time>
      </trkpt>
      <trkpt lat="34.32844094825246" lon="108.9843270292014">
        <ele>392.09907669201493</ele>
        <time>2022-03-10T23:37:49Z</time>
      </trkpt>
      <trkpt lat="34.32837913243383" lon="108.98440643348252">
        <ele>392.1637711962685</ele>
        <time>2022-03-10T23:37:51Z</time>
      </trkpt>
      <trkpt lat="34.32829597467719" lon="108.98444004694399">
        <ele>391.76445494871587</ele>
        <time>2022-03-10T23:38:01Z</time>
      </trkpt>
      <trkpt lat="34.32804356324347" lon="108.98453146609454">
        <ele>392.91294247843325</ele>
        <time>2022-03-10T23:38:20Z</time>
      </trkpt>
      <trkpt lat="34.327991666362394" lon="108.9845992997713">
        <ele>392.46688182651997</ele>
        <time>2022-03-10T23:38:22Z</time>
      </trkpt>
      <trkpt lat="34.32796365797331" lon="108.98477854583842">
        <ele>392.24617686029524</ele>
        <time>2022-03-10T23:38:26Z</time>
      </trkpt>
      <trkpt lat="34.32797652065095" lon="108.98499523009933">
        <ele>392.63092962652445</ele>
        <time>2022-03-10T23:38:30Z</time>
      </trkpt>
      <trkpt lat="34.32794327539081" lon="108.9853314048904">
        <ele>391.8934094561264</ele>
        <time>2022-03-10T23:38:36Z</time>
      </trkpt>
      <trkpt lat="34.32798528268951" lon="108.98545975943524">
        <ele>392.47330712899566</ele>
        <time>2022-03-10T23:38:38Z</time>
      </trkpt>
      <trkpt lat="34.328001353927064" lon="108.98580919456788">
        <ele>391.9742049816996</ele>
        <time>2022-03-10T23:38:44Z</time>
      </trkpt>
      <trkpt lat="34.32796257436592" lon="108.98602806700941">
        <ele>391.05105351563543</ele>
        <time>2022-03-10T23:38:48Z</time>
      </trkpt>
      <trkpt lat="34.327959607358856" lon="108.98622830380175">
        <ele>391.70937338192016</ele>
        <time>2022-03-10T23:38:52Z</time>
      </trkpt>
      <trkpt lat="34.32801595944578" lon="108.98666796985643">
        <ele>391.9848900930956</ele>
        <time>2022-03-10T23:39:00Z</time>
      </trkpt>
      <trkpt lat="34.32804312067002" lon="108.98677682486432">
        <ele>392.8251170553267</ele>
        <time>2022-03-10T23:39:02Z</time>
      </trkpt>
      <trkpt lat="34.32803965724981" lon="108.98707909871656">
        <ele>393.8446675334126</ele>
        <time>2022-03-10T23:39:08Z</time>
      </trkpt>
      <trkpt lat="34.328057857946014" lon="108.98719329138262">
        <ele>394.4232527129352</ele>
        <time>2022-03-10T23:39:10Z</time>
      </trkpt>
      <trkpt lat="34.32802259751454" lon="108.98750322027053">
        <ele>395.3407956091687</ele>
        <time>2022-03-10T23:39:15Z</time>
      </trkpt>
      <trkpt lat="34.32804564098737" lon="108.98786795606236">
        <ele>394.14576831273735</ele>
        <time>2022-03-10T23:39:21Z</time>
      </trkpt>
      <trkpt lat="34.32804805231249" lon="108.98844354542334">
        <ele>393.0793040897697</ele>
        <time>2022-03-10T23:39:31Z</time>
      </trkpt>
      <trkpt lat="34.32798538170075" lon="108.98889065069325">
        <ele>391.6940407725051</ele>
        <time>2022-03-10T23:39:39Z</time>
      </trkpt>
      <trkpt lat="34.32801461422519" lon="108.98921353633294">
        <ele>391.9296043589711</ele>
        <time>2022-03-10T23:39:45Z</time>
      </trkpt>
      <trkpt lat="34.327940409963986" lon="108.98977715414925">
        <ele>391.4463611943647</ele>
        <time>2022-03-10T23:39:55Z</time>
      </trkpt>
      <trkpt lat="34.32794503457719" lon="108.98996735668196">
        <ele>392.65189688373357</ele>
        <time>2022-03-10T23:39:59Z</time>
      </trkpt>
      <trkpt lat="34.327928381029956" lon="108.99006746136584">
        <ele>391.5346316052601</ele>
        <time>2022-03-10T23:40:01Z</time>
      </trkpt>
      <trkpt lat="34.327940549489135" lon="108.9902277887841">
        <ele>391.2497273348272</ele>
        <time>2022-03-10T23:40:05Z</time>
      </trkpt>
      <trkpt lat="34.32792847315276" lon="108.99032563031146">
        <ele>391.2351073361933</ele>
        <time>2022-03-10T23:40:09Z</time>
      </trkpt>
      <trkpt lat="34.32787452958492" lon="108.99031030436949">
        <ele>391.42961756978184</ele>
        <time>2022-03-10T23:40:19Z</time>
      </trkpt>
      <trkpt lat="34.327904269508664" lon="108.99052266119561">
        <ele>391.4896790403873</ele>
        <time>2022-03-10T23:40:48Z</time>
      </trkpt>
      <trkpt lat="34.327917139104606" lon="108.99061036118943">
        <ele>391.85968499444425</ele>
        <time>2022-03-10T23:40:50Z</time>
      </trkpt>
      <trkpt lat="34.32814209023079" lon="108.99106799419758">
        <ele>391.9885366233066</ele>
        <time>2022-03-10T23:41:00Z</time>
      </trkpt>
      <trkpt lat="34.328152411140884" lon="108.99116447443481">
        <ele>392.0772512983531</ele>
        <time>2022-03-10T23:41:02Z</time>
      </trkpt>
      <trkpt lat="34.328116780879874" lon="108.9913774341136">
        <ele>392.87515546754</ele>
        <time>2022-03-10T23:41:06Z</time>
      </trkpt>
      <trkpt lat="34.32806095469136" lon="108.99143529009034">
        <ele>392.76641355920583</ele>
        <time>2022-03-10T23:41:08Z</time>
      </trkpt>
      <trkpt lat="34.32798088739902" lon="108.99168879834228">
        <ele>393.84755696728826</ele>
        <time>2022-03-10T23:41:16Z</time>
      </trkpt>
      <trkpt lat="34.32794731356975" lon="108.99214658885282">
        <ele>394.4158903900534</ele>
        <time>2022-03-10T23:41:31Z</time>
      </trkpt>
      <trkpt lat="34.32798407600387" lon="108.99226950380469">
        <ele>393.9992169197649</ele>
        <time>2022-03-10T23:41:34Z</time>
      </trkpt>
      <trkpt lat="34.327988714572015" lon="108.99239266911117">
        <ele>395.10950380191207</ele>
        <time>2022-03-10T23:41:38Z</time>
      </trkpt>
      <trkpt lat="34.32796614947733" lon="108.99262189348258">
        <ele>395.4809417594224</ele>
        <time>2022-03-10T23:41:46Z</time>
      </trkpt>
      <trkpt lat="34.328011095538585" lon="108.99303016702326">
        <ele>394.7035754173994</ele>
        <time>2022-03-10T23:41:58Z</time>
      </trkpt>
      <trkpt lat="34.3280834183374" lon="108.99326152606922">
        <ele>394.7179020876065</ele>
        <time>2022-03-10T23:42:08Z</time>
      </trkpt>
      <trkpt lat="34.32813250459511" lon="108.99333331619152">
        <ele>393.2869277857244</ele>
        <time>2022-03-10T23:42:10Z</time>
      </trkpt>
      <trkpt lat="34.32817756840487" lon="108.99344360962802">
        <ele>393.96112436056137</ele>
        <time>2022-03-10T23:42:14Z</time>
      </trkpt>
      <trkpt lat="34.32819074227528" lon="108.99366810646102">
        <ele>394.4468020154163</ele>
        <time>2022-03-10T23:42:22Z</time>
      </trkpt>
      <trkpt lat="34.328336448262824" lon="108.99393234645719">
        <ele>393.33073886856437</ele>
        <time>2022-03-10T23:42:30Z</time>
      </trkpt>
      <trkpt lat="34.3284007160287" lon="108.99399472494183">
        <ele>393.27152691129595</ele>
        <time>2022-03-10T23:42:32Z</time>
      </trkpt>
      <trkpt lat="34.3285040839914" lon="108.9944503138039">
        <ele>393.5681652734056</ele>
        <time>2022-03-10T23:42:50Z</time>
      </trkpt>
      <trkpt lat="34.328583047090525" lon="108.9945522594807">
        <ele>394.0644901189953</ele>
        <time>2022-03-10T23:42:56Z</time>
      </trkpt>
      <trkpt lat="34.328603821109084" lon="108.99464005939183">
        <ele>393.9643039777875</ele>
        <time>2022-03-10T23:42:58Z</time>
      </trkpt>
      <trkpt lat="34.32810560715059" lon="108.99760846555259">
        <ele>394.3173274323344</ele>
        <time>2022-03-10T23:43:02Z</time>
      </trkpt>
      <trkpt lat="34.32801667506137" lon="108.99784821520669">
        <ele>394.52611188497394</ele>
        <time>2022-03-10T23:43:06Z</time>
      </trkpt>
      <trkpt lat="34.327887936091265" lon="108.99799092839721">
        <ele>394.2180176926777</ele>
        <time>2022-03-10T23:43:14Z</time>
      </trkpt>
      <trkpt lat="34.32784352688959" lon="108.9983154832587">
        <ele>393.9547683475539</ele>
        <time>2022-03-10T23:43:40Z</time>
      </trkpt>
      <trkpt lat="34.32787354807899" lon="108.99846288906865">
        <ele>394.0846843570471</ele>
        <time>2022-03-10T23:43:43Z</time>
      </trkpt>
      <trkpt lat="34.32789349274973" lon="108.99900082157454">
        <ele>393.555044897832</ele>
        <time>2022-03-10T23:43:53Z</time>
      </trkpt>
      <trkpt lat="34.32788114175866" lon="108.99909368732803">
        <ele>393.7436738284305</ele>
        <time>2022-03-10T23:43:55Z</time>
      </trkpt>
      <trkpt lat="34.32791329912569" lon="108.9995192014342">
        <ele>394.9309985646978</ele>
        <time>2022-03-10T23:44:03Z</time>
      </trkpt>
      <trkpt lat="34.32798557160389" lon="108.99998910897153">
        <ele>393.628958853893</ele>
        <time>2022-03-10T23:44:11Z</time>
      </trkpt>
      <trkpt lat="34.32795851935081" lon="109.00019273971746">
        <ele>394.4494765577838</ele>
        <time>2022-03-10T23:44:15Z</time>
      </trkpt>
      <trkpt lat="34.32796475312584" lon="109.00084329944347">
        <ele>394.30294656101614</ele>
        <time>2022-03-10T23:44:25Z</time>
      </trkpt>
      <trkpt lat="34.327941208195696" lon="109.00111956757608">
        <ele>394.2047164235264</ele>
        <time>2022-03-10T23:44:29Z</time>
      </trkpt>
      <trkpt lat="34.32795528665967" lon="109.00159926315638">
        <ele>394.06005858350545</ele>
        <time>2022-03-10T23:44:37Z</time>
      </trkpt>
      <trkpt lat="34.327996299515235" lon="109.0019353234818">
        <ele>395.58685790002346</ele>
        <time>2022-03-10T23:44:43Z</time>
      </trkpt>
      <trkpt lat="34.327972129142104" lon="109.00204860856302">
        <ele>395.26418605446815</ele>
        <time>2022-03-10T23:44:45Z</time>
      </trkpt>
      <trkpt lat="34.32800415679346" lon="109.00264489416318">
        <ele>395.7980720270425</ele>
        <time>2022-03-10T23:44:55Z</time>
      </trkpt>
      <trkpt lat="34.328008293234696" lon="109.00276116379435">
        <ele>396.44623365066946</ele>
        <time>2022-03-10T23:44:57Z</time>
      </trkpt>
      <trkpt lat="34.32798057245874" lon="109.00295915044484">
        <ele>396.6403597891331</ele>
        <time>2022-03-10T23:45:01Z</time>
      </trkpt>
      <trkpt lat="34.32796513897453" lon="109.00330354880681">
        <ele>396.3422767492011</ele>
        <time>2022-03-10T23:45:07Z</time>
      </trkpt>
      <trkpt lat="34.32797562319239" lon="109.00341923505812">
        <ele>396.37477569747716</ele>
        <time>2022-03-10T23:45:09Z</time>
      </trkpt>
      <trkpt lat="34.32794360505792" lon="109.00362682433867">
        <ele>395.6199093349278</ele>
        <time>2022-03-10T23:45:13Z</time>
      </trkpt>
      <trkpt lat="34.32796987173276" lon="109.00375438371096">
        <ele>395.3821632275358</ele>
        <time>2022-03-10T23:45:15Z</time>
      </trkpt>
      <trkpt lat="34.32799688407581" lon="109.00398773609014">
        <ele>394.8213217156008</ele>
        <time>2022-03-10T23:45:19Z</time>
      </trkpt>
      <trkpt lat="34.32798389001114" lon="109.00437256158598">
        <ele>394.8096373649314</ele>
        <time>2022-03-10T23:45:25Z</time>
      </trkpt>
      <trkpt lat="34.327998707588634" lon="109.00450871292227">
        <ele>394.9400824420154</ele>
        <time>2022-03-10T23:45:27Z</time>
      </trkpt>
      <trkpt lat="34.327992160341175" lon="109.00496949210816">
        <ele>394.6979734580964</ele>
        <time>2022-03-10T23:45:35Z</time>
      </trkpt>
      <trkpt lat="34.32803891150927" lon="109.00519087840732">
        <ele>394.20072334166616</ele>
        <time>2022-03-10T23:45:39Z</time>
      </trkpt>
      <trkpt lat="34.32804928100626" lon="109.0054007815916">
        <ele>394.84987115021795</ele>
        <time>2022-03-10T23:45:43Z</time>
      </trkpt>
      <trkpt lat="34.328080946068106" lon="109.00561006874256">
        <ele>395.2066256022081</ele>
        <time>2022-03-10T23:45:47Z</time>
      </trkpt>
      <trkpt lat="34.32804670269327" lon="109.00576008173896">
        <ele>394.0128931067884</ele>
        <time>2022-03-10T23:45:49Z</time>
      </trkpt>
      <trkpt lat="34.32806149412697" lon="109.00600500538215">
        <ele>395.10307841748</ele>
        <time>2022-03-10T23:45:53Z</time>
      </trkpt>
      <trkpt lat="34.32804750492568" lon="109.00624529219907">
        <ele>394.54383471235633</ele>
        <time>2022-03-10T23:45:57Z</time>
      </trkpt>
      <trkpt lat="34.32807400360427" lon="109.00634542860954">
        <ele>394.94290191400796</ele>
        <time>2022-03-10T23:45:59Z</time>
      </trkpt>
      <trkpt lat="34.32812205730994" lon="109.00643783037019">
        <ele>395.08261064160615</ele>
        <time>2022-03-10T23:46:01Z</time>
      </trkpt>
      <trkpt lat="34.328137429605384" lon="109.00679356365644">
        <ele>396.292760560289</ele>
        <time>2022-03-10T23:46:07Z</time>
      </trkpt>
      <trkpt lat="34.32810985030722" lon="109.00717525825074">
        <ele>394.5286145368591</ele>
        <time>2022-03-10T23:46:13Z</time>
      </trkpt>
      <trkpt lat="34.32796968644581" lon="109.00756148964156">
        <ele>393.18735799286515</ele>
        <time>2022-03-10T23:46:19Z</time>
      </trkpt>
      <trkpt lat="34.327950448837605" lon="109.00810362618213">
        <ele>392.32071330491453</ele>
        <time>2022-03-10T23:46:27Z</time>
      </trkpt>
      <trkpt lat="34.32793563832246" lon="109.00863697759021">
        <ele>392.4304780624807</ele>
        <time>2022-03-10T23:46:35Z</time>
      </trkpt>
      <trkpt lat="34.32793580540659" lon="109.00878655633788">
        <ele>391.9682346964255</ele>
        <time>2022-03-10T23:46:37Z</time>
      </trkpt>
      <trkpt lat="34.32793609661798" lon="109.00904594667671">
        <ele>392.25599101372063</ele>
        <time>2022-03-10T23:46:41Z</time>
      </trkpt>
      <trkpt lat="34.32794038190048" lon="109.00962738298057">
        <ele>388.59432243090123</ele>
        <time>2022-03-10T23:46:49Z</time>
      </trkpt>
      <trkpt lat="34.32793240029404" lon="109.01017625996532">
        <ele>386.41259863134474</ele>
        <time>2022-03-10T23:46:57Z</time>
      </trkpt>
      <trkpt lat="34.32793714351756" lon="109.0107732342707">
        <ele>386.15789841208607</ele>
        <time>2022-03-10T23:47:07Z</time>
      </trkpt>
      <trkpt lat="34.327919078070785" lon="109.01101724938633">
        <ele>386.5865192078054</ele>
        <time>2022-03-10T23:47:11Z</time>
      </trkpt>
      <trkpt lat="34.32792899575171" lon="109.01157730675652">
        <ele>387.4880580091849</ele>
        <time>2022-03-10T23:47:21Z</time>
      </trkpt>
      <trkpt lat="34.327903924462625" lon="109.01219667406522">
        <ele>386.70298618637025</ele>
        <time>2022-03-10T23:47:31Z</time>
      </trkpt>
      <trkpt lat="34.32790266161952" lon="109.0124427866684">
        <ele>387.48278340976685</ele>
        <time>2022-03-10T23:47:35Z</time>
      </trkpt>
      <trkpt lat="34.32788286010314" lon="109.01255702963608">
        <ele>387.71672102995217</ele>
        <time>2022-03-10T23:47:37Z</time>
      </trkpt>
      <trkpt lat="34.32789411594326" lon="109.01267919957176">
        <ele>388.16199770290405</ele>
        <time>2022-03-10T23:47:39Z</time>
      </trkpt>
      <trkpt lat="34.32788273567516" lon="109.01287865402264">
        <ele>389.4320337846875</ele>
        <time>2022-03-10T23:47:43Z</time>
      </trkpt>
      <trkpt lat="34.327896929157255" lon="109.01311626813701">
        <ele>390.0511877462268</ele>
        <time>2022-03-10T23:47:47Z</time>
      </trkpt>
      <trkpt lat="34.32789187205774" lon="109.0133526092514">
        <ele>389.6747395321727</ele>
        <time>2022-03-10T23:47:51Z</time>
      </trkpt>
      <trkpt lat="34.3279284092335" lon="109.01370773376772">
        <ele>389.9162051184103</ele>
        <time>2022-03-10T23:47:57Z</time>
      </trkpt>
      <trkpt lat="34.32793394264411" lon="109.01426152172058">
        <ele>388.97919068299234</ele>
        <time>2022-03-10T23:48:07Z</time>
      </trkpt>
      <trkpt lat="34.32794991031972" lon="109.01451707004996">
        <ele>388.14689647126943</ele>
        <time>2022-03-10T23:48:11Z</time>
      </trkpt>
      <trkpt lat="34.327942777990074" lon="109.01461901294138">
        <ele>387.8306923219934</ele>
        <time>2022-03-10T23:48:13Z</time>
      </trkpt>
      <trkpt lat="34.32797676041508" lon="109.01470202910262">
        <ele>387.9762585051358</ele>
        <time>2022-03-10T23:48:15Z</time>
      </trkpt>
      <trkpt lat="34.32799937301204" lon="109.01484109265635">
        <ele>388.27167255897075</ele>
        <time>2022-03-10T23:48:17Z</time>
      </trkpt>
      <trkpt lat="34.32798488494544" lon="109.01501029544">
        <ele>387.3647330654785</ele>
        <time>2022-03-10T23:48:19Z</time>
      </trkpt>
      <trkpt lat="34.32799553405722" lon="109.01541783204526">
        <ele>388.25910067465156</ele>
        <time>2022-03-10T23:48:25Z</time>
      </trkpt>
      <trkpt lat="34.32808924026199" lon="109.01571404721044">
        <ele>389.85739997122437</ele>
        <time>2022-03-10T23:48:31Z</time>
      </trkpt>
      <trkpt lat="34.32807984186404" lon="109.01581367613471">
        <ele>389.373977904208</ele>
        <time>2022-03-10T23:48:33Z</time>
      </trkpt>
      <trkpt lat="34.328111237785535" lon="109.01595743467166">
        <ele>388.3795538544655</ele>
        <time>2022-03-10T23:48:37Z</time>
      </trkpt>
      <trkpt lat="34.32804137918416" lon="109.01634450092017">
        <ele>388.2556292936206</ele>
        <time>2022-03-10T23:48:43Z</time>
      </trkpt>
      <trkpt lat="34.32802961337239" lon="109.01649043519949">
        <ele>389.07755740825087</ele>
        <time>2022-03-10T23:48:45Z</time>
      </trkpt>
      <trkpt lat="34.327837263031284" lon="109.01710394652254">
        <ele>389.33824765868485</ele>
        <time>2022-03-10T23:48:55Z</time>
      </trkpt>
      <trkpt lat="34.327713451206066" lon="109.01756114611473">
        <ele>388.89959694538265</ele>
        <time>2022-03-10T23:49:03Z</time>
      </trkpt>
      <trkpt lat="34.32769468538668" lon="109.01778927299794">
        <ele>389.6825479166582</ele>
        <time>2022-03-10T23:49:07Z</time>
      </trkpt>
      <trkpt lat="34.32771162044597" lon="109.01799697045143">
        <ele>390.35741778090596</ele>
        <time>2022-03-10T23:49:11Z</time>
      </trkpt>
      <trkpt lat="34.32766667012851" lon="109.0184009055191">
        <ele>389.4299991512671</ele>
        <time>2022-03-10T23:49:17Z</time>
      </trkpt>
      <trkpt lat="34.32752140774951" lon="109.01877979743682">
        <ele>390.0375908939168</ele>
        <time>2022-03-10T23:49:25Z</time>
      </trkpt>
      <trkpt lat="34.32749979536224" lon="109.01891283077906">
        <ele>390.6005046693608</ele>
        <time>2022-03-10T23:49:28Z</time>
      </trkpt>
      <trkpt lat="34.327283490538576" lon="109.01921403199933">
        <ele>389.78716782387346</ele>
        <time>2022-03-10T23:49:34Z</time>
      </trkpt>
      <trkpt lat="34.327241331240856" lon="109.01932683427104">
        <ele>389.8090820107609</ele>
        <time>2022-03-10T23:49:36Z</time>
      </trkpt>
      <trkpt lat="34.327151746077675" lon="109.01942592501243">
        <ele>389.24417271558195</ele>
        <time>2022-03-10T23:49:38Z</time>
      </trkpt>
      <trkpt lat="34.32697305738824" lon="109.01967954620429">
        <ele>389.0849822079763</ele>
        <time>2022-03-10T23:49:43Z</time>
      </trkpt>
      <trkpt lat="34.326885411549924" lon="109.01977429458083">
        <ele>387.97699656058103</ele>
        <time>2022-03-10T23:49:45Z</time>
      </trkpt>
      <trkpt lat="34.326832296392226" lon="109.01986704757213">
        <ele>388.4339031763375</ele>
        <time>2022-03-10T23:49:47Z</time>
      </trkpt>
      <trkpt lat="34.326797083170334" lon="109.01997532298121">
        <ele>388.91963625792414</ele>
        <time>2022-03-10T23:49:49Z</time>
      </trkpt>
      <trkpt lat="34.326395274410174" lon="109.02040071544612">
        <ele>388.72065320890397</ele>
        <time>2022-03-10T23:49:59Z</time>
      </trkpt>
      <trkpt lat="34.32620191385615" lon="109.02056421504611">
        <ele>387.8761625001207</ele>
        <time>2022-03-10T23:50:03Z</time>
      </trkpt>
      <trkpt lat="34.32578485399394" lon="109.02091731945038">
        <ele>387.7947535952553</ele>
        <time>2022-03-10T23:50:13Z</time>
      </trkpt>
      <trkpt lat="34.325596059616984" lon="109.02104340958773">
        <ele>388.162482900545</ele>
        <time>2022-03-10T23:50:17Z</time>
      </trkpt>
      <trkpt lat="34.3254843288267" lon="109.02109427868865">
        <ele>387.9910434121266</ele>
        <time>2022-03-10T23:50:19Z</time>
      </trkpt>
      <trkpt lat="34.32506356521537" lon="109.02135698467147">
        <ele>387.9659550432116</ele>
        <time>2022-03-10T23:50:29Z</time>
      </trkpt>
      <trkpt lat="34.32459063067544" lon="109.0215248115461">
        <ele>388.6662653647363</ele>
        <time>2022-03-10T23:50:39Z</time>
      </trkpt>
      <trkpt lat="34.32413337068175" lon="109.0216817807277">
        <ele>388.2394602680579</ele>
        <time>2022-03-10T23:50:49Z</time>
      </trkpt>
      <trkpt lat="34.323598471363155" lon="109.02173242774865">
        <ele>389.29984483961016</ele>
        <time>2022-03-10T23:50:59Z</time>
      </trkpt>
      <trkpt lat="34.32309763950825" lon="109.02180031341332">
        <ele>390.01263953745365</ele>
        <time>2022-03-10T23:51:09Z</time>
      </trkpt>
      <trkpt lat="34.32260482498836" lon="109.02180634486105">
        <ele>389.69566339161247</ele>
        <time>2022-03-10T23:51:19Z</time>
      </trkpt>
      <trkpt lat="34.32241011990101" lon="109.02180428734411">
        <ele>390.0975256739184</ele>
        <time>2022-03-10T23:51:23Z</time>
      </trkpt>
      <trkpt lat="34.322300613678415" lon="109.0217691358163">
        <ele>389.8652342380956</ele>
        <time>2022-03-10T23:51:25Z</time>
      </trkpt>
      <trkpt lat="34.32210965304221" lon="109.02176191650702">
        <ele>389.5831846492365</ele>
        <time>2022-03-10T23:51:29Z</time>
      </trkpt>
      <trkpt lat="34.322005177899406" lon="109.02171803165216">
        <ele>388.5784942107275</ele>
        <time>2022-03-10T23:51:31Z</time>
      </trkpt>
      <trkpt lat="34.321904850981525" lon="109.0217363747638">
        <ele>389.3239253209904</ele>
        <time>2022-03-10T23:51:33Z</time>
      </trkpt>
      <trkpt lat="34.321706530016584" lon="109.02169164849968">
        <ele>389.8986298246309</ele>
        <time>2022-03-10T23:51:37Z</time>
      </trkpt>
      <trkpt lat="34.32160343395286" lon="109.02170875437244">
        <ele>389.97323940042406</ele>
        <time>2022-03-10T23:51:39Z</time>
      </trkpt>
      <trkpt lat="34.321090788097756" lon="109.02163824500131">
        <ele>390.342593383044</ele>
        <time>2022-03-10T23:51:49Z</time>
      </trkpt>
      <trkpt lat="34.32089692553564" lon="109.02165128694661">
        <ele>390.98761899676174</ele>
        <time>2022-03-10T23:51:53Z</time>
      </trkpt>
      <trkpt lat="34.32050829692396" lon="109.02155059092637">
        <ele>389.67617837619036</ele>
        <time>2022-03-10T23:52:01Z</time>
      </trkpt>
      <trkpt lat="34.320007395125536" lon="109.02150141180498">
        <ele>389.94219221454114</ele>
        <time>2022-03-10T23:52:11Z</time>
      </trkpt>
      <trkpt lat="34.31969479150039" lon="109.02148588905688">
        <ele>390.7805681396276</ele>
        <time>2022-03-10T23:52:17Z</time>
      </trkpt>
      <trkpt lat="34.319497271729496" lon="109.02145387696183">
        <ele>390.0858212392777</ele>
        <time>2022-03-10T23:52:21Z</time>
      </trkpt>
      <trkpt lat="34.31939011978342" lon="109.02146469422338">
        <ele>390.7537099830806</ele>
        <time>2022-03-10T23:52:23Z</time>
      </trkpt>
      <trkpt lat="34.31918417809581" lon="109.02143882940943">
        <ele>390.359913947992</ele>
        <time>2022-03-10T23:52:27Z</time>
      </trkpt>
      <trkpt lat="34.319079120804716" lon="109.02146211405879">
        <ele>391.2928016670048</ele>
        <time>2022-03-10T23:52:29Z</time>
      </trkpt>
      <trkpt lat="34.318589882964304" lon="109.02145431561915">
        <ele>390.82417842000723</ele>
        <time>2022-03-10T23:52:39Z</time>
      </trkpt>
      <trkpt lat="34.31811769436333" lon="109.02149786121517">
        <ele>391.1650653416291</ele>
        <time>2022-03-10T23:52:49Z</time>
      </trkpt>
      <trkpt lat="34.318015453194484" lon="109.02152616478293">
        <ele>391.02293515205383</ele>
        <time>2022-03-10T23:52:51Z</time>
      </trkpt>
      <trkpt lat="34.31760702273471" lon="109.02157335479">
        <ele>391.0885025616735</ele>
        <time>2022-03-10T23:52:59Z</time>
      </trkpt>
      <trkpt lat="34.317500967486566" lon="109.02157092720604">
        <ele>390.9391377782449</ele>
        <time>2022-03-10T23:53:01Z</time>
      </trkpt>
      <trkpt lat="34.31706484292927" lon="109.02163067030011">
        <ele>391.05162561964244</ele>
        <time>2022-03-10T23:53:09Z</time>
      </trkpt>
      <trkpt lat="34.31659776423188" lon="109.02174590090824">
        <ele>390.9718186343089</ele>
        <time>2022-03-10T23:53:19Z</time>
      </trkpt>
      <trkpt lat="34.316422294455734" lon="109.02180358579403">
        <ele>391.704840821214</ele>
        <time>2022-03-10T23:53:23Z</time>
      </trkpt>
      <trkpt lat="34.31624379495606" lon="109.02189415278659">
        <ele>391.38702965620905</ele>
        <time>2022-03-10T23:53:27Z</time>
      </trkpt>
      <trkpt lat="34.31616868402035" lon="109.0219590136728">
        <ele>391.2062223404646</ele>
        <time>2022-03-10T23:53:29Z</time>
      </trkpt>
      <trkpt lat="34.31616613860384" lon="109.02205092283923">
        <ele>391.5794244799763</ele>
        <time>2022-03-10T23:53:31Z</time>
      </trkpt>
      <trkpt lat="34.31612814956606" lon="109.02216061766168">
        <ele>390.6598494751379</ele>
        <time>2022-03-10T23:53:35Z</time>
      </trkpt>
      <trkpt lat="34.31602676189329" lon="109.02224046986606">
        <ele>390.4383467249572</ele>
        <time>2022-03-10T23:53:39Z</time>
      </trkpt>
      <trkpt lat="34.31597025993974" lon="109.02224319452824">
        <ele>389.9879473745823</ele>
        <time>2022-03-10T23:53:47Z</time>
      </trkpt>
      <trkpt lat="34.31579267124494" lon="109.02246400789524">
        <ele>390.1537216277793</ele>
        <time>2022-03-10T23:54:28Z</time>
      </trkpt>
      <trkpt lat="34.31581323193009" lon="109.02259176192287">
        <ele>390.2217412889004</ele>
        <time>2022-03-10T23:54:32Z</time>
      </trkpt>
      <trkpt lat="34.315964053283565" lon="109.0228916006471">
        <ele>388.8315291311592</ele>
        <time>2022-03-10T23:54:38Z</time>
      </trkpt>
      <trkpt lat="34.31602064097434" lon="109.02315587340185">
        <ele>388.2170202881098</ele>
        <time>2022-03-10T23:54:42Z</time>
      </trkpt>
      <trkpt lat="34.31619452082507" lon="109.02359327096667">
        <ele>387.7067717015743</ele>
        <time>2022-03-10T23:54:50Z</time>
      </trkpt>
      <trkpt lat="34.31619608539306" lon="109.02369140029494">
        <ele>389.15744162816554</ele>
        <time>2022-03-10T23:54:54Z</time>
      </trkpt>
      <trkpt lat="34.31613271878095" lon="109.02375171381864">
        <ele>389.37551264371723</ele>
        <time>2022-03-10T23:54:58Z</time>
      </trkpt>
      <trkpt lat="34.31608237391132" lon="109.0238769500253">
        <ele>389.9309467477724</ele>
        <time>2022-03-10T23:55:02Z</time>
      </trkpt>
      <trkpt lat="34.3157935160613" lon="109.02406885003326">
        <ele>391.3695254838094</ele>
        <time>2022-03-10T23:55:12Z</time>
      </trkpt>
      <trkpt lat="34.31553064801877" lon="109.0243739186552">
        <ele>390.5924079567194</ele>
        <time>2022-03-10T23:55:20Z</time>
      </trkpt>
      <trkpt lat="34.31547583997335" lon="109.02446772487639">
        <ele>390.133523571305</ele>
        <time>2022-03-10T23:55:22Z</time>
      </trkpt>
      <trkpt lat="34.31525099648096" lon="109.02458552270039">
        <ele>390.0300951115787</ele>
        <time>2022-03-10T23:55:26Z</time>
      </trkpt>
      <trkpt lat="34.31518269277631" lon="109.02473488622896">
        <ele>390.82402077689767</ele>
        <time>2022-03-10T23:55:30Z</time>
      </trkpt>
      <trkpt lat="34.31511336956514" lon="109.02477418511805">
        <ele>390.85022474452853</ele>
        <time>2022-03-10T23:55:32Z</time>
      </trkpt>
      <trkpt lat="34.31463141753146" lon="109.02498495573025">
        <ele>390.1000196496025</ele>
        <time>2022-03-10T23:55:40Z</time>
      </trkpt>
      <trkpt lat="34.314521781871626" lon="109.0250530317996">
        <ele>389.71231186389923</ele>
        <time>2022-03-10T23:55:42Z</time>
      </trkpt>
      <trkpt lat="34.31412919544942" lon="109.0251907697259">
        <ele>389.93107155617326</ele>
        <time>2022-03-10T23:55:48Z</time>
      </trkpt>
      <trkpt lat="34.31404652485375" lon="109.02524583176036">
        <ele>390.27268760837615</ele>
        <time>2022-03-10T23:55:50Z</time>
      </trkpt>
      <trkpt lat="34.31358533784262" lon="109.02541537647367">
        <ele>391.11396396160126</ele>
        <time>2022-03-10T23:55:58Z</time>
      </trkpt>
      <trkpt lat="34.31341306557972" lon="109.025483032827">
        <ele>390.93592849280685</ele>
        <time>2022-03-10T23:56:01Z</time>
      </trkpt>
      <trkpt lat="34.31323413521988" lon="109.02559899521539">
        <ele>391.0138885239139</ele>
        <time>2022-03-10T23:56:05Z</time>
      </trkpt>
      <trkpt lat="34.31303027558328" lon="109.02568159938893">
        <ele>390.9896258516237</ele>
        <time>2022-03-10T23:56:09Z</time>
      </trkpt>
      <trkpt lat="34.31290807028046" lon="109.02582083005893">
        <ele>392.41043327283114</ele>
        <time>2022-03-10T23:56:13Z</time>
      </trkpt>
      <trkpt lat="34.312667954471856" lon="109.02598967916198">
        <ele>392.4326580250636</ele>
        <time>2022-03-10T23:56:19Z</time>
      </trkpt>
      <trkpt lat="34.3125109691656" lon="109.02618294747876">
        <ele>392.8906987449154</ele>
        <time>2022-03-10T23:56:25Z</time>
      </trkpt>
      <trkpt lat="34.31249125192709" lon="109.02637287383756">
        <ele>393.40561599843204</ele>
        <time>2022-03-10T23:56:29Z</time>
      </trkpt>
      <trkpt lat="34.31222496674675" lon="109.02650850795806">
        <ele>393.3713806597516</ele>
        <time>2022-03-10T23:56:35Z</time>
      </trkpt>
      <trkpt lat="34.31204269248066" lon="109.02665543604385">
        <ele>393.9850308243185</ele>
        <time>2022-03-10T23:56:39Z</time>
      </trkpt>
      <trkpt lat="34.31195014597131" lon="109.02695530197158">
        <ele>394.31098653841764</ele>
        <time>2022-03-10T23:56:45Z</time>
      </trkpt>
      <trkpt lat="34.31189413609244" lon="109.02705870260307">
        <ele>394.13372533302754</ele>
        <time>2022-03-10T23:56:47Z</time>
      </trkpt>
      <trkpt lat="34.31184609662011" lon="109.02737649703384">
        <ele>394.6186910616234</ele>
        <time>2022-03-10T23:56:53Z</time>
      </trkpt>
      <trkpt lat="34.31186305461961" lon="109.02748910686829">
        <ele>394.9922403972596</ele>
        <time>2022-03-10T23:56:55Z</time>
      </trkpt>
      <trkpt lat="34.31181180775891" lon="109.0278508247044">
        <ele>394.02937734220177</ele>
        <time>2022-03-10T23:57:01Z</time>
      </trkpt>
      <trkpt lat="34.311634132936916" lon="109.02831427742778">
        <ele>393.54188634455204</ele>
        <time>2022-03-10T23:57:09Z</time>
      </trkpt>
      <trkpt lat="34.311634299964304" lon="109.0284167174106">
        <ele>393.8108545411378</ele>
        <time>2022-03-10T23:57:11Z</time>
      </trkpt>
      <trkpt lat="34.3116603919707" lon="109.02854725102267">
        <ele>394.37830589246005</ele>
        <time>2022-03-10T23:57:13Z</time>
      </trkpt>
      <trkpt lat="34.31160114013534" lon="109.02896970630627">
        <ele>394.3544217608869</ele>
        <time>2022-03-10T23:57:21Z</time>
      </trkpt>
      <trkpt lat="34.31162325244338" lon="109.02907433046182">
        <ele>393.93786504212767</ele>
        <time>2022-03-10T23:57:23Z</time>
      </trkpt>
      <trkpt lat="34.31157596507144" lon="109.02917243824689">
        <ele>394.27006039675325</ele>
        <time>2022-03-10T23:57:25Z</time>
      </trkpt>
      <trkpt lat="34.311569567725535" lon="109.02928467033384">
        <ele>394.8617949578911</ele>
        <time>2022-03-10T23:57:27Z</time>
      </trkpt>
      <trkpt lat="34.311496730649345" lon="109.02936611753415">
        <ele>394.4127748692408</ele>
        <time>2022-03-10T23:57:29Z</time>
      </trkpt>
      <trkpt lat="34.31129702935058" lon="109.02950280260482">
        <ele>394.4716939376667</ele>
        <time>2022-03-10T23:57:33Z</time>
      </trkpt>
      <trkpt lat="34.31095061627639" lon="109.02962331031928">
        <ele>393.38228917401284</ele>
        <time>2022-03-10T23:57:37Z</time>
      </trkpt>
      <trkpt lat="34.31075000130195" lon="109.02967251019301">
        <ele>392.6005167933181</ele>
        <time>2022-03-10T23:57:39Z</time>
      </trkpt>
      <trkpt lat="34.31025816116108" lon="109.02991694330531">
        <ele>393.1814244315028</ele>
        <time>2022-03-10T23:57:47Z</time>
      </trkpt>
      <trkpt lat="34.31003807254816" lon="109.03004871253793">
        <ele>392.397082189098</ele>
        <time>2022-03-10T23:57:51Z</time>
      </trkpt>
      <trkpt lat="34.30997149749052" lon="109.03012024165318">
        <ele>393.0461750375107</ele>
        <time>2022-03-10T23:57:53Z</time>
      </trkpt>
      <trkpt lat="34.309739455252746" lon="109.03021244579524">
        <ele>393.09439249150455</ele>
        <time>2022-03-10T23:57:57Z</time>
      </trkpt>
      <trkpt lat="34.309249361966785" lon="109.03044581323063">
        <ele>394.01841985154897</ele>
        <time>2022-03-10T23:58:07Z</time>
      </trkpt>
      <trkpt lat="34.30878179308082" lon="109.0305601718813">
        <ele>393.76081621460617</ele>
        <time>2022-03-10T23:58:15Z</time>
      </trkpt>
      <trkpt lat="34.308337809684616" lon="109.03065910241642">
        <ele>394.0657434500754</ele>
        <time>2022-03-10T23:58:23Z</time>
      </trkpt>
      <trkpt lat="34.308013386300075" lon="109.03072987762036">
        <ele>394.1741272211075</ele>
        <time>2022-03-10T23:58:29Z</time>
      </trkpt>
      <trkpt lat="34.307487861653016" lon="109.03075839936194">
        <ele>393.0100191626698</ele>
        <time>2022-03-10T23:58:39Z</time>
      </trkpt>
      <trkpt lat="34.30716789161325" lon="109.03079678232122">
        <ele>392.56393998954445</ele>
        <time>2022-03-10T23:58:45Z</time>
      </trkpt>
      <trkpt lat="34.307070446989066" lon="109.03083194698993">
        <ele>392.58181704673916</ele>
        <time>2022-03-10T23:58:47Z</time>
      </trkpt>
      <trkpt lat="34.30660193944831" lon="109.03086116905017">
        <ele>391.3851873483509</ele>
        <time>2022-03-10T23:58:55Z</time>
      </trkpt>
      <trkpt lat="34.30641776529389" lon="109.0308626857303">
        <ele>390.945081140846</ele>
        <time>2022-03-10T23:58:59Z</time>
      </trkpt>
      <trkpt lat="34.30632636371539" lon="109.03088823271412">
        <ele>391.1470098653808</ele>
        <time>2022-03-10T23:59:01Z</time>
      </trkpt>
      <trkpt lat="34.306383130091675" lon="109.03121101202889">
        <ele>392.3171863015741</ele>
        <time>2022-03-10T23:59:09Z</time>
      </trkpt>
      <trkpt lat="34.30639050252385" lon="109.0317834215187">
        <ele>391.90520790964365</ele>
        <time>2022-03-10T23:59:19Z</time>
      </trkpt>
      <trkpt lat="34.306415331138915" lon="109.03215539313226">
        <ele>392.84169854130596</ele>
        <time>2022-03-10T23:59:25Z</time>
      </trkpt>
      <trkpt lat="34.30645521410172" lon="109.03277555531898">
        <ele>393.30625244695693</ele>
        <time>2022-03-10T23:59:35Z</time>
      </trkpt>
      <trkpt lat="34.30647747052531" lon="109.0331620985872">
        <ele>393.2196322241798</ele>
        <time>2022-03-10T23:59:41Z</time>
      </trkpt>
      <trkpt lat="34.30653270441789" lon="109.03342001371418">
        <ele>392.2239047139883</ele>
        <time>2022-03-10T23:59:45Z</time>
      </trkpt>
      <trkpt lat="34.306551106308156" lon="109.03365096464941">
        <ele>393.3474395433441</ele>
        <time>2022-03-10T23:59:49Z</time>
      </trkpt>
      <trkpt lat="34.306602228242326" lon="109.03401651889156">
        <ele>393.44091445114464</ele>
        <time>2022-03-10T23:59:55Z</time>
      </trkpt>
      <trkpt lat="34.30660472013891" lon="109.03415800643897">
        <ele>392.5313654001802</ele>
        <time>2022-03-10T23:59:57Z</time>
      </trkpt>
      <trkpt lat="34.3066230459839" lon="109.03424915303623">
        <ele>393.6221029330045</ele>
        <time>2022-03-10T23:59:59Z</time>
      </trkpt>
      <trkpt lat="34.30661410428344" lon="109.03438263873939">
        <ele>393.71889748983085</ele>
        <time>2022-03-11T00:00:01Z</time>
      </trkpt>
      <trkpt lat="34.30667175855647" lon="109.03477882617284">
        <ele>393.4018153063953</ele>
        <time>2022-03-11T00:00:07Z</time>
      </trkpt>
      <trkpt lat="34.30667320487675" lon="109.03508555708218">
        <ele>393.38297049328685</ele>
        <time>2022-03-11T00:00:11Z</time>
      </trkpt>
      <trkpt lat="34.30673202476569" lon="109.03544000747226">
        <ele>393.1924671847373</ele>
        <time>2022-03-11T00:00:17Z</time>
      </trkpt>
      <trkpt lat="34.306725696708746" lon="109.03570938888814">
        <ele>393.6121024945751</ele>
        <time>2022-03-11T00:00:21Z</time>
      </trkpt>
      <trkpt lat="34.30683210083005" lon="109.03619354826832">
        <ele>393.5539916343987</ele>
        <time>2022-03-11T00:00:29Z</time>
      </trkpt>
      <trkpt lat="34.30683696278461" lon="109.03628231960522">
        <ele>392.5556830149144</ele>
        <time>2022-03-11T00:00:31Z</time>
      </trkpt>
      <trkpt lat="34.306609682440794" lon="109.03629601602219">
        <ele>390.96926549915224</ele>
        <time>2022-03-11T00:00:41Z</time>
      </trkpt>
      <trkpt lat="34.306610018587094" lon="109.03648506748127">
        <ele>392.355061522685</ele>
        <time>2022-03-11T00:00:51Z</time>
      </trkpt>
      <trkpt lat="34.306652388225864" lon="109.0368006334519">
        <ele>391.1279626805335</ele>
        <time>2022-03-11T00:01:11Z</time>
      </trkpt>
      <trkpt lat="34.306641851854415" lon="109.0368930300696">
        <ele>391.13992668222636</ele>
        <time>2022-03-11T00:01:19Z</time>
      </trkpt>
      <trkpt lat="34.30665497841617" lon="109.03694477382328">
        <ele>391.97342751082033</ele>
        <time>2022-03-11T00:01:29Z</time>
      </trkpt>
    </trkseg>
  </trk>
</gpx>