<?xml version="1.0" encoding="UTF-8"?>
<gpx xmlns="http://www.topografix.com/GPX/1/1" xmlns:gpxtpx="http://www.garmin.com/xmlschemas/TrackPointExtension/v1" xmlns:xsi="http://www.w3.org/2001/XMLSchema-instance" xsi:schemaLocation="http://www.topografix.com/GPX/1/1 http://www.topografix.com/GPX/1/1/gpx.xsd" version="1.1" creator="gpx.py -- https://github.com/tkrajina/gpxpy">
  <trk>
    <name>gpx from keep</name>
    <type>Run</type>
    <trkseg>
      <trkpt lat="34.29754726392498" lon="108.71044794642839">
        <ele>395.85384368896484</ele>
        <time>2026-09-03T11:03:42Z</time>
      </trkpt>
      <trkpt lat="34.29757873398594" lon="108.71039250234443">
        <ele>393.8409653995186</ele>
        <time>2026-09-03T11:03:50Z</time>
      </trkpt>
      <trkpt lat="34.297689958347334" lon="108.71027949622012">
        <ele>393.11415911931545</ele>
        <time>2026-09-03T11:03:54Z</time>
      </trkpt>
      <trkpt lat="34.297926906488385" lon="108.71019129481546">
        <ele>403.7895741732791</ele>
        <time>2026-09-03T11:04:03Z</time>
      </trkpt>
      <trkpt lat="34.29797393168872" lon="108.71019308853563">
        <ele>401.5046617370099</ele>
        <time>2026-09-03T11:04:06Z</time>
      </trkpt>
      <trkpt lat="34.298027990315504" lon="108.71028331838768">
        <ele>387.3107605939731</ele>
        <time>2026-09-03T11:04:09Z</time>
      </trkpt>
      <trkpt lat="34.298080501066714" lon="108.71055660587767">
        <ele>387.76912064570934</ele>
        <time>2026-09-03T11:04:21Z</time>
      </trkpt>
      <trkpt lat="34.298107699445666" lon="108.71062076292782">
        <ele>388.52806230355054</ele>
        <time>2026-09-03T11:04:24Z</time>
      </trkpt>
      <trkpt lat="34.298127554666365" lon="108.71091268223138">
        <ele>389.1490091672167</ele>
        <time>2026-09-03T11:04:36Z</time>
      </trkpt>
      <trkpt lat="34.29811754584279" lon="108.71099792877921">
        <ele>388.77883477695286</ele>
        <time>2026-09-03T11:04:39Z</time>
      </trkpt>
      <trkpt lat="34.298164109252276" lon="108.7113598175345">
        <ele>388.40895101148635</ele>
        <time>2026-09-03T11:04:54Z</time>
      </trkpt>
      <trkpt lat="34.298128443556045" lon="108.711402894267">
        <ele>388.7677886709571</ele>
        <time>2026-09-03T11:04:57Z</time>
      </trkpt>
      <trkpt lat="34.29785363027579" lon="108.71150579314465">
        <ele>388.17068027798086</ele>
        <time>2026-09-03T11:05:12Z</time>
      </trkpt>
      <trkpt lat="34.29759640703655" lon="108.71161186701444">
        <ele>389.15015533193946</ele>
        <time>2026-09-03T11:05:27Z</time>
      </trkpt>
      <trkpt lat="34.29732784126165" lon="108.71169940267983">
        <ele>389.1005281591788</ele>
        <time>2026-09-03T11:05:42Z</time>
      </trkpt>
      <trkpt lat="34.29705352799714" lon="108.71179669805323">
        <ele>389.63174518942833</ele>
        <time>2026-09-03T11:05:58Z</time>
      </trkpt>
      <trkpt lat="34.29679261072455" lon="108.71191356122557">
        <ele>388.7871519457549</ele>
        <time>2026-09-03T11:06:13Z</time>
      </trkpt>
      <trkpt lat="34.29649835759411" lon="108.7120506561619">
        <ele>388.758010215126</ele>
        <time>2026-09-03T11:06:31Z</time>
      </trkpt>
      <trkpt lat="34.296451863666405" lon="108.71207801401341">
        <ele>388.87825570907444</ele>
        <time>2026-09-03T11:06:34Z</time>
      </trkpt>
      <trkpt lat="34.29635204155635" lon="108.71206813095385">
        <ele>387.9187028789893</ele>
        <time>2026-09-03T11:06:40Z</time>
      </trkpt>
      <trkpt lat="34.29629119849191" lon="108.71196595265461">
        <ele>386.87897598184645</ele>
        <time>2026-09-03T11:06:46Z</time>
      </trkpt>
      <trkpt lat="34.296288844939895" lon="108.71185257610924">
        <ele>387.18646133039147</ele>
        <time>2026-09-03T11:06:52Z</time>
      </trkpt>
      <trkpt lat="34.29622891034998" lon="108.71147683667591">
        <ele>387.7160857859999</ele>
        <time>2026-09-03T11:07:10Z</time>
      </trkpt>
      <trkpt lat="34.296202975534854" lon="108.71113373619909">
        <ele>389.2257555341348</ele>
        <time>2026-09-03T11:07:28Z</time>
      </trkpt>
      <trkpt lat="34.29618162442958" lon="108.71095131211338">
        <ele>390.15571212302893</ele>
        <time>2026-09-03T11:07:37Z</time>
      </trkpt>
      <trkpt lat="34.29609133298279" lon="108.71055313707417">
        <ele>389.85917281452566</ele>
        <time>2026-09-03T11:07:57Z</time>
      </trkpt>
      <trkpt lat="34.29602967923243" lon="108.71020112678463">
        <ele>390.2354381987825</ele>
        <time>2026-09-03T11:08:15Z</time>
      </trkpt>
      <trkpt lat="34.2959890040504" lon="108.70983706757184">
        <ele>389.5199901619926</ele>
        <time>2026-09-03T11:08:33Z</time>
      </trkpt>
      <trkpt lat="34.29594500163604" lon="108.70948908259938">
        <ele>387.30710739828646</ele>
        <time>2026-09-03T11:08:51Z</time>
      </trkpt>
      <trkpt lat="34.29593319432459" lon="108.70924061116689">
        <ele>389.12912190239877</ele>
        <time>2026-09-03T11:09:03Z</time>
      </trkpt>
      <trkpt lat="34.29588650945694" lon="108.70891806817639">
        <ele>389.52839153818786</ele>
        <time>2026-09-03T11:09:18Z</time>
      </trkpt>
      <trkpt lat="34.29586409488799" lon="108.70885512705884">
        <ele>389.1683626566082</ele>
        <time>2026-09-03T11:09:21Z</time>
      </trkpt>
      <trkpt lat="34.2958606829811" lon="108.7087802397955">
        <ele>390.0155623378232</ele>
        <time>2026-09-03T11:09:24Z</time>
      </trkpt>
      <trkpt lat="34.29584077479533" lon="108.7087201882475">
        <ele>390.5777969779447</ele>
        <time>2026-09-03T11:09:27Z</time>
      </trkpt>
      <trkpt lat="34.29579218150896" lon="108.7083423918201">
        <ele>390.90848488453776</ele>
        <time>2026-09-03T11:09:45Z</time>
      </trkpt>
      <trkpt lat="34.295781329268536" lon="108.70799220057174">
        <ele>391.35014497861266</ele>
        <time>2026-09-03T11:10:02Z</time>
      </trkpt>
      <trkpt lat="34.29576445679409" lon="108.70765676214654">
        <ele>390.9167408552021</ele>
        <time>2026-09-03T11:10:18Z</time>
      </trkpt>
      <trkpt lat="34.29577853671577" lon="108.70739111758083">
        <ele>389.6887798961252</ele>
        <time>2026-09-03T11:10:30Z</time>
      </trkpt>
      <trkpt lat="34.29572299889432" lon="108.70705571655718">
        <ele>390.8258815277368</ele>
        <time>2026-09-03T11:10:51Z</time>
      </trkpt>
      <trkpt lat="34.29567679364839" lon="108.70667295090036">
        <ele>390.1653987830505</ele>
        <time>2026-09-03T11:11:09Z</time>
      </trkpt>
      <trkpt lat="34.295642093456486" lon="108.70640695684548">
        <ele>390.0378160877153</ele>
        <time>2026-09-03T11:11:21Z</time>
      </trkpt>
      <trkpt lat="34.29566540761842" lon="108.706289370762">
        <ele>389.21071632392704</ele>
        <time>2026-09-03T11:11:27Z</time>
      </trkpt>
      <trkpt lat="34.29574250572293" lon="108.70612162689274">
        <ele>388.8876834139228</ele>
        <time>2026-09-03T11:11:39Z</time>
      </trkpt>
      <trkpt lat="34.295861169008624" lon="108.70605886958244">
        <ele>388.1492602042854</ele>
        <time>2026-09-03T11:11:48Z</time>
      </trkpt>
      <trkpt lat="34.296127761961216" lon="108.70599929408074">
        <ele>388.8110351767391</ele>
        <time>2026-09-03T11:12:04Z</time>
      </trkpt>
      <trkpt lat="34.296420874442084" lon="108.70594870595325">
        <ele>389.20587777439505</ele>
        <time>2026-09-03T11:12:26Z</time>
      </trkpt>
      <trkpt lat="34.29672211812686" lon="108.70591501319366">
        <ele>388.22266100905836</ele>
        <time>2026-09-03T11:12:44Z</time>
      </trkpt>
      <trkpt lat="34.29682233849444" lon="108.70588295318704">
        <ele>388.26690277829766</ele>
        <time>2026-09-03T11:12:50Z</time>
      </trkpt>
      <trkpt lat="34.29686891850637" lon="108.70588792189355">
        <ele>388.2802528142929</ele>
        <time>2026-09-03T11:12:53Z</time>
      </trkpt>
      <trkpt lat="34.2969612096889" lon="108.7058488433124">
        <ele>388.9805870484561</ele>
        <time>2026-09-03T11:12:59Z</time>
      </trkpt>
      <trkpt lat="34.29722104298583" lon="108.7058180699907">
        <ele>389.1383600747213</ele>
        <time>2026-09-03T11:13:14Z</time>
      </trkpt>
      <trkpt lat="34.29731603315094" lon="108.70579077539274">
        <ele>387.50162216927856</ele>
        <time>2026-09-03T11:13:20Z</time>
      </trkpt>
      <trkpt lat="34.29745971501854" lon="108.70578260948297">
        <ele>386.9639943903312</ele>
        <time>2026-09-03T11:13:29Z</time>
      </trkpt>
      <trkpt lat="34.297726901767604" lon="108.7057235233553">
        <ele>388.1753862388432</ele>
        <time>2026-09-03T11:13:44Z</time>
      </trkpt>
      <trkpt lat="34.297888307138834" lon="108.70568502670685">
        <ele>388.0796922892332</ele>
        <time>2026-09-03T11:13:53Z</time>
      </trkpt>
      <trkpt lat="34.29822449763967" lon="108.70565573921363">
        <ele>388.4348973892629</ele>
        <time>2026-09-03T11:14:12Z</time>
      </trkpt>
      <trkpt lat="34.29849793801312" lon="108.70559306220579">
        <ele>388.33745997585356</ele>
        <time>2026-09-03T11:14:28Z</time>
      </trkpt>
      <trkpt lat="34.29876616440953" lon="108.70554770049634">
        <ele>388.32379706576467</ele>
        <time>2026-09-03T11:14:43Z</time>
      </trkpt>
      <trkpt lat="34.299079727823035" lon="108.7054699948579">
        <ele>389.26502092089504</ele>
        <time>2026-09-03T11:15:01Z</time>
      </trkpt>
      <trkpt lat="34.29914778236735" lon="108.70544912451322">
        <ele>387.99817752465606</ele>
        <time>2026-09-03T11:15:07Z</time>
      </trkpt>
      <trkpt lat="34.299196766178106" lon="108.70547424024973">
        <ele>389.3328839521855</ele>
        <time>2026-09-03T11:15:13Z</time>
      </trkpt>
      <trkpt lat="34.29919030587417" lon="108.7055311859078">
        <ele>388.81071913521737</ele>
        <time>2026-09-03T11:15:16Z</time>
      </trkpt>
      <trkpt lat="34.29891752020579" lon="108.70559167631534">
        <ele>388.39715716894716</ele>
        <time>2026-09-03T11:15:34Z</time>
      </trkpt>
      <trkpt lat="34.298692640275135" lon="108.70565512518498">
        <ele>388.99855279922485</ele>
        <time>2026-09-03T11:15:49Z</time>
      </trkpt>
      <trkpt lat="34.298462327504396" lon="108.70568076337081">
        <ele>388.17070788051933</ele>
        <time>2026-09-03T11:16:04Z</time>
      </trkpt>
      <trkpt lat="34.298369435126425" lon="108.70571512695865">
        <ele>388.1066543068737</ele>
        <time>2026-09-03T11:16:10Z</time>
      </trkpt>
      <trkpt lat="34.298062903218174" lon="108.70573907157134">
        <ele>388.11620603874326</ele>
        <time>2026-09-03T11:16:29Z</time>
      </trkpt>
      <trkpt lat="34.297810985504036" lon="108.70580362059981">
        <ele>388.6978768128902</ele>
        <time>2026-09-03T11:16:44Z</time>
      </trkpt>
      <trkpt lat="34.29749684125644" lon="108.70585223554905">
        <ele>387.2437406759709</ele>
        <time>2026-09-03T11:17:02Z</time>
      </trkpt>
      <trkpt lat="34.29719568112093" lon="108.70588773521473">
        <ele>388.1139919757843</ele>
        <time>2026-09-03T11:17:20Z</time>
      </trkpt>
      <trkpt lat="34.2969288715726" lon="108.70596096003395">
        <ele>388.1258026501164</ele>
        <time>2026-09-03T11:17:35Z</time>
      </trkpt>
      <trkpt lat="34.29663968189282" lon="108.70601233361818">
        <ele>387.5392455244437</ele>
        <time>2026-09-03T11:17:50Z</time>
      </trkpt>
      <trkpt lat="34.29636815208388" lon="108.70604351738194">
        <ele>388.2532708523795</ele>
        <time>2026-09-03T11:18:05Z</time>
      </trkpt>
      <trkpt lat="34.29631154815869" lon="108.70606297257139">
        <ele>388.1722273696214</ele>
        <time>2026-09-03T11:18:08Z</time>
      </trkpt>
      <trkpt lat="34.29626103884666" lon="108.70603581731655">
        <ele>388.38970731943846</ele>
        <time>2026-09-03T11:18:11Z</time>
      </trkpt>
      <trkpt lat="34.296205271857524" lon="108.70604107824812">
        <ele>388.39834044873714</ele>
        <time>2026-09-03T11:18:14Z</time>
      </trkpt>
      <trkpt lat="34.29607958221308" lon="108.70610499231557">
        <ele>388.33169114310294</ele>
        <time>2026-09-03T11:18:20Z</time>
      </trkpt>
      <trkpt lat="34.29599595314874" lon="108.70610718636564">
        <ele>388.334216770716</ele>
        <time>2026-09-03T11:18:24Z</time>
      </trkpt>
      <trkpt lat="34.29592954476881" lon="108.70614492250203">
        <ele>387.1679756566882</ele>
        <time>2026-09-03T11:18:28Z</time>
      </trkpt>
      <trkpt lat="34.29578618126922" lon="108.70614761869578">
        <ele>388.23830478079617</ele>
        <time>2026-09-03T11:18:36Z</time>
      </trkpt>
      <trkpt lat="34.29581491685645" lon="108.70608216820204">
        <ele>388.3987817130983</ele>
        <time>2026-09-03T11:18:45Z</time>
      </trkpt>
      <trkpt lat="34.296105492696086" lon="108.70602363423698">
        <ele>388.75846433546394</ele>
        <time>2026-09-03T11:19:03Z</time>
      </trkpt>
      <trkpt lat="34.296207820254665" lon="108.70600184386817">
        <ele>388.38943884614855</ele>
        <time>2026-09-03T11:19:09Z</time>
      </trkpt>
      <trkpt lat="34.29630474663087" lon="108.70595803408503">
        <ele>390.045915662311</ele>
        <time>2026-09-03T11:19:15Z</time>
      </trkpt>
      <trkpt lat="34.29662067620649" lon="108.70593475288973">
        <ele>387.05217416677624</ele>
        <time>2026-09-03T11:19:33Z</time>
      </trkpt>
      <trkpt lat="34.296677014815415" lon="108.70591097674227">
        <ele>387.69515123125166</ele>
        <time>2026-09-03T11:19:36Z</time>
      </trkpt>
      <trkpt lat="34.296724615595835" lon="108.70591311712663">
        <ele>388.2711220048368</ele>
        <time>2026-09-03T11:19:39Z</time>
      </trkpt>
      <trkpt lat="34.29699521407156" lon="108.70585375224394">
        <ele>387.439059112221</ele>
        <time>2026-09-03T11:19:54Z</time>
      </trkpt>
      <trkpt lat="34.29705771465546" lon="108.70584872622601">
        <ele>388.1935770008713</ele>
        <time>2026-09-03T11:19:57Z</time>
      </trkpt>
      <trkpt lat="34.297103405854976" lon="108.70581235182448">
        <ele>388.98847537022084</ele>
        <time>2026-09-03T11:20:00Z</time>
      </trkpt>
      <trkpt lat="34.29721025790468" lon="108.7058238055893">
        <ele>388.15363506693393</ele>
        <time>2026-09-03T11:20:06Z</time>
      </trkpt>
      <trkpt lat="34.297434650336534" lon="108.70575680038317">
        <ele>387.9949837177992</ele>
        <time>2026-09-03T11:20:24Z</time>
      </trkpt>
      <trkpt lat="34.29761571520236" lon="108.70575262031535">
        <ele>388.8255182178691</ele>
        <time>2026-09-03T11:20:36Z</time>
      </trkpt>
      <trkpt lat="34.29773023434524" lon="108.7056912470711">
        <ele>388.38936663698405</ele>
        <time>2026-09-03T11:20:43Z</time>
      </trkpt>
      <trkpt lat="34.29803665784131" lon="108.70567101209363">
        <ele>388.7494536684826</ele>
        <time>2026-09-03T11:21:01Z</time>
      </trkpt>
      <trkpt lat="34.29808385056509" lon="108.70567897454784">
        <ele>388.35029057879</ele>
        <time>2026-09-03T11:21:04Z</time>
      </trkpt>
      <trkpt lat="34.298340373877465" lon="108.70561479095718">
        <ele>388.01676125545055</ele>
        <time>2026-09-03T11:21:19Z</time>
      </trkpt>
      <trkpt lat="34.2985877656258" lon="108.70558466698225">
        <ele>388.015728963539</ele>
        <time>2026-09-03T11:21:34Z</time>
      </trkpt>
      <trkpt lat="34.29889973810702" lon="108.70551149797747">
        <ele>389.31310990359634</ele>
        <time>2026-09-03T11:21:52Z</time>
      </trkpt>
      <trkpt lat="34.299136941063935" lon="108.70546547378784">
        <ele>389.96168710663915</ele>
        <time>2026-09-03T11:22:04Z</time>
      </trkpt>
      <trkpt lat="34.29919026889394" lon="108.70548033922812">
        <ele>389.34715241380036</ele>
        <time>2026-09-03T11:22:07Z</time>
      </trkpt>
      <trkpt lat="34.29917786237801" lon="108.70554968052258">
        <ele>388.50207940116525</ele>
        <time>2026-09-03T11:22:10Z</time>
      </trkpt>
      <trkpt lat="34.298887467809585" lon="108.70560142772433">
        <ele>389.3050463562831</ele>
        <time>2026-09-03T11:22:25Z</time>
      </trkpt>
      <trkpt lat="34.29856683048713" lon="108.70565305193364">
        <ele>388.8593119001016</ele>
        <time>2026-09-03T11:22:47Z</time>
      </trkpt>
      <trkpt lat="34.29826634083308" lon="108.70572238267506">
        <ele>389.02798846550286</ele>
        <time>2026-09-03T11:23:05Z</time>
      </trkpt>
      <trkpt lat="34.29812137430746" lon="108.70573734021492">
        <ele>388.8330572573468</ele>
        <time>2026-09-03T11:23:14Z</time>
      </trkpt>
      <trkpt lat="34.298073052415184" lon="108.70576079969901">
        <ele>388.76688816864043</ele>
        <time>2026-09-03T11:23:17Z</time>
      </trkpt>
      <trkpt lat="34.29776842969647" lon="108.70582015494416">
        <ele>387.75318444520235</ele>
        <time>2026-09-03T11:23:35Z</time>
      </trkpt>
      <trkpt lat="34.29745117688406" lon="108.70586794389612">
        <ele>387.9012188995257</ele>
        <time>2026-09-03T11:23:53Z</time>
      </trkpt>
      <trkpt lat="34.297398171822486" lon="108.70587000775494">
        <ele>388.2243967819959</ele>
        <time>2026-09-03T11:23:56Z</time>
      </trkpt>
      <trkpt lat="34.29733820725093" lon="108.70589771491333">
        <ele>387.35032463725656</ele>
        <time>2026-09-03T11:23:59Z</time>
      </trkpt>
      <trkpt lat="34.297227560987615" lon="108.7058947301396">
        <ele>389.1447721645236</ele>
        <time>2026-09-03T11:24:05Z</time>
      </trkpt>
      <trkpt lat="34.297173207270134" lon="108.70591704909857">
        <ele>389.22369049023837</ele>
        <time>2026-09-03T11:24:08Z</time>
      </trkpt>
      <trkpt lat="34.29685633281808" lon="108.70597195778784">
        <ele>387.37124793883413</ele>
        <time>2026-09-03T11:24:26Z</time>
      </trkpt>
      <trkpt lat="34.29656691181727" lon="108.7060124396885">
        <ele>388.1425020871684</ele>
        <time>2026-09-03T11:24:42Z</time>
      </trkpt>
      <trkpt lat="34.296429316511315" lon="108.70603935150825">
        <ele>388.9721874250099</ele>
        <time>2026-09-03T11:24:50Z</time>
      </trkpt>
      <trkpt lat="34.296155069984216" lon="108.70612398675765">
        <ele>390.0206211404875</ele>
        <time>2026-09-03T11:25:06Z</time>
      </trkpt>
      <trkpt lat="34.295986042063184" lon="108.70616325696719">
        <ele>389.5413799621165</ele>
        <time>2026-09-03T11:25:18Z</time>
      </trkpt>
      <trkpt lat="34.29577378035262" lon="108.70615537677308">
        <ele>389.86277023423463</ele>
        <time>2026-09-03T11:25:36Z</time>
      </trkpt>
      <trkpt lat="34.29582226114214" lon="108.70608836666409">
        <ele>389.59850435424596</ele>
        <time>2026-09-03T11:25:42Z</time>
      </trkpt>
      <trkpt lat="34.29612529165947" lon="108.70601126356198">
        <ele>389.4590988876298</ele>
        <time>2026-09-03T11:26:00Z</time>
      </trkpt>
      <trkpt lat="34.29640965576112" lon="108.70596342975631">
        <ele>387.19843958877027</ele>
        <time>2026-09-03T11:26:18Z</time>
      </trkpt>
      <trkpt lat="34.29656491897634" lon="108.7059271628928">
        <ele>388.7909763874486</ele>
        <time>2026-09-03T11:26:27Z</time>
      </trkpt>
      <trkpt lat="34.29661687015787" lon="108.70593241240105">
        <ele>388.1763547612354</ele>
        <time>2026-09-03T11:26:30Z</time>
      </trkpt>
      <trkpt lat="34.29688744903236" lon="108.7058688414666">
        <ele>387.5184395313263</ele>
        <time>2026-09-03T11:26:46Z</time>
      </trkpt>
      <trkpt lat="34.297071792240196" lon="108.7058383163255">
        <ele>387.1657075798139</ele>
        <time>2026-09-03T11:26:57Z</time>
      </trkpt>
      <trkpt lat="34.29712290134203" lon="108.70581298348777">
        <ele>386.97487602569163</ele>
        <time>2026-09-03T11:27:00Z</time>
      </trkpt>
      <trkpt lat="34.297168409781584" lon="108.70582265229751">
        <ele>387.72068856377155</ele>
        <time>2026-09-03T11:27:03Z</time>
      </trkpt>
      <trkpt lat="34.2973177458546" lon="108.70577172622677">
        <ele>388.4626263519749</ele>
        <time>2026-09-03T11:27:12Z</time>
      </trkpt>
      <trkpt lat="34.297369470151" lon="108.7058070864195">
        <ele>387.8783124629408</ele>
        <time>2026-09-03T11:27:15Z</time>
      </trkpt>
      <trkpt lat="34.29764257715094" lon="108.70573859588323">
        <ele>387.6595561178401</ele>
        <time>2026-09-03T11:27:30Z</time>
      </trkpt>
      <trkpt lat="34.29769364827834" lon="108.70571261895478">
        <ele>387.46025276649743</ele>
        <time>2026-09-03T11:27:33Z</time>
      </trkpt>
      <trkpt lat="34.29780390600658" lon="108.70569413402255">
        <ele>387.84013585653156</ele>
        <time>2026-09-03T11:27:39Z</time>
      </trkpt>
      <trkpt lat="34.298083147750916" lon="108.70566970070236">
        <ele>388.87979956530035</ele>
        <time>2026-09-03T11:27:54Z</time>
      </trkpt>
      <trkpt lat="34.29840631480827" lon="108.70562659249914">
        <ele>387.61554972361773</ele>
        <time>2026-09-03T11:28:12Z</time>
      </trkpt>
      <trkpt lat="34.298674238650136" lon="108.70556355429763">
        <ele>390.08603579737246</ele>
        <time>2026-09-03T11:28:33Z</time>
      </trkpt>
      <trkpt lat="34.298974541161655" lon="108.70549286101935">
        <ele>390.1350073274225</ele>
        <time>2026-09-03T11:28:52Z</time>
      </trkpt>
      <trkpt lat="34.29918875287722" lon="108.70543639505037">
        <ele>389.73119784798473</ele>
        <time>2026-09-03T11:29:06Z</time>
      </trkpt>
      <trkpt lat="34.29923111425258" lon="108.70546498194078">
        <ele>390.42189601249993</ele>
        <time>2026-09-03T11:29:09Z</time>
      </trkpt>
      <trkpt lat="34.299220775023485" lon="108.70552527014459">
        <ele>390.4358951020986</ele>
        <time>2026-09-03T11:29:12Z</time>
      </trkpt>
      <trkpt lat="34.29894952707963" lon="108.70557819505264">
        <ele>389.1590364445001</ele>
        <time>2026-09-03T11:29:27Z</time>
      </trkpt>
      <trkpt lat="34.298896431459355" lon="108.70558482696593">
        <ele>388.86216237954795</ele>
        <time>2026-09-03T11:29:30Z</time>
      </trkpt>
      <trkpt lat="34.29874148877732" lon="108.70565434477297">
        <ele>388.6029355786741</ele>
        <time>2026-09-03T11:29:39Z</time>
      </trkpt>
      <trkpt lat="34.298468683151796" lon="108.70568646692048">
        <ele>388.4274342637509</ele>
        <time>2026-09-03T11:29:54Z</time>
      </trkpt>
      <trkpt lat="34.29831152286326" lon="108.70571715066461">
        <ele>387.6914507281035</ele>
        <time>2026-09-03T11:30:03Z</time>
      </trkpt>
      <trkpt lat="34.29803208120139" lon="108.70576688090765">
        <ele>388.7008013911545</ele>
        <time>2026-09-03T11:30:18Z</time>
      </trkpt>
      <trkpt lat="34.29792316806586" lon="108.70577689339156">
        <ele>387.72807601932436</ele>
        <time>2026-09-03T11:30:24Z</time>
      </trkpt>
      <trkpt lat="34.2978186283666" lon="108.70579982608504">
        <ele>388.1457142215222</ele>
        <time>2026-09-03T11:30:30Z</time>
      </trkpt>
      <trkpt lat="34.297757290530605" lon="108.70578577127043">
        <ele>387.7176949866116</ele>
        <time>2026-09-03T11:30:33Z</time>
      </trkpt>
      <trkpt lat="34.29747110599959" lon="108.7058580121442">
        <ele>388.55208698287606</ele>
        <time>2026-09-03T11:30:48Z</time>
      </trkpt>
      <trkpt lat="34.29719067687509" lon="108.7059069847485">
        <ele>388.54533400479704</ele>
        <time>2026-09-03T11:31:04Z</time>
      </trkpt>
      <trkpt lat="34.29705820163597" lon="108.70595634655521">
        <ele>388.19925571605563</ele>
        <time>2026-09-03T11:31:13Z</time>
      </trkpt>
      <trkpt lat="34.29691390819125" lon="108.70596290763542">
        <ele>387.52986628282815</ele>
        <time>2026-09-03T11:31:25Z</time>
      </trkpt>
      <trkpt lat="34.2968367809218" lon="108.70594840869681">
        <ele>387.507792099379</ele>
        <time>2026-09-03T11:31:31Z</time>
      </trkpt>
      <trkpt lat="34.29655005758305" lon="108.7060200381003">
        <ele>388.4524575006217</ele>
        <time>2026-09-03T11:31:49Z</time>
      </trkpt>
      <trkpt lat="34.2963311430302" lon="108.70606290508367">
        <ele>387.4054275602102</ele>
        <time>2026-09-03T11:32:01Z</time>
      </trkpt>
      <trkpt lat="34.296124325026554" lon="108.70612583913685">
        <ele>389.4317649519071</ele>
        <time>2026-09-03T11:32:13Z</time>
      </trkpt>
      <trkpt lat="34.295797441902984" lon="108.70616105486563">
        <ele>390.2832420170307</ele>
        <time>2026-09-03T11:32:37Z</time>
      </trkpt>
      <trkpt lat="34.295802080416486" lon="108.70608646933802">
        <ele>389.9797852402553</ele>
        <time>2026-09-03T11:32:43Z</time>
      </trkpt>
      <trkpt lat="34.296118843377144" lon="108.70600961388683">
        <ele>388.3064350206405</ele>
        <time>2026-09-03T11:33:01Z</time>
      </trkpt>
      <trkpt lat="34.29640526835308" lon="108.70595730665528">
        <ele>388.6229913774878</ele>
        <time>2026-09-03T11:33:18Z</time>
      </trkpt>
      <trkpt lat="34.296460600915175" lon="108.70596374266225">
        <ele>387.90208898764104</ele>
        <time>2026-09-03T11:33:21Z</time>
      </trkpt>
      <trkpt lat="34.29656408578173" lon="108.70593097378509">
        <ele>388.41843825764954</ele>
        <time>2026-09-03T11:33:27Z</time>
      </trkpt>
      <trkpt lat="34.29662280293743" lon="108.70593422069454">
        <ele>387.6883612656966</ele>
        <time>2026-09-03T11:33:30Z</time>
      </trkpt>
      <trkpt lat="34.296830496119775" lon="108.70587193318782">
        <ele>387.8899494763464</ele>
        <time>2026-09-03T11:33:42Z</time>
      </trkpt>
      <trkpt lat="34.29692554432786" lon="108.70587767762717">
        <ele>387.53907002694905</ele>
        <time>2026-09-03T11:33:48Z</time>
      </trkpt>
      <trkpt lat="34.29720245078503" lon="108.70581126447819">
        <ele>389.47838779725134</ele>
        <time>2026-09-03T11:34:09Z</time>
      </trkpt>
      <trkpt lat="34.297259039960416" lon="108.7057875174118">
        <ele>389.5071105323732</ele>
        <time>2026-09-03T11:34:15Z</time>
      </trkpt>
      <trkpt lat="34.29754724294844" lon="108.70575864371236">
        <ele>387.32234616205096</ele>
        <time>2026-09-03T11:34:33Z</time>
      </trkpt>
      <trkpt lat="34.29774085067085" lon="108.70571223365552">
        <ele>387.6991353491321</ele>
        <time>2026-09-03T11:34:45Z</time>
      </trkpt>
      <trkpt lat="34.297787934133424" lon="108.70573026777882">
        <ele>387.0905262166634</ele>
        <time>2026-09-03T11:34:48Z</time>
      </trkpt>
      <trkpt lat="34.29804639544086" lon="108.70569866912109">
        <ele>388.00149708706886</ele>
        <time>2026-09-03T11:35:03Z</time>
      </trkpt>
      <trkpt lat="34.29809988107765" lon="108.70567564038227">
        <ele>388.0023292452097</ele>
        <time>2026-09-03T11:35:06Z</time>
      </trkpt>
      <trkpt lat="34.298280872134356" lon="108.7056458312703">
        <ele>388.38795333262533</ele>
        <time>2026-09-03T11:35:18Z</time>
      </trkpt>
      <trkpt lat="34.2983442118905" lon="108.70561830949819">
        <ele>389.1305666361004</ele>
        <time>2026-09-03T11:35:25Z</time>
      </trkpt>
      <trkpt lat="34.29863617513144" lon="108.7055813101801">
        <ele>388.8287940612063</ele>
        <time>2026-09-03T11:35:46Z</time>
      </trkpt>
      <trkpt lat="34.29879456319824" lon="108.70555190371631">
        <ele>388.5972851999104</ele>
        <time>2026-09-03T11:35:55Z</time>
      </trkpt>
      <trkpt lat="34.298845477337316" lon="108.70552406608493">
        <ele>388.8594578858465</ele>
        <time>2026-09-03T11:35:58Z</time>
      </trkpt>
      <trkpt lat="34.29894378294915" lon="108.70552409397868">
        <ele>388.45770594477654</ele>
        <time>2026-09-03T11:36:04Z</time>
      </trkpt>
      <trkpt lat="34.29899313016147" lon="108.70549947978755">
        <ele>389.5100157856941</ele>
        <time>2026-09-03T11:36:07Z</time>
      </trkpt>
      <trkpt lat="34.29912609522292" lon="108.70547134420022">
        <ele>388.3784778378904</ele>
        <time>2026-09-03T11:36:19Z</time>
      </trkpt>
      <trkpt lat="34.2992084321441" lon="108.7054847102491">
        <ele>388.6565208956599</ele>
        <time>2026-09-03T11:36:25Z</time>
      </trkpt>
      <trkpt lat="34.299314923611846" lon="108.70561862464173">
        <ele>389.4698234051466</ele>
        <time>2026-09-03T11:36:34Z</time>
      </trkpt>
      <trkpt lat="34.29935309312682" lon="108.70585951897064">
        <ele>388.88401867076755</ele>
        <time>2026-09-03T11:36:46Z</time>
      </trkpt>
      <trkpt lat="34.29937863259442" lon="108.70591695714768">
        <ele>388.38529081549495</ele>
        <time>2026-09-03T11:36:49Z</time>
      </trkpt>
      <trkpt lat="34.299365780428715" lon="108.70613760193024">
        <ele>388.9576490940526</ele>
        <time>2026-09-03T11:37:01Z</time>
      </trkpt>
      <trkpt lat="34.29942209680079" lon="108.70630890533154">
        <ele>389.3533781087026</ele>
        <time>2026-09-03T11:37:10Z</time>
      </trkpt>
      <trkpt lat="34.29943502224361" lon="108.7065375237709">
        <ele>389.387536724098</ele>
        <time>2026-09-03T11:37:23Z</time>
      </trkpt>
      <trkpt lat="34.29949822024844" lon="108.70681659592194">
        <ele>390.99158845841885</ele>
        <time>2026-09-03T11:37:38Z</time>
      </trkpt>
      <trkpt lat="34.29949042246047" lon="108.70687119583182">
        <ele>391.3796318517998</ele>
        <time>2026-09-03T11:37:41Z</time>
      </trkpt>
      <trkpt lat="34.29950851567614" lon="108.70693985471914">
        <ele>390.78160291630775</ele>
        <time>2026-09-03T11:37:53Z</time>
      </trkpt>
      <trkpt lat="34.29953853634892" lon="108.70698708266498">
        <ele>391.26954367384315</ele>
        <time>2026-09-03T11:37:56Z</time>
      </trkpt>
      <trkpt lat="34.29960953464998" lon="108.70701824968256">
        <ele>390.6670792689547</ele>
        <time>2026-09-03T11:38:02Z</time>
      </trkpt>
      <trkpt lat="34.299626338659735" lon="108.70710677464012">
        <ele>390.79586895927787</ele>
        <time>2026-09-03T11:38:05Z</time>
      </trkpt>
      <trkpt lat="34.29954694235138" lon="108.70722356636638">
        <ele>390.23723073955625</ele>
        <time>2026-09-03T11:38:11Z</time>
      </trkpt>
      <trkpt lat="34.2994857902875" lon="108.70725379798036">
        <ele>388.34869883116335</ele>
        <time>2026-09-03T11:38:14Z</time>
      </trkpt>
      <trkpt lat="34.2995013450953" lon="108.7073402190948">
        <ele>389.55485128890723</ele>
        <time>2026-09-03T11:38:17Z</time>
      </trkpt>
      <trkpt lat="34.29950402346944" lon="108.70749303997091">
        <ele>390.249128411524</ele>
        <time>2026-09-03T11:38:23Z</time>
      </trkpt>
      <trkpt lat="34.299540210431935" lon="108.70764551364736">
        <ele>391.35407290328294</ele>
        <time>2026-09-03T11:38:29Z</time>
      </trkpt>
      <trkpt lat="34.299543109832776" lon="108.70772142384298">
        <ele>391.22594113461673</ele>
        <time>2026-09-03T11:38:32Z</time>
      </trkpt>
      <trkpt lat="34.299594264068666" lon="108.70786118410892">
        <ele>392.006438979879</ele>
        <time>2026-09-03T11:38:38Z</time>
      </trkpt>
      <trkpt lat="34.29958837665989" lon="108.70793374106962">
        <ele>391.40950450021774</ele>
        <time>2026-09-03T11:38:41Z</time>
      </trkpt>
      <trkpt lat="34.29964097651923" lon="108.70831202942047">
        <ele>391.88732729293406</ele>
        <time>2026-09-03T11:39:02Z</time>
      </trkpt>
      <trkpt lat="34.299743892569474" lon="108.70835338760953">
        <ele>392.3826078409329</ele>
        <time>2026-09-03T11:39:08Z</time>
      </trkpt>
      <trkpt lat="34.29978647042318" lon="108.70847562613393">
        <ele>392.03617699444294</ele>
        <time>2026-09-03T11:39:14Z</time>
      </trkpt>
      <trkpt lat="34.29981539802383" lon="108.70882744094163">
        <ele>390.5571791995317</ele>
        <time>2026-09-03T11:39:30Z</time>
      </trkpt>
      <trkpt lat="34.299870689119366" lon="108.70916144580539">
        <ele>389.9332723468542</ele>
        <time>2026-09-03T11:39:45Z</time>
      </trkpt>
      <trkpt lat="34.29990271043817" lon="108.70953217791056">
        <ele>388.7238452238962</ele>
        <time>2026-09-03T11:40:03Z</time>
      </trkpt>
      <trkpt lat="34.29984385933866" lon="108.70956980878545">
        <ele>384.7991210790351</ele>
        <time>2026-09-03T11:40:09Z</time>
      </trkpt>
      <trkpt lat="34.29980980979834" lon="108.70993017966285">
        <ele>390.0163386845961</ele>
        <time>2026-09-03T11:40:24Z</time>
      </trkpt>
      <trkpt lat="34.299839670528584" lon="108.70999407020398">
        <ele>389.83396248240024</ele>
        <time>2026-09-03T11:40:27Z</time>
      </trkpt>
      <trkpt lat="34.29984604409112" lon="108.71005831638733">
        <ele>390.66465334314853</ele>
        <time>2026-09-03T11:40:30Z</time>
      </trkpt>
      <trkpt lat="34.299900949238115" lon="108.71017005884231">
        <ele>391.0010652691126</ele>
        <time>2026-09-03T11:40:36Z</time>
      </trkpt>
      <trkpt lat="34.29992201316994" lon="108.7102618834058">
        <ele>390.083726817742</ele>
        <time>2026-09-03T11:40:42Z</time>
      </trkpt>
      <trkpt lat="34.29982170358884" lon="108.71033433666067">
        <ele>390.14945409540087</ele>
        <time>2026-09-03T11:40:48Z</time>
      </trkpt>
      <trkpt lat="34.29979263084595" lon="108.71039880176157">
        <ele>390.39012203365564</ele>
        <time>2026-09-03T11:40:51Z</time>
      </trkpt>
      <trkpt lat="34.2996711072446" lon="108.71051762686393">
        <ele>392.7466561002657</ele>
        <time>2026-09-03T11:41:03Z</time>
      </trkpt>
      <trkpt lat="34.29955814465848" lon="108.71056321921343">
        <ele>392.8484914423898</ele>
        <time>2026-09-03T11:41:09Z</time>
      </trkpt>
      <trkpt lat="34.299515556268325" lon="108.71062444666454">
        <ele>392.1277500744909</ele>
        <time>2026-09-03T11:41:12Z</time>
      </trkpt>
      <trkpt lat="34.29946071502089" lon="108.71078740258534">
        <ele>391.5603933194652</ele>
        <time>2026-09-03T11:41:24Z</time>
      </trkpt>
      <trkpt lat="34.29942055894027" lon="108.71081939021678">
        <ele>391.52234377525747</ele>
        <time>2026-09-03T11:41:28Z</time>
      </trkpt>
      <trkpt lat="34.29939027488418" lon="108.71086157211876">
        <ele>390.3319790828973</ele>
        <time>2026-09-03T11:42:46Z</time>
      </trkpt>
      <trkpt lat="34.29914040537483" lon="108.71094926547552">
        <ele>389.735652403906</ele>
        <time>2026-09-03T11:43:07Z</time>
      </trkpt>
      <trkpt lat="34.29910226261288" lon="108.71097986589476">
        <ele>390.0763601316139</ele>
        <time>2026-09-03T11:43:10Z</time>
      </trkpt>
      <trkpt lat="34.298818838689215" lon="108.7111084365411">
        <ele>390.7181871375069</ele>
        <time>2026-09-03T11:43:35Z</time>
      </trkpt>
      <trkpt lat="34.29863970439341" lon="108.71116272642087">
        <ele>390.66171972453594</ele>
        <time>2026-09-03T11:43:49Z</time>
      </trkpt>
      <trkpt lat="34.298350747844616" lon="108.7113038267698">
        <ele>389.97621857654303</ele>
        <time>2026-09-03T11:44:13Z</time>
      </trkpt>
      <trkpt lat="34.29822570717757" lon="108.71134088912056">
        <ele>389.9802948795259</ele>
        <time>2026-09-03T11:44:22Z</time>
      </trkpt>
      <trkpt lat="34.298151437939865" lon="108.71130668425657">
        <ele>390.2043756386265</ele>
        <time>2026-09-03T11:44:28Z</time>
      </trkpt>
      <trkpt lat="34.29814429784996" lon="108.71125190123809">
        <ele>390.2678515408188</ele>
        <time>2026-09-03T11:44:31Z</time>
      </trkpt>
      <trkpt lat="34.298166360336104" lon="108.71120388825447">
        <ele>390.96948626916856</ele>
        <time>2026-09-03T11:44:34Z</time>
      </trkpt>
      <trkpt lat="34.29816790047365" lon="108.71114702180506">
        <ele>391.1600158661604</ele>
        <time>2026-09-03T11:44:37Z</time>
      </trkpt>
      <trkpt lat="34.29804974365136" lon="108.71099135261531">
        <ele>389.38099902961403</ele>
        <time>2026-09-03T11:44:55Z</time>
      </trkpt>
      <trkpt lat="34.298098544254984" lon="108.71099380506631">
        <ele>389.66622412297875</ele>
        <time>2026-09-03T11:45:07Z</time>
      </trkpt>
      <trkpt lat="34.29816136548216" lon="108.71099409684308">
        <ele>388.8381972145289</ele>
        <time>2026-09-03T11:45:26Z</time>
      </trkpt>
      <trkpt lat="34.29811562237945" lon="108.71100377008887">
        <ele>389.1802762057632</ele>
        <time>2026-09-03T11:45:46Z</time>
      </trkpt>
      <trkpt lat="34.29819211576286" lon="108.71101534740984">
        <ele>389.09991660062224</ele>
        <time>2026-09-03T11:46:25Z</time>
      </trkpt>
      <trkpt lat="34.29812932442586" lon="108.71100513776267">
        <ele>388.53163485694677</ele>
        <time>2026-09-03T11:46:49Z</time>
      </trkpt>
      <trkpt lat="34.29817598114179" lon="108.71098561218038">
        <ele>388.43154700286686</ele>
        <time>2026-09-03T11:47:31Z</time>
      </trkpt>
      <trkpt lat="34.298117951539105" lon="108.71094819814836">
        <ele>389.24885328672826</ele>
        <time>2026-09-03T11:49:23Z</time>
      </trkpt>
      <trkpt lat="34.298068211848516" lon="108.71095547883228">
        <ele>389.6233041966334</ele>
        <time>2026-09-03T11:50:15Z</time>
      </trkpt>
      <trkpt lat="34.29818138985779" lon="108.71095869626947">
        <ele>389.057972131297</ele>
        <time>2026-09-03T11:50:42Z</time>
      </trkpt>
      <trkpt lat="34.29822474116831" lon="108.71097745957474">
        <ele>388.7846205551177</ele>
        <time>2026-09-03T11:52:49Z</time>
      </trkpt>
      <trkpt lat="34.29819562306509" lon="108.71102035555899">
        <ele>388.57787054404616</ele>
        <time>2026-09-03T11:54:05Z</time>
      </trkpt>
      <trkpt lat="34.298247554523506" lon="108.71105224980013">
        <ele>388.3983067786321</ele>
        <time>2026-09-03T11:54:32Z</time>
      </trkpt>
      <trkpt lat="34.298204581506006" lon="108.71101734207663">
        <ele>388.8677284969017</ele>
        <time>2026-09-03T11:55:05Z</time>
      </trkpt>
      <trkpt lat="34.29815996275234" lon="108.71096377094148">
        <ele>389.84649983327836</ele>
        <time>2026-09-03T11:56:28Z</time>
      </trkpt>
      <trkpt lat="34.298121997069366" lon="108.71093395362925">
        <ele>389.77751419506967</ele>
        <time>2026-09-03T11:57:37Z</time>
      </trkpt>
      <trkpt lat="34.29815829511721" lon="108.71098258078923">
        <ele>388.5305279865861</ele>
        <time>2026-09-03T11:58:01Z</time>
      </trkpt>
      <trkpt lat="34.298202707010326" lon="108.71102882596298">
        <ele>387.6752338986844</ele>
        <time>2026-09-03T11:58:32Z</time>
      </trkpt>
      <trkpt lat="34.298187007758244" lon="108.71096988671862">
        <ele>389.0326599339023</ele>
        <time>2026-09-03T12:00:59Z</time>
      </trkpt>
      <trkpt lat="34.29812222779971" lon="108.71098237773599">
        <ele>389.02767510991544</ele>
        <time>2026-09-03T12:01:05Z</time>
      </trkpt>
      <trkpt lat="34.298065057652856" lon="108.71085313097771">
        <ele>389.0443091671914</ele>
        <time>2026-09-03T12:01:38Z</time>
      </trkpt>
      <trkpt lat="34.298033806416186" lon="108.71052651620147">
        <ele>390.13539261650294</ele>
        <time>2026-09-03T12:02:02Z</time>
      </trkpt>
      <trkpt lat="34.29799544035773" lon="108.71040924873085">
        <ele>388.9284762023017</ele>
        <time>2026-09-03T12:02:08Z</time>
      </trkpt>
      <trkpt lat="34.29796902260287" lon="108.71024377555199">
        <ele>388.1347682252526</ele>
        <time>2026-09-03T12:02:20Z</time>
      </trkpt>
      <trkpt lat="34.29791450619046" lon="108.71018494656023">
        <ele>388.4967008847743</ele>
        <time>2026-09-03T12:02:30Z</time>
      </trkpt>
      <trkpt lat="34.29777732968875" lon="108.71021139141573">
        <ele>388.01106338668615</ele>
        <time>2026-09-03T12:02:42Z</time>
      </trkpt>
      <trkpt lat="34.29776367549481" lon="108.71028003299344">
        <ele>388.6290400819853</ele>
        <time>2026-09-03T12:02:48Z</time>
      </trkpt>
      <trkpt lat="34.297787981329584" lon="108.71042109933411">
        <ele>387.6884936634451</ele>
        <time>2026-09-03T12:03:00Z</time>
      </trkpt>
      <trkpt lat="34.29776613452068" lon="108.71047888692327">
        <ele>386.91733676567674</ele>
        <time>2026-09-03T12:03:09Z</time>
      </trkpt>
      <trkpt lat="34.29770256023828" lon="108.71048783683194">
        <ele>386.6077389353886</ele>
        <time>2026-09-03T12:03:15Z</time>
      </trkpt>
      <trkpt lat="34.29765930573749" lon="108.7105175379431">
        <ele>386.4604811295867</ele>
        <time>2026-09-03T12:03:18Z</time>
      </trkpt>
    </trkseg>
  </trk>
</gpx>