<?xml version="1.0" encoding="UTF-8"?>
<gpx xmlns="http://www.topografix.com/GPX/1/1" xmlns:gpxtpx="http://www.garmin.com/xmlschemas/TrackPointExtension/v1" xmlns:xsi="http://www.w3.org/2001/XMLSchema-instance" xsi:schemaLocation="http://www.topografix.com/GPX/1/1 http://www.topografix.com/GPX/1/1/gpx.xsd" version="1.1" creator="gpx.py -- https://github.com/tkrajina/gpxpy">
  <trk>
    <name>gpx from keep</name>
    <type>Run</type>
    <trkseg>
      <trkpt lat="34.297812776202726" lon="108.71032782232764">
        <ele>387.2524642944336</ele>
        <time>2026-08-24T23:01:02Z</time>
      </trkpt>
      <trkpt lat="34.29770176379955" lon="108.71037535475544">
        <ele>388.33199310302734</ele>
        <time>2026-08-24T23:01:06Z</time>
      </trkpt>
      <trkpt lat="34.29769519007432" lon="108.71023834234752">
        <ele>387.607811155729</ele>
        <time>2026-08-24T23:01:12Z</time>
      </trkpt>
      <trkpt lat="34.29779121466777" lon="108.71014979231504">
        <ele>385.68428851943463</ele>
        <time>2026-08-24T23:01:19Z</time>
      </trkpt>
      <trkpt lat="34.29788833620444" lon="108.71012382184159">
        <ele>386.59651973471045</ele>
        <time>2026-08-24T23:01:23Z</time>
      </trkpt>
      <trkpt lat="34.29796743426333" lon="108.71012816367178">
        <ele>387.44741086568683</ele>
        <time>2026-08-24T23:01:27Z</time>
      </trkpt>
      <trkpt lat="34.29801997756696" lon="108.71017441913332">
        <ele>388.7084645703435</ele>
        <time>2026-08-24T23:01:30Z</time>
      </trkpt>
      <trkpt lat="34.298028637144014" lon="108.71045931367318">
        <ele>389.3690717909485</ele>
        <time>2026-08-24T23:01:42Z</time>
      </trkpt>
      <trkpt lat="34.29800362173525" lon="108.71050593360148">
        <ele>389.4577889731154</ele>
        <time>2026-08-24T23:01:46Z</time>
      </trkpt>
      <trkpt lat="34.298040058922666" lon="108.71059055857984">
        <ele>389.5840141912922</ele>
        <time>2026-08-24T23:01:50Z</time>
      </trkpt>
      <trkpt lat="34.298044701182526" lon="108.71067796051607">
        <ele>389.4527730708942</ele>
        <time>2026-08-24T23:01:54Z</time>
      </trkpt>
      <trkpt lat="34.29816431128153" lon="108.71092015644768">
        <ele>389.38791092298925</ele>
        <time>2026-08-24T23:02:05Z</time>
      </trkpt>
      <trkpt lat="34.298167233504934" lon="108.71101655432547">
        <ele>388.54627001006156</ele>
        <time>2026-08-24T23:02:09Z</time>
      </trkpt>
      <trkpt lat="34.29815042085496" lon="108.71109892607465">
        <ele>387.865390593186</ele>
        <time>2026-08-24T23:02:13Z</time>
      </trkpt>
      <trkpt lat="34.298171018388196" lon="108.7113898694062">
        <ele>388.96984034217894</ele>
        <time>2026-08-24T23:02:28Z</time>
      </trkpt>
      <trkpt lat="34.29813153084171" lon="108.71142064782289">
        <ele>388.50522806867957</ele>
        <time>2026-08-24T23:02:31Z</time>
      </trkpt>
      <trkpt lat="34.29785860021455" lon="108.71151631318955">
        <ele>388.33693594578654</ele>
        <time>2026-08-24T23:02:49Z</time>
      </trkpt>
      <trkpt lat="34.29755650063599" lon="108.71165268019806">
        <ele>388.71174963749945</ele>
        <time>2026-08-24T23:03:07Z</time>
      </trkpt>
      <trkpt lat="34.29730240925769" lon="108.71175967081935">
        <ele>389.4270681263879</ele>
        <time>2026-08-24T23:03:22Z</time>
      </trkpt>
      <trkpt lat="34.29724957004952" lon="108.71176559633578">
        <ele>389.047516210936</ele>
        <time>2026-08-24T23:03:25Z</time>
      </trkpt>
      <trkpt lat="34.29694124524826" lon="108.71189024852922">
        <ele>388.83003325853497</ele>
        <time>2026-08-24T23:03:43Z</time>
      </trkpt>
      <trkpt lat="34.29678346049968" lon="108.7119726709714">
        <ele>389.032538340427</ele>
        <time>2026-08-24T23:03:52Z</time>
      </trkpt>
      <trkpt lat="34.29667128910459" lon="108.7119973105805">
        <ele>388.16463758889586</ele>
        <time>2026-08-24T23:03:58Z</time>
      </trkpt>
      <trkpt lat="34.29663466990531" lon="108.71203864122197">
        <ele>387.36433450039476</ele>
        <time>2026-08-24T23:04:01Z</time>
      </trkpt>
      <trkpt lat="34.296442384993505" lon="108.71210473714473">
        <ele>388.3239870928228</ele>
        <time>2026-08-24T23:04:13Z</time>
      </trkpt>
      <trkpt lat="34.296391680982126" lon="108.71210074079401">
        <ele>388.1420710971579</ele>
        <time>2026-08-24T23:04:16Z</time>
      </trkpt>
      <trkpt lat="34.29629959576726" lon="108.71196658573739">
        <ele>387.7141950894147</ele>
        <time>2026-08-24T23:04:25Z</time>
      </trkpt>
      <trkpt lat="34.2962689813333" lon="108.71159967304848">
        <ele>388.06576601509005</ele>
        <time>2026-08-24T23:04:43Z</time>
      </trkpt>
      <trkpt lat="34.296222419814406" lon="108.71127563691161">
        <ele>388.3927672142163</ele>
        <time>2026-08-24T23:04:58Z</time>
      </trkpt>
      <trkpt lat="34.29618105037407" lon="108.7108804600901">
        <ele>389.76552931685</ele>
        <time>2026-08-24T23:05:17Z</time>
      </trkpt>
      <trkpt lat="34.29614147103384" lon="108.71069641089007">
        <ele>389.4970687031746</ele>
        <time>2026-08-24T23:05:25Z</time>
      </trkpt>
      <trkpt lat="34.29614007342058" lon="108.7106047566657">
        <ele>389.8029144098982</ele>
        <time>2026-08-24T23:05:29Z</time>
      </trkpt>
      <trkpt lat="34.29604327287234" lon="108.71025167242948">
        <ele>391.4272763673216</ele>
        <time>2026-08-24T23:05:54Z</time>
      </trkpt>
      <trkpt lat="34.2960074388576" lon="108.70989510189695">
        <ele>389.82699443027377</ele>
        <time>2026-08-24T23:06:12Z</time>
      </trkpt>
      <trkpt lat="34.29596781810193" lon="108.70952080336146">
        <ele>388.7491373512894</ele>
        <time>2026-08-24T23:06:30Z</time>
      </trkpt>
      <trkpt lat="34.29592315929592" lon="108.70926348559232">
        <ele>390.8698049308732</ele>
        <time>2026-08-24T23:06:42Z</time>
      </trkpt>
      <trkpt lat="34.29588867858063" lon="108.70893626789805">
        <ele>390.2960041128099</ele>
        <time>2026-08-24T23:06:57Z</time>
      </trkpt>
      <trkpt lat="34.29587290209388" lon="108.70875097990084">
        <ele>390.2425465071574</ele>
        <time>2026-08-24T23:07:09Z</time>
      </trkpt>
      <trkpt lat="34.295891424162896" lon="108.70866143108292">
        <ele>390.8615543693304</ele>
        <time>2026-08-24T23:07:15Z</time>
      </trkpt>
      <trkpt lat="34.295857524936125" lon="108.70848064255752">
        <ele>391.13096480909735</ele>
        <time>2026-08-24T23:07:26Z</time>
      </trkpt>
      <trkpt lat="34.29582955837213" lon="108.70841724647138">
        <ele>390.77910534106195</ele>
        <time>2026-08-24T23:07:30Z</time>
      </trkpt>
      <trkpt lat="34.29580684066789" lon="108.70805733674709">
        <ele>390.27628991473466</ele>
        <time>2026-08-24T23:07:49Z</time>
      </trkpt>
      <trkpt lat="34.2957764756488" lon="108.70769895045402">
        <ele>390.6437086109072</ele>
        <time>2026-08-24T23:08:07Z</time>
      </trkpt>
      <trkpt lat="34.29576951801733" lon="108.70737015092531">
        <ele>390.104110436514</ele>
        <time>2026-08-24T23:08:22Z</time>
      </trkpt>
      <trkpt lat="34.29578132362562" lon="108.70730613940235">
        <ele>390.1464043715969</ele>
        <time>2026-08-24T23:08:25Z</time>
      </trkpt>
      <trkpt lat="34.295763477899634" lon="108.70711200012614">
        <ele>390.8578887935728</ele>
        <time>2026-08-24T23:08:34Z</time>
      </trkpt>
      <trkpt lat="34.29571910525038" lon="108.70691667952326">
        <ele>390.3897310588509</ele>
        <time>2026-08-24T23:08:46Z</time>
      </trkpt>
      <trkpt lat="34.29573852091105" lon="108.70686319882246">
        <ele>392.0919614145532</ele>
        <time>2026-08-24T23:08:49Z</time>
      </trkpt>
      <trkpt lat="34.295703869860574" lon="108.7067471942459">
        <ele>389.27650639787316</ele>
        <time>2026-08-24T23:08:55Z</time>
      </trkpt>
      <trkpt lat="34.29566874944722" lon="108.70646508945438">
        <ele>390.355129157193</ele>
        <time>2026-08-24T23:09:07Z</time>
      </trkpt>
      <trkpt lat="34.29570165279327" lon="108.70624227940242">
        <ele>390.35593057144433</ele>
        <time>2026-08-24T23:09:16Z</time>
      </trkpt>
      <trkpt lat="34.29581748635886" lon="108.70609520897402">
        <ele>388.87039708998054</ele>
        <time>2026-08-24T23:09:25Z</time>
      </trkpt>
      <trkpt lat="34.29610816526396" lon="108.70602474554472">
        <ele>389.99960815906525</ele>
        <time>2026-08-24T23:09:41Z</time>
      </trkpt>
      <trkpt lat="34.29641546675918" lon="108.705962647272">
        <ele>389.9108458980918</ele>
        <time>2026-08-24T23:09:56Z</time>
      </trkpt>
      <trkpt lat="34.29670352920028" lon="108.70592304665195">
        <ele>387.0552338305861</ele>
        <time>2026-08-24T23:10:11Z</time>
      </trkpt>
      <trkpt lat="34.29676264351139" lon="108.70588288853385">
        <ele>390.0846431776881</ele>
        <time>2026-08-24T23:10:17Z</time>
      </trkpt>
      <trkpt lat="34.2968892638935" lon="108.70588416408815">
        <ele>388.8422308610752</ele>
        <time>2026-08-24T23:10:29Z</time>
      </trkpt>
      <trkpt lat="34.296957060151165" lon="108.70585166337467">
        <ele>389.9431959753856</ele>
        <time>2026-08-24T23:10:35Z</time>
      </trkpt>
      <trkpt lat="34.29724796807742" lon="108.70583122085034">
        <ele>388.96586676407605</ele>
        <time>2026-08-24T23:10:53Z</time>
      </trkpt>
      <trkpt lat="34.29745001511009" lon="108.70578290037037">
        <ele>388.1793813602999</ele>
        <time>2026-08-24T23:11:05Z</time>
      </trkpt>
      <trkpt lat="34.29767321324249" lon="108.70574403914463">
        <ele>388.0470011495054</ele>
        <time>2026-08-24T23:11:17Z</time>
      </trkpt>
      <trkpt lat="34.29794712228121" lon="108.70569563033177">
        <ele>388.4236590601504</ele>
        <time>2026-08-24T23:11:33Z</time>
      </trkpt>
      <trkpt lat="34.29802141695959" lon="108.70569047053085">
        <ele>386.87032692413777</ele>
        <time>2026-08-24T23:11:37Z</time>
      </trkpt>
      <trkpt lat="34.29808530302201" lon="108.70566297910801">
        <ele>389.2904742853716</ele>
        <time>2026-08-24T23:11:41Z</time>
      </trkpt>
      <trkpt lat="34.29816666544065" lon="108.70567063723036">
        <ele>389.67146723903716</ele>
        <time>2026-08-24T23:11:45Z</time>
      </trkpt>
      <trkpt lat="34.2984435108851" lon="108.70561647550221">
        <ele>387.30274019762874</ele>
        <time>2026-08-24T23:12:00Z</time>
      </trkpt>
      <trkpt lat="34.2985799690257" lon="108.70558995927323">
        <ele>387.4776086984202</ele>
        <time>2026-08-24T23:12:06Z</time>
      </trkpt>
      <trkpt lat="34.2986673462812" lon="108.70559388632013">
        <ele>387.3477606801316</ele>
        <time>2026-08-24T23:12:12Z</time>
      </trkpt>
      <trkpt lat="34.29891744084495" lon="108.70550925408638">
        <ele>390.0222225273028</ele>
        <time>2026-08-24T23:12:30Z</time>
      </trkpt>
      <trkpt lat="34.29900258223785" lon="108.70550428807485">
        <ele>389.07179957814515</ele>
        <time>2026-08-24T23:12:36Z</time>
      </trkpt>
      <trkpt lat="34.29905888316685" lon="108.70547294305472">
        <ele>389.7417806815356</ele>
        <time>2026-08-24T23:12:42Z</time>
      </trkpt>
      <trkpt lat="34.299191775238015" lon="108.70544973245968">
        <ele>389.34142699092627</ele>
        <time>2026-08-24T23:12:51Z</time>
      </trkpt>
      <trkpt lat="34.299213858863695" lon="108.70551035959824">
        <ele>389.88219226896763</ele>
        <time>2026-08-24T23:12:57Z</time>
      </trkpt>
      <trkpt lat="34.29915338416703" lon="108.70553781923164">
        <ele>390.1837825132534</ele>
        <time>2026-08-24T23:13:00Z</time>
      </trkpt>
      <trkpt lat="34.299107491027584" lon="108.70558986663004">
        <ele>390.66150393895805</ele>
        <time>2026-08-24T23:13:03Z</time>
      </trkpt>
      <trkpt lat="34.298902642789805" lon="108.70563403436232">
        <ele>388.5595175269991</ele>
        <time>2026-08-24T23:13:12Z</time>
      </trkpt>
      <trkpt lat="34.29884803321081" lon="108.70561880720906">
        <ele>389.4392533265054</ele>
        <time>2026-08-24T23:13:15Z</time>
      </trkpt>
      <trkpt lat="34.29857470252209" lon="108.70567690490206">
        <ele>387.9728960301727</ele>
        <time>2026-08-24T23:13:30Z</time>
      </trkpt>
      <trkpt lat="34.29832762204082" lon="108.70572595278459">
        <ele>386.3972504744306</ele>
        <time>2026-08-24T23:13:44Z</time>
      </trkpt>
      <trkpt lat="34.29825334433506" lon="108.70572149269357">
        <ele>387.14045942854136</ele>
        <time>2026-08-24T23:13:48Z</time>
      </trkpt>
      <trkpt lat="34.29818377584421" lon="108.70575305943474">
        <ele>386.7650956772268</ele>
        <time>2026-08-24T23:13:52Z</time>
      </trkpt>
      <trkpt lat="34.297862832159794" lon="108.70581253988037">
        <ele>388.06368329096586</ele>
        <time>2026-08-24T23:14:10Z</time>
      </trkpt>
      <trkpt lat="34.29755011839094" lon="108.70586068695752">
        <ele>388.18339042924345</ele>
        <time>2026-08-24T23:14:28Z</time>
      </trkpt>
      <trkpt lat="34.2972508245582" lon="108.70592340038154">
        <ele>388.660618621856</ele>
        <time>2026-08-24T23:14:46Z</time>
      </trkpt>
      <trkpt lat="34.29694977327772" lon="108.70597290880546">
        <ele>388.5820933962241</ele>
        <time>2026-08-24T23:15:04Z</time>
      </trkpt>
      <trkpt lat="34.29667078316767" lon="108.7060164208825">
        <ele>388.3765437854454</ele>
        <time>2026-08-24T23:15:22Z</time>
      </trkpt>
      <trkpt lat="34.296522614199134" lon="108.70606188373387">
        <ele>388.8851054087281</ele>
        <time>2026-08-24T23:15:31Z</time>
      </trkpt>
      <trkpt lat="34.296414411857306" lon="108.70606126486251">
        <ele>388.71239671111107</ele>
        <time>2026-08-24T23:15:37Z</time>
      </trkpt>
      <trkpt lat="34.29636314214532" lon="108.70609267390311">
        <ele>388.6742374319583</ele>
        <time>2026-08-24T23:15:40Z</time>
      </trkpt>
      <trkpt lat="34.29607558508783" lon="108.70612148511343">
        <ele>390.53645792230964</ele>
        <time>2026-08-24T23:15:55Z</time>
      </trkpt>
      <trkpt lat="34.29597079806341" lon="108.70616382043929">
        <ele>389.901333687827</ele>
        <time>2026-08-24T23:16:05Z</time>
      </trkpt>
      <trkpt lat="34.29581858797497" lon="108.70615961189904">
        <ele>389.2105677006766</ele>
        <time>2026-08-24T23:16:17Z</time>
      </trkpt>
      <trkpt lat="34.295780766106624" lon="108.70610538431585">
        <ele>388.4501918666065</ele>
        <time>2026-08-24T23:16:23Z</time>
      </trkpt>
      <trkpt lat="34.29602009530871" lon="108.70606124528229">
        <ele>387.5962615041062</ele>
        <time>2026-08-24T23:16:38Z</time>
      </trkpt>
      <trkpt lat="34.29613465232205" lon="108.70601335276545">
        <ele>390.0683825649321</ele>
        <time>2026-08-24T23:16:44Z</time>
      </trkpt>
      <trkpt lat="34.296406512243045" lon="108.70598545255737">
        <ele>387.19843104854226</ele>
        <time>2026-08-24T23:16:59Z</time>
      </trkpt>
      <trkpt lat="34.29667347653979" lon="108.70592604065003">
        <ele>388.45541575644165</ele>
        <time>2026-08-24T23:17:14Z</time>
      </trkpt>
      <trkpt lat="34.29690163095397" lon="108.70591866444957">
        <ele>389.8876231526956</ele>
        <time>2026-08-24T23:17:26Z</time>
      </trkpt>
      <trkpt lat="34.297171955022776" lon="108.70585375701943">
        <ele>388.7952670715749</ele>
        <time>2026-08-24T23:17:41Z</time>
      </trkpt>
      <trkpt lat="34.29749345761742" lon="108.70579086248613">
        <ele>387.54634620808065</ele>
        <time>2026-08-24T23:17:58Z</time>
      </trkpt>
      <trkpt lat="34.297774001346745" lon="108.70573208807002">
        <ele>388.77752343565226</ele>
        <time>2026-08-24T23:18:15Z</time>
      </trkpt>
      <trkpt lat="34.29784180438746" lon="108.70574052241581">
        <ele>387.98834197130054</ele>
        <time>2026-08-24T23:18:18Z</time>
      </trkpt>
      <trkpt lat="34.29810515383675" lon="108.70565390517262">
        <ele>388.7775170300156</ele>
        <time>2026-08-24T23:18:39Z</time>
      </trkpt>
      <trkpt lat="34.29815028891012" lon="108.70566092719741">
        <ele>388.22592175845057</ele>
        <time>2026-08-24T23:18:42Z</time>
      </trkpt>
      <trkpt lat="34.29833012331938" lon="108.70561818421993">
        <ele>388.55986419692636</ele>
        <time>2026-08-24T23:18:57Z</time>
      </trkpt>
      <trkpt lat="34.2983743804688" lon="108.70562907158097">
        <ele>387.9889915594831</ele>
        <time>2026-08-24T23:19:00Z</time>
      </trkpt>
      <trkpt lat="34.29867859998711" lon="108.70556926990278">
        <ele>389.06014038808644</ele>
        <time>2026-08-24T23:19:24Z</time>
      </trkpt>
      <trkpt lat="34.29872225708915" lon="108.70554893304126">
        <ele>389.3013473935425</ele>
        <time>2026-08-24T23:19:30Z</time>
      </trkpt>
      <trkpt lat="34.299014747115905" lon="108.70550580517629">
        <ele>388.85626674909145</ele>
        <time>2026-08-24T23:19:49Z</time>
      </trkpt>
      <trkpt lat="34.299184715264744" lon="108.70547099766425">
        <ele>389.4105897815898</ele>
        <time>2026-08-24T23:19:58Z</time>
      </trkpt>
      <trkpt lat="34.29924785599082" lon="108.70548817997305">
        <ele>389.2586841704324</ele>
        <time>2026-08-24T23:20:02Z</time>
      </trkpt>
      <trkpt lat="34.299300470535094" lon="108.70554497019002">
        <ele>391.0141578055918</ele>
        <time>2026-08-24T23:20:06Z</time>
      </trkpt>
      <trkpt lat="34.29933047462957" lon="108.70563625978961">
        <ele>389.7186335315928</ele>
        <time>2026-08-24T23:20:10Z</time>
      </trkpt>
      <trkpt lat="34.299405114484664" lon="108.70562679930794">
        <ele>389.87315579596907</ele>
        <time>2026-08-24T23:20:19Z</time>
      </trkpt>
      <trkpt lat="34.29944325285698" lon="108.70595452731519">
        <ele>389.7116375025362</ele>
        <time>2026-08-24T23:20:37Z</time>
      </trkpt>
      <trkpt lat="34.29948508255445" lon="108.70615317731455">
        <ele>389.2031653309241</ele>
        <time>2026-08-24T23:20:46Z</time>
      </trkpt>
      <trkpt lat="34.299491047716124" lon="108.70633722530869">
        <ele>389.83678608201444</ele>
        <time>2026-08-24T23:20:55Z</time>
      </trkpt>
      <trkpt lat="34.29950875582636" lon="108.70639029407424">
        <ele>390.9851674148813</ele>
        <time>2026-08-24T23:20:58Z</time>
      </trkpt>
      <trkpt lat="34.29955261274765" lon="108.70672883263165">
        <ele>390.38328989967704</ele>
        <time>2026-08-24T23:21:13Z</time>
      </trkpt>
      <trkpt lat="34.299596020162994" lon="108.70705317460893">
        <ele>390.51911649573594</ele>
        <time>2026-08-24T23:21:28Z</time>
      </trkpt>
      <trkpt lat="34.299609463852846" lon="108.70711992032503">
        <ele>391.44957905542105</ele>
        <time>2026-08-24T23:21:34Z</time>
      </trkpt>
      <trkpt lat="34.299600867267074" lon="108.70717599657718">
        <ele>390.8620711779222</ele>
        <time>2026-08-24T23:21:37Z</time>
      </trkpt>
      <trkpt lat="34.299525549154545" lon="108.70724757925109">
        <ele>390.8025582395494</ele>
        <time>2026-08-24T23:21:43Z</time>
      </trkpt>
      <trkpt lat="34.299510005288965" lon="108.70734543414082">
        <ele>392.3780038356781</ele>
        <time>2026-08-24T23:21:49Z</time>
      </trkpt>
      <trkpt lat="34.29947904945282" lon="108.70740532749305">
        <ele>391.6296546468511</ele>
        <time>2026-08-24T23:21:52Z</time>
      </trkpt>
      <trkpt lat="34.29947456227184" lon="108.70757042305804">
        <ele>392.22839723713696</ele>
        <time>2026-08-24T23:22:01Z</time>
      </trkpt>
      <trkpt lat="34.299521455195595" lon="108.70788145097202">
        <ele>391.2011291850358</ele>
        <time>2026-08-24T23:22:16Z</time>
      </trkpt>
      <trkpt lat="34.29956072699869" lon="108.70804738480912">
        <ele>390.60129588562995</ele>
        <time>2026-08-24T23:22:28Z</time>
      </trkpt>
      <trkpt lat="34.29956459527734" lon="108.70820499844172">
        <ele>390.66277784947306</ele>
        <time>2026-08-24T23:22:37Z</time>
      </trkpt>
      <trkpt lat="34.29962822077929" lon="108.7083487656183">
        <ele>389.068365807645</ele>
        <time>2026-08-24T23:22:52Z</time>
      </trkpt>
      <trkpt lat="34.29958241642437" lon="108.70836263863846">
        <ele>390.978726811707</ele>
        <time>2026-08-24T23:22:55Z</time>
      </trkpt>
      <trkpt lat="34.29958460842519" lon="108.70842309923533">
        <ele>389.50772752054036</ele>
        <time>2026-08-24T23:23:01Z</time>
      </trkpt>
      <trkpt lat="34.299630266336266" lon="108.70849331608805">
        <ele>390.44102893117815</ele>
        <time>2026-08-24T23:23:07Z</time>
      </trkpt>
      <trkpt lat="34.29966432739151" lon="108.70864318204266">
        <ele>390.3975878227502</ele>
        <time>2026-08-24T23:23:19Z</time>
      </trkpt>
      <trkpt lat="34.29964382524521" lon="108.70883947501086">
        <ele>391.2253549117595</ele>
        <time>2026-08-24T23:23:31Z</time>
      </trkpt>
      <trkpt lat="34.29962229508271" lon="108.70890971464749">
        <ele>391.62064593378454</ele>
        <time>2026-08-24T23:23:34Z</time>
      </trkpt>
      <trkpt lat="34.29967713746442" lon="108.70897758764156">
        <ele>389.93039221316576</ele>
        <time>2026-08-24T23:23:37Z</time>
      </trkpt>
      <trkpt lat="34.299696197418676" lon="108.70929670229704">
        <ele>391.38471980951726</ele>
        <time>2026-08-24T23:23:55Z</time>
      </trkpt>
      <trkpt lat="34.299722927449125" lon="108.70934677446856">
        <ele>390.68378329183906</ele>
        <time>2026-08-24T23:23:58Z</time>
      </trkpt>
      <trkpt lat="34.299724386339314" lon="108.70945761027382">
        <ele>388.35405376087874</ele>
        <time>2026-08-24T23:24:04Z</time>
      </trkpt>
      <trkpt lat="34.29978637076136" lon="108.70962403558039">
        <ele>389.7592388736084</ele>
        <time>2026-08-24T23:24:15Z</time>
      </trkpt>
      <trkpt lat="34.29978354090418" lon="108.70979057521465">
        <ele>390.7952208640054</ele>
        <time>2026-08-24T23:24:23Z</time>
      </trkpt>
      <trkpt lat="34.29983492019383" lon="108.71012291017699">
        <ele>390.2035125158727</ele>
        <time>2026-08-24T23:24:44Z</time>
      </trkpt>
      <trkpt lat="34.2998665589447" lon="108.71027320228484">
        <ele>389.82311237975955</ele>
        <time>2026-08-24T23:24:53Z</time>
      </trkpt>
      <trkpt lat="34.29981695502087" lon="108.71035438057868">
        <ele>390.46667787991464</ele>
        <time>2026-08-24T23:24:59Z</time>
      </trkpt>
      <trkpt lat="34.299698507053016" lon="108.710454324469">
        <ele>388.6699878424406</ele>
        <time>2026-08-24T23:25:08Z</time>
      </trkpt>
      <trkpt lat="34.29967284349839" lon="108.71051128507719">
        <ele>387.2070967173204</ele>
        <time>2026-08-24T23:25:11Z</time>
      </trkpt>
      <trkpt lat="34.29963413815078" lon="108.71054109866364">
        <ele>389.1308626625687</ele>
        <time>2026-08-24T23:25:14Z</time>
      </trkpt>
      <trkpt lat="34.29955329632885" lon="108.71055902856615">
        <ele>389.09260002337396</ele>
        <time>2026-08-24T23:25:20Z</time>
      </trkpt>
      <trkpt lat="34.29950377781388" lon="108.71060317899547">
        <ele>392.68520006351173</ele>
        <time>2026-08-24T23:25:26Z</time>
      </trkpt>
      <trkpt lat="34.29948810450681" lon="108.71065406105377">
        <ele>393.8844025079161</ele>
        <time>2026-08-24T23:25:29Z</time>
      </trkpt>
      <trkpt lat="34.29948695653033" lon="108.71074762195406">
        <ele>393.36615817341954</ele>
        <time>2026-08-24T23:25:35Z</time>
      </trkpt>
      <trkpt lat="34.29943540392827" lon="108.71082610956974">
        <ele>390.6957769645378</ele>
        <time>2026-08-24T23:25:41Z</time>
      </trkpt>
      <trkpt lat="34.29939114689242" lon="108.71086689190167">
        <ele>390.6300692372024</ele>
        <time>2026-08-24T23:26:26Z</time>
      </trkpt>
      <trkpt lat="34.299254610710726" lon="108.71091211114098">
        <ele>389.8215328659862</ele>
        <time>2026-08-24T23:26:35Z</time>
      </trkpt>
      <trkpt lat="34.29912111469446" lon="108.71097898785742">
        <ele>389.99878390785307</ele>
        <time>2026-08-24T23:26:47Z</time>
      </trkpt>
      <trkpt lat="34.2990515158528" lon="108.71098659801986">
        <ele>389.91510966885835</ele>
        <time>2026-08-24T23:26:53Z</time>
      </trkpt>
      <trkpt lat="34.29881781362285" lon="108.71111322442981">
        <ele>390.804046805948</ele>
        <time>2026-08-24T23:27:11Z</time>
      </trkpt>
      <trkpt lat="34.29850695020047" lon="108.71122033408658">
        <ele>388.7231597499922</ele>
        <time>2026-08-24T23:27:35Z</time>
      </trkpt>
      <trkpt lat="34.2983545327926" lon="108.71132000920831">
        <ele>389.57996771112084</ele>
        <time>2026-08-24T23:27:47Z</time>
      </trkpt>
      <trkpt lat="34.29826161477072" lon="108.71134337268857">
        <ele>389.6681374711916</ele>
        <time>2026-08-24T23:27:53Z</time>
      </trkpt>
      <trkpt lat="34.2982192472553" lon="108.71137955597308">
        <ele>389.149551208131</ele>
        <time>2026-08-24T23:27:56Z</time>
      </trkpt>
      <trkpt lat="34.29816829727279" lon="108.71134536630895">
        <ele>388.9433114025742</ele>
        <time>2026-08-24T23:27:59Z</time>
      </trkpt>
      <trkpt lat="34.29815205407698" lon="108.71117780352928">
        <ele>387.3638036819175</ele>
        <time>2026-08-24T23:28:05Z</time>
      </trkpt>
      <trkpt lat="34.298130517873226" lon="108.71111976875129">
        <ele>387.42061100061983</ele>
        <time>2026-08-24T23:28:08Z</time>
      </trkpt>
      <trkpt lat="34.29809111232221" lon="108.71108184994912">
        <ele>388.00082333013415</ele>
        <time>2026-08-24T23:28:11Z</time>
      </trkpt>
      <trkpt lat="34.29807323748328" lon="108.71099083228756">
        <ele>388.6896452624351</ele>
        <time>2026-08-24T23:28:17Z</time>
      </trkpt>
      <trkpt lat="34.29801029949274" lon="108.71081150648061">
        <ele>389.50663711037487</ele>
        <time>2026-08-24T23:28:29Z</time>
      </trkpt>
      <trkpt lat="34.297985879460185" lon="108.71055791303408">
        <ele>388.2804902754724</ele>
        <time>2026-08-24T23:28:45Z</time>
      </trkpt>
      <trkpt lat="34.29796401633676" lon="108.7104664999311">
        <ele>386.91419605351985</ele>
        <time>2026-08-24T23:28:51Z</time>
      </trkpt>
      <trkpt lat="34.29797207286402" lon="108.71031292623928">
        <ele>386.9681695085019</ele>
        <time>2026-08-24T23:29:00Z</time>
      </trkpt>
      <trkpt lat="34.29801108753733" lon="108.71019313498249">
        <ele>388.03403723519295</ele>
        <time>2026-08-24T23:29:06Z</time>
      </trkpt>
      <trkpt lat="34.29797716503536" lon="108.71015098040701">
        <ele>388.5308094602078</ele>
        <time>2026-08-24T23:29:12Z</time>
      </trkpt>
      <trkpt lat="34.29781551437211" lon="108.7101994644948">
        <ele>388.234442088753</ele>
        <time>2026-08-24T23:29:21Z</time>
      </trkpt>
      <trkpt lat="34.29777417769184" lon="108.71023840106339">
        <ele>388.82591103296727</ele>
        <time>2026-08-24T23:29:24Z</time>
      </trkpt>
      <trkpt lat="34.29778396657923" lon="108.71046265161166">
        <ele>387.7495065741241</ele>
        <time>2026-08-24T23:29:42Z</time>
      </trkpt>
      <trkpt lat="34.29778396657923" lon="108.71046265161166">
        <ele>387.7495065741241</ele>
        <time>2026-08-24T23:29:56Z</time>
      </trkpt>
    </trkseg>
  </trk>
</gpx>