<?xml version="1.0" encoding="UTF-8"?>
<gpx xmlns="http://www.topografix.com/GPX/1/1" xmlns:gpxtpx="http://www.garmin.com/xmlschemas/TrackPointExtension/v1" xmlns:xsi="http://www.w3.org/2001/XMLSchema-instance" xsi:schemaLocation="http://www.topografix.com/GPX/1/1 http://www.topografix.com/GPX/1/1/gpx.xsd" version="1.1" creator="gpx.py -- https://github.com/tkrajina/gpxpy">
  <trk>
    <name>gpx from keep</name>
    <type>Ride</type>
    <trkseg>
      <trkpt lat="34.328324120925465" lon="108.98036250241535">
        <ele>404.4680061340332</ele>
        <time>2022-04-17T23:20:44Z</time>
      </trkpt>
      <trkpt lat="34.32816723517444" lon="108.98032354116334">
        <ele>403.7270851135254</ele>
        <time>2022-04-17T23:21:37Z</time>
      </trkpt>
      <trkpt lat="34.32829631297143" lon="108.98050334185758">
        <ele>398.6029930114746</ele>
        <time>2022-04-17T23:21:44Z</time>
      </trkpt>
      <trkpt lat="34.328116281331816" lon="108.98039782679554">
        <ele>397.5938186645508</ele>
        <time>2022-04-17T23:22:00Z</time>
      </trkpt>
      <trkpt lat="34.32848749736623" lon="108.98046416243893">
        <ele>396.8237533569336</ele>
        <time>2022-04-17T23:22:22Z</time>
      </trkpt>
      <trkpt lat="34.3287468028508" lon="108.98041006082504">
        <ele>396.9548931121826</ele>
        <time>2022-04-17T23:22:28Z</time>
      </trkpt>
      <trkpt lat="34.32877540743539" lon="108.98022233749197">
        <ele>397.0160903930664</ele>
        <time>2022-04-17T23:22:34Z</time>
      </trkpt>
      <trkpt lat="34.328697234311825" lon="108.98037418576122">
        <ele>397.0445213317871</ele>
        <time>2022-04-17T23:22:44Z</time>
      </trkpt>
      <trkpt lat="34.328673745208995" lon="108.98050910930068">
        <ele>395.92387255933136</ele>
        <time>2022-04-17T23:22:49Z</time>
      </trkpt>
      <trkpt lat="34.32861645444922" lon="108.9805990938668">
        <ele>395.89593272376806</ele>
        <time>2022-04-17T23:22:53Z</time>
      </trkpt>
      <trkpt lat="34.328637798277256" lon="108.98072203199891">
        <ele>395.7902907449752</ele>
        <time>2022-04-17T23:22:59Z</time>
      </trkpt>
      <trkpt lat="34.32869379317041" lon="108.98065292834761">
        <ele>396.2677305182442</ele>
        <time>2022-04-17T23:23:07Z</time>
      </trkpt>
      <trkpt lat="34.32884656671662" lon="108.98062906768124">
        <ele>396.4698959523812</ele>
        <time>2022-04-17T23:23:18Z</time>
      </trkpt>
      <trkpt lat="34.32892835740974" lon="108.98063794673416">
        <ele>396.0432548020035</ele>
        <time>2022-04-17T23:23:25Z</time>
      </trkpt>
      <trkpt lat="34.328980292385474" lon="108.98055667584893">
        <ele>396.1162885213271</ele>
        <time>2022-04-17T23:23:33Z</time>
      </trkpt>
      <trkpt lat="34.32904853738905" lon="108.98051133643187">
        <ele>395.8836479363963</ele>
        <time>2022-04-17T23:23:39Z</time>
      </trkpt>
      <trkpt lat="34.329072040853745" lon="108.98041422661358">
        <ele>395.8690081629902</ele>
        <time>2022-04-17T23:23:46Z</time>
      </trkpt>
      <trkpt lat="34.3291288458925" lon="108.98035493799215">
        <ele>395.87104417942464</ele>
        <time>2022-04-17T23:23:54Z</time>
      </trkpt>
      <trkpt lat="34.32953045276201" lon="108.98033341433805">
        <ele>396.23182243015617</ele>
        <time>2022-04-17T23:24:17Z</time>
      </trkpt>
      <trkpt lat="34.329599486351" lon="108.98029987806392">
        <ele>396.1768685420975</ele>
        <time>2022-04-17T23:24:22Z</time>
      </trkpt>
      <trkpt lat="34.32964992691119" lon="108.98023347821328">
        <ele>395.6758341938257</ele>
        <time>2022-04-17T23:24:27Z</time>
      </trkpt>
      <trkpt lat="34.329728334791795" lon="108.98024388733032">
        <ele>395.91246154811233</ele>
        <time>2022-04-17T23:24:33Z</time>
      </trkpt>
      <trkpt lat="34.329795913718456" lon="108.98009210249356">
        <ele>396.0250457637012</ele>
        <time>2022-04-17T23:24:45Z</time>
      </trkpt>
      <trkpt lat="34.32978370371223" lon="108.97996794975944">
        <ele>395.1410240540281</ele>
        <time>2022-04-17T23:24:54Z</time>
      </trkpt>
      <trkpt lat="34.329893337964656" lon="108.97981435596604">
        <ele>396.00206103827804</ele>
        <time>2022-04-17T23:25:04Z</time>
      </trkpt>
      <trkpt lat="34.329814391465256" lon="108.9798305160169">
        <ele>395.6865469701588</ele>
        <time>2022-04-17T23:25:16Z</time>
      </trkpt>
      <trkpt lat="34.32973982330481" lon="108.9798017019167">
        <ele>395.81858539860696</ele>
        <time>2022-04-17T23:25:24Z</time>
      </trkpt>
      <trkpt lat="34.329771058578515" lon="108.97985001750467">
        <ele>395.82461594976485</ele>
        <time>2022-04-17T23:25:38Z</time>
      </trkpt>
      <trkpt lat="34.329755382771" lon="108.97982184610846">
        <ele>396.02966772019863</ele>
        <time>2022-04-17T23:25:53Z</time>
      </trkpt>
      <trkpt lat="34.32988905727812" lon="108.97956951779302">
        <ele>395.52125715091825</ele>
        <time>2022-04-17T23:25:59Z</time>
      </trkpt>
      <trkpt lat="34.32995377373628" lon="108.97966950091303">
        <ele>396.14493371825665</ele>
        <time>2022-04-17T23:26:01Z</time>
      </trkpt>
      <trkpt lat="34.33014207936506" lon="108.9796854021714">
        <ele>395.14247359428555</ele>
        <time>2022-04-17T23:26:05Z</time>
      </trkpt>
      <trkpt lat="34.330311645411776" lon="108.97964300007771">
        <ele>395.15716284606606</ele>
        <time>2022-04-17T23:26:09Z</time>
      </trkpt>
      <trkpt lat="34.33049821802967" lon="108.9796744818498">
        <ele>395.0559624833986</ele>
        <time>2022-04-17T23:26:13Z</time>
      </trkpt>
      <trkpt lat="34.33064565539332" lon="108.97972286484315">
        <ele>396.03984257020056</ele>
        <time>2022-04-17T23:26:17Z</time>
      </trkpt>
      <trkpt lat="34.33068399637802" lon="108.97981658871493">
        <ele>397.03200455382466</ele>
        <time>2022-04-17T23:26:19Z</time>
      </trkpt>
      <trkpt lat="34.330684016887666" lon="108.98003329042865">
        <ele>396.30235892161727</ele>
        <time>2022-04-17T23:26:23Z</time>
      </trkpt>
      <trkpt lat="34.330738608844584" lon="108.98017740884636">
        <ele>395.9115628162399</ele>
        <time>2022-04-17T23:26:27Z</time>
      </trkpt>
      <trkpt lat="34.33072082441076" lon="108.98037410170836">
        <ele>395.10040099639446</ele>
        <time>2022-04-17T23:26:31Z</time>
      </trkpt>
      <trkpt lat="34.330746131776884" lon="108.98059133035567">
        <ele>394.9165835939348</ele>
        <time>2022-04-17T23:26:35Z</time>
      </trkpt>
      <trkpt lat="34.330713900171816" lon="108.98094717141994">
        <ele>396.27151913475245</ele>
        <time>2022-04-17T23:26:41Z</time>
      </trkpt>
      <trkpt lat="34.33072580080795" lon="108.98148991443433">
        <ele>395.20996772684157</ele>
        <time>2022-04-17T23:26:51Z</time>
      </trkpt>
      <trkpt lat="34.33074399898102" lon="108.98185478887791">
        <ele>395.39388097822666</ele>
        <time>2022-04-17T23:26:58Z</time>
      </trkpt>
      <trkpt lat="34.33079048554724" lon="108.98203621309052">
        <ele>394.47371050622314</ele>
        <time>2022-04-17T23:27:02Z</time>
      </trkpt>
      <trkpt lat="34.33076814619226" lon="108.98232034660963">
        <ele>394.3631346439943</ele>
        <time>2022-04-17T23:27:06Z</time>
      </trkpt>
      <trkpt lat="34.330778208823176" lon="108.98243748280288">
        <ele>395.07520262990147</ele>
        <time>2022-04-17T23:27:08Z</time>
      </trkpt>
      <trkpt lat="34.33074842093983" lon="108.98257954097744">
        <ele>394.52058907505125</ele>
        <time>2022-04-17T23:27:10Z</time>
      </trkpt>
      <trkpt lat="34.33074597237269" lon="108.98270722457401">
        <ele>394.43205145560205</ele>
        <time>2022-04-17T23:27:12Z</time>
      </trkpt>
      <trkpt lat="34.33070616534428" lon="108.98306915340845">
        <ele>394.73789048939943</ele>
        <time>2022-04-17T23:27:18Z</time>
      </trkpt>
      <trkpt lat="34.330707740233294" lon="108.98330256885825">
        <ele>395.1223494717851</ele>
        <time>2022-04-17T23:27:22Z</time>
      </trkpt>
      <trkpt lat="34.33066160493914" lon="108.98376947372242">
        <ele>395.0263460613787</ele>
        <time>2022-04-17T23:27:30Z</time>
      </trkpt>
      <trkpt lat="34.330706898672545" lon="108.98429949869093">
        <ele>395.3409280963242</ele>
        <time>2022-04-17T23:27:40Z</time>
      </trkpt>
      <trkpt lat="34.330736053238496" lon="108.98463058288505">
        <ele>394.9790213909</ele>
        <time>2022-04-17T23:27:46Z</time>
      </trkpt>
      <trkpt lat="34.33069705004516" lon="108.985257858633">
        <ele>394.04807744175196</ele>
        <time>2022-04-17T23:27:56Z</time>
      </trkpt>
      <trkpt lat="34.33068080055167" lon="108.98537887285818">
        <ele>393.9548618616536</ele>
        <time>2022-04-17T23:27:58Z</time>
      </trkpt>
      <trkpt lat="34.33073915805598" lon="108.98575737643334">
        <ele>393.36264950875193</ele>
        <time>2022-04-17T23:28:04Z</time>
      </trkpt>
      <trkpt lat="34.33077362192422" lon="108.98613256235517">
        <ele>393.7640298381448</ele>
        <time>2022-04-17T23:28:10Z</time>
      </trkpt>
      <trkpt lat="34.33073250592236" lon="108.98657243452585">
        <ele>393.3574656955898</ele>
        <time>2022-04-17T23:28:16Z</time>
      </trkpt>
      <trkpt lat="34.33073547201809" lon="108.98684782967733">
        <ele>392.7380697289482</ele>
        <time>2022-04-17T23:28:20Z</time>
      </trkpt>
      <trkpt lat="34.33070868314566" lon="108.98708609360237">
        <ele>392.99865615274757</ele>
        <time>2022-04-17T23:28:24Z</time>
      </trkpt>
      <trkpt lat="34.330667715636096" lon="108.98726511925233">
        <ele>392.63720950018615</ele>
        <time>2022-04-17T23:28:26Z</time>
      </trkpt>
      <trkpt lat="34.33060613053776" lon="108.98789547211099">
        <ele>392.2572642620653</ele>
        <time>2022-04-17T23:28:36Z</time>
      </trkpt>
      <trkpt lat="34.33082299339936" lon="108.98799106853198">
        <ele>392.5869170986116</ele>
        <time>2022-04-17T23:28:39Z</time>
      </trkpt>
      <trkpt lat="34.33063723688799" lon="108.98805159791395">
        <ele>392.7511374345049</ele>
        <time>2022-04-17T23:28:41Z</time>
      </trkpt>
      <trkpt lat="34.33062480398328" lon="108.98831882874013">
        <ele>392.98178680986166</ele>
        <time>2022-04-17T23:28:47Z</time>
      </trkpt>
      <trkpt lat="34.33064795124895" lon="108.98840747996242">
        <ele>392.7617029650137</ele>
        <time>2022-04-17T23:28:49Z</time>
      </trkpt>
      <trkpt lat="34.330651516759865" lon="108.98853818387772">
        <ele>392.6260712360963</ele>
        <time>2022-04-17T23:28:51Z</time>
      </trkpt>
      <trkpt lat="34.33068488001626" lon="108.98864192068561">
        <ele>392.89037898276</ele>
        <time>2022-04-17T23:28:53Z</time>
      </trkpt>
      <trkpt lat="34.330642839584236" lon="108.98874683897914">
        <ele>392.76706645730883</ele>
        <time>2022-04-17T23:28:59Z</time>
      </trkpt>
      <trkpt lat="34.33062645978783" lon="108.98931146989788">
        <ele>392.4657324953005</ele>
        <time>2022-04-17T23:29:12Z</time>
      </trkpt>
      <trkpt lat="34.33065479481029" lon="108.98941810540744">
        <ele>392.11652591452</ele>
        <time>2022-04-17T23:29:14Z</time>
      </trkpt>
      <trkpt lat="34.330735742670065" lon="108.98949915113158">
        <ele>392.46935165766627</ele>
        <time>2022-04-17T23:29:16Z</time>
      </trkpt>
      <trkpt lat="34.33081490637797" lon="108.98977536932462">
        <ele>391.851139459759</ele>
        <time>2022-04-17T23:29:20Z</time>
      </trkpt>
      <trkpt lat="34.33082574320582" lon="108.98987352374102">
        <ele>392.17398084606975</ele>
        <time>2022-04-17T23:29:22Z</time>
      </trkpt>
      <trkpt lat="34.33069491355533" lon="108.99012560777432">
        <ele>391.8895649164915</ele>
        <time>2022-04-17T23:29:30Z</time>
      </trkpt>
      <trkpt lat="34.33060695913269" lon="108.99045190587347">
        <ele>391.4215916963294</ele>
        <time>2022-04-17T23:29:44Z</time>
      </trkpt>
      <trkpt lat="34.33063359977794" lon="108.99054873136421">
        <ele>391.6074167592451</ele>
        <time>2022-04-17T23:29:48Z</time>
      </trkpt>
      <trkpt lat="34.330641351870874" lon="108.9907607596627">
        <ele>391.20290999207646</ele>
        <time>2022-04-17T23:29:52Z</time>
      </trkpt>
      <trkpt lat="34.33069651283755" lon="108.99095028066233">
        <ele>390.6414651023224</ele>
        <time>2022-04-17T23:29:56Z</time>
      </trkpt>
      <trkpt lat="34.3307546453928" lon="108.9910797061391">
        <ele>391.3209749236703</ele>
        <time>2022-04-17T23:29:58Z</time>
      </trkpt>
      <trkpt lat="34.330812632668355" lon="108.99115019840976">
        <ele>391.5362159702927</ele>
        <time>2022-04-17T23:30:00Z</time>
      </trkpt>
      <trkpt lat="34.330740202363735" lon="108.99118144778687">
        <ele>391.3587684519589</ele>
        <time>2022-04-17T23:30:02Z</time>
      </trkpt>
      <trkpt lat="34.33065159240792" lon="108.99138727317157">
        <ele>392.18098932504654</ele>
        <time>2022-04-17T23:30:10Z</time>
      </trkpt>
      <trkpt lat="34.33064499117913" lon="108.99150214738339">
        <ele>392.58458125125617</ele>
        <time>2022-04-17T23:30:12Z</time>
      </trkpt>
      <trkpt lat="34.330622103398206" lon="108.9915928111947">
        <ele>393.0640116138384</ele>
        <time>2022-04-17T23:30:14Z</time>
      </trkpt>
      <trkpt lat="34.33063022534831" lon="108.99216366623257">
        <ele>394.1321993628517</ele>
        <time>2022-04-17T23:30:26Z</time>
      </trkpt>
      <trkpt lat="34.3306134597654" lon="108.99226584250376">
        <ele>394.6017442904413</ele>
        <time>2022-04-17T23:30:28Z</time>
      </trkpt>
      <trkpt lat="34.330614634764935" lon="108.99253398055787">
        <ele>394.47173823043704</ele>
        <time>2022-04-17T23:30:34Z</time>
      </trkpt>
      <trkpt lat="34.33058426196354" lon="108.99283195664532">
        <ele>394.4874346135184</ele>
        <time>2022-04-17T23:30:41Z</time>
      </trkpt>
      <trkpt lat="34.330607645723326" lon="108.99313419827533">
        <ele>395.3396627623588</ele>
        <time>2022-04-17T23:30:47Z</time>
      </trkpt>
      <trkpt lat="34.33063124960189" lon="108.99321778636603">
        <ele>395.0554985543713</ele>
        <time>2022-04-17T23:30:49Z</time>
      </trkpt>
      <trkpt lat="34.330448092468224" lon="108.993654013215">
        <ele>394.61991018615663</ele>
        <time>2022-04-17T23:31:05Z</time>
      </trkpt>
      <trkpt lat="34.33043933301811" lon="108.99382130790818">
        <ele>394.6762812323868</ele>
        <time>2022-04-17T23:31:10Z</time>
      </trkpt>
      <trkpt lat="34.33038623414812" lon="108.99393943512993">
        <ele>394.54128114134073</ele>
        <time>2022-04-17T23:31:16Z</time>
      </trkpt>
      <trkpt lat="34.330822110754895" lon="108.99440081103458">
        <ele>394.1076274989173</ele>
        <time>2022-04-17T23:31:24Z</time>
      </trkpt>
      <trkpt lat="34.33088818338113" lon="108.99456592208945">
        <ele>392.87073040753603</ele>
        <time>2022-04-17T23:31:26Z</time>
      </trkpt>
      <trkpt lat="34.33091060441266" lon="108.99467023555977">
        <ele>392.7605383237824</ele>
        <time>2022-04-17T23:31:28Z</time>
      </trkpt>
      <trkpt lat="34.33095751068337" lon="108.99478334597615">
        <ele>393.27419496513903</ele>
        <time>2022-04-17T23:31:30Z</time>
      </trkpt>
      <trkpt lat="34.33099706508204" lon="108.99501655939862">
        <ele>392.70362037140876</ele>
        <time>2022-04-17T23:31:34Z</time>
      </trkpt>
      <trkpt lat="34.33098707007052" lon="108.99526263841543">
        <ele>393.3258072109893</ele>
        <time>2022-04-17T23:31:38Z</time>
      </trkpt>
      <trkpt lat="34.331013373191695" lon="108.99578830224308">
        <ele>393.3892580680549</ele>
        <time>2022-04-17T23:31:46Z</time>
      </trkpt>
      <trkpt lat="34.331023434166624" lon="108.99631223648854">
        <ele>393.1294360375032</ele>
        <time>2022-04-17T23:31:56Z</time>
      </trkpt>
      <trkpt lat="34.33103342946754" lon="108.99641758163287">
        <ele>392.9269505199045</ele>
        <time>2022-04-17T23:31:58Z</time>
      </trkpt>
      <trkpt lat="34.33114147399263" lon="108.99682710609669">
        <ele>391.1323653180152</ele>
        <time>2022-04-17T23:32:06Z</time>
      </trkpt>
      <trkpt lat="34.33119600520112" lon="108.9969502542362">
        <ele>390.658679603599</ele>
        <time>2022-04-17T23:32:08Z</time>
      </trkpt>
      <trkpt lat="34.331156741483895" lon="108.99776155687199">
        <ele>392.291751364246</ele>
        <time>2022-04-17T23:32:10Z</time>
      </trkpt>
      <trkpt lat="34.331335021603174" lon="108.99848124476111">
        <ele>391.837508123368</ele>
        <time>2022-04-17T23:32:20Z</time>
      </trkpt>
      <trkpt lat="34.33138416528471" lon="108.99869029650708">
        <ele>392.17411000002176</ele>
        <time>2022-04-17T23:32:22Z</time>
      </trkpt>
      <trkpt lat="34.33142937918603" lon="108.99911597099751">
        <ele>392.0342866294086</ele>
        <time>2022-04-17T23:32:28Z</time>
      </trkpt>
      <trkpt lat="34.33156341373006" lon="108.99906939209838">
        <ele>391.0831493837759</ele>
        <time>2022-04-17T23:32:30Z</time>
      </trkpt>
      <trkpt lat="34.331553083148066" lon="108.99930978282707">
        <ele>391.327872752212</ele>
        <time>2022-04-17T23:32:32Z</time>
      </trkpt>
      <trkpt lat="34.33158953160086" lon="108.99915332395761">
        <ele>390.9498376538977</ele>
        <time>2022-04-17T23:32:34Z</time>
      </trkpt>
      <trkpt lat="34.33160619937979" lon="108.99933831952933">
        <ele>390.9102581916377</ele>
        <time>2022-04-17T23:32:36Z</time>
      </trkpt>
      <trkpt lat="34.331607945373555" lon="108.99977258721597">
        <ele>392.1517258603126</ele>
        <time>2022-04-17T23:32:40Z</time>
      </trkpt>
      <trkpt lat="34.33159364634947" lon="109.00030777870992">
        <ele>390.92819367162883</ele>
        <time>2022-04-17T23:32:46Z</time>
      </trkpt>
      <trkpt lat="34.3315650928849" lon="109.00086266011873">
        <ele>390.7312851715833</ele>
        <time>2022-04-17T23:32:54Z</time>
      </trkpt>
      <trkpt lat="34.33153417410277" lon="109.0011189872667">
        <ele>391.53721914160997</ele>
        <time>2022-04-17T23:32:58Z</time>
      </trkpt>
      <trkpt lat="34.33155042234271" lon="109.00125140269364">
        <ele>391.4515625461936</ele>
        <time>2022-04-17T23:33:00Z</time>
      </trkpt>
      <trkpt lat="34.33153273968883" lon="109.00165584141995">
        <ele>390.85686488915235</ele>
        <time>2022-04-17T23:33:06Z</time>
      </trkpt>
      <trkpt lat="34.33151286891625" lon="109.00179511457547">
        <ele>391.24912985321134</ele>
        <time>2022-04-17T23:33:08Z</time>
      </trkpt>
      <trkpt lat="34.33153739701106" lon="109.00207848717925">
        <ele>391.2759548332542</ele>
        <time>2022-04-17T23:33:12Z</time>
      </trkpt>
      <trkpt lat="34.33152049014033" lon="109.00260563636036">
        <ele>390.01527237985283</ele>
        <time>2022-04-17T23:33:20Z</time>
      </trkpt>
      <trkpt lat="34.33152967128471" lon="109.00274184740408">
        <ele>389.28888574335724</ele>
        <time>2022-04-17T23:33:22Z</time>
      </trkpt>
      <trkpt lat="34.331505969952595" lon="109.00335905127885">
        <ele>388.59557839203626</ele>
        <time>2022-04-17T23:33:32Z</time>
      </trkpt>
      <trkpt lat="34.331528532179576" lon="109.00349458778021">
        <ele>389.23369801137596</ele>
        <time>2022-04-17T23:33:36Z</time>
      </trkpt>
      <trkpt lat="34.331514901729705" lon="109.00362917012481">
        <ele>389.4162973733619</ele>
        <time>2022-04-17T23:33:38Z</time>
      </trkpt>
      <trkpt lat="34.33154496996301" lon="109.00387225087472">
        <ele>389.65648448001593</ele>
        <time>2022-04-17T23:33:44Z</time>
      </trkpt>
      <trkpt lat="34.33150701061462" lon="109.00396157628369">
        <ele>389.7589876661077</ele>
        <time>2022-04-17T23:33:46Z</time>
      </trkpt>
      <trkpt lat="34.331477060208506" lon="109.00429641050606">
        <ele>387.1910819495097</ele>
        <time>2022-04-17T23:34:06Z</time>
      </trkpt>
      <trkpt lat="34.331368144864676" lon="109.00459079899153">
        <ele>387.15151674859226</ele>
        <time>2022-04-17T23:34:29Z</time>
      </trkpt>
      <trkpt lat="34.33141212014547" lon="109.00513120039803">
        <ele>386.47117029316723</ele>
        <time>2022-04-17T23:34:39Z</time>
      </trkpt>
      <trkpt lat="34.33145777014027" lon="109.0055261888167">
        <ele>387.84538262616843</ele>
        <time>2022-04-17T23:34:47Z</time>
      </trkpt>
      <trkpt lat="34.331514413340486" lon="109.00560883560854">
        <ele>388.02980146650225</ele>
        <time>2022-04-17T23:34:49Z</time>
      </trkpt>
      <trkpt lat="34.33150785002056" lon="109.00607969311255">
        <ele>387.9567957269028</ele>
        <time>2022-04-17T23:35:01Z</time>
      </trkpt>
      <trkpt lat="34.331633587041146" lon="109.00637777810401">
        <ele>386.9879293385893</ele>
        <time>2022-04-17T23:35:07Z</time>
      </trkpt>
      <trkpt lat="34.33160923198437" lon="109.00654980217007">
        <ele>386.50813486613333</ele>
        <time>2022-04-17T23:35:09Z</time>
      </trkpt>
      <trkpt lat="34.33162162373679" lon="109.00667555933558">
        <ele>387.3007889594883</ele>
        <time>2022-04-17T23:35:11Z</time>
      </trkpt>
      <trkpt lat="34.33157937122995" lon="109.00680430611202">
        <ele>387.1718885265291</ele>
        <time>2022-04-17T23:35:13Z</time>
      </trkpt>
      <trkpt lat="34.33156215083036" lon="109.00706794982597">
        <ele>388.08443752955645</ele>
        <time>2022-04-17T23:35:17Z</time>
      </trkpt>
      <trkpt lat="34.331511295540146" lon="109.00723191890245">
        <ele>387.01317055430263</ele>
        <time>2022-04-17T23:35:19Z</time>
      </trkpt>
      <trkpt lat="34.331475491112464" lon="109.00743627875373">
        <ele>386.87916837166995</ele>
        <time>2022-04-17T23:35:22Z</time>
      </trkpt>
      <trkpt lat="34.33146825095366" lon="109.0077047928362">
        <ele>386.97433000802994</ele>
        <time>2022-04-17T23:35:26Z</time>
      </trkpt>
      <trkpt lat="34.331431219282884" lon="109.00783689013866">
        <ele>387.0563674690202</ele>
        <time>2022-04-17T23:35:28Z</time>
      </trkpt>
      <trkpt lat="34.33142035173287" lon="109.00794397096296">
        <ele>387.33400653861463</ele>
        <time>2022-04-17T23:35:30Z</time>
      </trkpt>
      <trkpt lat="34.33139371770924" lon="109.0080352431059">
        <ele>387.3833033135161</ele>
        <time>2022-04-17T23:35:32Z</time>
      </trkpt>
      <trkpt lat="34.331415500606056" lon="109.00820885835356">
        <ele>388.144481388852</ele>
        <time>2022-04-17T23:35:36Z</time>
      </trkpt>
      <trkpt lat="34.33140260190493" lon="109.00839557587754">
        <ele>388.0123283965513</ele>
        <time>2022-04-17T23:35:40Z</time>
      </trkpt>
      <trkpt lat="34.331368088382185" lon="109.00852968285147">
        <ele>387.48694027680904</ele>
        <time>2022-04-17T23:35:42Z</time>
      </trkpt>
      <trkpt lat="34.331357529454635" lon="109.00865317675225">
        <ele>387.7811848986894</ele>
        <time>2022-04-17T23:35:44Z</time>
      </trkpt>
      <trkpt lat="34.331369231571294" lon="109.00878134996756">
        <ele>387.0789764896035</ele>
        <time>2022-04-17T23:35:46Z</time>
      </trkpt>
      <trkpt lat="34.33134869390986" lon="109.00888472750371">
        <ele>386.4413642482832</ele>
        <time>2022-04-17T23:35:48Z</time>
      </trkpt>
      <trkpt lat="34.33138323781661" lon="109.00943193364651">
        <ele>386.46274967771024</ele>
        <time>2022-04-17T23:35:58Z</time>
      </trkpt>
      <trkpt lat="34.331405522164346" lon="109.00991770165196">
        <ele>387.83518745936453</ele>
        <time>2022-04-17T23:36:08Z</time>
      </trkpt>
      <trkpt lat="34.33146758739414" lon="109.0102319915958">
        <ele>387.33177838567644</ele>
        <time>2022-04-17T23:36:14Z</time>
      </trkpt>
      <trkpt lat="34.33148809232923" lon="109.01048113165903">
        <ele>387.01850434206426</ele>
        <time>2022-04-17T23:36:18Z</time>
      </trkpt>
      <trkpt lat="34.33156072307198" lon="109.01082141138328">
        <ele>387.09839680511504</ele>
        <time>2022-04-17T23:36:24Z</time>
      </trkpt>
      <trkpt lat="34.33156966139045" lon="109.01093117203415">
        <ele>386.9692547824234</ele>
        <time>2022-04-17T23:36:26Z</time>
      </trkpt>
      <trkpt lat="34.331744675478724" lon="109.01146105264132">
        <ele>387.0197469908744</ele>
        <time>2022-04-17T23:36:36Z</time>
      </trkpt>
      <trkpt lat="34.331910448310374" lon="109.01208857689436">
        <ele>387.51473189424723</ele>
        <time>2022-04-17T23:36:48Z</time>
      </trkpt>
      <trkpt lat="34.331968779041645" lon="109.01231087617576">
        <ele>387.8274871110916</ele>
        <time>2022-04-17T23:36:52Z</time>
      </trkpt>
      <trkpt lat="34.332022769193884" lon="109.01238692620392">
        <ele>387.8997251065448</ele>
        <time>2022-04-17T23:36:54Z</time>
      </trkpt>
      <trkpt lat="34.3320669385876" lon="109.01252917326967">
        <ele>388.763413477689</ele>
        <time>2022-04-17T23:36:58Z</time>
      </trkpt>
      <trkpt lat="34.33209571555287" lon="109.01272997353095">
        <ele>389.3119090106338</ele>
        <time>2022-04-17T23:37:02Z</time>
      </trkpt>
      <trkpt lat="34.3321702133494" lon="109.01280553592363">
        <ele>389.02393852360547</ele>
        <time>2022-04-17T23:37:04Z</time>
      </trkpt>
      <trkpt lat="34.33222194921063" lon="109.0128994808321">
        <ele>389.68396555259824</ele>
        <time>2022-04-17T23:37:06Z</time>
      </trkpt>
      <trkpt lat="34.3322057114874" lon="109.01304131750152">
        <ele>389.9362403731793</ele>
        <time>2022-04-17T23:37:08Z</time>
      </trkpt>
      <trkpt lat="34.33214890503958" lon="109.01314686883586">
        <ele>390.10784954205155</ele>
        <time>2022-04-17T23:37:10Z</time>
      </trkpt>
      <trkpt lat="34.33179166671886" lon="109.013526927425">
        <ele>389.9299667496234</ele>
        <time>2022-04-17T23:37:20Z</time>
      </trkpt>
      <trkpt lat="34.331431872508155" lon="109.0137684833976">
        <ele>388.3028124254197</ele>
        <time>2022-04-17T23:37:28Z</time>
      </trkpt>
      <trkpt lat="34.33103789781313" lon="109.01409047138999">
        <ele>388.402620729059</ele>
        <time>2022-04-17T23:37:38Z</time>
      </trkpt>
      <trkpt lat="34.330964104491635" lon="109.01416742592536">
        <ele>388.8447753759101</ele>
        <time>2022-04-17T23:37:40Z</time>
      </trkpt>
      <trkpt lat="34.330800272482975" lon="109.01427757500228">
        <ele>388.6179788047448</ele>
        <time>2022-04-17T23:37:44Z</time>
      </trkpt>
      <trkpt lat="34.33048894906795" lon="109.01452700009538">
        <ele>389.29718120675534</ele>
        <time>2022-04-17T23:37:52Z</time>
      </trkpt>
      <trkpt lat="34.33038950892727" lon="109.01457330039551">
        <ele>388.18922258820385</ele>
        <time>2022-04-17T23:37:54Z</time>
      </trkpt>
      <trkpt lat="34.33033789996687" lon="109.01465259317933">
        <ele>389.33137895166874</ele>
        <time>2022-04-17T23:37:56Z</time>
      </trkpt>
      <trkpt lat="34.33004352440385" lon="109.01488249423394">
        <ele>389.4499453008175</ele>
        <time>2022-04-17T23:38:04Z</time>
      </trkpt>
      <trkpt lat="34.32998911824824" lon="109.01497219558964">
        <ele>389.51451281737536</ele>
        <time>2022-04-17T23:38:06Z</time>
      </trkpt>
      <trkpt lat="34.329842363156274" lon="109.01510142772132">
        <ele>389.1813616845757</ele>
        <time>2022-04-17T23:38:10Z</time>
      </trkpt>
      <trkpt lat="34.32971601594615" lon="109.01525548591611">
        <ele>389.86772933602333</ele>
        <time>2022-04-17T23:38:14Z</time>
      </trkpt>
      <trkpt lat="34.329636675304144" lon="109.01532240393611">
        <ele>389.9830155437812</ele>
        <time>2022-04-17T23:38:16Z</time>
      </trkpt>
      <trkpt lat="34.3293559863784" lon="109.01562759169154">
        <ele>388.82513079605997</ele>
        <time>2022-04-17T23:38:24Z</time>
      </trkpt>
      <trkpt lat="34.3290677036379" lon="109.01605970210154">
        <ele>388.7312528770417</ele>
        <time>2022-04-17T23:38:34Z</time>
      </trkpt>
      <trkpt lat="34.32889877281969" lon="109.01632963304489">
        <ele>388.9958078470081</ele>
        <time>2022-04-17T23:38:40Z</time>
      </trkpt>
      <trkpt lat="34.32867780402109" lon="109.01672510942872">
        <ele>388.3908165311441</ele>
        <time>2022-04-17T23:38:48Z</time>
      </trkpt>
      <trkpt lat="34.32834843181098" lon="109.01718517482558">
        <ele>388.4497982878238</ele>
        <time>2022-04-17T23:38:58Z</time>
      </trkpt>
      <trkpt lat="34.32817807488901" lon="109.01746451033969">
        <ele>388.77344199549407</ele>
        <time>2022-04-17T23:39:04Z</time>
      </trkpt>
      <trkpt lat="34.32803861990023" lon="109.01765889011841">
        <ele>388.84217679314315</ele>
        <time>2022-04-17T23:39:08Z</time>
      </trkpt>
      <trkpt lat="34.32797378138136" lon="109.01784392120962">
        <ele>389.14483510144055</ele>
        <time>2022-04-17T23:39:12Z</time>
      </trkpt>
      <trkpt lat="34.327910115190974" lon="109.01794137967735">
        <ele>389.59260111954063</ele>
        <time>2022-04-17T23:39:14Z</time>
      </trkpt>
      <trkpt lat="34.32787338012404" lon="109.01803900360898">
        <ele>388.90348148997873</ele>
        <time>2022-04-17T23:39:16Z</time>
      </trkpt>
      <trkpt lat="34.32778235239685" lon="109.01809650397625">
        <ele>389.63811657577753</ele>
        <time>2022-04-17T23:39:18Z</time>
      </trkpt>
      <trkpt lat="34.327701596566286" lon="109.01831171357732">
        <ele>388.65332088060677</ele>
        <time>2022-04-17T23:39:22Z</time>
      </trkpt>
      <trkpt lat="34.32764080325825" lon="109.01840180109804">
        <ele>388.7747883545235</ele>
        <time>2022-04-17T23:39:24Z</time>
      </trkpt>
      <trkpt lat="34.32756543867808" lon="109.0185893081334">
        <ele>388.4848551321775</ele>
        <time>2022-04-17T23:39:28Z</time>
      </trkpt>
      <trkpt lat="34.327362994593656" lon="109.01897332696834">
        <ele>390.3198458487168</ele>
        <time>2022-04-17T23:39:38Z</time>
      </trkpt>
      <trkpt lat="34.327250393884775" lon="109.01912127350073">
        <ele>389.7789369467646</ele>
        <time>2022-04-17T23:39:42Z</time>
      </trkpt>
      <trkpt lat="34.3271057879317" lon="109.01937274895486">
        <ele>388.8159969076514</ele>
        <time>2022-04-17T23:39:48Z</time>
      </trkpt>
      <trkpt lat="34.32684192682994" lon="109.01980010771618">
        <ele>388.3487187968567</ele>
        <time>2022-04-17T23:39:58Z</time>
      </trkpt>
      <trkpt lat="34.326504755811506" lon="109.02021470653612">
        <ele>388.7813161248341</ele>
        <time>2022-04-17T23:40:08Z</time>
      </trkpt>
      <trkpt lat="34.32613612805607" lon="109.02058258168675">
        <ele>388.5632879510522</ele>
        <time>2022-04-17T23:40:18Z</time>
      </trkpt>
      <trkpt lat="34.3259740120751" lon="109.02070922514032">
        <ele>388.35828196816146</ele>
        <time>2022-04-17T23:40:22Z</time>
      </trkpt>
      <trkpt lat="34.325826360191954" lon="109.02084915059149">
        <ele>388.85382339544594</ele>
        <time>2022-04-17T23:40:26Z</time>
      </trkpt>
      <trkpt lat="34.32556209541809" lon="109.02102511409078">
        <ele>388.443142445758</ele>
        <time>2022-04-17T23:40:32Z</time>
      </trkpt>
      <trkpt lat="34.32548634491301" lon="109.02109592805762">
        <ele>389.11910907085985</ele>
        <time>2022-04-17T23:40:34Z</time>
      </trkpt>
      <trkpt lat="34.325308633680244" lon="109.02116443658909">
        <ele>388.04825608059764</ele>
        <time>2022-04-17T23:40:38Z</time>
      </trkpt>
      <trkpt lat="34.32506185523479" lon="109.02130488022324">
        <ele>388.0718397796154</ele>
        <time>2022-04-17T23:40:44Z</time>
      </trkpt>
      <trkpt lat="34.32481303701159" lon="109.02147614881696">
        <ele>389.21782439481467</ele>
        <time>2022-04-17T23:40:50Z</time>
      </trkpt>
      <trkpt lat="34.32472721420803" lon="109.0215098202816">
        <ele>389.35067427624017</ele>
        <time>2022-04-17T23:40:52Z</time>
      </trkpt>
      <trkpt lat="34.324632441558784" lon="109.02151909241165">
        <ele>389.60243755113333</ele>
        <time>2022-04-17T23:40:54Z</time>
      </trkpt>
      <trkpt lat="34.32416436534804" lon="109.02164917341315">
        <ele>388.5954888770357</ele>
        <time>2022-04-17T23:41:04Z</time>
      </trkpt>
      <trkpt lat="34.32408176594654" lon="109.02168753274248">
        <ele>388.8312120111659</ele>
        <time>2022-04-17T23:41:06Z</time>
      </trkpt>
      <trkpt lat="34.32361434189047" lon="109.02176727689015">
        <ele>389.7904627593234</ele>
        <time>2022-04-17T23:41:16Z</time>
      </trkpt>
      <trkpt lat="34.323430649666186" lon="109.0217710071283">
        <ele>389.48616380337626</ele>
        <time>2022-04-17T23:41:20Z</time>
      </trkpt>
      <trkpt lat="34.32325850230687" lon="109.02180915977026">
        <ele>390.325033236295</ele>
        <time>2022-04-17T23:41:24Z</time>
      </trkpt>
      <trkpt lat="34.32316227042315" lon="109.02180510369041">
        <ele>390.64017283916473</ele>
        <time>2022-04-17T23:41:26Z</time>
      </trkpt>
      <trkpt lat="34.32306095031057" lon="109.02182435894584">
        <ele>390.72724846564233</ele>
        <time>2022-04-17T23:41:28Z</time>
      </trkpt>
      <trkpt lat="34.3228026568204" lon="109.02180031900912">
        <ele>390.5479386597872</ele>
        <time>2022-04-17T23:41:34Z</time>
      </trkpt>
      <trkpt lat="34.32272740957627" lon="109.02181110088017">
        <ele>390.2975647523999</ele>
        <time>2022-04-17T23:41:36Z</time>
      </trkpt>
      <trkpt lat="34.32265258276228" lon="109.02178857494917">
        <ele>390.4925782773644</ele>
        <time>2022-04-17T23:41:38Z</time>
      </trkpt>
      <trkpt lat="34.32257254468522" lon="109.02181995981819">
        <ele>390.69001749530435</ele>
        <time>2022-04-17T23:41:40Z</time>
      </trkpt>
      <trkpt lat="34.32240178355825" lon="109.02180863565621">
        <ele>390.7686503203586</ele>
        <time>2022-04-17T23:41:44Z</time>
      </trkpt>
      <trkpt lat="34.322315223741924" lon="109.02183784176538">
        <ele>390.8147172089666</ele>
        <time>2022-04-17T23:41:46Z</time>
      </trkpt>
      <trkpt lat="34.32222097369915" lon="109.02182258628984">
        <ele>390.5992325525731</ele>
        <time>2022-04-17T23:41:48Z</time>
      </trkpt>
      <trkpt lat="34.322148883675226" lon="109.02178030847426">
        <ele>389.8705109320581</ele>
        <time>2022-04-17T23:41:50Z</time>
      </trkpt>
      <trkpt lat="34.322054824689225" lon="109.0217854508247">
        <ele>389.830088022165</ele>
        <time>2022-04-17T23:41:52Z</time>
      </trkpt>
      <trkpt lat="34.321714732388315" lon="109.02171002424046">
        <ele>389.5409715138376</ele>
        <time>2022-04-17T23:42:00Z</time>
      </trkpt>
      <trkpt lat="34.32144637247648" lon="109.02170194001016">
        <ele>389.58970461785793</ele>
        <time>2022-04-17T23:42:06Z</time>
      </trkpt>
      <trkpt lat="34.32109582050546" lon="109.02163902434886">
        <ele>390.78939212299883</ele>
        <time>2022-04-17T23:42:14Z</time>
      </trkpt>
      <trkpt lat="34.320758480237515" lon="109.02159306711334">
        <ele>391.4038455542177</ele>
        <time>2022-04-17T23:42:22Z</time>
      </trkpt>
      <trkpt lat="34.3205678253246" lon="109.02158698180206">
        <ele>391.02882802765816</ele>
        <time>2022-04-17T23:42:26Z</time>
      </trkpt>
      <trkpt lat="34.32040548109751" lon="109.02152756539805">
        <ele>390.4731566598639</ele>
        <time>2022-04-17T23:42:30Z</time>
      </trkpt>
      <trkpt lat="34.32030835044268" lon="109.02152940030476">
        <ele>390.8200491722673</ele>
        <time>2022-04-17T23:42:32Z</time>
      </trkpt>
      <trkpt lat="34.320047770499635" lon="109.02146816984568">
        <ele>390.7576049147174</ele>
        <time>2022-04-17T23:42:38Z</time>
      </trkpt>
      <trkpt lat="34.31968694516316" lon="109.02144874263024">
        <ele>390.8095381492749</ele>
        <time>2022-04-17T23:42:46Z</time>
      </trkpt>
      <trkpt lat="34.319514595642985" lon="109.02147767510075">
        <ele>391.39092315081507</ele>
        <time>2022-04-17T23:42:50Z</time>
      </trkpt>
      <trkpt lat="34.31942694846135" lon="109.02145101439656">
        <ele>391.2387184994295</ele>
        <time>2022-04-17T23:42:52Z</time>
      </trkpt>
      <trkpt lat="34.31923407238492" lon="109.02145670967803">
        <ele>391.2983166584745</ele>
        <time>2022-04-17T23:42:56Z</time>
      </trkpt>
      <trkpt lat="34.31914630628284" lon="109.02143204658614">
        <ele>390.96622007805854</ele>
        <time>2022-04-17T23:42:58Z</time>
      </trkpt>
      <trkpt lat="34.31869930689187" lon="109.02146340321232">
        <ele>391.3194500626996</ele>
        <time>2022-04-17T23:43:08Z</time>
      </trkpt>
      <trkpt lat="34.31843078970729" lon="109.02146484204538">
        <ele>390.34924929682165</ele>
        <time>2022-04-17T23:43:14Z</time>
      </trkpt>
      <trkpt lat="34.318166323530896" lon="109.02153002725277">
        <ele>390.9335194285959</ele>
        <time>2022-04-17T23:43:20Z</time>
      </trkpt>
      <trkpt lat="34.318082982945654" lon="109.02153094739577">
        <ele>390.8181426124647</ele>
        <time>2022-04-17T23:43:22Z</time>
      </trkpt>
      <trkpt lat="34.31798999203781" lon="109.02155909759055">
        <ele>390.9114872068167</ele>
        <time>2022-04-17T23:43:24Z</time>
      </trkpt>
      <trkpt lat="34.31790620819216" lon="109.02154589187631">
        <ele>390.6754039628431</ele>
        <time>2022-04-17T23:43:26Z</time>
      </trkpt>
      <trkpt lat="34.31755443001459" lon="109.02161300601561">
        <ele>391.16849211603403</ele>
        <time>2022-04-17T23:43:34Z</time>
      </trkpt>
      <trkpt lat="34.31708596715181" lon="109.02165484243706">
        <ele>391.8783985711634</ele>
        <time>2022-04-17T23:43:44Z</time>
      </trkpt>
      <trkpt lat="34.31675653286134" lon="109.02169038452709">
        <ele>391.78583894018084</ele>
        <time>2022-04-17T23:43:52Z</time>
      </trkpt>
      <trkpt lat="34.31629523501597" lon="109.02182953301997">
        <ele>391.6655157832429</ele>
        <time>2022-04-17T23:44:04Z</time>
      </trkpt>
      <trkpt lat="34.31622017593808" lon="109.02186906760721">
        <ele>391.4434747155756</ele>
        <time>2022-04-17T23:44:06Z</time>
      </trkpt>
      <trkpt lat="34.31613418906751" lon="109.02195913843097">
        <ele>391.1722701517865</ele>
        <time>2022-04-17T23:44:10Z</time>
      </trkpt>
      <trkpt lat="34.31614550703812" lon="109.02207712458188">
        <ele>391.8024477697909</ele>
        <time>2022-04-17T23:44:14Z</time>
      </trkpt>
      <trkpt lat="34.31599150013143" lon="109.02222467995773">
        <ele>391.7100043129176</ele>
        <time>2022-04-17T23:44:20Z</time>
      </trkpt>
      <trkpt lat="34.315945068459655" lon="109.02230368588323">
        <ele>391.56251477543265</ele>
        <time>2022-04-17T23:44:22Z</time>
      </trkpt>
      <trkpt lat="34.31594096298923" lon="109.0226628329786">
        <ele>389.2688633315265</ele>
        <time>2022-04-17T23:44:30Z</time>
      </trkpt>
      <trkpt lat="34.31596371514743" lon="109.02283670439877">
        <ele>388.7157917972654</ele>
        <time>2022-04-17T23:44:34Z</time>
      </trkpt>
      <trkpt lat="34.31612644947992" lon="109.02332863705936">
        <ele>387.4839410400018</ele>
        <time>2022-04-17T23:44:44Z</time>
      </trkpt>
      <trkpt lat="34.31621331868816" lon="109.02363563582773">
        <ele>387.95674624852836</ele>
        <time>2022-04-17T23:44:50Z</time>
      </trkpt>
      <trkpt lat="34.316178670245996" lon="109.02371476021702">
        <ele>388.84526982344687</ele>
        <time>2022-04-17T23:44:52Z</time>
      </trkpt>
      <trkpt lat="34.316013594726584" lon="109.02389549027626">
        <ele>389.76699876226485</ele>
        <time>2022-04-17T23:44:58Z</time>
      </trkpt>
      <trkpt lat="34.31558785755556" lon="109.02410709346213">
        <ele>390.0988190220669</ele>
        <time>2022-04-17T23:45:08Z</time>
      </trkpt>
      <trkpt lat="34.31537290450899" lon="109.02425371735124">
        <ele>390.3565188217908</ele>
        <time>2022-04-17T23:45:14Z</time>
      </trkpt>
      <trkpt lat="34.314973897335086" lon="109.02459285954076">
        <ele>390.5353608066216</ele>
        <time>2022-04-17T23:45:26Z</time>
      </trkpt>
      <trkpt lat="34.314643660083696" lon="109.02477105752436">
        <ele>390.3996847011149</ele>
        <time>2022-04-17T23:45:34Z</time>
      </trkpt>
      <trkpt lat="34.314240908676766" lon="109.02505742540146">
        <ele>390.7025425573811</ele>
        <time>2022-04-17T23:45:44Z</time>
      </trkpt>
      <trkpt lat="34.31409572624217" lon="109.02518056314912">
        <ele>390.61744562350214</ele>
        <time>2022-04-17T23:45:48Z</time>
      </trkpt>
      <trkpt lat="34.313901985335804" lon="109.02526585700163">
        <ele>390.58710936270654</ele>
        <time>2022-04-17T23:45:52Z</time>
      </trkpt>
      <trkpt lat="34.313393910023294" lon="109.02547740645493">
        <ele>390.84455511905253</ele>
        <time>2022-04-17T23:46:02Z</time>
      </trkpt>
      <trkpt lat="34.31329132988313" lon="109.02551549756255">
        <ele>390.7068310789764</ele>
        <time>2022-04-17T23:46:04Z</time>
      </trkpt>
      <trkpt lat="34.31311422226002" lon="109.0256241154295">
        <ele>390.79233455564827</ele>
        <time>2022-04-17T23:46:08Z</time>
      </trkpt>
      <trkpt lat="34.31303755564597" lon="109.02569101134475">
        <ele>391.21804257202893</ele>
        <time>2022-04-17T23:46:10Z</time>
      </trkpt>
      <trkpt lat="34.312949354335444" lon="109.0257286932585">
        <ele>392.04462441056967</ele>
        <time>2022-04-17T23:46:12Z</time>
      </trkpt>
      <trkpt lat="34.3127796563083" lon="109.0258471482856">
        <ele>392.2604508623481</ele>
        <time>2022-04-17T23:46:16Z</time>
      </trkpt>
      <trkpt lat="34.31253372949704" lon="109.02596595760406">
        <ele>393.2453536009416</ele>
        <time>2022-04-17T23:46:22Z</time>
      </trkpt>
      <trkpt lat="34.31246336816201" lon="109.02603245739142">
        <ele>393.5563423689455</ele>
        <time>2022-04-17T23:46:24Z</time>
      </trkpt>
      <trkpt lat="34.31240996718201" lon="109.02622957043488">
        <ele>393.6028355387971</ele>
        <time>2022-04-17T23:46:30Z</time>
      </trkpt>
      <trkpt lat="34.31228566720304" lon="109.02634719352743">
        <ele>392.52398634143174</ele>
        <time>2022-04-17T23:46:34Z</time>
      </trkpt>
      <trkpt lat="34.31221462459653" lon="109.02646510770285">
        <ele>393.4080306822434</ele>
        <time>2022-04-17T23:46:36Z</time>
      </trkpt>
      <trkpt lat="34.311835900183276" lon="109.02675533769981">
        <ele>392.78182445000857</ele>
        <time>2022-04-17T23:46:44Z</time>
      </trkpt>
      <trkpt lat="34.31166852835752" lon="109.02693986125395">
        <ele>392.5220473734662</ele>
        <time>2022-04-17T23:46:48Z</time>
      </trkpt>
      <trkpt lat="34.31161966439031" lon="109.0270363657025">
        <ele>392.08513181097806</ele>
        <time>2022-04-17T23:46:50Z</time>
      </trkpt>
      <trkpt lat="34.31134560384747" lon="109.02716059626071">
        <ele>391.4187444662675</ele>
        <time>2022-04-17T23:47:00Z</time>
      </trkpt>
      <trkpt lat="34.31128805098384" lon="109.02722185513196">
        <ele>392.22668148297817</ele>
        <time>2022-04-17T23:47:02Z</time>
      </trkpt>
      <trkpt lat="34.31121897771342" lon="109.02739909636877">
        <ele>391.0639761053026</ele>
        <time>2022-04-17T23:47:06Z</time>
      </trkpt>
      <trkpt lat="34.31121060756574" lon="109.02762499553752">
        <ele>391.4845877205953</ele>
        <time>2022-04-17T23:47:10Z</time>
      </trkpt>
      <trkpt lat="34.31124525246944" lon="109.02815123528731">
        <ele>391.09964507445693</ele>
        <time>2022-04-17T23:47:20Z</time>
      </trkpt>
      <trkpt lat="34.31128589014884" lon="109.02842391178316">
        <ele>391.4170626560226</ele>
        <time>2022-04-17T23:47:26Z</time>
      </trkpt>
      <trkpt lat="34.31129207283457" lon="109.0286206717508">
        <ele>392.5239961752668</ele>
        <time>2022-04-17T23:47:30Z</time>
      </trkpt>
      <trkpt lat="34.31104185700196" lon="109.02902403428267">
        <ele>391.99664822686464</ele>
        <time>2022-04-17T23:47:38Z</time>
      </trkpt>
      <trkpt lat="34.31090515356606" lon="109.02919532968319">
        <ele>391.7457851031795</ele>
        <time>2022-04-17T23:47:42Z</time>
      </trkpt>
      <trkpt lat="34.310482275495026" lon="109.02953956699885">
        <ele>391.81956119369715</ele>
        <time>2022-04-17T23:47:52Z</time>
      </trkpt>
      <trkpt lat="34.310240622103386" lon="109.02972544453009">
        <ele>392.15315948426723</ele>
        <time>2022-04-17T23:47:58Z</time>
      </trkpt>
      <trkpt lat="34.30990028519863" lon="109.03001409410174">
        <ele>393.73201302904636</ele>
        <time>2022-04-17T23:48:08Z</time>
      </trkpt>
      <trkpt lat="34.309641460522" lon="109.03015836091055">
        <ele>393.3379123909399</ele>
        <time>2022-04-17T23:48:14Z</time>
      </trkpt>
      <trkpt lat="34.309576210879925" lon="109.030211067077">
        <ele>394.0389559548348</ele>
        <time>2022-04-17T23:48:16Z</time>
      </trkpt>
      <trkpt lat="34.309374781230254" lon="109.030291002789">
        <ele>393.38029541261494</ele>
        <time>2022-04-17T23:48:20Z</time>
      </trkpt>
      <trkpt lat="34.30929340303227" lon="109.03034983177976">
        <ele>393.4079979490489</ele>
        <time>2022-04-17T23:48:22Z</time>
      </trkpt>
      <trkpt lat="34.30881464567686" lon="109.03051228697467">
        <ele>393.6422242978588</ele>
        <time>2022-04-17T23:48:34Z</time>
      </trkpt>
      <trkpt lat="34.30852161213735" lon="109.0305846745753">
        <ele>394.24680648650974</ele>
        <time>2022-04-17T23:48:40Z</time>
      </trkpt>
      <trkpt lat="34.30799696422586" lon="109.03064801746467">
        <ele>394.3554994026199</ele>
        <time>2022-04-17T23:48:50Z</time>
      </trkpt>
      <trkpt lat="34.3077880377801" lon="109.0306895260661">
        <ele>395.530598860234</ele>
        <time>2022-04-17T23:48:54Z</time>
      </trkpt>
      <trkpt lat="34.307301253035256" lon="109.03070530749156">
        <ele>392.9118655240163</ele>
        <time>2022-04-17T23:49:04Z</time>
      </trkpt>
      <trkpt lat="34.30716625321831" lon="109.0307510222173">
        <ele>392.6955106528476</ele>
        <time>2022-04-17T23:49:08Z</time>
      </trkpt>
      <trkpt lat="34.30670496634445" lon="109.03082024296214">
        <ele>391.56710628513247</ele>
        <time>2022-04-17T23:49:20Z</time>
      </trkpt>
      <trkpt lat="34.30659928515332" lon="109.0308328478963">
        <ele>391.5447263363749</ele>
        <time>2022-04-17T23:49:24Z</time>
      </trkpt>
      <trkpt lat="34.30643205143268" lon="109.03073336673305">
        <ele>391.2041565030813</ele>
        <time>2022-04-17T23:49:32Z</time>
      </trkpt>
      <trkpt lat="34.30632244479919" lon="109.03075218397443">
        <ele>391.91741957794875</ele>
        <time>2022-04-17T23:49:38Z</time>
      </trkpt>
      <trkpt lat="34.306234563911524" lon="109.0307949260247">
        <ele>391.31878045760095</ele>
        <time>2022-04-17T23:49:44Z</time>
      </trkpt>
      <trkpt lat="34.30624224148668" lon="109.03089805287358">
        <ele>391.14173297118396</ele>
        <time>2022-04-17T23:49:50Z</time>
      </trkpt>
      <trkpt lat="34.3063276689217" lon="109.03122628331536">
        <ele>390.7177459830418</ele>
        <time>2022-04-17T23:49:58Z</time>
      </trkpt>
      <trkpt lat="34.306371706823356" lon="109.03179070038406">
        <ele>391.2508709868416</ele>
        <time>2022-04-17T23:50:08Z</time>
      </trkpt>
      <trkpt lat="34.30638767097398" lon="109.0323739756062">
        <ele>392.7985591618344</ele>
        <time>2022-04-17T23:50:18Z</time>
      </trkpt>
      <trkpt lat="34.30638586184768" lon="109.03249910424395">
        <ele>392.37833291478455</ele>
        <time>2022-04-17T23:50:20Z</time>
      </trkpt>
      <trkpt lat="34.3064249186441" lon="109.03272855430241">
        <ele>392.4973592264578</ele>
        <time>2022-04-17T23:50:24Z</time>
      </trkpt>
      <trkpt lat="34.30641605664831" lon="109.03283920008374">
        <ele>392.70334505848587</ele>
        <time>2022-04-17T23:50:26Z</time>
      </trkpt>
      <trkpt lat="34.30646603286396" lon="109.03319634685081">
        <ele>392.27857130020857</ele>
        <time>2022-04-17T23:50:32Z</time>
      </trkpt>
      <trkpt lat="34.306465637972174" lon="109.03331607924467">
        <ele>392.25253159739077</ele>
        <time>2022-04-17T23:50:34Z</time>
      </trkpt>
      <trkpt lat="34.30652828249732" lon="109.03378704596054">
        <ele>391.5581149496138</ele>
        <time>2022-04-17T23:50:42Z</time>
      </trkpt>
      <trkpt lat="34.306536327739146" lon="109.03437781578262">
        <ele>392.33001430146396</ele>
        <time>2022-04-17T23:50:52Z</time>
      </trkpt>
      <trkpt lat="34.30658028452526" lon="109.0350070206549">
        <ele>392.4941772315651</ele>
        <time>2022-04-17T23:51:02Z</time>
      </trkpt>
      <trkpt lat="34.30661728570918" lon="109.03560386996432">
        <ele>393.3731508869678</ele>
        <time>2022-04-17T23:51:12Z</time>
      </trkpt>
      <trkpt lat="34.30664405526939" lon="109.03582467286775">
        <ele>392.8964648898691</ele>
        <time>2022-04-17T23:51:16Z</time>
      </trkpt>
      <trkpt lat="34.306550122153894" lon="109.03607010012138">
        <ele>392.33553142938763</ele>
        <time>2022-04-17T23:51:32Z</time>
      </trkpt>
      <trkpt lat="34.3065571959887" lon="109.03627554762949">
        <ele>392.49936621356755</ele>
        <time>2022-04-17T23:51:46Z</time>
      </trkpt>
      <trkpt lat="34.30649752099018" lon="109.03644325776277">
        <ele>391.64178569987416</ele>
        <time>2022-04-17T23:51:58Z</time>
      </trkpt>
      <trkpt lat="34.30650721812211" lon="109.03673838792112">
        <ele>391.8974318038672</ele>
        <time>2022-04-17T23:52:16Z</time>
      </trkpt>
      <trkpt lat="34.30655306874365" lon="109.03693125845875">
        <ele>392.53441713005304</ele>
        <time>2022-04-17T23:52:28Z</time>
      </trkpt>
      <trkpt lat="34.30647046438252" lon="109.03698490605291">
        <ele>391.80506805796176</ele>
        <time>2022-04-17T23:52:42Z</time>
      </trkpt>
      <trkpt lat="34.306448913397006" lon="109.03707042276083">
        <ele>391.35329026915133</ele>
        <time>2022-04-17T23:53:00Z</time>
      </trkpt>
      <trkpt lat="34.3063762990492" lon="109.0371036291432">
        <ele>390.78467228170484</ele>
        <time>2022-04-17T23:53:16Z</time>
      </trkpt>
    </trkseg>
  </trk>
</gpx>