<?xml version="1.0" encoding="UTF-8"?>
<gpx xmlns="http://www.topografix.com/GPX/1/1" xmlns:gpxtpx="http://www.garmin.com/xmlschemas/TrackPointExtension/v1" xmlns:xsi="http://www.w3.org/2001/XMLSchema-instance" xsi:schemaLocation="http://www.topografix.com/GPX/1/1 http://www.topografix.com/GPX/1/1/gpx.xsd" version="1.1" creator="gpx.py -- https://github.com/tkrajina/gpxpy">
  <trk>
    <name>gpx from keep</name>
    <type>Ride</type>
    <trkseg>
      <trkpt lat="34.32831694945021" lon="108.9805710556107">
        <ele>460.4290466308594</ele>
        <time>2022-03-09T23:37:16Z</time>
      </trkpt>
      <trkpt lat="34.32819294866596" lon="108.98052539403974">
        <ele>450.5835876464844</ele>
        <time>2022-03-09T23:37:35Z</time>
      </trkpt>
      <trkpt lat="34.32812778831905" lon="108.98025978592965">
        <ele>435.8498229980469</ele>
        <time>2022-03-09T23:37:50Z</time>
      </trkpt>
      <trkpt lat="34.32820987987381" lon="108.9806765584755">
        <ele>433.5758056640625</ele>
        <time>2022-03-09T23:38:05Z</time>
      </trkpt>
      <trkpt lat="34.32838374615159" lon="108.98052888016201">
        <ele>424.0583801269531</ele>
        <time>2022-03-09T23:38:14Z</time>
      </trkpt>
      <trkpt lat="34.32834570529404" lon="108.98062111896945">
        <ele>423.85784912109375</ele>
        <time>2022-03-09T23:38:23Z</time>
      </trkpt>
      <trkpt lat="34.3282228443481" lon="108.98068232188658">
        <ele>423.8576965332031</ele>
        <time>2022-03-09T23:38:29Z</time>
      </trkpt>
      <trkpt lat="34.328072413159084" lon="108.98067019500853">
        <ele>406.54803466796875</ele>
        <time>2022-03-09T23:38:48Z</time>
      </trkpt>
      <trkpt lat="34.32848605670952" lon="108.9805460368515">
        <ele>406.3888244628906</ele>
        <time>2022-03-09T23:38:55Z</time>
      </trkpt>
      <trkpt lat="34.328607394501056" lon="108.98038721834286">
        <ele>396.76971435546875</ele>
        <time>2022-03-09T23:39:51Z</time>
      </trkpt>
      <trkpt lat="34.328566300387045" lon="108.98020153826077">
        <ele>396.70941162109375</ele>
        <time>2022-03-09T23:39:57Z</time>
      </trkpt>
      <trkpt lat="34.32857268602735" lon="108.9803466807384">
        <ele>396.9398932161573</ele>
        <time>2022-03-09T23:39:59Z</time>
      </trkpt>
      <trkpt lat="34.32859315769165" lon="108.98043560503639">
        <ele>395.87462724256443</ele>
        <time>2022-03-09T23:40:05Z</time>
      </trkpt>
      <trkpt lat="34.32867524735148" lon="108.98051555002226">
        <ele>395.8588053708836</ele>
        <time>2022-03-09T23:40:11Z</time>
      </trkpt>
      <trkpt lat="34.32868170230478" lon="108.98061779382724">
        <ele>395.87550611328334</ele>
        <time>2022-03-09T23:40:19Z</time>
      </trkpt>
      <trkpt lat="34.32861649689707" lon="108.98067620475696">
        <ele>395.87570536788553</ele>
        <time>2022-03-09T23:40:23Z</time>
      </trkpt>
      <trkpt lat="34.32852950451774" lon="108.98068930514391">
        <ele>395.8609941182658</ele>
        <time>2022-03-09T23:40:27Z</time>
      </trkpt>
      <trkpt lat="34.32846670891832" lon="108.98074890833104">
        <ele>395.44742106925696</ele>
        <time>2022-03-09T23:40:37Z</time>
      </trkpt>
      <trkpt lat="34.328356181832014" lon="108.98081427668473">
        <ele>395.2103762021288</ele>
        <time>2022-03-09T23:40:43Z</time>
      </trkpt>
      <trkpt lat="34.32825280867624" lon="108.98081404781006">
        <ele>394.7924651131034</ele>
        <time>2022-03-09T23:40:49Z</time>
      </trkpt>
      <trkpt lat="34.32818066539107" lon="108.98083596829115">
        <ele>394.9565899008885</ele>
        <time>2022-03-09T23:40:55Z</time>
      </trkpt>
      <trkpt lat="34.32815413866629" lon="108.98085990724984">
        <ele>394.4320268984884</ele>
        <time>2022-03-09T23:41:11Z</time>
      </trkpt>
      <trkpt lat="34.32818814134536" lon="108.98113500062676">
        <ele>395.61858528200537</ele>
        <time>2022-03-09T23:41:48Z</time>
      </trkpt>
      <trkpt lat="34.328202358664974" lon="108.98133737268836">
        <ele>395.21999637503177</ele>
        <time>2022-03-09T23:41:52Z</time>
      </trkpt>
      <trkpt lat="34.32815831839795" lon="108.98160875189902">
        <ele>395.7862130915746</ele>
        <time>2022-03-09T23:41:58Z</time>
      </trkpt>
      <trkpt lat="34.32815499301316" lon="108.98173891516747">
        <ele>393.28638593293726</ele>
        <time>2022-03-09T23:42:02Z</time>
      </trkpt>
      <trkpt lat="34.328125158776395" lon="108.98188723397267">
        <ele>393.1927106967196</ele>
        <time>2022-03-09T23:42:04Z</time>
      </trkpt>
      <trkpt lat="34.32813782940166" lon="108.98200788598972">
        <ele>390.8746524788439</ele>
        <time>2022-03-09T23:42:06Z</time>
      </trkpt>
      <trkpt lat="34.3280855640518" lon="108.98260540919462">
        <ele>388.53644485678524</ele>
        <time>2022-03-09T23:42:17Z</time>
      </trkpt>
      <trkpt lat="34.32806885647068" lon="108.98285132144332">
        <ele>393.41168356407434</ele>
        <time>2022-03-09T23:42:21Z</time>
      </trkpt>
      <trkpt lat="34.32804336963514" lon="108.98296116433147">
        <ele>394.96726407203823</ele>
        <time>2022-03-09T23:42:23Z</time>
      </trkpt>
      <trkpt lat="34.328040693093534" lon="108.98308762568615">
        <ele>394.68115393072367</ele>
        <time>2022-03-09T23:42:25Z</time>
      </trkpt>
      <trkpt lat="34.32807872957249" lon="108.98322148062586">
        <ele>393.36962962150574</ele>
        <time>2022-03-09T23:42:27Z</time>
      </trkpt>
      <trkpt lat="34.32804079782284" lon="108.98330135929578">
        <ele>394.1779290251434</ele>
        <time>2022-03-09T23:42:29Z</time>
      </trkpt>
      <trkpt lat="34.32808310687854" lon="108.98343887544264">
        <ele>391.9622164154425</ele>
        <time>2022-03-09T23:42:31Z</time>
      </trkpt>
      <trkpt lat="34.3281045689176" lon="108.98378075018505">
        <ele>391.9262063363567</ele>
        <time>2022-03-09T23:42:37Z</time>
      </trkpt>
      <trkpt lat="34.327995616638475" lon="108.98406115007856">
        <ele>390.31204393692315</ele>
        <time>2022-03-09T23:42:43Z</time>
      </trkpt>
      <trkpt lat="34.327932949229194" lon="108.98436825728986">
        <ele>393.174004166387</ele>
        <time>2022-03-09T23:42:49Z</time>
      </trkpt>
      <trkpt lat="34.327900992428305" lon="108.98481484229467">
        <ele>388.2463863585144</ele>
        <time>2022-03-09T23:42:57Z</time>
      </trkpt>
      <trkpt lat="34.327952773435825" lon="108.98534526538789">
        <ele>390.6112018311396</ele>
        <time>2022-03-09T23:43:06Z</time>
      </trkpt>
      <trkpt lat="34.32794515058777" lon="108.98559235851485">
        <ele>390.01216247677803</ele>
        <time>2022-03-09T23:43:10Z</time>
      </trkpt>
      <trkpt lat="34.32797913378737" lon="108.98594029332597">
        <ele>394.52675393782556</ele>
        <time>2022-03-09T23:43:16Z</time>
      </trkpt>
      <trkpt lat="34.32795937836135" lon="108.98628742571002">
        <ele>391.96967699658126</ele>
        <time>2022-03-09T23:43:22Z</time>
      </trkpt>
      <trkpt lat="34.327990029168795" lon="108.98652092551363">
        <ele>397.2054829476401</ele>
        <time>2022-03-09T23:43:26Z</time>
      </trkpt>
      <trkpt lat="34.327987728607674" lon="108.98664430711669">
        <ele>395.03909567557275</ele>
        <time>2022-03-09T23:43:28Z</time>
      </trkpt>
      <trkpt lat="34.328009539772715" lon="108.98698131638865">
        <ele>394.31216801237315</ele>
        <time>2022-03-09T23:43:34Z</time>
      </trkpt>
      <trkpt lat="34.32798041098281" lon="108.98721081306665">
        <ele>393.28440621495247</ele>
        <time>2022-03-09T23:43:38Z</time>
      </trkpt>
      <trkpt lat="34.327992448715975" lon="108.98756783020467">
        <ele>396.5668438365683</ele>
        <time>2022-03-09T23:43:44Z</time>
      </trkpt>
      <trkpt lat="34.32800889083662" lon="108.98769213762297">
        <ele>396.77610081713647</ele>
        <time>2022-03-09T23:43:46Z</time>
      </trkpt>
      <trkpt lat="34.327983186191396" lon="108.98782127866272">
        <ele>395.629827067256</ele>
        <time>2022-03-09T23:43:48Z</time>
      </trkpt>
      <trkpt lat="34.328000848578235" lon="108.98794263862904">
        <ele>396.95814908947796</ele>
        <time>2022-03-09T23:43:50Z</time>
      </trkpt>
      <trkpt lat="34.32796864397427" lon="108.98855225935552">
        <ele>393.1055973684415</ele>
        <time>2022-03-09T23:44:00Z</time>
      </trkpt>
      <trkpt lat="34.32797193348255" lon="108.98879333965368">
        <ele>392.8381557269022</ele>
        <time>2022-03-09T23:44:04Z</time>
      </trkpt>
      <trkpt lat="34.32795689068854" lon="108.98891661224351">
        <ele>392.2009025607258</ele>
        <time>2022-03-09T23:44:06Z</time>
      </trkpt>
      <trkpt lat="34.32797142378336" lon="108.98902593497763">
        <ele>395.26149110961705</ele>
        <time>2022-03-09T23:44:08Z</time>
      </trkpt>
      <trkpt lat="34.32796368852509" lon="108.9891595546251">
        <ele>393.81154125276953</ele>
        <time>2022-03-09T23:44:10Z</time>
      </trkpt>
      <trkpt lat="34.3279325049566" lon="108.98927305391683">
        <ele>392.0247522806749</ele>
        <time>2022-03-09T23:44:12Z</time>
      </trkpt>
      <trkpt lat="34.32788318396042" lon="108.98980746269477">
        <ele>391.7599854422733</ele>
        <time>2022-03-09T23:44:21Z</time>
      </trkpt>
      <trkpt lat="34.32787293279547" lon="108.99038729528154">
        <ele>391.34167191945016</ele>
        <time>2022-03-09T23:44:31Z</time>
      </trkpt>
      <trkpt lat="34.32787865570835" lon="108.99095262127115">
        <ele>390.82569131441414</ele>
        <time>2022-03-09T23:44:41Z</time>
      </trkpt>
      <trkpt lat="34.32782969343603" lon="108.9912266359138">
        <ele>391.36396482028067</ele>
        <time>2022-03-09T23:44:47Z</time>
      </trkpt>
      <trkpt lat="34.327846776080776" lon="108.99177640877855">
        <ele>393.0343209179118</ele>
        <time>2022-03-09T23:44:57Z</time>
      </trkpt>
      <trkpt lat="34.32787888491453" lon="108.99241087263658">
        <ele>388.0251661147922</ele>
        <time>2022-03-09T23:45:09Z</time>
      </trkpt>
      <trkpt lat="34.32787554716381" lon="108.99301205604013">
        <ele>388.38916891347617</ele>
        <time>2022-03-09T23:45:19Z</time>
      </trkpt>
      <trkpt lat="34.32787702716397" lon="108.99355071935227">
        <ele>390.631780365482</ele>
        <time>2022-03-09T23:45:29Z</time>
      </trkpt>
      <trkpt lat="34.32791225079031" lon="108.9940403597646">
        <ele>393.07826161105186</ele>
        <time>2022-03-09T23:45:37Z</time>
      </trkpt>
      <trkpt lat="34.32788634801458" lon="108.99444943730022">
        <ele>395.89138768054545</ele>
        <time>2022-03-09T23:45:45Z</time>
      </trkpt>
      <trkpt lat="34.32793090237439" lon="108.99490863315788">
        <ele>395.46993919927627</ele>
        <time>2022-03-09T23:45:53Z</time>
      </trkpt>
      <trkpt lat="34.327931366799305" lon="108.99550927196599">
        <ele>397.4481430761516</ele>
        <time>2022-03-09T23:46:03Z</time>
      </trkpt>
      <trkpt lat="34.32795056468224" lon="108.99562638389648">
        <ele>394.67552375793457</ele>
        <time>2022-03-09T23:46:05Z</time>
      </trkpt>
      <trkpt lat="34.32793750576143" lon="108.99618772982568">
        <ele>394.05638679955155</ele>
        <time>2022-03-09T23:46:15Z</time>
      </trkpt>
      <trkpt lat="34.327902561339705" lon="108.99673476049539">
        <ele>391.3882220443338</ele>
        <time>2022-03-09T23:46:25Z</time>
      </trkpt>
      <trkpt lat="34.32785849722963" lon="108.99735527573196">
        <ele>393.8835570225492</ele>
        <time>2022-03-09T23:46:35Z</time>
      </trkpt>
      <trkpt lat="34.3278640077532" lon="108.99798276154121">
        <ele>394.00573016982526</ele>
        <time>2022-03-09T23:46:45Z</time>
      </trkpt>
      <trkpt lat="34.327891035475815" lon="108.99835215687209">
        <ele>393.7893971307203</ele>
        <time>2022-03-09T23:46:51Z</time>
      </trkpt>
      <trkpt lat="34.32786030722484" lon="108.9989358745297">
        <ele>392.9913101941347</ele>
        <time>2022-03-09T23:47:01Z</time>
      </trkpt>
      <trkpt lat="34.3278451793216" lon="108.99905167997716">
        <ele>392.3180641429499</ele>
        <time>2022-03-09T23:47:03Z</time>
      </trkpt>
      <trkpt lat="34.327853985354814" lon="108.9991763514655">
        <ele>393.9163408558816</ele>
        <time>2022-03-09T23:47:05Z</time>
      </trkpt>
      <trkpt lat="34.32783584410224" lon="108.9992661354765">
        <ele>392.98457301873714</ele>
        <time>2022-03-09T23:47:07Z</time>
      </trkpt>
      <trkpt lat="34.32788253669782" lon="108.99977935106455">
        <ele>393.8031931621954</ele>
        <time>2022-03-09T23:47:15Z</time>
      </trkpt>
      <trkpt lat="34.327893723295695" lon="109.000030287614">
        <ele>391.61854052823037</ele>
        <time>2022-03-09T23:47:19Z</time>
      </trkpt>
      <trkpt lat="34.327885090098874" lon="109.00013565345832">
        <ele>393.7554860319942</ele>
        <time>2022-03-09T23:47:21Z</time>
      </trkpt>
      <trkpt lat="34.327891524454216" lon="109.00039823326736">
        <ele>394.8337620291859</ele>
        <time>2022-03-09T23:47:25Z</time>
      </trkpt>
      <trkpt lat="34.32785673213851" lon="109.00050490261498">
        <ele>393.55115279741585</ele>
        <time>2022-03-09T23:47:27Z</time>
      </trkpt>
      <trkpt lat="34.32788339034628" lon="109.00076464138365">
        <ele>393.4491071430966</ele>
        <time>2022-03-09T23:47:31Z</time>
      </trkpt>
      <trkpt lat="34.32787562853621" lon="109.00128044027026">
        <ele>393.47561330068856</ele>
        <time>2022-03-09T23:47:39Z</time>
      </trkpt>
      <trkpt lat="34.327867448287606" lon="109.00188335019303">
        <ele>393.31136721838266</ele>
        <time>2022-03-09T23:47:49Z</time>
      </trkpt>
      <trkpt lat="34.327875279001724" lon="109.00200347533844">
        <ele>393.9934822851792</ele>
        <time>2022-03-09T23:47:51Z</time>
      </trkpt>
      <trkpt lat="34.327864951543226" lon="109.00212459561753">
        <ele>394.560350285843</ele>
        <time>2022-03-09T23:47:53Z</time>
      </trkpt>
      <trkpt lat="34.327890051130765" lon="109.00236740521652">
        <ele>397.5853764312342</ele>
        <time>2022-03-09T23:47:57Z</time>
      </trkpt>
      <trkpt lat="34.327879357745125" lon="109.00271563366316">
        <ele>393.3549982532859</ele>
        <time>2022-03-09T23:48:03Z</time>
      </trkpt>
      <trkpt lat="34.3278094593856" lon="109.00331185287628">
        <ele>391.6256313929334</ele>
        <time>2022-03-09T23:48:13Z</time>
      </trkpt>
      <trkpt lat="34.32781193184481" lon="109.00354135620202">
        <ele>391.7465600129217</ele>
        <time>2022-03-09T23:48:17Z</time>
      </trkpt>
      <trkpt lat="34.32783052759971" lon="109.00366165396417">
        <ele>393.26595796924084</ele>
        <time>2022-03-09T23:48:19Z</time>
      </trkpt>
      <trkpt lat="34.32782451033821" lon="109.00406686776265">
        <ele>393.79969409573823</ele>
        <time>2022-03-09T23:48:25Z</time>
      </trkpt>
      <trkpt lat="34.327859735916036" lon="109.00434231153243">
        <ele>394.8950541727245</ele>
        <time>2022-03-09T23:48:29Z</time>
      </trkpt>
      <trkpt lat="34.32786085195853" lon="109.0044640680352">
        <ele>394.4420398045331</ele>
        <time>2022-03-09T23:48:31Z</time>
      </trkpt>
      <trkpt lat="34.327888668162025" lon="109.00456302928711">
        <ele>394.3657521130517</ele>
        <time>2022-03-09T23:48:33Z</time>
      </trkpt>
      <trkpt lat="34.327848656692396" lon="109.00468304917578">
        <ele>393.92319037020206</ele>
        <time>2022-03-09T23:48:37Z</time>
      </trkpt>
      <trkpt lat="34.32780927534412" lon="109.00531450703869">
        <ele>393.2119728876278</ele>
        <time>2022-03-09T23:48:49Z</time>
      </trkpt>
      <trkpt lat="34.32779922434915" lon="109.00542462058802">
        <ele>393.21604639384896</ele>
        <time>2022-03-09T23:48:51Z</time>
      </trkpt>
      <trkpt lat="34.32781582388935" lon="109.00554849399815">
        <ele>393.5571320168674</ele>
        <time>2022-03-09T23:48:53Z</time>
      </trkpt>
      <trkpt lat="34.32779793464721" lon="109.00612788489306">
        <ele>392.77886313572526</ele>
        <time>2022-03-09T23:49:03Z</time>
      </trkpt>
      <trkpt lat="34.32781300766381" lon="109.00624615539563">
        <ele>392.4889912363142</ele>
        <time>2022-03-09T23:49:05Z</time>
      </trkpt>
      <trkpt lat="34.327805812880754" lon="109.00636941746716">
        <ele>393.1912121484056</ele>
        <time>2022-03-09T23:49:07Z</time>
      </trkpt>
      <trkpt lat="34.32784839466562" lon="109.00662779918632">
        <ele>392.9030068041757</ele>
        <time>2022-03-09T23:49:11Z</time>
      </trkpt>
      <trkpt lat="34.327870256032995" lon="109.00726622821378">
        <ele>393.7856919243932</ele>
        <time>2022-03-09T23:49:21Z</time>
      </trkpt>
      <trkpt lat="34.32783706546138" lon="109.00780300369193">
        <ele>392.1447438299656</ele>
        <time>2022-03-09T23:49:29Z</time>
      </trkpt>
      <trkpt lat="34.32783463830141" lon="109.00823599985914">
        <ele>391.8850502502173</ele>
        <time>2022-03-09T23:49:35Z</time>
      </trkpt>
      <trkpt lat="34.32788537844537" lon="109.00838465387139">
        <ele>391.8395730536431</ele>
        <time>2022-03-09T23:49:37Z</time>
      </trkpt>
      <trkpt lat="34.32788571514477" lon="109.00869145218262">
        <ele>390.5386754143983</ele>
        <time>2022-03-09T23:49:41Z</time>
      </trkpt>
      <trkpt lat="34.327885868456875" lon="109.00882956833016">
        <ele>391.1843785410747</ele>
        <time>2022-03-09T23:49:43Z</time>
      </trkpt>
      <trkpt lat="34.327886572968524" lon="109.00945837009237">
        <ele>390.05016198474914</ele>
        <time>2022-03-09T23:49:51Z</time>
      </trkpt>
      <trkpt lat="34.32787657776393" lon="109.01005359974053">
        <ele>386.7526483088732</ele>
        <time>2022-03-09T23:49:59Z</time>
      </trkpt>
      <trkpt lat="34.32790356338763" lon="109.01068168387724">
        <ele>386.1372687192634</ele>
        <time>2022-03-09T23:50:09Z</time>
      </trkpt>
      <trkpt lat="34.32786777747096" lon="109.01129154637323">
        <ele>386.49057359900326</ele>
        <time>2022-03-09T23:50:21Z</time>
      </trkpt>
      <trkpt lat="34.32786486799142" lon="109.0116719719143">
        <ele>388.9200718794018</ele>
        <time>2022-03-09T23:50:29Z</time>
      </trkpt>
      <trkpt lat="34.327826775795835" lon="109.0122406970603">
        <ele>386.124539247714</ele>
        <time>2022-03-09T23:50:41Z</time>
      </trkpt>
      <trkpt lat="34.32782539175598" lon="109.01285311973025">
        <ele>388.4763297410682</ele>
        <time>2022-03-09T23:50:53Z</time>
      </trkpt>
      <trkpt lat="34.327831150382785" lon="109.01316619404678">
        <ele>389.0130753079429</ele>
        <time>2022-03-09T23:50:59Z</time>
      </trkpt>
      <trkpt lat="34.32781851898417" lon="109.01326481684646">
        <ele>389.8073948826641</ele>
        <time>2022-03-09T23:51:01Z</time>
      </trkpt>
      <trkpt lat="34.32785784431621" lon="109.01380754341723">
        <ele>388.9609514409676</ele>
        <time>2022-03-09T23:51:11Z</time>
      </trkpt>
      <trkpt lat="34.3278459968947" lon="109.01433296500507">
        <ele>388.10205507371575</ele>
        <time>2022-03-09T23:51:21Z</time>
      </trkpt>
      <trkpt lat="34.327873602207966" lon="109.01487729612047">
        <ele>388.0517295366153</ele>
        <time>2022-03-09T23:51:31Z</time>
      </trkpt>
      <trkpt lat="34.32785864670042" lon="109.01508275253816">
        <ele>388.8243994936347</ele>
        <time>2022-03-09T23:51:35Z</time>
      </trkpt>
      <trkpt lat="34.32787296911887" lon="109.0151998176979">
        <ele>389.0544176772237</ele>
        <time>2022-03-09T23:51:37Z</time>
      </trkpt>
      <trkpt lat="34.32786309816025" lon="109.01560770174868">
        <ele>389.8953752340749</ele>
        <time>2022-03-09T23:51:45Z</time>
      </trkpt>
      <trkpt lat="34.32784234351375" lon="109.01589605661144">
        <ele>390.01651436369866</ele>
        <time>2022-03-09T23:51:51Z</time>
      </trkpt>
      <trkpt lat="34.32781003594667" lon="109.01598160653239">
        <ele>391.3401319850236</ele>
        <time>2022-03-09T23:51:53Z</time>
      </trkpt>
      <trkpt lat="34.32782093439591" lon="109.0160823997269">
        <ele>390.9833139665425</ele>
        <time>2022-03-09T23:51:55Z</time>
      </trkpt>
      <trkpt lat="34.327775379661716" lon="109.01667428222389">
        <ele>387.9405005974695</ele>
        <time>2022-03-09T23:52:07Z</time>
      </trkpt>
      <trkpt lat="34.32769703012123" lon="109.01704585350244">
        <ele>388.16972189582884</ele>
        <time>2022-03-09T23:52:15Z</time>
      </trkpt>
      <trkpt lat="34.32759014081661" lon="109.01748797959107">
        <ele>388.8191527221352</ele>
        <time>2022-03-09T23:52:25Z</time>
      </trkpt>
      <trkpt lat="34.327574552617534" lon="109.01786153402647">
        <ele>389.81441410817206</ele>
        <time>2022-03-09T23:52:33Z</time>
      </trkpt>
      <trkpt lat="34.3276188622993" lon="109.0183451278263">
        <ele>388.2674373071641</ele>
        <time>2022-03-09T23:52:43Z</time>
      </trkpt>
      <trkpt lat="34.327548465737515" lon="109.01852001929446">
        <ele>386.7667954387143</ele>
        <time>2022-03-09T23:52:47Z</time>
      </trkpt>
      <trkpt lat="34.32725981239706" lon="109.01898494323828">
        <ele>388.4998389761895</ele>
        <time>2022-03-09T23:52:59Z</time>
      </trkpt>
      <trkpt lat="34.32702147451026" lon="109.01940666967901">
        <ele>387.001260262914</ele>
        <time>2022-03-09T23:53:09Z</time>
      </trkpt>
      <trkpt lat="34.32695477203791" lon="109.01947338129509">
        <ele>387.62100830860436</ele>
        <time>2022-03-09T23:53:11Z</time>
      </trkpt>
      <trkpt lat="34.32675399994174" lon="109.01980629410465">
        <ele>386.9042837973684</ele>
        <time>2022-03-09T23:53:19Z</time>
      </trkpt>
      <trkpt lat="34.32643713158628" lon="109.02019536933767">
        <ele>388.1242081988603</ele>
        <time>2022-03-09T23:53:29Z</time>
      </trkpt>
      <trkpt lat="34.326092461161764" lon="109.02057407841818">
        <ele>387.8624160354957</ele>
        <time>2022-03-09T23:53:39Z</time>
      </trkpt>
      <trkpt lat="34.325730147890944" lon="109.02088762922476">
        <ele>387.88575688004494</ele>
        <time>2022-03-09T23:53:49Z</time>
      </trkpt>
      <trkpt lat="34.32535214253636" lon="109.0211450735673">
        <ele>387.6082659577951</ele>
        <time>2022-03-09T23:53:59Z</time>
      </trkpt>
      <trkpt lat="34.32493930335826" lon="109.02136755190016">
        <ele>388.8676601657644</ele>
        <time>2022-03-09T23:54:09Z</time>
      </trkpt>
      <trkpt lat="34.32450103516528" lon="109.02154807225332">
        <ele>389.90337470080703</ele>
        <time>2022-03-09T23:54:19Z</time>
      </trkpt>
      <trkpt lat="34.32433601341575" lon="109.02159571500897">
        <ele>389.21221663523465</ele>
        <time>2022-03-09T23:54:23Z</time>
      </trkpt>
      <trkpt lat="34.324255252925255" lon="109.02159943546259">
        <ele>389.1889660041779</ele>
        <time>2022-03-09T23:54:25Z</time>
      </trkpt>
      <trkpt lat="34.32401603976416" lon="109.02167124317529">
        <ele>388.1712326668203</ele>
        <time>2022-03-09T23:54:31Z</time>
      </trkpt>
      <trkpt lat="34.32353326941153" lon="109.0217154531134">
        <ele>390.00090322922915</ele>
        <time>2022-03-09T23:54:43Z</time>
      </trkpt>
      <trkpt lat="34.323038682323094" lon="109.02173993087699">
        <ele>390.063119280152</ele>
        <time>2022-03-09T23:54:55Z</time>
      </trkpt>
      <trkpt lat="34.32252280565618" lon="109.02174379375221">
        <ele>390.1878734510392</ele>
        <time>2022-03-09T23:55:07Z</time>
      </trkpt>
      <trkpt lat="34.32200042976708" lon="109.02170928297595">
        <ele>389.3900503413752</ele>
        <time>2022-03-09T23:55:19Z</time>
      </trkpt>
      <trkpt lat="34.32166030364711" lon="109.02167650804604">
        <ele>388.9089575866237</ele>
        <time>2022-03-09T23:55:27Z</time>
      </trkpt>
      <trkpt lat="34.32122465365887" lon="109.02161727202122">
        <ele>390.19019934441894</ele>
        <time>2022-03-09T23:55:37Z</time>
      </trkpt>
      <trkpt lat="34.3207094994246" lon="109.0215547168883">
        <ele>389.72389503289014</ele>
        <time>2022-03-09T23:55:49Z</time>
      </trkpt>
      <trkpt lat="34.32055100086474" lon="109.02152073939286">
        <ele>390.23170332610607</ele>
        <time>2022-03-09T23:55:53Z</time>
      </trkpt>
      <trkpt lat="34.32046725114931" lon="109.02152651314286">
        <ele>390.9696191120893</ele>
        <time>2022-03-09T23:55:55Z</time>
      </trkpt>
      <trkpt lat="34.31995443491617" lon="109.02145202124035">
        <ele>389.57791023887694</ele>
        <time>2022-03-09T23:56:07Z</time>
      </trkpt>
      <trkpt lat="34.31944027227397" lon="109.02140872391277">
        <ele>390.23855416476727</ele>
        <time>2022-03-09T23:56:19Z</time>
      </trkpt>
      <trkpt lat="34.31918843651432" lon="109.02140610783195">
        <ele>389.67333187535405</ele>
        <time>2022-03-09T23:56:25Z</time>
      </trkpt>
      <trkpt lat="34.31910015060831" lon="109.02142088125208">
        <ele>390.1873123180121</ele>
        <time>2022-03-09T23:56:27Z</time>
      </trkpt>
      <trkpt lat="34.318613271875996" lon="109.02142619668344">
        <ele>389.44224492646754</ele>
        <time>2022-03-09T23:56:39Z</time>
      </trkpt>
      <trkpt lat="34.31810886137226" lon="109.02146904112254">
        <ele>390.5876375325024</ele>
        <time>2022-03-09T23:56:51Z</time>
      </trkpt>
      <trkpt lat="34.31802460594219" lon="109.02146945435646">
        <ele>390.89429825916886</ele>
        <time>2022-03-09T23:56:53Z</time>
      </trkpt>
      <trkpt lat="34.31752205384089" lon="109.02154180482552">
        <ele>391.5511232223362</ele>
        <time>2022-03-09T23:57:05Z</time>
      </trkpt>
      <trkpt lat="34.31703325539366" lon="109.02160359042499">
        <ele>391.98531810659915</ele>
        <time>2022-03-09T23:57:17Z</time>
      </trkpt>
      <trkpt lat="34.316528658327265" lon="109.0216893961582">
        <ele>392.6827205363661</ele>
        <time>2022-03-09T23:57:29Z</time>
      </trkpt>
      <trkpt lat="34.316237366031146" lon="109.02176844240115">
        <ele>391.5277742976323</ele>
        <time>2022-03-09T23:57:37Z</time>
      </trkpt>
      <trkpt lat="34.31616334422732" lon="109.02180259887945">
        <ele>391.00979756750166</ele>
        <time>2022-03-09T23:57:39Z</time>
      </trkpt>
      <trkpt lat="34.31610921176379" lon="109.02186862619061">
        <ele>391.87765101809055</ele>
        <time>2022-03-09T23:57:41Z</time>
      </trkpt>
      <trkpt lat="34.3160834640546" lon="109.02204759635723">
        <ele>391.73837127070874</ele>
        <time>2022-03-09T23:57:45Z</time>
      </trkpt>
      <trkpt lat="34.31595086605435" lon="109.0221467780134">
        <ele>391.4301193263382</ele>
        <time>2022-03-09T23:57:49Z</time>
      </trkpt>
      <trkpt lat="34.315870587234755" lon="109.02222814930349">
        <ele>391.4823364764452</ele>
        <time>2022-03-09T23:57:53Z</time>
      </trkpt>
      <trkpt lat="34.31587605626837" lon="109.02223987804051">
        <ele>390.7761344332248</ele>
        <time>2022-03-09T23:58:01Z</time>
      </trkpt>
      <trkpt lat="34.31581215605263" lon="109.02237705142801">
        <ele>391.2872115429491</ele>
        <time>2022-03-09T23:58:24Z</time>
      </trkpt>
      <trkpt lat="34.31576975354638" lon="109.02254485809203">
        <ele>391.19347852561623</ele>
        <time>2022-03-09T23:58:28Z</time>
      </trkpt>
      <trkpt lat="34.3157865145456" lon="109.02264354735682">
        <ele>391.86578641459346</ele>
        <time>2022-03-09T23:58:30Z</time>
      </trkpt>
      <trkpt lat="34.31604179179116" lon="109.02318931919318">
        <ele>388.737607056275</ele>
        <time>2022-03-09T23:58:42Z</time>
      </trkpt>
      <trkpt lat="34.31616796530927" lon="109.02350481587153">
        <ele>387.6864424375817</ele>
        <time>2022-03-09T23:58:48Z</time>
      </trkpt>
      <trkpt lat="34.31619573243813" lon="109.02367343811503">
        <ele>388.1664636125788</ele>
        <time>2022-03-09T23:58:52Z</time>
      </trkpt>
      <trkpt lat="34.315983003073676" lon="109.02382667085672">
        <ele>389.56309227366</ele>
        <time>2022-03-09T23:58:58Z</time>
      </trkpt>
      <trkpt lat="34.31555256652286" lon="109.02403073750094">
        <ele>389.9515429046005</ele>
        <time>2022-03-09T23:59:09Z</time>
      </trkpt>
      <trkpt lat="34.315131550185015" lon="109.02431991710279">
        <ele>390.8740959716961</ele>
        <time>2022-03-09T23:59:21Z</time>
      </trkpt>
      <trkpt lat="34.31469464548567" lon="109.02461294922175">
        <ele>391.8598760040477</ele>
        <time>2022-03-09T23:59:33Z</time>
      </trkpt>
      <trkpt lat="34.31455629584946" lon="109.02468174770101">
        <ele>391.88080022577196</ele>
        <time>2022-03-09T23:59:37Z</time>
      </trkpt>
      <trkpt lat="34.314245787135874" lon="109.02492534290425">
        <ele>391.1814492996782</ele>
        <time>2022-03-09T23:59:45Z</time>
      </trkpt>
      <trkpt lat="34.31409311775332" lon="109.02506725789247">
        <ele>391.4196050958708</ele>
        <time>2022-03-09T23:59:49Z</time>
      </trkpt>
      <trkpt lat="34.313663944644595" lon="109.02527578171048">
        <ele>391.9280273457989</ele>
        <time>2022-03-09T23:59:59Z</time>
      </trkpt>
      <trkpt lat="34.313485940203776" lon="109.02535767133617">
        <ele>390.6959423394874</ele>
        <time>2022-03-10T00:00:03Z</time>
      </trkpt>
      <trkpt lat="34.313061834110975" lon="109.02559360059763">
        <ele>392.4818064160645</ele>
        <time>2022-03-10T00:00:13Z</time>
      </trkpt>
      <trkpt lat="34.31297694031237" lon="109.025633303432">
        <ele>393.0615919716656</ele>
        <time>2022-03-10T00:00:15Z</time>
      </trkpt>
      <trkpt lat="34.312562601055255" lon="109.02592136405002">
        <ele>392.82808139547706</ele>
        <time>2022-03-10T00:00:25Z</time>
      </trkpt>
      <trkpt lat="34.31251856105131" lon="109.0259989043052">
        <ele>392.94521822500974</ele>
        <time>2022-03-10T00:00:27Z</time>
      </trkpt>
      <trkpt lat="34.31238009678176" lon="109.02608334212714">
        <ele>391.9305101763457</ele>
        <time>2022-03-10T00:00:31Z</time>
      </trkpt>
      <trkpt lat="34.31223773241459" lon="109.02611873085964">
        <ele>392.2128458553925</ele>
        <time>2022-03-10T00:00:33Z</time>
      </trkpt>
      <trkpt lat="34.31188712000308" lon="109.02644977390742">
        <ele>392.74096059799194</ele>
        <time>2022-03-10T00:00:41Z</time>
      </trkpt>
      <trkpt lat="34.31166367154714" lon="109.02670798765621">
        <ele>391.0679932022467</ele>
        <time>2022-03-10T00:00:49Z</time>
      </trkpt>
      <trkpt lat="34.31153637995864" lon="109.02698052124107">
        <ele>392.1798936575651</ele>
        <time>2022-03-10T00:00:55Z</time>
      </trkpt>
      <trkpt lat="34.311440126256514" lon="109.02726280036329">
        <ele>392.81423631310463</ele>
        <time>2022-03-10T00:01:01Z</time>
      </trkpt>
      <trkpt lat="34.311417797323784" lon="109.02745838333966">
        <ele>393.5160124953836</ele>
        <time>2022-03-10T00:01:05Z</time>
      </trkpt>
      <trkpt lat="34.311424107036835" lon="109.02757056219187">
        <ele>394.30618004035205</ele>
        <time>2022-03-10T00:01:07Z</time>
      </trkpt>
      <trkpt lat="34.311396990916684" lon="109.0276520478768">
        <ele>393.5430354587734</ele>
        <time>2022-03-10T00:01:09Z</time>
      </trkpt>
      <trkpt lat="34.31138030714043" lon="109.02796119372316">
        <ele>393.0024982476607</ele>
        <time>2022-03-10T00:01:17Z</time>
      </trkpt>
      <trkpt lat="34.311347825854796" lon="109.02815362258073">
        <ele>392.28964684158564</ele>
        <time>2022-03-10T00:01:21Z</time>
      </trkpt>
      <trkpt lat="34.31127439220143" lon="109.02844276338163">
        <ele>393.46123729180545</ele>
        <time>2022-03-10T00:01:27Z</time>
      </trkpt>
      <trkpt lat="34.3111221242927" lon="109.02873796866794">
        <ele>391.1681998707354</ele>
        <time>2022-03-10T00:01:33Z</time>
      </trkpt>
      <trkpt lat="34.3109349728572" lon="109.0289655601538">
        <ele>392.0961170634255</ele>
        <time>2022-03-10T00:01:39Z</time>
      </trkpt>
      <trkpt lat="34.31057552758925" lon="109.02932341081224">
        <ele>390.8966201096773</ele>
        <time>2022-03-10T00:01:49Z</time>
      </trkpt>
      <trkpt lat="34.31016828491409" lon="109.02970709510313">
        <ele>392.5968492180109</ele>
        <time>2022-03-10T00:02:01Z</time>
      </trkpt>
      <trkpt lat="34.310046942669835" lon="109.02982479178178">
        <ele>392.7968903398141</ele>
        <time>2022-03-10T00:02:05Z</time>
      </trkpt>
      <trkpt lat="34.30968538107564" lon="109.03003998122936">
        <ele>394.50369752943516</ele>
        <time>2022-03-10T00:02:15Z</time>
      </trkpt>
      <trkpt lat="34.309543912310104" lon="109.03009219327956">
        <ele>395.41734789218754</ele>
        <time>2022-03-10T00:02:19Z</time>
      </trkpt>
      <trkpt lat="34.309297355228615" lon="109.0302161292334">
        <ele>396.46818325668573</ele>
        <time>2022-03-10T00:02:25Z</time>
      </trkpt>
      <trkpt lat="34.30921753358344" lon="109.03022344979395">
        <ele>395.2543412419036</ele>
        <time>2022-03-10T00:02:27Z</time>
      </trkpt>
      <trkpt lat="34.308955646746924" lon="109.03034725020724">
        <ele>394.74248072505</ele>
        <time>2022-03-10T00:02:33Z</time>
      </trkpt>
      <trkpt lat="34.30887194284181" lon="109.030356762375">
        <ele>394.08289286494255</ele>
        <time>2022-03-10T00:02:35Z</time>
      </trkpt>
      <trkpt lat="34.30869312361033" lon="109.03041942536973">
        <ele>395.270479449071</ele>
        <time>2022-03-10T00:02:39Z</time>
      </trkpt>
      <trkpt lat="34.3082099846975" lon="109.03050043261314">
        <ele>395.76134326681495</ele>
        <time>2022-03-10T00:02:49Z</time>
      </trkpt>
      <trkpt lat="34.30771402111154" lon="109.03060591589202">
        <ele>395.18987433984876</ele>
        <time>2022-03-10T00:02:59Z</time>
      </trkpt>
      <trkpt lat="34.30742301263967" lon="109.03061131482819">
        <ele>394.8697608653456</ele>
        <time>2022-03-10T00:03:05Z</time>
      </trkpt>
      <trkpt lat="34.30731492911198" lon="109.03063139632607">
        <ele>393.3558727428317</ele>
        <time>2022-03-10T00:03:07Z</time>
      </trkpt>
      <trkpt lat="34.307128937042215" lon="109.03061409497684">
        <ele>393.08396992553025</ele>
        <time>2022-03-10T00:03:11Z</time>
      </trkpt>
      <trkpt lat="34.30692995548911" lon="109.03067759759718">
        <ele>393.0995450904593</ele>
        <time>2022-03-10T00:03:15Z</time>
      </trkpt>
      <trkpt lat="34.306533647727896" lon="109.03071180857252">
        <ele>391.0497119408101</ele>
        <time>2022-03-10T00:03:23Z</time>
      </trkpt>
      <trkpt lat="34.30632871325743" lon="109.03086909646387">
        <ele>391.28680012375116</ele>
        <time>2022-03-10T00:03:31Z</time>
      </trkpt>
      <trkpt lat="34.30628400716425" lon="109.03095336933274">
        <ele>390.4841426182538</ele>
        <time>2022-03-10T00:03:33Z</time>
      </trkpt>
      <trkpt lat="34.30625908138047" lon="109.03105167967544">
        <ele>390.42312831711024</ele>
        <time>2022-03-10T00:03:35Z</time>
      </trkpt>
      <trkpt lat="34.306345712092494" lon="109.03158984883291">
        <ele>390.8798532951623</ele>
        <time>2022-03-10T00:03:45Z</time>
      </trkpt>
      <trkpt lat="34.3063587362266" lon="109.03171864787045">
        <ele>390.1611329410225</ele>
        <time>2022-03-10T00:03:47Z</time>
      </trkpt>
      <trkpt lat="34.30634265783845" lon="109.0318421548519">
        <ele>388.516914636828</ele>
        <time>2022-03-10T00:03:49Z</time>
      </trkpt>
      <trkpt lat="34.306381671542965" lon="109.03195085607354">
        <ele>390.82930477522314</ele>
        <time>2022-03-10T00:03:51Z</time>
      </trkpt>
      <trkpt lat="34.306393572753294" lon="109.03207458223594">
        <ele>390.7125769313425</ele>
        <time>2022-03-10T00:03:53Z</time>
      </trkpt>
      <trkpt lat="34.30643511786908" lon="109.03219751754511">
        <ele>391.9798767725006</ele>
        <time>2022-03-10T00:03:55Z</time>
      </trkpt>
      <trkpt lat="34.30649234699839" lon="109.03271679751333">
        <ele>392.6097094686702</ele>
        <time>2022-03-10T00:04:03Z</time>
      </trkpt>
      <trkpt lat="34.30651563376193" lon="109.03297248473065">
        <ele>392.2367764385417</ele>
        <time>2022-03-10T00:04:07Z</time>
      </trkpt>
      <trkpt lat="34.306512851601134" lon="109.03309852225553">
        <ele>392.12767236121</ele>
        <time>2022-03-10T00:04:09Z</time>
      </trkpt>
      <trkpt lat="34.306474722935036" lon="109.03320680271749">
        <ele>392.45711696054786</ele>
        <time>2022-03-10T00:04:11Z</time>
      </trkpt>
      <trkpt lat="34.30640713216217" lon="109.03326553486005">
        <ele>393.12379806954414</ele>
        <time>2022-03-10T00:04:13Z</time>
      </trkpt>
      <trkpt lat="34.30643280243913" lon="109.03334895679647">
        <ele>392.37405666615814</ele>
        <time>2022-03-10T00:04:15Z</time>
      </trkpt>
      <trkpt lat="34.306486552127296" lon="109.03342914849244">
        <ele>392.8203961411491</ele>
        <time>2022-03-10T00:04:17Z</time>
      </trkpt>
      <trkpt lat="34.30653363801803" lon="109.03371962620461">
        <ele>392.10064760874957</ele>
        <time>2022-03-10T00:04:23Z</time>
      </trkpt>
      <trkpt lat="34.306599354766554" lon="109.03432224972686">
        <ele>393.35587307065725</ele>
        <time>2022-03-10T00:04:33Z</time>
      </trkpt>
      <trkpt lat="34.30662998274444" lon="109.03491636651668">
        <ele>392.8543502371758</ele>
        <time>2022-03-10T00:04:43Z</time>
      </trkpt>
      <trkpt lat="34.306630126532596" lon="109.0351665940946">
        <ele>393.10788573045284</ele>
        <time>2022-03-10T00:04:47Z</time>
      </trkpt>
      <trkpt lat="34.30667286044225" lon="109.03578684460612">
        <ele>392.6390360277146</ele>
        <time>2022-03-10T00:04:57Z</time>
      </trkpt>
      <trkpt lat="34.306685359814985" lon="109.03598814888562">
        <ele>393.5188020430505</ele>
        <time>2022-03-10T00:05:01Z</time>
      </trkpt>
      <trkpt lat="34.30664577846371" lon="109.03606272505948">
        <ele>392.961592185311</ele>
        <time>2022-03-10T00:05:07Z</time>
      </trkpt>
      <trkpt lat="34.30659054376464" lon="109.03604154695864">
        <ele>392.22000197228044</ele>
        <time>2022-03-10T00:05:15Z</time>
      </trkpt>
      <trkpt lat="34.3065683225776" lon="109.03618765046197">
        <ele>392.6104421392083</ele>
        <time>2022-03-10T00:05:24Z</time>
      </trkpt>
      <trkpt lat="34.30658208266989" lon="109.03629194703275">
        <ele>390.8261256935075</ele>
        <time>2022-03-10T00:05:31Z</time>
      </trkpt>
      <trkpt lat="34.30665879924957" lon="109.03645928086027">
        <ele>392.4509838456288</ele>
        <time>2022-03-10T00:05:41Z</time>
      </trkpt>
      <trkpt lat="34.30665969547002" lon="109.03673913261126">
        <ele>391.91889191046357</ele>
        <time>2022-03-10T00:05:57Z</time>
      </trkpt>
      <trkpt lat="34.30664221465644" lon="109.0368463552739">
        <ele>391.18765322025865</ele>
        <time>2022-03-10T00:06:03Z</time>
      </trkpt>
      <trkpt lat="34.306646807503384" lon="109.03695549354217">
        <ele>391.3567796424031</ele>
        <time>2022-03-10T00:06:09Z</time>
      </trkpt>
      <trkpt lat="34.30649465075869" lon="109.03704867498512">
        <ele>391.0527548296377</ele>
        <time>2022-03-10T00:06:27Z</time>
      </trkpt>
      <trkpt lat="34.30641493712513" lon="109.0370681958833">
        <ele>390.7561528105289</ele>
        <time>2022-03-10T00:06:33Z</time>
      </trkpt>
      <trkpt lat="34.306399763741595" lon="109.03713099723672">
        <ele>391.8839577427134</ele>
        <time>2022-03-10T00:06:41Z</time>
      </trkpt>
    </trkseg>
  </trk>
</gpx>