<?xml version="1.0" encoding="UTF-8"?>
<gpx xmlns="http://www.topografix.com/GPX/1/1" xmlns:gpxtpx="http://www.garmin.com/xmlschemas/TrackPointExtension/v1" xmlns:xsi="http://www.w3.org/2001/XMLSchema-instance" xsi:schemaLocation="http://www.topografix.com/GPX/1/1 http://www.topografix.com/GPX/1/1/gpx.xsd" version="1.1" creator="gpx.py -- https://github.com/tkrajina/gpxpy">
  <trk>
    <name>gpx from keep</name>
    <type>Run</type>
    <trkseg>
      <trkpt lat="34.29604704161691" lon="108.7108327167753">
        <ele>399.8027573786676</ele>
        <time>2026-08-20T23:01:30Z</time>
      </trkpt>
      <trkpt lat="34.29602773435101" lon="108.71066751488107">
        <ele>390.8005222864449</ele>
        <time>2026-08-20T23:01:36Z</time>
      </trkpt>
      <trkpt lat="34.2960678017986" lon="108.71049362999496">
        <ele>390.5963186006993</ele>
        <time>2026-08-20T23:01:45Z</time>
      </trkpt>
      <trkpt lat="34.2960384793795" lon="108.71012275628397">
        <ele>391.1160353180021</ele>
        <time>2026-08-20T23:02:06Z</time>
      </trkpt>
      <trkpt lat="34.29598856296853" lon="108.70979929913855">
        <ele>390.9436301216483</ele>
        <time>2026-08-20T23:02:24Z</time>
      </trkpt>
      <trkpt lat="34.2959441693213" lon="108.70937075117092">
        <ele>390.4413532791659</ele>
        <time>2026-08-20T23:02:48Z</time>
      </trkpt>
      <trkpt lat="34.29589818345258" lon="108.70907714449513">
        <ele>390.48920029215515</ele>
        <time>2026-08-20T23:03:03Z</time>
      </trkpt>
      <trkpt lat="34.295854610119505" lon="108.70872244424632">
        <ele>390.84846193157136</ele>
        <time>2026-08-20T23:03:22Z</time>
      </trkpt>
      <trkpt lat="34.295870805574026" lon="108.70861364135867">
        <ele>390.8496405063197</ele>
        <time>2026-08-20T23:03:28Z</time>
      </trkpt>
      <trkpt lat="34.29583248532032" lon="108.70844698782825">
        <ele>391.18015581183136</ele>
        <time>2026-08-20T23:03:37Z</time>
      </trkpt>
      <trkpt lat="34.29579873424269" lon="108.70807993768588">
        <ele>391.312709887512</ele>
        <time>2026-08-20T23:03:55Z</time>
      </trkpt>
      <trkpt lat="34.295774190172104" lon="108.70772071386267">
        <ele>390.0773878330365</ele>
        <time>2026-08-20T23:04:13Z</time>
      </trkpt>
      <trkpt lat="34.29575449868064" lon="108.70735690459493">
        <ele>389.76087412331253</ele>
        <time>2026-08-20T23:04:31Z</time>
      </trkpt>
      <trkpt lat="34.29572712013693" lon="108.70695890867066">
        <ele>389.3434704327956</ele>
        <time>2026-08-20T23:04:52Z</time>
      </trkpt>
      <trkpt lat="34.29567833383495" lon="108.70663148406317">
        <ele>389.97010956704617</ele>
        <time>2026-08-20T23:05:10Z</time>
      </trkpt>
      <trkpt lat="34.29565437148696" lon="108.7064261855544">
        <ele>389.92894005868584</ele>
        <time>2026-08-20T23:05:20Z</time>
      </trkpt>
      <trkpt lat="34.29568618087566" lon="108.70626820145374">
        <ele>389.9848578069359</ele>
        <time>2026-08-20T23:05:28Z</time>
      </trkpt>
      <trkpt lat="34.29576045096142" lon="108.70612176053386">
        <ele>390.5572674786672</ele>
        <time>2026-08-20T23:05:36Z</time>
      </trkpt>
      <trkpt lat="34.29581479812564" lon="108.70606702407514">
        <ele>390.8686773767695</ele>
        <time>2026-08-20T23:05:40Z</time>
      </trkpt>
      <trkpt lat="34.29608788492614" lon="108.70602188637685">
        <ele>389.9913810454309</ele>
        <time>2026-08-20T23:05:55Z</time>
      </trkpt>
      <trkpt lat="34.29630594948863" lon="108.70596223872779">
        <ele>391.0230598114431</ele>
        <time>2026-08-20T23:06:07Z</time>
      </trkpt>
      <trkpt lat="34.29657774403009" lon="108.70592677640207">
        <ele>389.4583650622517</ele>
        <time>2026-08-20T23:06:22Z</time>
      </trkpt>
      <trkpt lat="34.296632430685484" lon="108.70591408568617">
        <ele>389.6666550450027</ele>
        <time>2026-08-20T23:06:25Z</time>
      </trkpt>
      <trkpt lat="34.29668836479628" lon="108.70593392017167">
        <ele>388.73692987300456</ele>
        <time>2026-08-20T23:06:28Z</time>
      </trkpt>
      <trkpt lat="34.29685754073432" lon="108.70588189637436">
        <ele>389.39123045746237</ele>
        <time>2026-08-20T23:06:37Z</time>
      </trkpt>
      <trkpt lat="34.29706840896402" lon="108.70585135623087">
        <ele>388.3441293593496</ele>
        <time>2026-08-20T23:06:49Z</time>
      </trkpt>
      <trkpt lat="34.297125510599194" lon="108.70585813897186">
        <ele>388.4319346882403</ele>
        <time>2026-08-20T23:06:52Z</time>
      </trkpt>
      <trkpt lat="34.29729427775898" lon="108.70582556113685">
        <ele>387.4890579711646</ele>
        <time>2026-08-20T23:07:01Z</time>
      </trkpt>
      <trkpt lat="34.297562958315694" lon="108.70575291898996">
        <ele>388.99142349977046</ele>
        <time>2026-08-20T23:07:16Z</time>
      </trkpt>
      <trkpt lat="34.297883022566666" lon="108.7057056237137">
        <ele>388.98100636247545</ele>
        <time>2026-08-20T23:07:34Z</time>
      </trkpt>
      <trkpt lat="34.297955094816466" lon="108.7057004340901">
        <ele>388.3487102119252</ele>
        <time>2026-08-20T23:07:38Z</time>
      </trkpt>
      <trkpt lat="34.29822065583211" lon="108.7056504100485">
        <ele>388.7319826763123</ele>
        <time>2026-08-20T23:07:53Z</time>
      </trkpt>
      <trkpt lat="34.29849656567508" lon="108.70559678441415">
        <ele>389.704043620266</ele>
        <time>2026-08-20T23:08:08Z</time>
      </trkpt>
      <trkpt lat="34.298813087292984" lon="108.7055230011294">
        <ele>389.6071742977947</ele>
        <time>2026-08-20T23:08:26Z</time>
      </trkpt>
      <trkpt lat="34.29908907590795" lon="108.70548196453231">
        <ele>389.4520345106721</ele>
        <time>2026-08-20T23:08:41Z</time>
      </trkpt>
      <trkpt lat="34.29923589884415" lon="108.7054384145736">
        <ele>393.1220581000671</ele>
        <time>2026-08-20T23:08:53Z</time>
      </trkpt>
      <trkpt lat="34.29923414465427" lon="108.7054955606941">
        <ele>392.3294924143702</ele>
        <time>2026-08-20T23:08:56Z</time>
      </trkpt>
      <trkpt lat="34.29914602620988" lon="108.70554792362276">
        <ele>391.51952158194035</ele>
        <time>2026-08-20T23:09:02Z</time>
      </trkpt>
      <trkpt lat="34.298993544155174" lon="108.70559391970318">
        <ele>390.8238635594025</ele>
        <time>2026-08-20T23:09:11Z</time>
      </trkpt>
      <trkpt lat="34.298681125262334" lon="108.70564599186457">
        <ele>390.1747144367546</ele>
        <time>2026-08-20T23:09:29Z</time>
      </trkpt>
      <trkpt lat="34.298612318873865" lon="108.70567032563737">
        <ele>389.37066246103495</ele>
        <time>2026-08-20T23:09:33Z</time>
      </trkpt>
      <trkpt lat="34.29855211008177" lon="108.70565670892051">
        <ele>389.0388583019376</ele>
        <time>2026-08-20T23:09:37Z</time>
      </trkpt>
      <trkpt lat="34.29825900595738" lon="108.70573087459431">
        <ele>388.4427466960624</ele>
        <time>2026-08-20T23:09:54Z</time>
      </trkpt>
      <trkpt lat="34.297947396037635" lon="108.70578581104483">
        <ele>388.562830763869</ele>
        <time>2026-08-20T23:10:12Z</time>
      </trkpt>
      <trkpt lat="34.29773402162623" lon="108.70582015348215">
        <ele>388.5381923690438</ele>
        <time>2026-08-20T23:10:27Z</time>
      </trkpt>
      <trkpt lat="34.29768603245174" lon="108.70584387657911">
        <ele>388.2828799299896</ele>
        <time>2026-08-20T23:10:30Z</time>
      </trkpt>
      <trkpt lat="34.29738557175389" lon="108.70587003316551">
        <ele>388.0129905920476</ele>
        <time>2026-08-20T23:10:48Z</time>
      </trkpt>
      <trkpt lat="34.29728080361799" lon="108.70591326539285">
        <ele>387.8852895665914</ele>
        <time>2026-08-20T23:10:54Z</time>
      </trkpt>
      <trkpt lat="34.29697185185933" lon="108.705961630849">
        <ele>388.3641472039744</ele>
        <time>2026-08-20T23:11:12Z</time>
      </trkpt>
      <trkpt lat="34.296696236604724" lon="108.70601454824173">
        <ele>389.6628058766946</ele>
        <time>2026-08-20T23:11:27Z</time>
      </trkpt>
      <trkpt lat="34.29647248702965" lon="108.70602348866267">
        <ele>389.08782277908176</ele>
        <time>2026-08-20T23:11:40Z</time>
      </trkpt>
      <trkpt lat="34.29632363160814" lon="108.70605064038234">
        <ele>389.50504869036376</ele>
        <time>2026-08-20T23:11:48Z</time>
      </trkpt>
      <trkpt lat="34.29625315935363" lon="108.70608667892726">
        <ele>389.42739715706557</ele>
        <time>2026-08-20T23:11:52Z</time>
      </trkpt>
      <trkpt lat="34.29598384463011" lon="108.70611926303154">
        <ele>389.2068495079875</ele>
        <time>2026-08-20T23:12:07Z</time>
      </trkpt>
      <trkpt lat="34.295854348207136" lon="108.70614216600933">
        <ele>390.53770199790597</ele>
        <time>2026-08-20T23:12:19Z</time>
      </trkpt>
      <trkpt lat="34.295774708104176" lon="108.7061318809134">
        <ele>389.56838114373386</ele>
        <time>2026-08-20T23:12:25Z</time>
      </trkpt>
      <trkpt lat="34.29578955098091" lon="108.7060780373982">
        <ele>389.82189248129725</ele>
        <time>2026-08-20T23:12:28Z</time>
      </trkpt>
      <trkpt lat="34.295888120943104" lon="108.70603800665786">
        <ele>390.1285314876586</ele>
        <time>2026-08-20T23:12:34Z</time>
      </trkpt>
      <trkpt lat="34.29612185051972" lon="108.70601652391761">
        <ele>390.25152168795466</ele>
        <time>2026-08-20T23:12:46Z</time>
      </trkpt>
      <trkpt lat="34.296169618827186" lon="108.70598587608063">
        <ele>390.94013604614884</ele>
        <time>2026-08-20T23:12:49Z</time>
      </trkpt>
      <trkpt lat="34.29628462851225" lon="108.70597836925229">
        <ele>389.9703988432884</ele>
        <time>2026-08-20T23:12:55Z</time>
      </trkpt>
      <trkpt lat="34.29632538598176" lon="108.70594432480603">
        <ele>391.3632515473291</ele>
        <time>2026-08-20T23:12:58Z</time>
      </trkpt>
      <trkpt lat="34.296615706830956" lon="108.70591361494597">
        <ele>389.3082228945568</ele>
        <time>2026-08-20T23:13:13Z</time>
      </trkpt>
      <trkpt lat="34.29680395314298" lon="108.70591386606236">
        <ele>388.5906063839793</ele>
        <time>2026-08-20T23:13:22Z</time>
      </trkpt>
      <trkpt lat="34.297098239455636" lon="108.7058586963228">
        <ele>388.2680562529713</ele>
        <time>2026-08-20T23:13:37Z</time>
      </trkpt>
      <trkpt lat="34.297388415813984" lon="108.70579493452772">
        <ele>388.39035402983427</ele>
        <time>2026-08-20T23:13:52Z</time>
      </trkpt>
      <trkpt lat="34.297512290651994" lon="108.70574768468038">
        <ele>388.01259324885905</ele>
        <time>2026-08-20T23:13:59Z</time>
      </trkpt>
      <trkpt lat="34.29780164200316" lon="108.70570593015556">
        <ele>387.67601413838565</ele>
        <time>2026-08-20T23:14:14Z</time>
      </trkpt>
      <trkpt lat="34.29809502471533" lon="108.70567064445864">
        <ele>388.26959036756307</ele>
        <time>2026-08-20T23:14:29Z</time>
      </trkpt>
      <trkpt lat="34.298309344460314" lon="108.7056429915977">
        <ele>388.8791448958218</ele>
        <time>2026-08-20T23:14:44Z</time>
      </trkpt>
      <trkpt lat="34.298588115128084" lon="108.70557786550073">
        <ele>389.18526502233</ele>
        <time>2026-08-20T23:15:02Z</time>
      </trkpt>
      <trkpt lat="34.29886633604926" lon="108.70552153467925">
        <ele>389.86782650090754</ele>
        <time>2026-08-20T23:15:17Z</time>
      </trkpt>
      <trkpt lat="34.299145212682106" lon="108.70546365225002">
        <ele>389.8937388975173</ele>
        <time>2026-08-20T23:15:32Z</time>
      </trkpt>
      <trkpt lat="34.299228083273064" lon="108.70544667964785">
        <ele>391.70743742678314</ele>
        <time>2026-08-20T23:15:38Z</time>
      </trkpt>
      <trkpt lat="34.299179681539286" lon="108.70552735593024">
        <ele>390.905702566728</ele>
        <time>2026-08-20T23:15:44Z</time>
      </trkpt>
      <trkpt lat="34.29885284281163" lon="108.70561365481947">
        <ele>389.10694169066846</ele>
        <time>2026-08-20T23:16:03Z</time>
      </trkpt>
      <trkpt lat="34.29853608898459" lon="108.70567182712465">
        <ele>389.34696798119694</ele>
        <time>2026-08-20T23:16:21Z</time>
      </trkpt>
      <trkpt lat="34.29821067969724" lon="108.70572588259432">
        <ele>388.57283279206604</ele>
        <time>2026-08-20T23:16:39Z</time>
      </trkpt>
      <trkpt lat="34.297938943958975" lon="108.70577321844107">
        <ele>389.16231161821634</ele>
        <time>2026-08-20T23:16:54Z</time>
      </trkpt>
      <trkpt lat="34.29782205744041" lon="108.70576960914998">
        <ele>388.6751037891954</ele>
        <time>2026-08-20T23:17:00Z</time>
      </trkpt>
      <trkpt lat="34.29754662004968" lon="108.70582289658711">
        <ele>387.98625956848264</ele>
        <time>2026-08-20T23:17:15Z</time>
      </trkpt>
      <trkpt lat="34.29725679890813" lon="108.70591481261994">
        <ele>388.244995014742</ele>
        <time>2026-08-20T23:17:30Z</time>
      </trkpt>
      <trkpt lat="34.29707190318603" lon="108.70593954168878">
        <ele>388.901823727414</ele>
        <time>2026-08-20T23:17:39Z</time>
      </trkpt>
      <trkpt lat="34.297013057849206" lon="108.7059620692942">
        <ele>388.7831435529515</ele>
        <time>2026-08-20T23:17:42Z</time>
      </trkpt>
      <trkpt lat="34.296887588057935" lon="108.70596491274728">
        <ele>389.5967825707048</ele>
        <time>2026-08-20T23:17:48Z</time>
      </trkpt>
      <trkpt lat="34.29660320610733" lon="108.70602080936551">
        <ele>388.7660290496424</ele>
        <time>2026-08-20T23:18:02Z</time>
      </trkpt>
      <trkpt lat="34.29633509907129" lon="108.70606896204683">
        <ele>389.8134842067957</ele>
        <time>2026-08-20T23:18:16Z</time>
      </trkpt>
      <trkpt lat="34.2962237887679" lon="108.70608008380114">
        <ele>390.29358435515314</ele>
        <time>2026-08-20T23:18:22Z</time>
      </trkpt>
      <trkpt lat="34.296105603595876" lon="108.7061157351901">
        <ele>389.30748739186674</ele>
        <time>2026-08-20T23:18:31Z</time>
      </trkpt>
      <trkpt lat="34.29595623180283" lon="108.70610729387558">
        <ele>390.3160872766748</ele>
        <time>2026-08-20T23:18:40Z</time>
      </trkpt>
      <trkpt lat="34.295844590766784" lon="108.70614726420573">
        <ele>390.3688521757722</ele>
        <time>2026-08-20T23:18:46Z</time>
      </trkpt>
      <trkpt lat="34.29579625004397" lon="108.7061421976219">
        <ele>390.3968987893313</ele>
        <time>2026-08-20T23:18:49Z</time>
      </trkpt>
      <trkpt lat="34.29579931886544" lon="108.70606635992391">
        <ele>390.17529980279505</ele>
        <time>2026-08-20T23:18:55Z</time>
      </trkpt>
      <trkpt lat="34.29591487735722" lon="108.70602687361172">
        <ele>390.8422362180427</ele>
        <time>2026-08-20T23:19:04Z</time>
      </trkpt>
      <trkpt lat="34.2962214733375" lon="108.70598607600171">
        <ele>389.7043978460133</ele>
        <time>2026-08-20T23:19:22Z</time>
      </trkpt>
      <trkpt lat="34.296519225586174" lon="108.70594152712083">
        <ele>389.1618968946859</ele>
        <time>2026-08-20T23:19:37Z</time>
      </trkpt>
      <trkpt lat="34.29663803339118" lon="108.70591545054552">
        <ele>390.12286895141006</ele>
        <time>2026-08-20T23:19:43Z</time>
      </trkpt>
      <trkpt lat="34.29675418172689" lon="108.70592566646037">
        <ele>388.07996184565127</ele>
        <time>2026-08-20T23:19:49Z</time>
      </trkpt>
      <trkpt lat="34.2970950618167" lon="108.70584544198599">
        <ele>388.80254810117185</ele>
        <time>2026-08-20T23:20:16Z</time>
      </trkpt>
      <trkpt lat="34.29738338598574" lon="108.70578983405458">
        <ele>389.3821605993435</ele>
        <time>2026-08-20T23:20:34Z</time>
      </trkpt>
      <trkpt lat="34.29766209935735" lon="108.70574164218588">
        <ele>388.8694801963866</ele>
        <time>2026-08-20T23:20:49Z</time>
      </trkpt>
      <trkpt lat="34.297931735160965" lon="108.70570772739724">
        <ele>388.9910882813856</ele>
        <time>2026-08-20T23:21:04Z</time>
      </trkpt>
      <trkpt lat="34.29819104975081" lon="108.70566783109852">
        <ele>388.79038317129016</ele>
        <time>2026-08-20T23:21:19Z</time>
      </trkpt>
      <trkpt lat="34.298290761759574" lon="108.7056273804307">
        <ele>388.95903964340687</ele>
        <time>2026-08-20T23:21:25Z</time>
      </trkpt>
      <trkpt lat="34.29851313774299" lon="108.7056139116911">
        <ele>388.5866041230038</ele>
        <time>2026-08-20T23:21:37Z</time>
      </trkpt>
      <trkpt lat="34.298737067535434" lon="108.70554517983025">
        <ele>389.43990605231375</ele>
        <time>2026-08-20T23:21:49Z</time>
      </trkpt>
      <trkpt lat="34.29896560882678" lon="108.70550577420872">
        <ele>389.4512753812596</ele>
        <time>2026-08-20T23:22:01Z</time>
      </trkpt>
      <trkpt lat="34.299115297149584" lon="108.70545104459127">
        <ele>391.05269138887525</ele>
        <time>2026-08-20T23:22:15Z</time>
      </trkpt>
      <trkpt lat="34.2992058167415" lon="108.70544769416267">
        <ele>391.2843338502571</ele>
        <time>2026-08-20T23:22:21Z</time>
      </trkpt>
      <trkpt lat="34.299270913802154" lon="108.70551957429345">
        <ele>391.5644306410104</ele>
        <time>2026-08-20T23:22:27Z</time>
      </trkpt>
      <trkpt lat="34.29935118888607" lon="108.70579852957239">
        <ele>390.8766618585214</ele>
        <time>2026-08-20T23:22:42Z</time>
      </trkpt>
      <trkpt lat="34.299404285045775" lon="108.70583340973192">
        <ele>391.84567484725267</ele>
        <time>2026-08-20T23:23:21Z</time>
      </trkpt>
      <trkpt lat="34.299395663085214" lon="108.70615097897284">
        <ele>389.6663393005729</ele>
        <time>2026-08-20T23:23:36Z</time>
      </trkpt>
      <trkpt lat="34.29943315874972" lon="108.70633287137862">
        <ele>389.6410910980776</ele>
        <time>2026-08-20T23:23:45Z</time>
      </trkpt>
      <trkpt lat="34.29946911933365" lon="108.70641381348705">
        <ele>390.71386001538485</ele>
        <time>2026-08-20T23:23:51Z</time>
      </trkpt>
      <trkpt lat="34.299468899566676" lon="108.70674772846648">
        <ele>390.0990004763007</ele>
        <time>2026-08-20T23:24:09Z</time>
      </trkpt>
      <trkpt lat="34.299503080534905" lon="108.70689392450836">
        <ele>390.6995327491313</ele>
        <time>2026-08-20T23:24:16Z</time>
      </trkpt>
      <trkpt lat="34.29954764409164" lon="108.70691902905493">
        <ele>390.80885750520974</ele>
        <time>2026-08-20T23:24:24Z</time>
      </trkpt>
      <trkpt lat="34.29961653369211" lon="108.70706929341452">
        <ele>390.7283833567053</ele>
        <time>2026-08-20T23:24:31Z</time>
      </trkpt>
      <trkpt lat="34.29961215456606" lon="108.70713650244245">
        <ele>390.68438638187945</ele>
        <time>2026-08-20T23:24:34Z</time>
      </trkpt>
      <trkpt lat="34.299522418083214" lon="108.70724112778247">
        <ele>389.81180289853364</ele>
        <time>2026-08-20T23:24:40Z</time>
      </trkpt>
      <trkpt lat="34.299496332610964" lon="108.70759925342884">
        <ele>390.34697653818876</ele>
        <time>2026-08-20T23:24:55Z</time>
      </trkpt>
      <trkpt lat="34.29951455970495" lon="108.70787969031933">
        <ele>389.35529789701104</ele>
        <time>2026-08-20T23:25:07Z</time>
      </trkpt>
      <trkpt lat="34.299573815977794" lon="108.7080690188035">
        <ele>390.1044072313234</ele>
        <time>2026-08-20T23:25:16Z</time>
      </trkpt>
      <trkpt lat="34.299600289175245" lon="108.70822791662683">
        <ele>390.8309747604653</ele>
        <time>2026-08-20T23:25:25Z</time>
      </trkpt>
      <trkpt lat="34.29962849885358" lon="108.70830750797755">
        <ele>391.02853173483163</ele>
        <time>2026-08-20T23:25:31Z</time>
      </trkpt>
      <trkpt lat="34.299581049802626" lon="108.70835707137941">
        <ele>390.83534546289593</ele>
        <time>2026-08-20T23:25:37Z</time>
      </trkpt>
      <trkpt lat="34.29950657285945" lon="108.70836500110234">
        <ele>391.48761414550245</ele>
        <time>2026-08-20T23:25:43Z</time>
      </trkpt>
      <trkpt lat="34.29951040142374" lon="108.70843997651717">
        <ele>392.3164803534746</ele>
        <time>2026-08-20T23:25:49Z</time>
      </trkpt>
      <trkpt lat="34.299632568348024" lon="108.70847806892584">
        <ele>390.3387251859531</ele>
        <time>2026-08-20T23:26:04Z</time>
      </trkpt>
      <trkpt lat="34.29961760829376" lon="108.70855822651656">
        <ele>390.44053442403674</ele>
        <time>2026-08-20T23:26:10Z</time>
      </trkpt>
      <trkpt lat="34.29964057646707" lon="108.70862556561539">
        <ele>390.94186244066805</ele>
        <time>2026-08-20T23:26:13Z</time>
      </trkpt>
      <trkpt lat="34.29966453182017" lon="108.70898537893909">
        <ele>390.11967091448605</ele>
        <time>2026-08-20T23:26:29Z</time>
      </trkpt>
      <trkpt lat="34.299685651608485" lon="108.70926189623131">
        <ele>390.2225561151281</ele>
        <time>2026-08-20T23:26:41Z</time>
      </trkpt>
      <trkpt lat="34.2997189208092" lon="108.70940606047284">
        <ele>390.9136404711753</ele>
        <time>2026-08-20T23:26:47Z</time>
      </trkpt>
      <trkpt lat="34.29971156564605" lon="108.70946333457744">
        <ele>390.13768516201526</ele>
        <time>2026-08-20T23:26:50Z</time>
      </trkpt>
      <trkpt lat="34.29977895607868" lon="108.70955694331728">
        <ele>390.10605338495225</ele>
        <time>2026-08-20T23:26:56Z</time>
      </trkpt>
      <trkpt lat="34.29978572554961" lon="108.70963134011242">
        <ele>389.81205195281655</ele>
        <time>2026-08-20T23:26:59Z</time>
      </trkpt>
      <trkpt lat="34.299764613056084" lon="108.70970246755734">
        <ele>389.35760609805584</ele>
        <time>2026-08-20T23:27:02Z</time>
      </trkpt>
      <trkpt lat="34.29976930122527" lon="108.70979978545643">
        <ele>390.1287529086694</ele>
        <time>2026-08-20T23:27:08Z</time>
      </trkpt>
      <trkpt lat="34.29980399753312" lon="108.70986497041305">
        <ele>390.02935411036015</ele>
        <time>2026-08-20T23:27:17Z</time>
      </trkpt>
      <trkpt lat="34.29978324004881" lon="108.710054955686">
        <ele>390.9319109451026</ele>
        <time>2026-08-20T23:27:29Z</time>
      </trkpt>
      <trkpt lat="34.29983892321048" lon="108.71024657582186">
        <ele>389.82606168091297</ele>
        <time>2026-08-20T23:27:41Z</time>
      </trkpt>
      <trkpt lat="34.29982164612811" lon="108.71034184861355">
        <ele>390.9197070207447</ele>
        <time>2026-08-20T23:27:47Z</time>
      </trkpt>
      <trkpt lat="34.2997591983283" lon="108.71039558300016">
        <ele>390.3255907641724</ele>
        <time>2026-08-20T23:27:53Z</time>
      </trkpt>
      <trkpt lat="34.299736234825005" lon="108.71044656773925">
        <ele>391.4028355330229</ele>
        <time>2026-08-20T23:27:56Z</time>
      </trkpt>
      <trkpt lat="34.29953699664734" lon="108.71057535248457">
        <ele>393.28901666402817</ele>
        <time>2026-08-20T23:28:11Z</time>
      </trkpt>
      <trkpt lat="34.29947244792779" lon="108.71064206143261">
        <ele>394.33170455135405</ele>
        <time>2026-08-20T23:28:17Z</time>
      </trkpt>
      <trkpt lat="34.29947471225362" lon="108.71080781496033">
        <ele>392.5721911517903</ele>
        <time>2026-08-20T23:28:27Z</time>
      </trkpt>
      <trkpt lat="34.29943006271972" lon="108.71083246427744">
        <ele>392.6812103977427</ele>
        <time>2026-08-20T23:28:30Z</time>
      </trkpt>
      <trkpt lat="34.29937789283614" lon="108.7108379330238">
        <ele>391.79302862193435</ele>
        <time>2026-08-20T23:29:15Z</time>
      </trkpt>
      <trkpt lat="34.29923438002561" lon="108.71091958108214">
        <ele>391.2177562834695</ele>
        <time>2026-08-20T23:29:27Z</time>
      </trkpt>
      <trkpt lat="34.29890548131461" lon="108.71105467189719">
        <ele>390.5963819436729</ele>
        <time>2026-08-20T23:29:51Z</time>
      </trkpt>
      <trkpt lat="34.29862584127101" lon="108.71116728479282">
        <ele>389.52287202328444</ele>
        <time>2026-08-20T23:30:12Z</time>
      </trkpt>
      <trkpt lat="34.29834413703972" lon="108.71130179005891">
        <ele>389.95011881459504</ele>
        <time>2026-08-20T23:30:34Z</time>
      </trkpt>
      <trkpt lat="34.29830201987237" lon="108.71132621526021">
        <ele>390.36842156760395</ele>
        <time>2026-08-20T23:30:37Z</time>
      </trkpt>
      <trkpt lat="34.29822275471763" lon="108.71133676233491">
        <ele>389.5664133336395</ele>
        <time>2026-08-20T23:30:43Z</time>
      </trkpt>
      <trkpt lat="34.29815881468846" lon="108.71126752030979">
        <ele>390.1669897446409</ele>
        <time>2026-08-20T23:30:49Z</time>
      </trkpt>
      <trkpt lat="34.298071477652556" lon="108.71091709344081">
        <ele>388.58877268154174</ele>
        <time>2026-08-20T23:31:07Z</time>
      </trkpt>
      <trkpt lat="34.298003911094725" lon="108.71055430835563">
        <ele>388.21935031283647</ele>
        <time>2026-08-20T23:31:28Z</time>
      </trkpt>
      <trkpt lat="34.29798394784077" lon="108.7104516923023">
        <ele>388.46494978573173</ele>
        <time>2026-08-20T23:31:34Z</time>
      </trkpt>
      <trkpt lat="34.29799197234446" lon="108.71038638885842">
        <ele>388.35754642263055</ele>
        <time>2026-08-20T23:31:37Z</time>
      </trkpt>
      <trkpt lat="34.2979641471063" lon="108.71033110576643">
        <ele>388.28217722103</ele>
        <time>2026-08-20T23:31:40Z</time>
      </trkpt>
      <trkpt lat="34.297950266402424" lon="108.71017341791678">
        <ele>388.00820401869714</ele>
        <time>2026-08-20T23:31:49Z</time>
      </trkpt>
      <trkpt lat="34.29774395759673" lon="108.71024628427378">
        <ele>388.16496202442795</ele>
        <time>2026-08-20T23:32:07Z</time>
      </trkpt>
      <trkpt lat="34.2977974730405" lon="108.71048351500686">
        <ele>388.0087386155501</ele>
        <time>2026-08-20T23:32:28Z</time>
      </trkpt>
    </trkseg>
  </trk>
</gpx>