<?xml version="1.0" encoding="UTF-8"?>
<gpx xmlns="http://www.topografix.com/GPX/1/1" xmlns:gpxtpx="http://www.garmin.com/xmlschemas/TrackPointExtension/v1" xmlns:xsi="http://www.w3.org/2001/XMLSchema-instance" xsi:schemaLocation="http://www.topografix.com/GPX/1/1 http://www.topografix.com/GPX/1/1/gpx.xsd" version="1.1" creator="gpx.py -- https://github.com/tkrajina/gpxpy">
  <trk>
    <name>gpx from keep</name>
    <type>Run</type>
    <trkseg>
      <trkpt lat="34.29763278818025" lon="108.71043445591101">
        <ele>415.5700912475586</ele>
        <time>2026-08-25T23:02:28Z</time>
      </trkpt>
      <trkpt lat="34.29764929328118" lon="108.71037745055612">
        <ele>387.44466400146484</ele>
        <time>2026-08-25T23:02:32Z</time>
      </trkpt>
      <trkpt lat="34.297703812433696" lon="108.71033662465547">
        <ele>388.0759506225586</ele>
        <time>2026-08-25T23:02:38Z</time>
      </trkpt>
      <trkpt lat="34.29776100898707" lon="108.71019421111956">
        <ele>390.0351794147864</ele>
        <time>2026-08-25T23:02:44Z</time>
      </trkpt>
      <trkpt lat="34.297945649090046" lon="108.710146321888">
        <ele>390.3183215595782</ele>
        <time>2026-08-25T23:02:53Z</time>
      </trkpt>
      <trkpt lat="34.29800862217327" lon="108.71017180173799">
        <ele>388.5124744400382</ele>
        <time>2026-08-25T23:02:56Z</time>
      </trkpt>
      <trkpt lat="34.29804500237912" lon="108.71024194742463">
        <ele>388.19057511910796</ele>
        <time>2026-08-25T23:02:59Z</time>
      </trkpt>
      <trkpt lat="34.298018037994716" lon="108.71043033819052">
        <ele>389.14297414477915</ele>
        <time>2026-08-25T23:03:05Z</time>
      </trkpt>
      <trkpt lat="34.298077711179985" lon="108.71070503240597">
        <ele>389.61632107105106</ele>
        <time>2026-08-25T23:03:20Z</time>
      </trkpt>
      <trkpt lat="34.298054233554446" lon="108.71076105029019">
        <ele>389.59154196549207</ele>
        <time>2026-08-25T23:03:23Z</time>
      </trkpt>
      <trkpt lat="34.29813104998141" lon="108.71093354165714">
        <ele>389.0189705202356</ele>
        <time>2026-08-25T23:03:32Z</time>
      </trkpt>
      <trkpt lat="34.29816364524166" lon="108.7112764561856">
        <ele>388.6500532021746</ele>
        <time>2026-08-25T23:03:50Z</time>
      </trkpt>
      <trkpt lat="34.2981618191299" lon="108.71138253391152">
        <ele>387.77721929643303</ele>
        <time>2026-08-25T23:03:56Z</time>
      </trkpt>
      <trkpt lat="34.29812075470738" lon="108.71141468072732">
        <ele>388.5358463553712</ele>
        <time>2026-08-25T23:03:59Z</time>
      </trkpt>
      <trkpt lat="34.297988812590724" lon="108.71144564629705">
        <ele>389.36385143827647</ele>
        <time>2026-08-25T23:04:08Z</time>
      </trkpt>
      <trkpt lat="34.29771289467592" lon="108.71157770526312">
        <ele>389.36776707321405</ele>
        <time>2026-08-25T23:04:26Z</time>
      </trkpt>
      <trkpt lat="34.29740734534232" lon="108.71170302189851">
        <ele>390.0032642297447</ele>
        <time>2026-08-25T23:04:46Z</time>
      </trkpt>
      <trkpt lat="34.29712252179851" lon="108.71180145617593">
        <ele>389.01619062386453</ele>
        <time>2026-08-25T23:05:03Z</time>
      </trkpt>
      <trkpt lat="34.29680233378564" lon="108.71194506195964">
        <ele>388.57002381421626</ele>
        <time>2026-08-25T23:05:24Z</time>
      </trkpt>
      <trkpt lat="34.29651451186778" lon="108.71208259081406">
        <ele>388.5840945644304</ele>
        <time>2026-08-25T23:05:42Z</time>
      </trkpt>
      <trkpt lat="34.29646852962593" lon="108.71210456999363">
        <ele>388.77172276191413</ele>
        <time>2026-08-25T23:05:45Z</time>
      </trkpt>
      <trkpt lat="34.29636491521776" lon="108.71208945864593">
        <ele>387.63254571612924</ele>
        <time>2026-08-25T23:05:51Z</time>
      </trkpt>
      <trkpt lat="34.29632240513135" lon="108.71204539332088">
        <ele>387.91617861390114</ele>
        <time>2026-08-25T23:05:54Z</time>
      </trkpt>
      <trkpt lat="34.296278818261825" lon="108.71191572151088">
        <ele>387.7558097578585</ele>
        <time>2026-08-25T23:06:00Z</time>
      </trkpt>
      <trkpt lat="34.29625574963092" lon="108.71152980008306">
        <ele>388.0160407666117</ele>
        <time>2026-08-25T23:06:18Z</time>
      </trkpt>
      <trkpt lat="34.29621474201998" lon="108.71116261781486">
        <ele>390.0310604274273</ele>
        <time>2026-08-25T23:06:36Z</time>
      </trkpt>
      <trkpt lat="34.296197270396625" lon="108.71111103187967">
        <ele>389.80520985554904</ele>
        <time>2026-08-25T23:06:39Z</time>
      </trkpt>
      <trkpt lat="34.296214246844656" lon="108.71105423664775">
        <ele>389.94605880696326</ele>
        <time>2026-08-25T23:06:42Z</time>
      </trkpt>
      <trkpt lat="34.296210842084946" lon="108.71099747150586">
        <ele>389.4302524328232</ele>
        <time>2026-08-25T23:06:46Z</time>
      </trkpt>
      <trkpt lat="34.296130566335094" lon="108.71075675542309">
        <ele>390.1433621561155</ele>
        <time>2026-08-25T23:07:04Z</time>
      </trkpt>
      <trkpt lat="34.2960942855359" lon="108.71041094176479">
        <ele>390.1450584474951</ele>
        <time>2026-08-25T23:07:22Z</time>
      </trkpt>
      <trkpt lat="34.29604400758811" lon="108.71024025228806">
        <ele>390.6291330829263</ele>
        <time>2026-08-25T23:07:31Z</time>
      </trkpt>
      <trkpt lat="34.29602485538985" lon="108.7101199290382">
        <ele>389.99131388869137</ele>
        <time>2026-08-25T23:07:37Z</time>
      </trkpt>
      <trkpt lat="34.29602498755293" lon="108.71000348266676">
        <ele>390.9443738963455</ele>
        <time>2026-08-25T23:07:43Z</time>
      </trkpt>
      <trkpt lat="34.2959967156041" lon="108.70981873433726">
        <ele>390.0069740312174</ele>
        <time>2026-08-25T23:07:52Z</time>
      </trkpt>
      <trkpt lat="34.29598110319983" lon="108.709502218387">
        <ele>390.20581517368555</ele>
        <time>2026-08-25T23:08:07Z</time>
      </trkpt>
      <trkpt lat="34.29595457366396" lon="108.7094403856719">
        <ele>390.8629911560565</ele>
        <time>2026-08-25T23:08:10Z</time>
      </trkpt>
      <trkpt lat="34.295919262843036" lon="108.70910267737285">
        <ele>391.5513596087694</ele>
        <time>2026-08-25T23:08:25Z</time>
      </trkpt>
      <trkpt lat="34.29591958749162" lon="108.70896647756754">
        <ele>389.2569121308625</ele>
        <time>2026-08-25T23:08:31Z</time>
      </trkpt>
      <trkpt lat="34.29586554554516" lon="108.70861606275861">
        <ele>390.1563032409176</ele>
        <time>2026-08-25T23:08:46Z</time>
      </trkpt>
      <trkpt lat="34.29587491380523" lon="108.70855289982858">
        <ele>390.1532291267067</ele>
        <time>2026-08-25T23:08:49Z</time>
      </trkpt>
      <trkpt lat="34.295834928424576" lon="108.70820854044473">
        <ele>389.18409356474876</ele>
        <time>2026-08-25T23:09:04Z</time>
      </trkpt>
      <trkpt lat="34.29579225817926" lon="108.70787221440261">
        <ele>389.0852866843343</ele>
        <time>2026-08-25T23:09:19Z</time>
      </trkpt>
      <trkpt lat="34.29577854322999" lon="108.70767586239613">
        <ele>389.8670107284561</ele>
        <time>2026-08-25T23:09:28Z</time>
      </trkpt>
      <trkpt lat="34.29577467649968" lon="108.70741130909518">
        <ele>389.0008579818532</ele>
        <time>2026-08-25T23:09:40Z</time>
      </trkpt>
      <trkpt lat="34.29578895499872" lon="108.70734009152955">
        <ele>388.65196290425956</ele>
        <time>2026-08-25T23:09:43Z</time>
      </trkpt>
      <trkpt lat="34.29575133702411" lon="108.70701083275004">
        <ele>388.4550944129005</ele>
        <time>2026-08-25T23:09:58Z</time>
      </trkpt>
      <trkpt lat="34.29573992318302" lon="108.70687727179688">
        <ele>388.98818477988243</ele>
        <time>2026-08-25T23:10:04Z</time>
      </trkpt>
      <trkpt lat="34.295698453387615" lon="108.70674598976278">
        <ele>388.40999672561884</ele>
        <time>2026-08-25T23:10:10Z</time>
      </trkpt>
      <trkpt lat="34.295655403794875" lon="108.70638828247611">
        <ele>389.0491923969239</ele>
        <time>2026-08-25T23:10:25Z</time>
      </trkpt>
      <trkpt lat="34.29574525713271" lon="108.70612161060725">
        <ele>387.76162763964385</ele>
        <time>2026-08-25T23:10:37Z</time>
      </trkpt>
      <trkpt lat="34.2957876182479" lon="108.70607349704764">
        <ele>387.06112840678543</ele>
        <time>2026-08-25T23:10:40Z</time>
      </trkpt>
      <trkpt lat="34.296077703631546" lon="108.70600725940058">
        <ele>389.1126294080168</ele>
        <time>2026-08-25T23:10:55Z</time>
      </trkpt>
      <trkpt lat="34.29623139306277" lon="108.70599153226068">
        <ele>389.2816588319838</ele>
        <time>2026-08-25T23:11:03Z</time>
      </trkpt>
      <trkpt lat="34.29647689292966" lon="108.70593261150017">
        <ele>388.77385730389506</ele>
        <time>2026-08-25T23:11:20Z</time>
      </trkpt>
      <trkpt lat="34.29674006709323" lon="108.70593480137332">
        <ele>387.83882915135473</ele>
        <time>2026-08-25T23:11:35Z</time>
      </trkpt>
      <trkpt lat="34.2968456931313" lon="108.70591456040793">
        <ele>387.9217952648178</ele>
        <time>2026-08-25T23:11:41Z</time>
      </trkpt>
      <trkpt lat="34.29689525005459" lon="108.70587995792835">
        <ele>389.16438039019704</ele>
        <time>2026-08-25T23:11:44Z</time>
      </trkpt>
      <trkpt lat="34.29695028488092" lon="108.70589251315864">
        <ele>388.0585465338081</ele>
        <time>2026-08-25T23:11:47Z</time>
      </trkpt>
      <trkpt lat="34.29718028505338" lon="108.7058285246339">
        <ele>387.1910856300965</ele>
        <time>2026-08-25T23:11:59Z</time>
      </trkpt>
      <trkpt lat="34.29750058400556" lon="108.70578221834303">
        <ele>386.8171563213691</ele>
        <time>2026-08-25T23:12:17Z</time>
      </trkpt>
      <trkpt lat="34.29777619903897" lon="108.70573591446899">
        <ele>387.41322685871273</ele>
        <time>2026-08-25T23:12:32Z</time>
      </trkpt>
      <trkpt lat="34.29807101691577" lon="108.70568508412391">
        <ele>387.7651246357709</ele>
        <time>2026-08-25T23:12:47Z</time>
      </trkpt>
      <trkpt lat="34.29833840724583" lon="108.70562964035027">
        <ele>387.11678122729063</ele>
        <time>2026-08-25T23:13:02Z</time>
      </trkpt>
      <trkpt lat="34.29861958209572" lon="108.70556518082445">
        <ele>387.7874125447124</ele>
        <time>2026-08-25T23:13:18Z</time>
      </trkpt>
      <trkpt lat="34.29890973284368" lon="108.70550357289036">
        <ele>389.17186154518276</ele>
        <time>2026-08-25T23:13:42Z</time>
      </trkpt>
      <trkpt lat="34.29916539162504" lon="108.7054613686207">
        <ele>389.51103560626507</ele>
        <time>2026-08-25T23:14:00Z</time>
      </trkpt>
      <trkpt lat="34.299214032687956" lon="108.70547902099959">
        <ele>389.4496172480285</ele>
        <time>2026-08-25T23:14:03Z</time>
      </trkpt>
      <trkpt lat="34.29917909963207" lon="108.70553176473072">
        <ele>388.4234810806811</ele>
        <time>2026-08-25T23:14:06Z</time>
      </trkpt>
      <trkpt lat="34.299126246971156" lon="108.705565575488">
        <ele>387.6393571635708</ele>
        <time>2026-08-25T23:14:09Z</time>
      </trkpt>
      <trkpt lat="34.29906918647029" lon="108.70555287069652">
        <ele>388.3807458989322</ele>
        <time>2026-08-25T23:14:12Z</time>
      </trkpt>
      <trkpt lat="34.29876207779941" lon="108.70563228217911">
        <ele>388.92597518023103</ele>
        <time>2026-08-25T23:14:30Z</time>
      </trkpt>
      <trkpt lat="34.29848633524117" lon="108.70568244964281">
        <ele>388.6236012298614</ele>
        <time>2026-08-25T23:14:48Z</time>
      </trkpt>
      <trkpt lat="34.29818690792539" lon="108.70571532558935">
        <ele>389.2063256939873</ele>
        <time>2026-08-25T23:15:06Z</time>
      </trkpt>
      <trkpt lat="34.2980619943997" lon="108.7057633782869">
        <ele>387.34848523139954</ele>
        <time>2026-08-25T23:15:14Z</time>
      </trkpt>
      <trkpt lat="34.29786955482971" lon="108.7057817612864">
        <ele>387.17080291733146</ele>
        <time>2026-08-25T23:15:25Z</time>
      </trkpt>
      <trkpt lat="34.29782268965623" lon="108.70580475905831">
        <ele>386.90382235497236</ele>
        <time>2026-08-25T23:15:28Z</time>
      </trkpt>
      <trkpt lat="34.29750876432464" lon="108.70585538685773">
        <ele>387.91687055304646</ele>
        <time>2026-08-25T23:15:46Z</time>
      </trkpt>
      <trkpt lat="34.29720066193501" lon="108.70590972237757">
        <ele>388.14731626119465</ele>
        <time>2026-08-25T23:16:07Z</time>
      </trkpt>
      <trkpt lat="34.297083848421615" lon="108.70592051590283">
        <ele>388.1714369170368</ele>
        <time>2026-08-25T23:16:13Z</time>
      </trkpt>
      <trkpt lat="34.29680042713041" lon="108.70598488976997">
        <ele>387.9184187175706</ele>
        <time>2026-08-25T23:16:28Z</time>
      </trkpt>
      <trkpt lat="34.29651835935187" lon="108.70604176594598">
        <ele>387.47436249721795</ele>
        <time>2026-08-25T23:16:43Z</time>
      </trkpt>
      <trkpt lat="34.29620451248989" lon="108.70608498932032">
        <ele>388.73710200283676</ele>
        <time>2026-08-25T23:16:58Z</time>
      </trkpt>
      <trkpt lat="34.29614587243327" lon="108.70609718296694">
        <ele>388.5575352171436</ele>
        <time>2026-08-25T23:17:01Z</time>
      </trkpt>
      <trkpt lat="34.29609126450466" lon="108.70608537522536">
        <ele>388.908133094199</ele>
        <time>2026-08-25T23:17:04Z</time>
      </trkpt>
      <trkpt lat="34.29580424613437" lon="108.70613786162312">
        <ele>389.3410413954407</ele>
        <time>2026-08-25T23:17:21Z</time>
      </trkpt>
      <trkpt lat="34.29576036625633" lon="108.7061234760753">
        <ele>389.12968846410513</ele>
        <time>2026-08-25T23:17:25Z</time>
      </trkpt>
      <trkpt lat="34.295815701477956" lon="108.70607591601036">
        <ele>390.4403629861772</ele>
        <time>2026-08-25T23:17:29Z</time>
      </trkpt>
      <trkpt lat="34.29610713448299" lon="108.70598988453904">
        <ele>389.19619074091315</ele>
        <time>2026-08-25T23:17:53Z</time>
      </trkpt>
      <trkpt lat="34.29624038752808" lon="108.70595327478776">
        <ele>389.6051544761285</ele>
        <time>2026-08-25T23:18:05Z</time>
      </trkpt>
      <trkpt lat="34.296577015144166" lon="108.70591981418572">
        <ele>388.4514580471441</ele>
        <time>2026-08-25T23:18:32Z</time>
      </trkpt>
      <trkpt lat="34.2968611294613" lon="108.7058660590276">
        <ele>388.76687701791525</ele>
        <time>2026-08-25T23:18:56Z</time>
      </trkpt>
      <trkpt lat="34.297103707036996" lon="108.70582935747534">
        <ele>389.6579732550308</ele>
        <time>2026-08-25T23:19:11Z</time>
      </trkpt>
      <trkpt lat="34.29715686302017" lon="108.70584366525871">
        <ele>389.13958022836596</ele>
        <time>2026-08-25T23:19:14Z</time>
      </trkpt>
      <trkpt lat="34.29744094860509" lon="108.70580667961444">
        <ele>388.18922191113234</ele>
        <time>2026-08-25T23:19:32Z</time>
      </trkpt>
      <trkpt lat="34.29759417577052" lon="108.70577604195755">
        <ele>387.80570546351373</ele>
        <time>2026-08-25T23:19:42Z</time>
      </trkpt>
      <trkpt lat="34.297642732743725" lon="108.70578183341816">
        <ele>388.0027246354148</ele>
        <time>2026-08-25T23:19:45Z</time>
      </trkpt>
      <trkpt lat="34.29784988243002" lon="108.7057310303305">
        <ele>387.1863265298307</ele>
        <time>2026-08-25T23:19:57Z</time>
      </trkpt>
      <trkpt lat="34.29790361848298" lon="108.70573190978088">
        <ele>387.59531733673066</ele>
        <time>2026-08-25T23:20:00Z</time>
      </trkpt>
      <trkpt lat="34.297988733415664" lon="108.70569368873218">
        <ele>388.0807599388063</ele>
        <time>2026-08-25T23:20:06Z</time>
      </trkpt>
      <trkpt lat="34.29829125424304" lon="108.70563547647643">
        <ele>388.2452459335327</ele>
        <time>2026-08-25T23:20:24Z</time>
      </trkpt>
      <trkpt lat="34.298598605567385" lon="108.70556464423515">
        <ele>387.8494491763413</ele>
        <time>2026-08-25T23:20:42Z</time>
      </trkpt>
      <trkpt lat="34.298759478606684" lon="108.70552617022055">
        <ele>389.1829115059227</ele>
        <time>2026-08-25T23:20:51Z</time>
      </trkpt>
      <trkpt lat="34.29888152459122" lon="108.70552518509345">
        <ele>389.38246073015034</ele>
        <time>2026-08-25T23:20:57Z</time>
      </trkpt>
      <trkpt lat="34.29903964722595" lon="108.70546854766481">
        <ele>391.1382936835289</ele>
        <time>2026-08-25T23:21:09Z</time>
      </trkpt>
      <trkpt lat="34.29916988319232" lon="108.70546001695156">
        <ele>390.6248582890257</ele>
        <time>2026-08-25T23:21:21Z</time>
      </trkpt>
      <trkpt lat="34.2993246075532" lon="108.70557864258555">
        <ele>390.47052111197263</ele>
        <time>2026-08-25T23:21:35Z</time>
      </trkpt>
      <trkpt lat="34.299357184508885" lon="108.70569198342903">
        <ele>390.3065451020375</ele>
        <time>2026-08-25T23:21:42Z</time>
      </trkpt>
      <trkpt lat="34.29939398550747" lon="108.70606227737395">
        <ele>389.60714108962566</ele>
        <time>2026-08-25T23:22:03Z</time>
      </trkpt>
      <trkpt lat="34.29939936546335" lon="108.70623719435274">
        <ele>389.19396059028804</ele>
        <time>2026-08-25T23:22:12Z</time>
      </trkpt>
      <trkpt lat="34.29945928420129" lon="108.70660038079608">
        <ele>390.37558813393116</ele>
        <time>2026-08-25T23:22:30Z</time>
      </trkpt>
      <trkpt lat="34.29951163340417" lon="108.70693465844258">
        <ele>391.70650435611606</ele>
        <time>2026-08-25T23:22:55Z</time>
      </trkpt>
      <trkpt lat="34.29951832796515" lon="108.70728306533898">
        <ele>391.31778658088297</ele>
        <time>2026-08-25T23:23:10Z</time>
      </trkpt>
      <trkpt lat="34.29948226776063" lon="108.70748492091613">
        <ele>390.76125240977854</ele>
        <time>2026-08-25T23:23:19Z</time>
      </trkpt>
      <trkpt lat="34.29949489481562" lon="108.70774630074342">
        <ele>389.92113385535777</ele>
        <time>2026-08-25T23:23:31Z</time>
      </trkpt>
      <trkpt lat="34.29956605340764" lon="108.70811273872113">
        <ele>391.9495288114995</ele>
        <time>2026-08-25T23:23:47Z</time>
      </trkpt>
      <trkpt lat="34.29958218995145" lon="108.70823864372075">
        <ele>391.78062868956476</ele>
        <time>2026-08-25T23:23:53Z</time>
      </trkpt>
      <trkpt lat="34.29961876519903" lon="108.7082885804081">
        <ele>391.430094236508</ele>
        <time>2026-08-25T23:23:56Z</time>
      </trkpt>
      <trkpt lat="34.299609818069804" lon="108.70837195292543">
        <ele>391.48391129169613</ele>
        <time>2026-08-25T23:24:02Z</time>
      </trkpt>
      <trkpt lat="34.29963232769624" lon="108.70851833674926">
        <ele>389.57836347911507</ele>
        <time>2026-08-25T23:24:17Z</time>
      </trkpt>
      <trkpt lat="34.299627200045826" lon="108.70867248420974">
        <ele>390.68283809162676</ele>
        <time>2026-08-25T23:24:26Z</time>
      </trkpt>
      <trkpt lat="34.29965670483082" lon="108.70883962186939">
        <ele>390.2746907621622</ele>
        <time>2026-08-25T23:24:35Z</time>
      </trkpt>
      <trkpt lat="34.29968561747688" lon="108.70889311969341">
        <ele>389.1095167985186</ele>
        <time>2026-08-25T23:24:38Z</time>
      </trkpt>
      <trkpt lat="34.29969795219643" lon="108.70895648785576">
        <ele>390.2285179691389</ele>
        <time>2026-08-25T23:24:41Z</time>
      </trkpt>
      <trkpt lat="34.29967870628981" lon="108.7090266408157">
        <ele>390.0874420301989</ele>
        <time>2026-08-25T23:24:44Z</time>
      </trkpt>
      <trkpt lat="34.29970961967358" lon="108.70908358726972">
        <ele>388.8340328913182</ele>
        <time>2026-08-25T23:24:47Z</time>
      </trkpt>
      <trkpt lat="34.29969923606357" lon="108.70915218339307">
        <ele>390.2901816479862</ele>
        <time>2026-08-25T23:24:50Z</time>
      </trkpt>
      <trkpt lat="34.29973646704294" lon="108.70933244132127">
        <ele>390.48821446299553</ele>
        <time>2026-08-25T23:24:59Z</time>
      </trkpt>
      <trkpt lat="34.29987366612307" lon="108.70946920907845">
        <ele>392.70276363007724</ele>
        <time>2026-08-25T23:25:08Z</time>
      </trkpt>
      <trkpt lat="34.29979792425647" lon="108.70971799350382">
        <ele>390.7338510835543</ele>
        <time>2026-08-25T23:25:17Z</time>
      </trkpt>
      <trkpt lat="34.29983721963383" lon="108.70984994544257">
        <ele>391.1742007769644</ele>
        <time>2026-08-25T23:25:23Z</time>
      </trkpt>
      <trkpt lat="34.299821323912816" lon="108.70999681733417">
        <ele>392.1031422941014</ele>
        <time>2026-08-25T23:25:29Z</time>
      </trkpt>
      <trkpt lat="34.29984726934619" lon="108.71018777234437">
        <ele>390.63316548988223</ele>
        <time>2026-08-25T23:25:42Z</time>
      </trkpt>
      <trkpt lat="34.29984276170137" lon="108.71029194577028">
        <ele>391.358027247712</ele>
        <time>2026-08-25T23:25:48Z</time>
      </trkpt>
      <trkpt lat="34.299684742799386" lon="108.71050234408855">
        <ele>391.74006511922926</ele>
        <time>2026-08-25T23:26:06Z</time>
      </trkpt>
      <trkpt lat="34.2995556476507" lon="108.71056093372572">
        <ele>391.31677393149585</ele>
        <time>2026-08-25T23:26:18Z</time>
      </trkpt>
      <trkpt lat="34.299491407267354" lon="108.71063234202406">
        <ele>391.78842446487397</ele>
        <time>2026-08-25T23:26:24Z</time>
      </trkpt>
      <trkpt lat="34.29948358984891" lon="108.710807479846">
        <ele>392.0704176966101</ele>
        <time>2026-08-25T23:26:36Z</time>
      </trkpt>
      <trkpt lat="34.29943624478074" lon="108.7108186767706">
        <ele>392.2237747060135</ele>
        <time>2026-08-25T23:26:39Z</time>
      </trkpt>
      <trkpt lat="34.299390443592976" lon="108.71086427687936">
        <ele>392.83069967105985</ele>
        <time>2026-08-25T23:27:46Z</time>
      </trkpt>
      <trkpt lat="34.29906609091312" lon="108.7109820931499">
        <ele>390.91143972985446</ele>
        <time>2026-08-25T23:28:10Z</time>
      </trkpt>
      <trkpt lat="34.29902948175793" lon="108.71101839600776">
        <ele>389.99383423198014</ele>
        <time>2026-08-25T23:28:13Z</time>
      </trkpt>
      <trkpt lat="34.29889112959546" lon="108.71106030469417">
        <ele>390.49037983547896</ele>
        <time>2026-08-25T23:28:25Z</time>
      </trkpt>
      <trkpt lat="34.29859459285526" lon="108.71118352248507">
        <ele>389.73462792579085</ele>
        <time>2026-08-25T23:28:49Z</time>
      </trkpt>
      <trkpt lat="34.29848077034286" lon="108.7112230001702">
        <ele>388.99586060177535</ele>
        <time>2026-08-25T23:28:58Z</time>
      </trkpt>
      <trkpt lat="34.29822195092061" lon="108.71138172284131">
        <ele>389.80751460418105</ele>
        <time>2026-08-25T23:29:19Z</time>
      </trkpt>
      <trkpt lat="34.298177890135015" lon="108.7113524842879">
        <ele>388.95227505173534</ele>
        <time>2026-08-25T23:29:22Z</time>
      </trkpt>
      <trkpt lat="34.298149831520185" lon="108.71113490799848">
        <ele>387.7009092308581</ele>
        <time>2026-08-25T23:29:31Z</time>
      </trkpt>
      <trkpt lat="34.298100695422214" lon="108.7110771206551">
        <ele>389.8308770218864</ele>
        <time>2026-08-25T23:29:37Z</time>
      </trkpt>
      <trkpt lat="34.2980368665771" lon="108.71076010240857">
        <ele>389.1574315400794</ele>
        <time>2026-08-25T23:29:57Z</time>
      </trkpt>
      <trkpt lat="34.2979865038241" lon="108.71063498725624">
        <ele>389.2001373767853</ele>
        <time>2026-08-25T23:30:05Z</time>
      </trkpt>
      <trkpt lat="34.29798992128243" lon="108.7103640311776">
        <ele>387.8630771506578</ele>
        <time>2026-08-25T23:30:23Z</time>
      </trkpt>
      <trkpt lat="34.2980140756511" lon="108.71031414603462">
        <ele>387.6440415298566</ele>
        <time>2026-08-25T23:30:26Z</time>
      </trkpt>
      <trkpt lat="34.298013971016935" lon="108.71021435138566">
        <ele>387.72028160467744</ele>
        <time>2026-08-25T23:30:32Z</time>
      </trkpt>
      <trkpt lat="34.297979677034064" lon="108.71016894881647">
        <ele>388.0474167643115</ele>
        <time>2026-08-25T23:30:38Z</time>
      </trkpt>
      <trkpt lat="34.29778245527889" lon="108.71023399883683">
        <ele>388.2282471721992</ele>
        <time>2026-08-25T23:30:53Z</time>
      </trkpt>
      <trkpt lat="34.29776730694823" lon="108.71029875362615">
        <ele>387.3597151944414</ele>
        <time>2026-08-25T23:30:59Z</time>
      </trkpt>
      <trkpt lat="34.29781979777916" lon="108.71045403795112">
        <ele>388.06617306917906</ele>
        <time>2026-08-25T23:31:11Z</time>
      </trkpt>
      <trkpt lat="34.29769581486262" lon="108.71035414453384">
        <ele>393.15289299485744</ele>
        <time>2026-08-25T23:31:37Z</time>
      </trkpt>
    </trkseg>
  </trk>
</gpx>