<?xml version="1.0" encoding="UTF-8"?>
<gpx xmlns="http://www.topografix.com/GPX/1/1" xmlns:gpxtpx="http://www.garmin.com/xmlschemas/TrackPointExtension/v1" xmlns:xsi="http://www.w3.org/2001/XMLSchema-instance" xsi:schemaLocation="http://www.topografix.com/GPX/1/1 http://www.topografix.com/GPX/1/1/gpx.xsd" version="1.1" creator="gpx.py -- https://github.com/tkrajina/gpxpy">
  <trk>
    <name>gpx from keep</name>
    <type>Run</type>
    <trkseg>
      <trkpt lat="34.32885198086326" lon="108.97619445940974">
        <ele>396.28076183702797</ele>
        <time>2026-09-25T00:49:19Z</time>
      </trkpt>
      <trkpt lat="34.328865468773245" lon="108.97627559899159">
        <ele>395.74621600471437</ele>
        <time>2026-09-25T00:49:23Z</time>
      </trkpt>
      <trkpt lat="34.328852124760886" lon="108.9763307062285">
        <ele>395.4846194218844</ele>
        <time>2026-09-25T00:49:26Z</time>
      </trkpt>
      <trkpt lat="34.32888714988284" lon="108.97637034621752">
        <ele>395.04772969149053</ele>
        <time>2026-09-25T00:49:30Z</time>
      </trkpt>
      <trkpt lat="34.32897162242929" lon="108.97639210837497">
        <ele>394.2115480611101</ele>
        <time>2026-09-25T00:49:36Z</time>
      </trkpt>
      <trkpt lat="34.32902272506613" lon="108.97637383881501">
        <ele>395.3226305656135</ele>
        <time>2026-09-25T00:49:43Z</time>
      </trkpt>
      <trkpt lat="34.32934270378129" lon="108.97641083220223">
        <ele>395.882406225428</ele>
        <time>2026-09-25T00:49:59Z</time>
      </trkpt>
      <trkpt lat="34.329653106881594" lon="108.97641484871207">
        <ele>395.3565838718787</ele>
        <time>2026-09-25T00:50:12Z</time>
      </trkpt>
      <trkpt lat="34.3297974692161" lon="108.97637790624519">
        <ele>395.20962923020124</ele>
        <time>2026-09-25T00:50:20Z</time>
      </trkpt>
      <trkpt lat="34.32992141108115" lon="108.97623576567166">
        <ele>394.9454167429358</ele>
        <time>2026-09-25T00:50:28Z</time>
      </trkpt>
      <trkpt lat="34.329981745351155" lon="108.976138431687">
        <ele>394.1711149821058</ele>
        <time>2026-09-25T00:50:34Z</time>
      </trkpt>
      <trkpt lat="34.330040550288224" lon="108.97608711122199">
        <ele>394.8584318952635</ele>
        <time>2026-09-25T00:50:38Z</time>
      </trkpt>
      <trkpt lat="34.3301947510702" lon="108.97607421512156">
        <ele>395.1395917069167</ele>
        <time>2026-09-25T00:50:46Z</time>
      </trkpt>
      <trkpt lat="34.33044964529018" lon="108.97611218159655">
        <ele>393.6450879499316</ele>
        <time>2026-09-25T00:51:00Z</time>
      </trkpt>
      <trkpt lat="34.33058372052964" lon="108.97611771236788">
        <ele>394.46726827323437</ele>
        <time>2026-09-25T00:51:07Z</time>
      </trkpt>
      <trkpt lat="34.33065171895055" lon="108.97609994483595">
        <ele>393.2047931086272</ele>
        <time>2026-09-25T00:51:10Z</time>
      </trkpt>
      <trkpt lat="34.33085137600975" lon="108.97614128615459">
        <ele>394.2872052853927</ele>
        <time>2026-09-25T00:51:23Z</time>
      </trkpt>
      <trkpt lat="34.330896219448924" lon="108.97616834510512">
        <ele>394.242118996568</ele>
        <time>2026-09-25T00:51:26Z</time>
      </trkpt>
      <trkpt lat="34.330952991097" lon="108.97617487736481">
        <ele>394.18380494229496</ele>
        <time>2026-09-25T00:51:29Z</time>
      </trkpt>
      <trkpt lat="34.33102958130543" lon="108.97614771884604">
        <ele>394.1574744777754</ele>
        <time>2026-09-25T00:51:35Z</time>
      </trkpt>
      <trkpt lat="34.331339975607" lon="108.97615123911804">
        <ele>395.42896461486816</ele>
        <time>2026-09-25T00:51:56Z</time>
      </trkpt>
      <trkpt lat="34.331434212974806" lon="108.97615946229823">
        <ele>395.38226292002946</ele>
        <time>2026-09-25T00:52:02Z</time>
      </trkpt>
      <trkpt lat="34.33149133008879" lon="108.97619346448394">
        <ele>395.16554624028504</ele>
        <time>2026-09-25T00:52:05Z</time>
      </trkpt>
      <trkpt lat="34.33172608343963" lon="108.97617037303611">
        <ele>396.2925336966291</ele>
        <time>2026-09-25T00:52:17Z</time>
      </trkpt>
      <trkpt lat="34.331898836475546" lon="108.97592339546311">
        <ele>394.6690056407824</ele>
        <time>2026-09-25T00:52:32Z</time>
      </trkpt>
      <trkpt lat="34.3319459491142" lon="108.97590758559657">
        <ele>394.05372196622193</ele>
        <time>2026-09-25T00:52:35Z</time>
      </trkpt>
      <trkpt lat="34.332229141691876" lon="108.97592369911473">
        <ele>392.3885030215606</ele>
        <time>2026-09-25T00:52:50Z</time>
      </trkpt>
      <trkpt lat="34.33248700106546" lon="108.97592935003185">
        <ele>392.6424313886091</ele>
        <time>2026-09-25T00:53:05Z</time>
      </trkpt>
      <trkpt lat="34.33259784665214" lon="108.97597277190457">
        <ele>393.02117582503706</ele>
        <time>2026-09-25T00:53:11Z</time>
      </trkpt>
      <trkpt lat="34.332643644711446" lon="108.97602316797146">
        <ele>393.47265602555126</ele>
        <time>2026-09-25T00:53:14Z</time>
      </trkpt>
      <trkpt lat="34.33267071626544" lon="108.97608916973358">
        <ele>392.4611095385626</ele>
        <time>2026-09-25T00:53:17Z</time>
      </trkpt>
      <trkpt lat="34.33271753759085" lon="108.97613548877833">
        <ele>392.7251396663487</ele>
        <time>2026-09-25T00:53:20Z</time>
      </trkpt>
      <trkpt lat="34.33284526208758" lon="108.97616806908067">
        <ele>392.902913027443</ele>
        <time>2026-09-25T00:53:27Z</time>
      </trkpt>
      <trkpt lat="34.333146997516295" lon="108.97618598754384">
        <ele>393.10578836034983</ele>
        <time>2026-09-25T00:53:43Z</time>
      </trkpt>
      <trkpt lat="34.333267511234155" lon="108.97620245689538">
        <ele>393.21262781508267</ele>
        <time>2026-09-25T00:53:51Z</time>
      </trkpt>
      <trkpt lat="34.333564937407296" lon="108.97617984040602">
        <ele>393.7467252416536</ele>
        <time>2026-09-25T00:54:09Z</time>
      </trkpt>
      <trkpt lat="34.333682580260295" lon="108.97619301074441">
        <ele>393.7523906296119</ele>
        <time>2026-09-25T00:54:15Z</time>
      </trkpt>
      <trkpt lat="34.33373746762397" lon="108.97622343199521">
        <ele>393.7032323917374</ele>
        <time>2026-09-25T00:54:18Z</time>
      </trkpt>
      <trkpt lat="34.334019836187046" lon="108.97624871264946">
        <ele>392.3020427701995</ele>
        <time>2026-09-25T00:54:33Z</time>
      </trkpt>
      <trkpt lat="34.33429057526292" lon="108.9762697377223">
        <ele>391.54205798264593</ele>
        <time>2026-09-25T00:54:48Z</time>
      </trkpt>
      <trkpt lat="34.33456297142136" lon="108.97628783581236">
        <ele>391.8279492659494</ele>
        <time>2026-09-25T00:55:03Z</time>
      </trkpt>
      <trkpt lat="34.33461694444355" lon="108.97629329872599">
        <ele>392.3967581456527</ele>
        <time>2026-09-25T00:55:06Z</time>
      </trkpt>
      <trkpt lat="34.334660474200476" lon="108.97632595850229">
        <ele>392.2053594784811</ele>
        <time>2026-09-25T00:55:09Z</time>
      </trkpt>
      <trkpt lat="34.33473730145772" lon="108.97645013517258">
        <ele>391.54615308716893</ele>
        <time>2026-09-25T00:55:15Z</time>
      </trkpt>
      <trkpt lat="34.33483165531371" lon="108.9765142063056">
        <ele>391.6703995130956</ele>
        <time>2026-09-25T00:55:21Z</time>
      </trkpt>
      <trkpt lat="34.33495072212939" lon="108.97652691829406">
        <ele>391.9038400547579</ele>
        <time>2026-09-25T00:55:27Z</time>
      </trkpt>
      <trkpt lat="34.335025173852095" lon="108.97650507776045">
        <ele>392.09388162288815</ele>
        <time>2026-09-25T00:55:31Z</time>
      </trkpt>
      <trkpt lat="34.335138075463284" lon="108.97635332243297">
        <ele>391.30854489747435</ele>
        <time>2026-09-25T00:55:39Z</time>
      </trkpt>
      <trkpt lat="34.33521735539247" lon="108.97631345223347">
        <ele>392.02166958060116</ele>
        <time>2026-09-25T00:55:43Z</time>
      </trkpt>
      <trkpt lat="34.33549108436459" lon="108.97635645330296">
        <ele>391.2186603974551</ele>
        <time>2026-09-25T00:55:58Z</time>
      </trkpt>
      <trkpt lat="34.335664510487966" lon="108.9763659606139">
        <ele>392.9012918761</ele>
        <time>2026-09-25T00:56:07Z</time>
      </trkpt>
      <trkpt lat="34.335725727945984" lon="108.97641254971545">
        <ele>393.7813617810607</ele>
        <time>2026-09-25T00:56:10Z</time>
      </trkpt>
      <trkpt lat="34.33599910543059" lon="108.97640100721988">
        <ele>390.91657483484596</ele>
        <time>2026-09-25T00:56:25Z</time>
      </trkpt>
      <trkpt lat="34.336303670644725" lon="108.97639887101869">
        <ele>391.18941330257803</ele>
        <time>2026-09-25T00:56:43Z</time>
      </trkpt>
      <trkpt lat="34.336431347356104" lon="108.97639792238989">
        <ele>390.57458230666816</ele>
        <time>2026-09-25T00:56:49Z</time>
      </trkpt>
      <trkpt lat="34.33670456119325" lon="108.97644747828765">
        <ele>391.19134565629065</ele>
        <time>2026-09-25T00:57:07Z</time>
      </trkpt>
      <trkpt lat="34.33675746175325" lon="108.97644621862717">
        <ele>390.82950255367905</ele>
        <time>2026-09-25T00:57:10Z</time>
      </trkpt>
      <trkpt lat="34.336817235415324" lon="108.97646819934411">
        <ele>389.4170400509611</ele>
        <time>2026-09-25T00:57:13Z</time>
      </trkpt>
      <trkpt lat="34.33707167381973" lon="108.97644883391051">
        <ele>390.3235117960721</ele>
        <time>2026-09-25T00:57:28Z</time>
      </trkpt>
      <trkpt lat="34.337396317978595" lon="108.97647963506147">
        <ele>389.7524610972032</ele>
        <time>2026-09-25T00:57:46Z</time>
      </trkpt>
      <trkpt lat="34.337717596565966" lon="108.97649425983727">
        <ele>390.3035641852766</ele>
        <time>2026-09-25T00:58:04Z</time>
      </trkpt>
      <trkpt lat="34.337987849510775" lon="108.97650367368152">
        <ele>390.48503710888326</ele>
        <time>2026-09-25T00:58:19Z</time>
      </trkpt>
      <trkpt lat="34.33827258477356" lon="108.97649326438669">
        <ele>391.02126660291106</ele>
        <time>2026-09-25T00:58:34Z</time>
      </trkpt>
      <trkpt lat="34.33849908565023" lon="108.97647547449866">
        <ele>391.0609099417925</ele>
        <time>2026-09-25T00:58:46Z</time>
      </trkpt>
      <trkpt lat="34.33855823948515" lon="108.97645616764214">
        <ele>391.7003044458106</ele>
        <time>2026-09-25T00:58:49Z</time>
      </trkpt>
      <trkpt lat="34.338839655312036" lon="108.97643058197009">
        <ele>390.36238603759557</ele>
        <time>2026-09-25T00:59:04Z</time>
      </trkpt>
      <trkpt lat="34.33911721189438" lon="108.97635121708667">
        <ele>389.8518375987187</ele>
        <time>2026-09-25T00:59:19Z</time>
      </trkpt>
      <trkpt lat="34.33942787425462" lon="108.97625484871675">
        <ele>390.3234904780984</ele>
        <time>2026-09-25T00:59:37Z</time>
      </trkpt>
      <trkpt lat="34.33976161689574" lon="108.97613530151298">
        <ele>390.6602657418698</ele>
        <time>2026-09-25T00:59:56Z</time>
      </trkpt>
      <trkpt lat="34.340031256898584" lon="108.97603425141183">
        <ele>390.43405004311353</ele>
        <time>2026-09-25T01:00:11Z</time>
      </trkpt>
      <trkpt lat="34.340304064558474" lon="108.97593838913824">
        <ele>389.84819025639445</ele>
        <time>2026-09-25T01:00:26Z</time>
      </trkpt>
      <trkpt lat="34.34057159530583" lon="108.97583528337523">
        <ele>388.5882435310632</ele>
        <time>2026-09-25T01:00:41Z</time>
      </trkpt>
      <trkpt lat="34.34085858897234" lon="108.97573599853865">
        <ele>388.05653901956975</ele>
        <time>2026-09-25T01:00:56Z</time>
      </trkpt>
      <trkpt lat="34.3411519915743" lon="108.9756519415733">
        <ele>387.8291086954996</ele>
        <time>2026-09-25T01:01:11Z</time>
      </trkpt>
      <trkpt lat="34.34143835998431" lon="108.97554392353547">
        <ele>386.51938289310783</ele>
        <time>2026-09-25T01:01:26Z</time>
      </trkpt>
      <trkpt lat="34.34172053882149" lon="108.97544052618795">
        <ele>386.3269705446437</ele>
        <time>2026-09-25T01:01:41Z</time>
      </trkpt>
      <trkpt lat="34.34203434292247" lon="108.97529636155946">
        <ele>385.7276654057205</ele>
        <time>2026-09-25T01:01:58Z</time>
      </trkpt>
      <trkpt lat="34.342335260162436" lon="108.97519464247189">
        <ele>385.3287258306518</ele>
        <time>2026-09-25T01:02:14Z</time>
      </trkpt>
      <trkpt lat="34.34261413582919" lon="108.97509112475834">
        <ele>384.61548755597323</ele>
        <time>2026-09-25T01:02:29Z</time>
      </trkpt>
      <trkpt lat="34.342905736999015" lon="108.97496278823448">
        <ele>385.98280113283545</ele>
        <time>2026-09-25T01:02:44Z</time>
      </trkpt>
      <trkpt lat="34.34301680437885" lon="108.97490567549465">
        <ele>385.76487699802965</ele>
        <time>2026-09-25T01:02:50Z</time>
      </trkpt>
      <trkpt lat="34.34305923317756" lon="108.97486477950612">
        <ele>384.7667944608256</ele>
        <time>2026-09-25T01:02:53Z</time>
      </trkpt>
      <trkpt lat="34.34316747333505" lon="108.97453463382551">
        <ele>384.83040874358267</ele>
        <time>2026-09-25T01:03:08Z</time>
      </trkpt>
      <trkpt lat="34.34332337773228" lon="108.97443708586613">
        <ele>384.97907176148146</ele>
        <time>2026-09-25T01:03:17Z</time>
      </trkpt>
      <trkpt lat="34.343559975690816" lon="108.97435669884416">
        <ele>384.83918628748506</ele>
        <time>2026-09-25T01:03:29Z</time>
      </trkpt>
      <trkpt lat="34.343605707473145" lon="108.97431837618768">
        <ele>385.13264193665236</ele>
        <time>2026-09-25T01:03:35Z</time>
      </trkpt>
      <trkpt lat="34.34389355130749" lon="108.97422381459906">
        <ele>384.1965991416946</ele>
        <time>2026-09-25T01:03:57Z</time>
      </trkpt>
      <trkpt lat="34.34370615663319" lon="108.97429292895507">
        <ele>384.97216623369604</ele>
        <time>2026-09-25T01:04:12Z</time>
      </trkpt>
      <trkpt lat="34.343640571230516" lon="108.97434112571328">
        <ele>384.77953385189176</ele>
        <time>2026-09-25T01:04:18Z</time>
      </trkpt>
      <trkpt lat="34.34347228210949" lon="108.97439220574866">
        <ele>384.6992666963488</ele>
        <time>2026-09-25T01:04:30Z</time>
      </trkpt>
      <trkpt lat="34.343439287578924" lon="108.97443298255163">
        <ele>384.95759058743715</ele>
        <time>2026-09-25T01:04:33Z</time>
      </trkpt>
      <trkpt lat="34.34337585414933" lon="108.9748380554061">
        <ele>383.88066734652966</ele>
        <time>2026-09-25T01:04:51Z</time>
      </trkpt>
      <trkpt lat="34.34340661375715" lon="108.9750379046665">
        <ele>384.48163268342614</ele>
        <time>2026-09-25T01:05:00Z</time>
      </trkpt>
      <trkpt lat="34.34343759100958" lon="108.97512063384121">
        <ele>385.01282805018127</ele>
        <time>2026-09-25T01:05:06Z</time>
      </trkpt>
      <trkpt lat="34.343491029632446" lon="108.97519141211575">
        <ele>385.41529207117856</ele>
        <time>2026-09-25T01:05:12Z</time>
      </trkpt>
      <trkpt lat="34.34356034328269" lon="108.97524304543191">
        <ele>385.57085950952023</ele>
        <time>2026-09-25T01:05:18Z</time>
      </trkpt>
      <trkpt lat="34.34369560786872" lon="108.97528036034473">
        <ele>385.09280013944954</ele>
        <time>2026-09-25T01:05:27Z</time>
      </trkpt>
      <trkpt lat="34.343965862257306" lon="108.97520079297662">
        <ele>385.2002280447632</ele>
        <time>2026-09-25T01:05:42Z</time>
      </trkpt>
      <trkpt lat="34.34428136762111" lon="108.9750773401903">
        <ele>385.5891121979803</ele>
        <time>2026-09-25T01:06:01Z</time>
      </trkpt>
      <trkpt lat="34.34454629929755" lon="108.9749806128405">
        <ele>384.8718314804137</ele>
        <time>2026-09-25T01:06:15Z</time>
      </trkpt>
      <trkpt lat="34.34484012678146" lon="108.97486507256917">
        <ele>385.1387204816565</ele>
        <time>2026-09-25T01:06:30Z</time>
      </trkpt>
      <trkpt lat="34.34493588242125" lon="108.97478996590849">
        <ele>384.5961669757962</ele>
        <time>2026-09-25T01:06:36Z</time>
      </trkpt>
      <trkpt lat="34.34502900625078" lon="108.97471136832682">
        <ele>384.57725673075765</ele>
        <time>2026-09-25T01:07:15Z</time>
      </trkpt>
      <trkpt lat="34.34507956633664" lon="108.97460536525753">
        <ele>384.5320496764034</ele>
        <time>2026-09-25T01:07:21Z</time>
      </trkpt>
      <trkpt lat="34.34511675934319" lon="108.97456522870334">
        <ele>384.60224021971226</ele>
        <time>2026-09-25T01:07:24Z</time>
      </trkpt>
      <trkpt lat="34.34525226627188" lon="108.97449932274925">
        <ele>384.2338625136763</ele>
        <time>2026-09-25T01:07:33Z</time>
      </trkpt>
      <trkpt lat="34.34532070932576" lon="108.97443628806109">
        <ele>384.4936746908352</ele>
        <time>2026-09-25T01:07:39Z</time>
      </trkpt>
      <trkpt lat="34.34552442131107" lon="108.97437273196947">
        <ele>384.6922071557492</ele>
        <time>2026-09-25T01:07:51Z</time>
      </trkpt>
      <trkpt lat="34.34558797900359" lon="108.97437063991023">
        <ele>383.9499420784414</ele>
        <time>2026-09-25T01:07:54Z</time>
      </trkpt>
      <trkpt lat="34.34574931516183" lon="108.97428665113019">
        <ele>384.9245577286929</ele>
        <time>2026-09-25T01:08:03Z</time>
      </trkpt>
      <trkpt lat="34.34591290160368" lon="108.97425028102144">
        <ele>383.85287927649915</ele>
        <time>2026-09-25T01:08:13Z</time>
      </trkpt>
      <trkpt lat="34.34596920329759" lon="108.97421554469852">
        <ele>384.34095500968397</ele>
        <time>2026-09-25T01:08:16Z</time>
      </trkpt>
      <trkpt lat="34.34617419544338" lon="108.97415028090091">
        <ele>384.60798449255526</ele>
        <time>2026-09-25T01:08:28Z</time>
      </trkpt>
      <trkpt lat="34.3462250032407" lon="108.97410141754582">
        <ele>385.4650897188112</ele>
        <time>2026-09-25T01:08:31Z</time>
      </trkpt>
      <trkpt lat="34.34628448609164" lon="108.97408767040967">
        <ele>384.53331911563873</ele>
        <time>2026-09-25T01:08:34Z</time>
      </trkpt>
      <trkpt lat="34.34657251084368" lon="108.97392839956181">
        <ele>385.2056278027594</ele>
        <time>2026-09-25T01:08:52Z</time>
      </trkpt>
      <trkpt lat="34.34662213405541" lon="108.97392009905343">
        <ele>384.89293334819376</ele>
        <time>2026-09-25T01:08:55Z</time>
      </trkpt>
      <trkpt lat="34.34673458639784" lon="108.97365856437295">
        <ele>384.97476412076503</ele>
        <time>2026-09-25T01:09:07Z</time>
      </trkpt>
      <trkpt lat="34.34681349913067" lon="108.97358116656362">
        <ele>384.3029739642516</ele>
        <time>2026-09-25T01:09:13Z</time>
      </trkpt>
      <trkpt lat="34.34686329204671" lon="108.97356703874428">
        <ele>383.67883900832385</ele>
        <time>2026-09-25T01:09:16Z</time>
      </trkpt>
      <trkpt lat="34.34692201138536" lon="108.97352202557275">
        <ele>384.6258130883798</ele>
        <time>2026-09-25T01:09:19Z</time>
      </trkpt>
      <trkpt lat="34.346971797221414" lon="108.97351120920264">
        <ele>384.2025862103328</ele>
        <time>2026-09-25T01:09:22Z</time>
      </trkpt>
      <trkpt lat="34.34701715646163" lon="108.97354545446801">
        <ele>385.1430309936404</ele>
        <time>2026-09-25T01:09:28Z</time>
      </trkpt>
      <trkpt lat="34.34703711527126" lon="108.97361055466477">
        <ele>385.4708760138601</ele>
        <time>2026-09-25T01:09:34Z</time>
      </trkpt>
      <trkpt lat="34.34698978294259" lon="108.97367102069657">
        <ele>385.17703927401453</ele>
        <time>2026-09-25T01:09:40Z</time>
      </trkpt>
      <trkpt lat="34.346920448326635" lon="108.97369285054218">
        <ele>384.45676731783897</ele>
        <time>2026-09-25T01:09:46Z</time>
      </trkpt>
      <trkpt lat="34.34684633346386" lon="108.97367006091085">
        <ele>385.7121939184144</ele>
        <time>2026-09-25T01:09:52Z</time>
      </trkpt>
      <trkpt lat="34.34681487763618" lon="108.97360764528555">
        <ele>386.41901427321136</ele>
        <time>2026-09-25T01:09:58Z</time>
      </trkpt>
      <trkpt lat="34.346819966737954" lon="108.97353251614041">
        <ele>385.818704565987</ele>
        <time>2026-09-25T01:10:10Z</time>
      </trkpt>
      <trkpt lat="34.346864811010356" lon="108.97343835319941">
        <ele>386.8531307168305</ele>
        <time>2026-09-25T01:10:18Z</time>
      </trkpt>
      <trkpt lat="34.34693633460491" lon="108.97342257126785">
        <ele>386.9539049481973</ele>
        <time>2026-09-25T01:10:22Z</time>
      </trkpt>
      <trkpt lat="34.34705156282337" lon="108.9734321317481">
        <ele>386.3911056891084</ele>
        <time>2026-09-25T01:10:28Z</time>
      </trkpt>
      <trkpt lat="34.34709400021048" lon="108.97347086138723">
        <ele>385.63609951455146</ele>
        <time>2026-09-25T01:10:31Z</time>
      </trkpt>
      <trkpt lat="34.34714681985357" lon="108.97345103656389">
        <ele>384.9564499473199</ele>
        <time>2026-09-25T01:10:37Z</time>
      </trkpt>
      <trkpt lat="34.34719238535583" lon="108.9734042953429">
        <ele>385.1613283716142</ele>
        <time>2026-09-25T01:10:40Z</time>
      </trkpt>
      <trkpt lat="34.34725326458189" lon="108.9731153430425">
        <ele>385.81203650310636</ele>
        <time>2026-09-25T01:10:52Z</time>
      </trkpt>
      <trkpt lat="34.347285000637505" lon="108.97305402909178">
        <ele>386.0979653764516</ele>
        <time>2026-09-25T01:10:55Z</time>
      </trkpt>
      <trkpt lat="34.347333229252854" lon="108.97300530011125">
        <ele>386.01221597753465</ele>
        <time>2026-09-25T01:10:58Z</time>
      </trkpt>
      <trkpt lat="34.34737970365456" lon="108.97298924984243">
        <ele>385.8387715080753</ele>
        <time>2026-09-25T01:11:01Z</time>
      </trkpt>
      <trkpt lat="34.34771436587489" lon="108.97301973345726">
        <ele>385.88369838055223</ele>
        <time>2026-09-25T01:11:25Z</time>
      </trkpt>
      <trkpt lat="34.34794466584488" lon="108.9729882925228">
        <ele>385.2137875659391</ele>
        <time>2026-09-25T01:11:43Z</time>
      </trkpt>
      <trkpt lat="34.34800268831909" lon="108.97294919029865">
        <ele>384.3009613128379</ele>
        <time>2026-09-25T01:11:49Z</time>
      </trkpt>
      <trkpt lat="34.34827364225166" lon="108.97283935805085">
        <ele>385.5363295292482</ele>
        <time>2026-09-25T01:12:10Z</time>
      </trkpt>
      <trkpt lat="34.34846425202805" lon="108.9727791283232">
        <ele>385.9198561217636</ele>
        <time>2026-09-25T01:12:20Z</time>
      </trkpt>
      <trkpt lat="34.34854630597247" lon="108.97278089392296">
        <ele>386.3473121365532</ele>
        <time>2026-09-25T01:12:24Z</time>
      </trkpt>
      <trkpt lat="34.34862176866412" lon="108.97275494270949">
        <ele>384.1350971246138</ele>
        <time>2026-09-25T01:12:28Z</time>
      </trkpt>
      <trkpt lat="34.34872454348645" lon="108.9726917380683">
        <ele>384.16910031903535</ele>
        <time>2026-09-25T01:12:35Z</time>
      </trkpt>
      <trkpt lat="34.34893544150361" lon="108.97263707012995">
        <ele>384.9753556717187</ele>
        <time>2026-09-25T01:12:47Z</time>
      </trkpt>
      <trkpt lat="34.34920856307907" lon="108.97252577440703">
        <ele>384.03144262731075</ele>
        <time>2026-09-25T01:13:02Z</time>
      </trkpt>
      <trkpt lat="34.349258381235785" lon="108.97249638937602">
        <ele>384.6357381064445</ele>
        <time>2026-09-25T01:13:05Z</time>
      </trkpt>
      <trkpt lat="34.34943021684087" lon="108.97249708284124">
        <ele>384.737207676284</ele>
        <time>2026-09-25T01:13:14Z</time>
      </trkpt>
      <trkpt lat="34.34956110411358" lon="108.9725235751275">
        <ele>383.1089701037854</ele>
        <time>2026-09-25T01:13:20Z</time>
      </trkpt>
      <trkpt lat="34.34985557539126" lon="108.97245214208878">
        <ele>382.8048617998138</ele>
        <time>2026-09-25T01:13:41Z</time>
      </trkpt>
      <trkpt lat="34.35006727044085" lon="108.9723683784136">
        <ele>384.01895636785775</ele>
        <time>2026-09-25T01:13:56Z</time>
      </trkpt>
      <trkpt lat="34.35037338015278" lon="108.97224837938413">
        <ele>383.8788652587682</ele>
        <time>2026-09-25T01:15:13Z</time>
      </trkpt>
      <trkpt lat="34.35066761097856" lon="108.97214680861558">
        <ele>383.17591139115393</ele>
        <time>2026-09-25T01:15:28Z</time>
      </trkpt>
      <trkpt lat="34.35092901873728" lon="108.97205327410647">
        <ele>382.9233138291165</ele>
        <time>2026-09-25T01:15:43Z</time>
      </trkpt>
      <trkpt lat="34.3512383609747" lon="108.9719353113063">
        <ele>382.71346343960613</ele>
        <time>2026-09-25T01:16:01Z</time>
      </trkpt>
      <trkpt lat="34.351513810496165" lon="108.971839564005">
        <ele>381.8973513254896</ele>
        <time>2026-09-25T01:16:16Z</time>
      </trkpt>
      <trkpt lat="34.35155609919535" lon="108.97180799584451">
        <ele>382.3808918967843</ele>
        <time>2026-09-25T01:16:19Z</time>
      </trkpt>
      <trkpt lat="34.35171632258808" lon="108.97176727145224">
        <ele>382.293261253275</ele>
        <time>2026-09-25T01:16:28Z</time>
      </trkpt>
      <trkpt lat="34.35177329973219" lon="108.97171730939974">
        <ele>381.6261016614735</ele>
        <time>2026-09-25T01:16:32Z</time>
      </trkpt>
      <trkpt lat="34.35198273008534" lon="108.97169200568852">
        <ele>380.23676247056574</ele>
        <time>2026-09-25T01:16:42Z</time>
      </trkpt>
      <trkpt lat="34.3521530185758" lon="108.97177158819554">
        <ele>380.53304086998105</ele>
        <time>2026-09-25T01:16:51Z</time>
      </trkpt>
      <trkpt lat="34.35230861196766" lon="108.97173855780359">
        <ele>381.02247086912394</ele>
        <time>2026-09-25T01:17:00Z</time>
      </trkpt>
      <trkpt lat="34.35249872207177" lon="108.97176664639417">
        <ele>378.78992296382785</ele>
        <time>2026-09-25T01:17:09Z</time>
      </trkpt>
      <trkpt lat="34.35273998226187" lon="108.97175316235602">
        <ele>378.785073957406</ele>
        <time>2026-09-25T01:17:21Z</time>
      </trkpt>
      <trkpt lat="34.35286208668402" lon="108.97178476421888">
        <ele>380.20701344218105</ele>
        <time>2026-09-25T01:17:27Z</time>
      </trkpt>
      <trkpt lat="34.35295625879198" lon="108.97174315092731">
        <ele>379.76167962886393</ele>
        <time>2026-09-25T01:17:33Z</time>
      </trkpt>
      <trkpt lat="34.35308178171655" lon="108.97147465272471">
        <ele>380.4059181502089</ele>
        <time>2026-09-25T01:17:45Z</time>
      </trkpt>
      <trkpt lat="34.35330999593406" lon="108.9713884631621">
        <ele>379.3384205410257</ele>
        <time>2026-09-25T01:17:57Z</time>
      </trkpt>
      <trkpt lat="34.35342027267199" lon="108.97136506254475">
        <ele>378.5874690609053</ele>
        <time>2026-09-25T01:18:03Z</time>
      </trkpt>
      <trkpt lat="34.35369652422284" lon="108.97122569866674">
        <ele>379.6757483948022</ele>
        <time>2026-09-25T01:18:24Z</time>
      </trkpt>
      <trkpt lat="34.35392306672592" lon="108.97118060255147">
        <ele>378.96960393246263</ele>
        <time>2026-09-25T01:18:41Z</time>
      </trkpt>
      <trkpt lat="34.35396293757167" lon="108.97113436343626">
        <ele>380.16347561590374</ele>
        <time>2026-09-25T01:18:47Z</time>
      </trkpt>
      <trkpt lat="34.35424879650674" lon="108.97099083944426">
        <ele>378.4922035494819</ele>
        <time>2026-09-25T01:19:11Z</time>
      </trkpt>
      <trkpt lat="34.354406371993534" lon="108.97080384712673">
        <ele>377.5097970375791</ele>
        <time>2026-09-25T01:19:29Z</time>
      </trkpt>
      <trkpt lat="34.35451593761024" lon="108.9706363051101">
        <ele>377.92567536607385</ele>
        <time>2026-09-25T01:19:41Z</time>
      </trkpt>
      <trkpt lat="34.35466506418242" lon="108.97059070146233">
        <ele>378.7424723310396</ele>
        <time>2026-09-25T01:19:53Z</time>
      </trkpt>
      <trkpt lat="34.35470792654256" lon="108.97043370937371">
        <ele>377.8735509496182</ele>
        <time>2026-09-25T01:20:02Z</time>
      </trkpt>
      <trkpt lat="34.354766005768816" lon="108.97037833374105">
        <ele>379.0779985524714</ele>
        <time>2026-09-25T01:20:08Z</time>
      </trkpt>
      <trkpt lat="34.35482342816515" lon="108.97034897729112">
        <ele>378.87432542908937</ele>
        <time>2026-09-25T01:20:14Z</time>
      </trkpt>
      <trkpt lat="34.35486666478739" lon="108.9702742874713">
        <ele>377.36716071516275</ele>
        <time>2026-09-25T01:20:20Z</time>
      </trkpt>
      <trkpt lat="34.35493532481191" lon="108.97028676158288">
        <ele>378.54682943597436</ele>
        <time>2026-09-25T01:20:26Z</time>
      </trkpt>
      <trkpt lat="34.35489845879125" lon="108.97020832606641">
        <ele>376.5839843908325</ele>
        <time>2026-09-25T01:20:45Z</time>
      </trkpt>
      <trkpt lat="34.35520676357276" lon="108.9705623287461">
        <ele>379.45147848298797</ele>
        <time>2026-09-25T01:21:13Z</time>
      </trkpt>
      <trkpt lat="34.3551839016479" lon="108.97050794587129">
        <ele>0</ele>
        <time>2026-09-25T01:21:32Z</time>
      </trkpt>
      <trkpt lat="34.35504653935092" lon="108.97030964310053">
        <ele>378.4715057136491</ele>
        <time>2026-09-25T01:22:06Z</time>
      </trkpt>
      <trkpt lat="34.35495187470149" lon="108.97026667534806">
        <ele>379.4401101991534</ele>
        <time>2026-09-25T01:22:10Z</time>
      </trkpt>
      <trkpt lat="34.35493847620043" lon="108.97033978946963">
        <ele>380.0178285194561</ele>
        <time>2026-09-25T01:22:16Z</time>
      </trkpt>
      <trkpt lat="34.354973748811446" lon="108.9704325912167">
        <ele>380.64558654651046</ele>
        <time>2026-09-25T01:22:31Z</time>
      </trkpt>
      <trkpt lat="34.35510662028573" lon="108.97045646804418">
        <ele>379.948818275705</ele>
        <time>2026-09-25T01:22:40Z</time>
      </trkpt>
      <trkpt lat="34.35516363962444" lon="108.9705064262488">
        <ele>380.11177916359156</ele>
        <time>2026-09-25T01:22:46Z</time>
      </trkpt>
      <trkpt lat="34.35515683083031" lon="108.9705621513337">
        <ele>379.5836809137836</ele>
        <time>2026-09-25T01:22:59Z</time>
      </trkpt>
      <trkpt lat="34.35511908306881" lon="108.97053076555079">
        <ele>379.50585924088955</ele>
        <time>2026-09-25T01:23:32Z</time>
      </trkpt>
      <trkpt lat="34.354992608433506" lon="108.97055851402324">
        <ele>380.53613531030715</ele>
        <time>2026-09-25T01:23:44Z</time>
      </trkpt>
      <trkpt lat="34.35495672570122" lon="108.97059541750663">
        <ele>380.29631424415857</ele>
        <time>2026-09-25T01:23:47Z</time>
      </trkpt>
      <trkpt lat="34.35497822339622" lon="108.97064493234019">
        <ele>379.56192517932504</ele>
        <time>2026-09-25T01:23:56Z</time>
      </trkpt>
      <trkpt lat="34.3549391955906" lon="108.97070909614094">
        <ele>379.5517467018217</ele>
        <time>2026-09-25T01:24:11Z</time>
      </trkpt>
      <trkpt lat="34.354854424234595" lon="108.9707165072241">
        <ele>378.8620688319206</ele>
        <time>2026-09-25T01:25:01Z</time>
      </trkpt>
      <trkpt lat="34.35490826398534" lon="108.97069987198286">
        <ele>379.09807456377894</ele>
        <time>2026-09-25T01:25:05Z</time>
      </trkpt>
      <trkpt lat="34.35495915852905" lon="108.97065756748698">
        <ele>378.636337319389</ele>
        <time>2026-09-25T01:25:35Z</time>
      </trkpt>
      <trkpt lat="34.35475917498445" lon="108.97062154988377">
        <ele>379.97887121047825</ele>
        <time>2026-09-25T01:25:56Z</time>
      </trkpt>
      <trkpt lat="34.35452487096955" lon="108.97063337894133">
        <ele>379.52773463819176</ele>
        <time>2026-09-25T01:26:17Z</time>
      </trkpt>
      <trkpt lat="34.354420450815816" lon="108.97074448289685">
        <ele>379.3050694949925</ele>
        <time>2026-09-25T01:26:29Z</time>
      </trkpt>
      <trkpt lat="34.35440751772198" lon="108.97080301487648">
        <ele>379.3163462858647</ele>
        <time>2026-09-25T01:26:32Z</time>
      </trkpt>
      <trkpt lat="34.35433607363987" lon="108.97083138950013">
        <ele>379.0474627641961</ele>
        <time>2026-09-25T01:26:38Z</time>
      </trkpt>
      <trkpt lat="34.35426307404206" lon="108.97083760161486">
        <ele>379.14943576510996</ele>
        <time>2026-09-25T01:26:44Z</time>
      </trkpt>
      <trkpt lat="34.35412921715992" lon="108.9707903636267">
        <ele>379.28931444883347</ele>
        <time>2026-09-25T01:26:56Z</time>
      </trkpt>
      <trkpt lat="34.3540041046419" lon="108.97085301031288">
        <ele>379.27797188889235</ele>
        <time>2026-09-25T01:27:09Z</time>
      </trkpt>
      <trkpt lat="34.35388697408177" lon="108.97085386002999">
        <ele>379.3572928579524</ele>
        <time>2026-09-25T01:27:18Z</time>
      </trkpt>
      <trkpt lat="34.35381824640292" lon="108.97087383648696">
        <ele>379.5342375356704</ele>
        <time>2026-09-25T01:27:24Z</time>
      </trkpt>
      <trkpt lat="34.35374062529499" lon="108.97086662743229">
        <ele>379.758518547751</ele>
        <time>2026-09-25T01:27:30Z</time>
      </trkpt>
      <trkpt lat="34.35366991267991" lon="108.97089464480942">
        <ele>379.4506498752162</ele>
        <time>2026-09-25T01:27:36Z</time>
      </trkpt>
      <trkpt lat="34.35352691491069" lon="108.9708405557919">
        <ele>379.4412707686424</ele>
        <time>2026-09-25T01:27:48Z</time>
      </trkpt>
      <trkpt lat="34.353497700529296" lon="108.97092265166752">
        <ele>379.0592660298571</ele>
        <time>2026-09-25T01:27:57Z</time>
      </trkpt>
      <trkpt lat="34.35339190541364" lon="108.9709646684553">
        <ele>379.12714310735464</ele>
        <time>2026-09-25T01:28:12Z</time>
      </trkpt>
      <trkpt lat="34.35309663071828" lon="108.97093050833516">
        <ele>379.5742054414004</ele>
        <time>2026-09-25T01:28:33Z</time>
      </trkpt>
      <trkpt lat="34.352805261859274" lon="108.97096919609005">
        <ele>380.5926450667903</ele>
        <time>2026-09-25T01:28:58Z</time>
      </trkpt>
      <trkpt lat="34.352518273581154" lon="108.97098614501057">
        <ele>381.849436590448</ele>
        <time>2026-09-25T01:29:21Z</time>
      </trkpt>
      <trkpt lat="34.35227662229465" lon="108.97099555772208">
        <ele>380.77881556842476</ele>
        <time>2026-09-25T01:29:39Z</time>
      </trkpt>
      <trkpt lat="34.352202902425816" lon="108.97101955778658">
        <ele>380.882008462213</ele>
        <time>2026-09-25T01:29:45Z</time>
      </trkpt>
      <trkpt lat="34.352073346929714" lon="108.97095137910142">
        <ele>380.75153497606516</ele>
        <time>2026-09-25T01:29:54Z</time>
      </trkpt>
      <trkpt lat="34.351931088453476" lon="108.97094594865128">
        <ele>381.4399901246652</ele>
        <time>2026-09-25T01:30:06Z</time>
      </trkpt>
      <trkpt lat="34.35186730572365" lon="108.97100428720769">
        <ele>381.54808315448463</ele>
        <time>2026-09-25T01:30:12Z</time>
      </trkpt>
      <trkpt lat="34.35177804116378" lon="108.97112943767627">
        <ele>381.9520098362118</ele>
        <time>2026-09-25T01:30:21Z</time>
      </trkpt>
      <trkpt lat="34.35146427942928" lon="108.97115193988184">
        <ele>381.4635898321867</ele>
        <time>2026-09-25T01:30:39Z</time>
      </trkpt>
      <trkpt lat="34.35114307176246" lon="108.97114284534169">
        <ele>382.526689466089</ele>
        <time>2026-09-25T01:30:57Z</time>
      </trkpt>
      <trkpt lat="34.35083256827405" lon="108.97115184435229">
        <ele>382.0281529650092</ele>
        <time>2026-09-25T01:31:16Z</time>
      </trkpt>
      <trkpt lat="34.35053043940695" lon="108.97114976376905">
        <ele>383.6062051691115</ele>
        <time>2026-09-25T01:31:34Z</time>
      </trkpt>
      <trkpt lat="34.350204191014456" lon="108.97116067077326">
        <ele>382.78171235881746</ele>
        <time>2026-09-25T01:31:55Z</time>
      </trkpt>
      <trkpt lat="34.35000027268267" lon="108.97117585005834">
        <ele>385.25312580540776</ele>
        <time>2026-09-25T01:32:13Z</time>
      </trkpt>
      <trkpt lat="34.34994536544562" lon="108.97116461122087">
        <ele>384.86064071021974</ele>
        <time>2026-09-25T01:32:19Z</time>
      </trkpt>
      <trkpt lat="34.34991367107793" lon="108.97121827045616">
        <ele>385.018208052963</ele>
        <time>2026-09-25T01:32:25Z</time>
      </trkpt>
      <trkpt lat="34.349930805487745" lon="108.97130263752615">
        <ele>383.9940005717799</ele>
        <time>2026-09-25T01:32:31Z</time>
      </trkpt>
      <trkpt lat="34.34992908445952" lon="108.97163281180379">
        <ele>383.60686198156327</ele>
        <time>2026-09-25T01:32:52Z</time>
      </trkpt>
      <trkpt lat="34.34992914447607" lon="108.97181678833974">
        <ele>383.9240405736491</ele>
        <time>2026-09-25T01:33:04Z</time>
      </trkpt>
      <trkpt lat="34.34997644031688" lon="108.97215323294294">
        <ele>383.76083660684526</ele>
        <time>2026-09-25T01:33:26Z</time>
      </trkpt>
      <trkpt lat="34.3499640893513" lon="108.97235544334471">
        <ele>383.8320130594075</ele>
        <time>2026-09-25T01:33:39Z</time>
      </trkpt>
      <trkpt lat="34.349880621077745" lon="108.97243307836825">
        <ele>384.2937107309699</ele>
        <time>2026-09-25T01:33:45Z</time>
      </trkpt>
      <trkpt lat="34.349586748954245" lon="108.97251476769986">
        <ele>384.03791685122997</ele>
        <time>2026-09-25T01:34:06Z</time>
      </trkpt>
      <trkpt lat="34.34929978292349" lon="108.9724945060821">
        <ele>384.13688196986914</ele>
        <time>2026-09-25T01:34:24Z</time>
      </trkpt>
      <trkpt lat="34.34901566108325" lon="108.97258927677109">
        <ele>384.3252081722021</ele>
        <time>2026-09-25T01:34:42Z</time>
      </trkpt>
      <trkpt lat="34.34870046332515" lon="108.97270367028433">
        <ele>384.6395529769361</ele>
        <time>2026-09-25T01:35:00Z</time>
      </trkpt>
      <trkpt lat="34.34844163262172" lon="108.97281259779051">
        <ele>384.7781210280955</ele>
        <time>2026-09-25T01:35:15Z</time>
      </trkpt>
      <trkpt lat="34.34814731984526" lon="108.97289435635776">
        <ele>385.13833011873066</ele>
        <time>2026-09-25T01:35:31Z</time>
      </trkpt>
      <trkpt lat="34.34789936928187" lon="108.97301000776952">
        <ele>386.30019700247794</ele>
        <time>2026-09-25T01:35:49Z</time>
      </trkpt>
      <trkpt lat="34.347813371523806" lon="108.97303313716085">
        <ele>386.3554937178269</ele>
        <time>2026-09-25T01:35:55Z</time>
      </trkpt>
      <trkpt lat="34.34752001606066" lon="108.97300951999655">
        <ele>386.36766584403813</ele>
        <time>2026-09-25T01:36:13Z</time>
      </trkpt>
      <trkpt lat="34.347397555366705" lon="108.9730065702936">
        <ele>386.2720683487132</ele>
        <time>2026-09-25T01:36:22Z</time>
      </trkpt>
      <trkpt lat="34.34734513575492" lon="108.9730279589198">
        <ele>387.7586686965078</ele>
        <time>2026-09-25T01:36:25Z</time>
      </trkpt>
      <trkpt lat="34.34730737772303" lon="108.97306450345668">
        <ele>387.8270189855248</ele>
        <time>2026-09-25T01:36:28Z</time>
      </trkpt>
      <trkpt lat="34.347238879408806" lon="108.97333815880121">
        <ele>387.97885581012815</ele>
        <time>2026-09-25T01:36:40Z</time>
      </trkpt>
      <trkpt lat="34.3471641612063" lon="108.97342487604679">
        <ele>387.1013086941093</ele>
        <time>2026-09-25T01:36:49Z</time>
      </trkpt>
      <trkpt lat="34.34700203428798" lon="108.97345270638995">
        <ele>386.7728846343234</ele>
        <time>2026-09-25T01:37:01Z</time>
      </trkpt>
      <trkpt lat="34.34680248334511" lon="108.97340908229044">
        <ele>386.45525456685573</ele>
        <time>2026-09-25T01:37:16Z</time>
      </trkpt>
      <trkpt lat="34.34673654878102" lon="108.97343672290464">
        <ele>385.5507597178221</ele>
        <time>2026-09-25T01:37:22Z</time>
      </trkpt>
      <trkpt lat="34.34660351067015" lon="108.97344643501584">
        <ele>385.50618445221335</ele>
        <time>2026-09-25T01:37:32Z</time>
      </trkpt>
      <trkpt lat="34.346467795113895" lon="108.97351453474543">
        <ele>385.69353197328746</ele>
        <time>2026-09-25T01:37:44Z</time>
      </trkpt>
      <trkpt lat="34.346155148618735" lon="108.97361635836316">
        <ele>384.59086520783603</ele>
        <time>2026-09-25T01:38:08Z</time>
      </trkpt>
      <trkpt lat="34.34602965252263" lon="108.97377695219895">
        <ele>384.1568020991981</ele>
        <time>2026-09-25T01:38:23Z</time>
      </trkpt>
      <trkpt lat="34.34591930064294" lon="108.97382162687086">
        <ele>383.1245093746111</ele>
        <time>2026-09-25T01:38:35Z</time>
      </trkpt>
      <trkpt lat="34.34567725692877" lon="108.97401509990061">
        <ele>383.4710738128051</ele>
        <time>2026-09-25T01:38:56Z</time>
      </trkpt>
      <trkpt lat="34.345658210949345" lon="108.97409654056392">
        <ele>383.5010199928656</ele>
        <time>2026-09-25T01:39:08Z</time>
      </trkpt>
      <trkpt lat="34.34551287210753" lon="108.97422199950431">
        <ele>383.01970970258117</ele>
        <time>2026-09-25T01:39:20Z</time>
      </trkpt>
      <trkpt lat="34.34540724037344" lon="108.9744278019673">
        <ele>384.13536556530744</ele>
        <time>2026-09-25T01:39:39Z</time>
      </trkpt>
      <trkpt lat="34.345209647566875" lon="108.97455766422159">
        <ele>384.38055357150733</ele>
        <time>2026-09-25T01:40:03Z</time>
      </trkpt>
      <trkpt lat="34.34506172409985" lon="108.97462456590824">
        <ele>384.21573019307107</ele>
        <time>2026-09-25T01:40:15Z</time>
      </trkpt>
      <trkpt lat="34.34504064828859" lon="108.97468940809385">
        <ele>384.46908754017204</ele>
        <time>2026-09-25T01:40:18Z</time>
      </trkpt>
      <trkpt lat="34.34499778989804" lon="108.97474243344189">
        <ele>384.3323389785364</ele>
        <time>2026-09-25T01:40:21Z</time>
      </trkpt>
      <trkpt lat="34.344939061332084" lon="108.97477230317928">
        <ele>384.5579259423539</ele>
        <time>2026-09-25T01:40:24Z</time>
      </trkpt>
      <trkpt lat="34.344869155272065" lon="108.9748681628116">
        <ele>384.9908969094977</ele>
        <time>2026-09-25T01:40:30Z</time>
      </trkpt>
      <trkpt lat="34.34470135334048" lon="108.97493113147969">
        <ele>384.5486124139279</ele>
        <time>2026-09-25T01:40:45Z</time>
      </trkpt>
      <trkpt lat="34.344404092496745" lon="108.97503297679995">
        <ele>385.3628916628659</ele>
        <time>2026-09-25T01:41:03Z</time>
      </trkpt>
      <trkpt lat="34.34411256028053" lon="108.97514829487652">
        <ele>384.92963358107954</ele>
        <time>2026-09-25T01:41:21Z</time>
      </trkpt>
      <trkpt lat="34.34382936565751" lon="108.97526414708945">
        <ele>384.90473388973624</ele>
        <time>2026-09-25T01:41:36Z</time>
      </trkpt>
      <trkpt lat="34.343702466302446" lon="108.97530631235828">
        <ele>385.35704110283405</ele>
        <time>2026-09-25T01:41:43Z</time>
      </trkpt>
      <trkpt lat="34.343626249229395" lon="108.97531006039495">
        <ele>385.2235334198922</ele>
        <time>2026-09-25T01:41:47Z</time>
      </trkpt>
      <trkpt lat="34.34354609896723" lon="108.97528659271048">
        <ele>385.4489485807717</ele>
        <time>2026-09-25T01:41:51Z</time>
      </trkpt>
      <trkpt lat="34.34343963657734" lon="108.9752959104322">
        <ele>385.55447740945965</ele>
        <time>2026-09-25T01:41:57Z</time>
      </trkpt>
      <trkpt lat="34.34335061227575" lon="108.97521205099167">
        <ele>385.39680853206664</ele>
        <time>2026-09-25T01:42:03Z</time>
      </trkpt>
      <trkpt lat="34.34323639021115" lon="108.9752504831954">
        <ele>386.2103607142344</ele>
        <time>2026-09-25T01:42:09Z</time>
      </trkpt>
      <trkpt lat="34.3429244417523" lon="108.97539224753803">
        <ele>385.68572953529656</ele>
        <time>2026-09-25T01:42:30Z</time>
      </trkpt>
      <trkpt lat="34.34282449504776" lon="108.97538806273572">
        <ele>386.3341651093215</ele>
        <time>2026-09-25T01:42:36Z</time>
      </trkpt>
      <trkpt lat="34.34278030819757" lon="108.97540372680385">
        <ele>385.8273932384327</ele>
        <time>2026-09-25T01:42:39Z</time>
      </trkpt>
      <trkpt lat="34.342720756780224" lon="108.9753863065059">
        <ele>385.3606050591916</ele>
        <time>2026-09-25T01:42:42Z</time>
      </trkpt>
      <trkpt lat="34.34261113042288" lon="108.97531482434452">
        <ele>385.0943329343572</ele>
        <time>2026-09-25T01:42:48Z</time>
      </trkpt>
      <trkpt lat="34.34255942518616" lon="108.97533421140204">
        <ele>385.7351469192654</ele>
        <time>2026-09-25T01:42:51Z</time>
      </trkpt>
      <trkpt lat="34.34245706069768" lon="108.97533077332996">
        <ele>385.0155652957037</ele>
        <time>2026-09-25T01:42:57Z</time>
      </trkpt>
      <trkpt lat="34.342411605855915" lon="108.97530499138415">
        <ele>385.1690839929506</ele>
        <time>2026-09-25T01:43:00Z</time>
      </trkpt>
      <trkpt lat="34.342374296544534" lon="108.97524820620268">
        <ele>385.3990438487381</ele>
        <time>2026-09-25T01:43:03Z</time>
      </trkpt>
      <trkpt lat="34.34228556932297" lon="108.97518142862118">
        <ele>385.48101522866637</ele>
        <time>2026-09-25T01:43:09Z</time>
      </trkpt>
      <trkpt lat="34.34200868827716" lon="108.97528707044586">
        <ele>385.99915736261755</ele>
        <time>2026-09-25T01:43:27Z</time>
      </trkpt>
      <trkpt lat="34.34183480885731" lon="108.97541038257417">
        <ele>384.5450250050053</ele>
        <time>2026-09-25T01:43:39Z</time>
      </trkpt>
      <trkpt lat="34.34155522761083" lon="108.97550544073874">
        <ele>385.63651691470295</ele>
        <time>2026-09-25T01:43:57Z</time>
      </trkpt>
      <trkpt lat="34.341283063282006" lon="108.97562139409388">
        <ele>386.31171443127096</ele>
        <time>2026-09-25T01:44:13Z</time>
      </trkpt>
      <trkpt lat="34.340996925749536" lon="108.97571431535819">
        <ele>386.8352811736986</ele>
        <time>2026-09-25T01:44:31Z</time>
      </trkpt>
      <trkpt lat="34.34078814432609" lon="108.97574379741809">
        <ele>386.76020694803447</ele>
        <time>2026-09-25T01:44:43Z</time>
      </trkpt>
      <trkpt lat="34.34052637473209" lon="108.97584112913772">
        <ele>388.4782835394144</ele>
        <time>2026-09-25T01:44:58Z</time>
      </trkpt>
      <trkpt lat="34.34024851735583" lon="108.97594122416155">
        <ele>389.6771237673238</ele>
        <time>2026-09-25T01:45:13Z</time>
      </trkpt>
      <trkpt lat="34.33998525602005" lon="108.9760420939878">
        <ele>390.3887209063396</ele>
        <time>2026-09-25T01:45:28Z</time>
      </trkpt>
      <trkpt lat="34.33994054678528" lon="108.97607991607812">
        <ele>391.44430661108345</ele>
        <time>2026-09-25T01:45:34Z</time>
      </trkpt>
      <trkpt lat="34.339616953558576" lon="108.97616739339506">
        <ele>391.2991437148303</ele>
        <time>2026-09-25T01:46:03Z</time>
      </trkpt>
      <trkpt lat="34.33943839284935" lon="108.97623710675711">
        <ele>390.39541971869767</ele>
        <time>2026-09-25T01:46:19Z</time>
      </trkpt>
      <trkpt lat="34.33939717834938" lon="108.97627410113054">
        <ele>391.0411286018789</ele>
        <time>2026-09-25T01:46:22Z</time>
      </trkpt>
      <trkpt lat="34.3393276709094" lon="108.97628050468118">
        <ele>390.57368924841285</ele>
        <time>2026-09-25T01:46:28Z</time>
      </trkpt>
      <trkpt lat="34.339123190737276" lon="108.97632849269874">
        <ele>391.3130436819047</ele>
        <time>2026-09-25T01:46:43Z</time>
      </trkpt>
      <trkpt lat="34.338843247505864" lon="108.97641500071109">
        <ele>391.1514359554276</ele>
        <time>2026-09-25T01:47:01Z</time>
      </trkpt>
      <trkpt lat="34.33850636514792" lon="108.9764408657301">
        <ele>391.11555761191994</ele>
        <time>2026-09-25T01:47:19Z</time>
      </trkpt>
      <trkpt lat="34.33818474443387" lon="108.97646470428424">
        <ele>390.94510229863226</ele>
        <time>2026-09-25T01:47:43Z</time>
      </trkpt>
      <trkpt lat="34.33788364850545" lon="108.97646524068635">
        <ele>391.2863257853314</ele>
        <time>2026-09-25T01:48:06Z</time>
      </trkpt>
      <trkpt lat="34.33754902581858" lon="108.97644273207284">
        <ele>391.06017954461277</ele>
        <time>2026-09-25T01:48:31Z</time>
      </trkpt>
      <trkpt lat="34.3374216952701" lon="108.97644157373924">
        <ele>391.9334584744647</ele>
        <time>2026-09-25T01:48:40Z</time>
      </trkpt>
      <trkpt lat="34.33734916548522" lon="108.9764168395798">
        <ele>391.9881598139182</ele>
        <time>2026-09-25T01:48:46Z</time>
      </trkpt>
      <trkpt lat="34.337102687080915" lon="108.97640913831515">
        <ele>391.4993895906955</ele>
        <time>2026-09-25T01:49:04Z</time>
      </trkpt>
      <trkpt lat="34.337032617479075" lon="108.97642093490845">
        <ele>391.1654246309772</ele>
        <time>2026-09-25T01:49:10Z</time>
      </trkpt>
      <trkpt lat="34.33679009439328" lon="108.97638447299796">
        <ele>390.89927882608026</ele>
        <time>2026-09-25T01:49:28Z</time>
      </trkpt>
      <trkpt lat="34.33653462918462" lon="108.97640077875451">
        <ele>391.04694955050945</ele>
        <time>2026-09-25T01:49:46Z</time>
      </trkpt>
      <trkpt lat="34.33647376564546" lon="108.9763771512627">
        <ele>391.1210366394371</ele>
        <time>2026-09-25T01:49:52Z</time>
      </trkpt>
      <trkpt lat="34.33620701074523" lon="108.97638861060169">
        <ele>391.43170553073287</ele>
        <time>2026-09-25T01:50:08Z</time>
      </trkpt>
      <trkpt lat="34.33591177081879" lon="108.97635361894001">
        <ele>391.5564886275679</ele>
        <time>2026-09-25T01:50:31Z</time>
      </trkpt>
      <trkpt lat="34.335626372098325" lon="108.9763327713194">
        <ele>392.5756410146132</ele>
        <time>2026-09-25T01:50:46Z</time>
      </trkpt>
      <trkpt lat="34.33534490993907" lon="108.97631534778168">
        <ele>391.32067790813744</ele>
        <time>2026-09-25T01:51:10Z</time>
      </trkpt>
      <trkpt lat="34.335137191517184" lon="108.97630905832948">
        <ele>390.9823515387252</ele>
        <time>2026-09-25T01:51:28Z</time>
      </trkpt>
      <trkpt lat="34.33506519012427" lon="108.97637051421073">
        <ele>391.35643991827965</ele>
        <time>2026-09-25T01:51:34Z</time>
      </trkpt>
      <trkpt lat="34.335015555935364" lon="108.97646977670152">
        <ele>392.3240657420829</ele>
        <time>2026-09-25T01:51:40Z</time>
      </trkpt>
      <trkpt lat="34.33495725630393" lon="108.97653098450847">
        <ele>392.7293499875814</ele>
        <time>2026-09-25T01:51:46Z</time>
      </trkpt>
      <trkpt lat="34.33483641632087" lon="108.9765264612294">
        <ele>391.5328047154471</ele>
        <time>2026-09-25T01:51:55Z</time>
      </trkpt>
      <trkpt lat="34.334703275019294" lon="108.97641294280402">
        <ele>391.88422623835504</ele>
        <time>2026-09-25T01:52:07Z</time>
      </trkpt>
      <trkpt lat="34.334642924644974" lon="108.97632968799788">
        <ele>391.6590048801154</ele>
        <time>2026-09-25T01:52:14Z</time>
      </trkpt>
      <trkpt lat="34.33458116907648" lon="108.9762833732849">
        <ele>392.3127852231264</ele>
        <time>2026-09-25T01:52:20Z</time>
      </trkpt>
      <trkpt lat="34.33430423904241" lon="108.97624105730827">
        <ele>391.56321275699884</ele>
        <time>2026-09-25T01:52:38Z</time>
      </trkpt>
      <trkpt lat="34.33401795919044" lon="108.97623900409717">
        <ele>392.05365685001016</ele>
        <time>2026-09-25T01:53:02Z</time>
      </trkpt>
      <trkpt lat="34.33372849202551" lon="108.97619998877684">
        <ele>392.6891145892441</ele>
        <time>2026-09-25T01:53:23Z</time>
      </trkpt>
      <trkpt lat="34.333461491226686" lon="108.97618863605277">
        <ele>392.7984311170876</ele>
        <time>2026-09-25T01:53:44Z</time>
      </trkpt>
      <trkpt lat="34.33326558471096" lon="108.9761644857628">
        <ele>393.4187406655401</ele>
        <time>2026-09-25T01:53:59Z</time>
      </trkpt>
      <trkpt lat="34.33295831907771" lon="108.97618617788814">
        <ele>393.93804399948567</ele>
        <time>2026-09-25T01:54:27Z</time>
      </trkpt>
      <trkpt lat="34.33291165928051" lon="108.97615363892376">
        <ele>394.34930454101413</ele>
        <time>2026-09-25T01:54:30Z</time>
      </trkpt>
      <trkpt lat="34.33282435922186" lon="108.97615248877136">
        <ele>393.65908769052476</ele>
        <time>2026-09-25T01:54:36Z</time>
      </trkpt>
      <trkpt lat="34.33274501863924" lon="108.97611507537488">
        <ele>393.85419819597155</ele>
        <time>2026-09-25T01:54:42Z</time>
      </trkpt>
      <trkpt lat="34.33261813884275" lon="108.97598857660117">
        <ele>394.02004982624203</ele>
        <time>2026-09-25T01:54:54Z</time>
      </trkpt>
      <trkpt lat="34.332544047498374" lon="108.97595053146901">
        <ele>394.02486794348806</ele>
        <time>2026-09-25T01:55:00Z</time>
      </trkpt>
      <trkpt lat="34.33224318398716" lon="108.97595849339098">
        <ele>394.35048748366535</ele>
        <time>2026-09-25T01:55:21Z</time>
      </trkpt>
      <trkpt lat="34.33211663296867" lon="108.9759649530557">
        <ele>392.87422781437635</ele>
        <time>2026-09-25T01:55:27Z</time>
      </trkpt>
      <trkpt lat="34.33197304983946" lon="108.97591980675455">
        <ele>394.0277763037011</ele>
        <time>2026-09-25T01:55:33Z</time>
      </trkpt>
      <trkpt lat="34.331906087828166" lon="108.97591612152829">
        <ele>394.01172816194594</ele>
        <time>2026-09-25T01:55:36Z</time>
      </trkpt>
      <trkpt lat="34.331849693516084" lon="108.9759525603032">
        <ele>394.4649502178654</ele>
        <time>2026-09-25T01:55:39Z</time>
      </trkpt>
      <trkpt lat="34.33168545672406" lon="108.97617399651577">
        <ele>394.6815740186721</ele>
        <time>2026-09-25T01:55:51Z</time>
      </trkpt>
      <trkpt lat="34.331630873184615" lon="108.97619309271956">
        <ele>394.3133220896125</ele>
        <time>2026-09-25T01:55:54Z</time>
      </trkpt>
      <trkpt lat="34.331364846924274" lon="108.97617444367184">
        <ele>393.745993132703</ele>
        <time>2026-09-25T01:56:12Z</time>
      </trkpt>
      <trkpt lat="34.3312155025001" lon="108.97618951200586">
        <ele>394.0714878765866</ele>
        <time>2026-09-25T01:56:25Z</time>
      </trkpt>
      <trkpt lat="34.33107233918177" lon="108.97617403015124">
        <ele>394.71424510423094</ele>
        <time>2026-09-25T01:56:37Z</time>
      </trkpt>
      <trkpt lat="34.330990135340734" lon="108.9761950650474">
        <ele>394.86670784745365</ele>
        <time>2026-09-25T01:56:43Z</time>
      </trkpt>
      <trkpt lat="34.33084792157703" lon="108.97616015742625">
        <ele>394.3861406557262</ele>
        <time>2026-09-25T01:56:55Z</time>
      </trkpt>
      <trkpt lat="34.33071697660444" lon="108.97615999473756">
        <ele>394.3578253034502</ele>
        <time>2026-09-25T01:57:07Z</time>
      </trkpt>
      <trkpt lat="34.33071678245295" lon="108.97642985701376">
        <ele>395.10535930935293</ele>
        <time>2026-09-25T01:58:13Z</time>
      </trkpt>
      <trkpt lat="34.33074173482488" lon="108.97637278999052">
        <ele>393.9383623143658</ele>
        <time>2026-09-25T01:58:19Z</time>
      </trkpt>
      <trkpt lat="34.33072210376008" lon="108.97632044197836">
        <ele>394.04533934406936</ele>
        <time>2026-09-25T01:58:22Z</time>
      </trkpt>
      <trkpt lat="34.33071706746423" lon="108.97615016220864">
        <ele>395.3502256423235</ele>
        <time>2026-09-25T01:58:32Z</time>
      </trkpt>
      <trkpt lat="34.33067483766126" lon="108.97609669127066">
        <ele>395.12162546347827</ele>
        <time>2026-09-25T01:58:36Z</time>
      </trkpt>
      <trkpt lat="34.330354866811675" lon="108.97608847508764">
        <ele>396.35388721432537</ele>
        <time>2026-09-25T01:58:59Z</time>
      </trkpt>
      <trkpt lat="34.33030323560983" lon="108.97601452898799">
        <ele>395.9817789653316</ele>
        <time>2026-09-25T01:59:05Z</time>
      </trkpt>
      <trkpt lat="34.33030359431806" lon="108.97591353061453">
        <ele>395.15269445441663</ele>
        <time>2026-09-25T01:59:11Z</time>
      </trkpt>
      <trkpt lat="34.330294737548584" lon="108.9758521502727">
        <ele>395.074639827013</ele>
        <time>2026-09-25T01:59:47Z</time>
      </trkpt>
      <trkpt lat="34.33034754768373" lon="108.97585815958996">
        <ele>395.7793210539967</ele>
        <time>2026-09-25T02:00:05Z</time>
      </trkpt>
      <trkpt lat="34.33030722621091" lon="108.97588936529506">
        <ele>395.3759223250672</ele>
        <time>2026-09-25T02:00:43Z</time>
      </trkpt>
      <trkpt lat="34.33032276100934" lon="108.97596089595095">
        <ele>395.09711005166173</ele>
        <time>2026-09-25T02:01:51Z</time>
      </trkpt>
      <trkpt lat="34.33035575491833" lon="108.9759993771252">
        <ele>394.18884649593383</ele>
        <time>2026-09-25T02:02:00Z</time>
      </trkpt>
      <trkpt lat="34.33033199053994" lon="108.9760484763321">
        <ele>395.38077206909657</ele>
        <time>2026-09-25T02:02:15Z</time>
      </trkpt>
      <trkpt lat="34.330379836004084" lon="108.97609519525565">
        <ele>395.5055601466447</ele>
        <time>2026-09-25T02:02:24Z</time>
      </trkpt>
      <trkpt lat="34.33052403331092" lon="108.9761232769618">
        <ele>394.7597414609045</ele>
        <time>2026-09-25T02:02:36Z</time>
      </trkpt>
      <trkpt lat="34.330687686451554" lon="108.9761163404267">
        <ele>394.10529651865363</ele>
        <time>2026-09-25T02:02:50Z</time>
      </trkpt>
      <trkpt lat="34.330727715410326" lon="108.97616840692162">
        <ele>394.4230862883851</ele>
        <time>2026-09-25T02:02:57Z</time>
      </trkpt>
      <trkpt lat="34.33071164434717" lon="108.97645728414318">
        <ele>395.50106981024146</ele>
        <time>2026-09-25T02:03:18Z</time>
      </trkpt>
      <trkpt lat="34.330723256655865" lon="108.9765449950268">
        <ele>395.29643825720996</ele>
        <time>2026-09-25T02:03:30Z</time>
      </trkpt>
      <trkpt lat="34.33070768898564" lon="108.97663751128606">
        <ele>395.02420268859714</ele>
        <time>2026-09-25T02:03:36Z</time>
      </trkpt>
      <trkpt lat="34.3307020502244" lon="108.97678096987983">
        <ele>394.88515119440854</ele>
        <time>2026-09-25T02:03:45Z</time>
      </trkpt>
      <trkpt lat="34.33065935598233" lon="108.97689871507593">
        <ele>395.1005323054269</ele>
        <time>2026-09-25T02:03:54Z</time>
      </trkpt>
      <trkpt lat="34.330621315085445" lon="108.9768487983288">
        <ele>395.09297926723957</ele>
        <time>2026-09-25T02:03:57Z</time>
      </trkpt>
      <trkpt lat="34.33069535486827" lon="108.97714922280319">
        <ele>393.4061022391543</ele>
        <time>2026-09-25T02:04:12Z</time>
      </trkpt>
      <trkpt lat="34.3306932199454" lon="108.97727052702831">
        <ele>394.1402786169201</ele>
        <time>2026-09-25T02:04:21Z</time>
      </trkpt>
      <trkpt lat="34.33061188723193" lon="108.97729216032802">
        <ele>393.2808347651735</ele>
        <time>2026-09-25T02:04:27Z</time>
      </trkpt>
      <trkpt lat="34.33058706248388" lon="108.97737592590211">
        <ele>393.75025426317006</ele>
        <time>2026-09-25T02:04:30Z</time>
      </trkpt>
      <trkpt lat="34.3306353449731" lon="108.97767066726483">
        <ele>393.82067378330976</ele>
        <time>2026-09-25T02:04:49Z</time>
      </trkpt>
      <trkpt lat="34.33064845038908" lon="108.97780508102935">
        <ele>394.6672772699967</ele>
        <time>2026-09-25T02:04:57Z</time>
      </trkpt>
      <trkpt lat="34.3306822059508" lon="108.97787683988017">
        <ele>395.49001201149076</ele>
        <time>2026-09-25T02:05:01Z</time>
      </trkpt>
      <trkpt lat="34.33062566381114" lon="108.97799858449231">
        <ele>394.70639852434397</ele>
        <time>2026-09-25T02:05:10Z</time>
      </trkpt>
      <trkpt lat="34.33064272637944" lon="108.97812821598308">
        <ele>395.57148921489716</ele>
        <time>2026-09-25T02:05:16Z</time>
      </trkpt>
      <trkpt lat="34.33067589324139" lon="108.97817188110571">
        <ele>395.0969544267282</ele>
        <time>2026-09-25T02:05:19Z</time>
      </trkpt>
      <trkpt lat="34.33063635323997" lon="108.9782008260858">
        <ele>394.4080459373072</ele>
        <time>2026-09-25T02:05:22Z</time>
      </trkpt>
      <trkpt lat="34.330643341573236" lon="108.97853837756242">
        <ele>394.13127103820443</ele>
        <time>2026-09-25T02:05:43Z</time>
      </trkpt>
      <trkpt lat="34.33063363572659" lon="108.97869709134096">
        <ele>394.0765945697203</ele>
        <time>2026-09-25T02:05:52Z</time>
      </trkpt>
      <trkpt lat="34.33059994003978" lon="108.97877645808582">
        <ele>395.0155712645501</ele>
        <time>2026-09-25T02:05:58Z</time>
      </trkpt>
      <trkpt lat="34.33060559996457" lon="108.9788598399301">
        <ele>395.4390284921974</ele>
        <time>2026-09-25T02:06:04Z</time>
      </trkpt>
      <trkpt lat="34.330575429857724" lon="108.97893928404592">
        <ele>394.7304969439283</ele>
        <time>2026-09-25T02:06:10Z</time>
      </trkpt>
      <trkpt lat="34.33050120322374" lon="108.97899306621292">
        <ele>393.1015364564955</ele>
        <time>2026-09-25T02:06:16Z</time>
      </trkpt>
      <trkpt lat="34.33045189212751" lon="108.97898039750244">
        <ele>394.27589289378375</ele>
        <time>2026-09-25T02:06:22Z</time>
      </trkpt>
      <trkpt lat="34.330402171708755" lon="108.97903288576799">
        <ele>394.8535777097568</ele>
        <time>2026-09-25T02:06:25Z</time>
      </trkpt>
      <trkpt lat="34.330267966718694" lon="108.97907384836937">
        <ele>395.23589182365686</ele>
        <time>2026-09-25T02:06:37Z</time>
      </trkpt>
      <trkpt lat="34.33019599947418" lon="108.97906532955743">
        <ele>396.4489886946976</ele>
        <time>2026-09-25T02:06:43Z</time>
      </trkpt>
      <trkpt lat="34.33002688416523" lon="108.97911361167958">
        <ele>394.91863565985113</ele>
        <time>2026-09-25T02:07:04Z</time>
      </trkpt>
      <trkpt lat="34.33007516219464" lon="108.9791156677128">
        <ele>394.7838705936447</ele>
        <time>2026-09-25T02:07:14Z</time>
      </trkpt>
      <trkpt lat="34.32999357887986" lon="108.97912381201627">
        <ele>395.43885516468436</ele>
        <time>2026-09-25T02:07:59Z</time>
      </trkpt>
      <trkpt lat="34.32995156561916" lon="108.97909471470157">
        <ele>394.8879207028076</ele>
        <time>2026-09-25T02:08:02Z</time>
      </trkpt>
      <trkpt lat="34.3299195395707" lon="108.97915292590407">
        <ele>394.60231220163405</ele>
        <time>2026-09-25T02:08:08Z</time>
      </trkpt>
      <trkpt lat="34.32990559074718" lon="108.97920883754738">
        <ele>395.429262294434</ele>
        <time>2026-09-25T02:10:36Z</time>
      </trkpt>
      <trkpt lat="34.32987591194993" lon="108.97916769958206">
        <ele>395.5062770200893</ele>
        <time>2026-09-25T02:10:54Z</time>
      </trkpt>
      <trkpt lat="34.329913501082395" lon="108.97920072366578">
        <ele>396.3486297307536</ele>
        <time>2026-09-25T02:11:22Z</time>
      </trkpt>
      <trkpt lat="34.3299186198107" lon="108.97912122128886">
        <ele>396.71474219392985</ele>
        <time>2026-09-25T02:13:14Z</time>
      </trkpt>
      <trkpt lat="34.329828567066436" lon="108.97910317014521">
        <ele>395.50982519891113</ele>
        <time>2026-09-25T02:13:50Z</time>
      </trkpt>
      <trkpt lat="34.32987318148989" lon="108.97911950581687">
        <ele>395.75520328246057</ele>
        <time>2026-09-25T02:13:56Z</time>
      </trkpt>
      <trkpt lat="34.32991664122623" lon="108.97910479748916">
        <ele>395.7280204864219</ele>
        <time>2026-09-25T02:14:11Z</time>
      </trkpt>
      <trkpt lat="34.32992629278606" lon="108.97918076287031">
        <ele>395.06555956974626</ele>
        <time>2026-09-25T02:16:35Z</time>
      </trkpt>
      <trkpt lat="34.32988308377577" lon="108.97927011557839">
        <ele>395.4616534207016</ele>
        <time>2026-09-25T02:16:41Z</time>
      </trkpt>
      <trkpt lat="34.32986849125832" lon="108.97949000464904">
        <ele>396.0029755271971</ele>
        <time>2026-09-25T02:16:53Z</time>
      </trkpt>
      <trkpt lat="34.32989035209598" lon="108.97965932199097">
        <ele>395.28150307387114</ele>
        <time>2026-09-25T02:17:02Z</time>
      </trkpt>
      <trkpt lat="34.32983908910504" lon="108.98000810228795">
        <ele>395.8164056101814</ele>
        <time>2026-09-25T02:17:27Z</time>
      </trkpt>
      <trkpt lat="34.32985095348384" lon="108.98010504046722">
        <ele>396.4919962156564</ele>
        <time>2026-09-25T02:17:35Z</time>
      </trkpt>
      <trkpt lat="34.32981518020207" lon="108.98016972103571">
        <ele>396.589199969545</ele>
        <time>2026-09-25T02:17:39Z</time>
      </trkpt>
      <trkpt lat="34.32974901541157" lon="108.98019486215901">
        <ele>396.35846180282533</ele>
        <time>2026-09-25T02:17:43Z</time>
      </trkpt>
      <trkpt lat="34.329684412218455" lon="108.9802684203391">
        <ele>396.04593918751925</ele>
        <time>2026-09-25T02:17:51Z</time>
      </trkpt>
      <trkpt lat="34.32945410729328" lon="108.98037190357958">
        <ele>396.0390437487513</ele>
        <time>2026-09-25T02:18:09Z</time>
      </trkpt>
      <trkpt lat="34.32937152624101" lon="108.98038622068468">
        <ele>395.9802583809942</ele>
        <time>2026-09-25T02:18:18Z</time>
      </trkpt>
      <trkpt lat="34.3292627854345" lon="108.98033486703446">
        <ele>396.2514780526981</ele>
        <time>2026-09-25T02:18:30Z</time>
      </trkpt>
      <trkpt lat="34.3290801586108" lon="108.98053363168873">
        <ele>396.11326402332634</ele>
        <time>2026-09-25T02:18:42Z</time>
      </trkpt>
      <trkpt lat="34.329033473232094" lon="108.98060611494749">
        <ele>396.309349023737</ele>
        <time>2026-09-25T02:18:48Z</time>
      </trkpt>
      <trkpt lat="34.328987542951516" lon="108.98063186028632">
        <ele>396.8701646672562</ele>
        <time>2026-09-25T02:18:51Z</time>
      </trkpt>
      <trkpt lat="34.32892343884928" lon="108.9806246254422">
        <ele>395.81858310382813</ele>
        <time>2026-09-25T02:18:57Z</time>
      </trkpt>
      <trkpt lat="34.328860331353575" lon="108.98065503400329">
        <ele>395.27914007753134</ele>
        <time>2026-09-25T02:19:03Z</time>
      </trkpt>
      <trkpt lat="34.328794079961284" lon="108.98064650902475">
        <ele>396.09110257588327</ele>
        <time>2026-09-25T02:19:09Z</time>
      </trkpt>
      <trkpt lat="34.328756292085906" lon="108.98068238819377">
        <ele>395.9777963170782</ele>
        <time>2026-09-25T02:19:12Z</time>
      </trkpt>
      <trkpt lat="34.328619638304815" lon="108.98068703532434">
        <ele>395.62710395175964</ele>
        <time>2026-09-25T02:19:21Z</time>
      </trkpt>
      <trkpt lat="34.328510689006904" lon="108.9803929858297">
        <ele>395.95887875463814</ele>
        <time>2026-09-25T02:19:35Z</time>
      </trkpt>
      <trkpt lat="34.32846317219433" lon="108.9803354251917">
        <ele>395.66477345116436</ele>
        <time>2026-09-25T02:19:39Z</time>
      </trkpt>
      <trkpt lat="34.32854106382353" lon="108.9801027460554">
        <ele>396.11772531457245</ele>
        <time>2026-09-25T02:19:57Z</time>
      </trkpt>
      <trkpt lat="34.32855321095719" lon="108.98018982292905">
        <ele>396.096797529608</ele>
        <time>2026-09-25T02:20:24Z</time>
      </trkpt>
      <trkpt lat="34.32854351025154" lon="108.98027868827737">
        <ele>396.0916225174442</ele>
        <time>2026-09-25T02:20:30Z</time>
      </trkpt>
      <trkpt lat="34.32849679734442" lon="108.9803286824365">
        <ele>395.7869413327426</ele>
        <time>2026-09-25T02:20:42Z</time>
      </trkpt>
      <trkpt lat="34.32853036507142" lon="108.98027638209537">
        <ele>395.97905555646867</ele>
        <time>2026-09-25T02:20:48Z</time>
      </trkpt>
      <trkpt lat="34.328582172808375" lon="108.98026303872574">
        <ele>395.8897979930043</ele>
        <time>2026-09-25T02:21:27Z</time>
      </trkpt>
      <trkpt lat="34.328507291472064" lon="108.98029146285644">
        <ele>395.87593595217913</ele>
        <time>2026-09-25T02:21:58Z</time>
      </trkpt>
      <trkpt lat="34.32856465688258" lon="108.98032154300445">
        <ele>395.8614906463772</ele>
        <time>2026-09-25T02:22:49Z</time>
      </trkpt>
      <trkpt lat="34.328505202526344" lon="108.98033842464254">
        <ele>396.0164610808715</ele>
        <time>2026-09-25T02:23:10Z</time>
      </trkpt>
      <trkpt lat="34.328461757822446" lon="108.98037145784079">
        <ele>395.9347984883934</ele>
        <time>2026-09-25T02:23:31Z</time>
      </trkpt>
      <trkpt lat="34.32850932044711" lon="108.98035918318648">
        <ele>395.9306467724964</ele>
        <time>2026-09-25T02:24:14Z</time>
      </trkpt>
      <trkpt lat="34.328427037922424" lon="108.98033539944066">
        <ele>395.9820439852774</ele>
        <time>2026-09-25T02:24:47Z</time>
      </trkpt>
      <trkpt lat="34.32837327000669" lon="108.98030901083548">
        <ele>395.94910809677094</ele>
        <time>2026-09-25T02:25:14Z</time>
      </trkpt>
      <trkpt lat="34.32849278189268" lon="108.98031875228548">
        <ele>395.8980713840574</ele>
        <time>2026-09-25T02:25:55Z</time>
      </trkpt>
      <trkpt lat="34.32854599366855" lon="108.98030480280624">
        <ele>395.7567982049659</ele>
        <time>2026-09-25T02:25:59Z</time>
      </trkpt>
      <trkpt lat="34.32847942202296" lon="108.98025809097872">
        <ele>396.12246292456985</ele>
        <time>2026-09-25T02:26:48Z</time>
      </trkpt>
      <trkpt lat="34.32853527181871" lon="108.98027934696664">
        <ele>395.78198057971895</ele>
        <time>2026-09-25T02:27:06Z</time>
      </trkpt>
      <trkpt lat="34.328519500503084" lon="108.98033346154335">
        <ele>395.8012302313</ele>
        <time>2026-09-25T02:27:33Z</time>
      </trkpt>
      <trkpt lat="34.32845950751924" lon="108.98037990680086">
        <ele>396.24294762220234</ele>
        <time>2026-09-25T02:27:39Z</time>
      </trkpt>
    </trkseg>
  </trk>
</gpx>