<?xml version="1.0" encoding="UTF-8"?>
<gpx xmlns="http://www.topografix.com/GPX/1/1" xmlns:gpxtpx="http://www.garmin.com/xmlschemas/TrackPointExtension/v1" xmlns:xsi="http://www.w3.org/2001/XMLSchema-instance" xsi:schemaLocation="http://www.topografix.com/GPX/1/1 http://www.topografix.com/GPX/1/1/gpx.xsd" version="1.1" creator="gpx.py -- https://github.com/tkrajina/gpxpy">
  <trk>
    <name>gpx from keep</name>
    <type>Ride</type>
    <trkseg>
      <trkpt lat="34.30620939488873" lon="109.03706268503566">
        <ele>390.96198562312145</ele>
        <time>2022-03-17T11:47:57Z</time>
      </trkpt>
      <trkpt lat="34.3062120621073" lon="109.03693499511222">
        <ele>390.965718694395</ele>
        <time>2022-03-17T11:48:01Z</time>
      </trkpt>
      <trkpt lat="34.306327220499895" lon="109.03704298010834">
        <ele>390.80439791119244</ele>
        <time>2022-03-17T11:48:05Z</time>
      </trkpt>
      <trkpt lat="34.306423241000076" lon="109.03707172747934">
        <ele>390.9530633352697</ele>
        <time>2022-03-17T11:48:09Z</time>
      </trkpt>
      <trkpt lat="34.306569832498724" lon="109.03706831330575">
        <ele>391.1059579877183</ele>
        <time>2022-03-17T11:48:13Z</time>
      </trkpt>
      <trkpt lat="34.30654378838956" lon="109.03698517198792">
        <ele>391.6525937039405</ele>
        <time>2022-03-17T11:48:26Z</time>
      </trkpt>
      <trkpt lat="34.306544686711185" lon="109.0368912322536">
        <ele>392.05942047480494</ele>
        <time>2022-03-17T11:48:30Z</time>
      </trkpt>
      <trkpt lat="34.30656803735004" lon="109.03680316031387">
        <ele>392.297084197402</ele>
        <time>2022-03-17T11:48:37Z</time>
      </trkpt>
      <trkpt lat="34.30650485546922" lon="109.03656095445366">
        <ele>391.675893234089</ele>
        <time>2022-03-17T11:48:57Z</time>
      </trkpt>
      <trkpt lat="34.30650843630737" lon="109.03648426376353">
        <ele>391.62971308548003</ele>
        <time>2022-03-17T11:49:37Z</time>
      </trkpt>
      <trkpt lat="34.30650150078404" lon="109.03638300646405">
        <ele>391.5857120901346</ele>
        <time>2022-03-17T11:49:40Z</time>
      </trkpt>
      <trkpt lat="34.30639100955152" lon="109.03608749185747">
        <ele>391.8602284733206</ele>
        <time>2022-03-17T11:49:47Z</time>
      </trkpt>
      <trkpt lat="34.306378456619534" lon="109.03596774083454">
        <ele>391.8436399856582</ele>
        <time>2022-03-17T11:49:50Z</time>
      </trkpt>
      <trkpt lat="34.30640700773138" lon="109.03577062854787">
        <ele>392.618669369258</ele>
        <time>2022-03-17T11:49:55Z</time>
      </trkpt>
      <trkpt lat="34.30639068532521" lon="109.03552515190965">
        <ele>392.1425924738869</ele>
        <time>2022-03-17T11:49:59Z</time>
      </trkpt>
      <trkpt lat="34.30634693447918" lon="109.035394991739">
        <ele>392.6779267396778</ele>
        <time>2022-03-17T11:50:01Z</time>
      </trkpt>
      <trkpt lat="34.30635612594603" lon="109.03510618755212">
        <ele>391.5154418935999</ele>
        <time>2022-03-17T11:50:08Z</time>
      </trkpt>
      <trkpt lat="34.30640159251011" lon="109.03487616268715">
        <ele>392.67559797875583</ele>
        <time>2022-03-17T11:50:14Z</time>
      </trkpt>
      <trkpt lat="34.306451308367016" lon="109.03473091949598">
        <ele>392.1005453262478</ele>
        <time>2022-03-17T11:50:18Z</time>
      </trkpt>
      <trkpt lat="34.306408493113594" lon="109.03458585214523">
        <ele>391.9284073514864</ele>
        <time>2022-03-17T11:50:22Z</time>
      </trkpt>
      <trkpt lat="34.306403811456434" lon="109.03444476108301">
        <ele>392.7279444867745</ele>
        <time>2022-03-17T11:50:26Z</time>
      </trkpt>
      <trkpt lat="34.306366362485804" lon="109.03430117476978">
        <ele>392.1582818850875</ele>
        <time>2022-03-17T11:50:30Z</time>
      </trkpt>
      <trkpt lat="34.306211515837546" lon="109.03406258788709">
        <ele>391.87391759548336</ele>
        <time>2022-03-17T11:50:36Z</time>
      </trkpt>
      <trkpt lat="34.306219497913695" lon="109.03390765177149">
        <ele>392.29763879813254</ele>
        <time>2022-03-17T11:50:40Z</time>
      </trkpt>
      <trkpt lat="34.3061954105259" lon="109.0338201297929">
        <ele>391.7117967614904</ele>
        <time>2022-03-17T11:50:42Z</time>
      </trkpt>
      <trkpt lat="34.306238945216876" lon="109.03373750363711">
        <ele>392.30777929350734</ele>
        <time>2022-03-17T11:50:44Z</time>
      </trkpt>
      <trkpt lat="34.30626776343208" lon="109.03357566775405">
        <ele>391.7557260161266</ele>
        <time>2022-03-17T11:50:48Z</time>
      </trkpt>
      <trkpt lat="34.30621526408413" lon="109.03335752802359">
        <ele>392.2436874723062</ele>
        <time>2022-03-17T11:50:54Z</time>
      </trkpt>
      <trkpt lat="34.30625874379205" lon="109.03313623307447">
        <ele>391.79371259734035</ele>
        <time>2022-03-17T11:51:00Z</time>
      </trkpt>
      <trkpt lat="34.30619593166523" lon="109.0328427358378">
        <ele>392.5010689534247</ele>
        <time>2022-03-17T11:51:08Z</time>
      </trkpt>
      <trkpt lat="34.30619095974448" lon="109.03262044719256">
        <ele>392.8039677357301</ele>
        <time>2022-03-17T11:51:14Z</time>
      </trkpt>
      <trkpt lat="34.30612568313864" lon="109.0324332559567">
        <ele>392.9547598371282</ele>
        <time>2022-03-17T11:51:19Z</time>
      </trkpt>
      <trkpt lat="34.306110472988706" lon="109.0323348072791">
        <ele>393.16450871061534</ele>
        <time>2022-03-17T11:51:21Z</time>
      </trkpt>
      <trkpt lat="34.306123939458125" lon="109.03224399579545">
        <ele>393.44943072926253</ele>
        <time>2022-03-17T11:51:23Z</time>
      </trkpt>
      <trkpt lat="34.306204936708845" lon="109.032155473161">
        <ele>394.03360852971673</ele>
        <time>2022-03-17T11:51:25Z</time>
      </trkpt>
      <trkpt lat="34.30631725758504" lon="109.03207192049784">
        <ele>392.73288613557816</ele>
        <time>2022-03-17T11:51:27Z</time>
      </trkpt>
      <trkpt lat="34.306516674969245" lon="109.03186737088848">
        <ele>393.33282692171633</ele>
        <time>2022-03-17T11:51:31Z</time>
      </trkpt>
      <trkpt lat="34.306648198475926" lon="109.03177213194739">
        <ele>392.4929418088868</ele>
        <time>2022-03-17T11:51:33Z</time>
      </trkpt>
      <trkpt lat="34.306947617916364" lon="109.03135099652054">
        <ele>392.3374839713797</ele>
        <time>2022-03-17T11:51:40Z</time>
      </trkpt>
      <trkpt lat="34.307226555823206" lon="109.031095895348">
        <ele>391.55571679212153</ele>
        <time>2022-03-17T11:51:45Z</time>
      </trkpt>
      <trkpt lat="34.307363633664494" lon="109.03100936698006">
        <ele>392.1678967047483</ele>
        <time>2022-03-17T11:51:47Z</time>
      </trkpt>
      <trkpt lat="34.30767301928222" lon="109.03087993077105">
        <ele>392.931820878759</ele>
        <time>2022-03-17T11:51:53Z</time>
      </trkpt>
      <trkpt lat="34.308133799058105" lon="109.03076115877838">
        <ele>393.7663948079571</ele>
        <time>2022-03-17T11:52:03Z</time>
      </trkpt>
      <trkpt lat="34.3084205377323" lon="109.03071467843566">
        <ele>394.15466157067567</ele>
        <time>2022-03-17T11:52:09Z</time>
      </trkpt>
      <trkpt lat="34.30852587137454" lon="109.03071942642212">
        <ele>394.22187199629843</ele>
        <time>2022-03-17T11:52:11Z</time>
      </trkpt>
      <trkpt lat="34.308955152603" lon="109.03061708514704">
        <ele>394.04208109900355</ele>
        <time>2022-03-17T11:52:20Z</time>
      </trkpt>
      <trkpt lat="34.30932892106593" lon="109.03046097556407">
        <ele>393.5658469432965</ele>
        <time>2022-03-17T11:52:28Z</time>
      </trkpt>
      <trkpt lat="34.30959878365663" lon="109.03030410420232">
        <ele>392.98246491514146</ele>
        <time>2022-03-17T11:52:34Z</time>
      </trkpt>
      <trkpt lat="34.30977470363961" lon="109.03019294497089">
        <ele>392.9223317960277</ele>
        <time>2022-03-17T11:52:38Z</time>
      </trkpt>
      <trkpt lat="34.310190990553934" lon="109.029817352215">
        <ele>393.23528513871133</ele>
        <time>2022-03-17T11:52:48Z</time>
      </trkpt>
      <trkpt lat="34.31059906161173" lon="109.02944758022714">
        <ele>392.2539338413626</ele>
        <time>2022-03-17T11:52:58Z</time>
      </trkpt>
      <trkpt lat="34.310777736207335" lon="109.02930031469894">
        <ele>391.5103249233216</ele>
        <time>2022-03-17T11:53:02Z</time>
      </trkpt>
      <trkpt lat="34.310833528236806" lon="109.02920855806607">
        <ele>392.42887555155903</ele>
        <time>2022-03-17T11:53:04Z</time>
      </trkpt>
      <trkpt lat="34.311022585161766" lon="109.02905828204511">
        <ele>391.4722324954346</ele>
        <time>2022-03-17T11:53:08Z</time>
      </trkpt>
      <trkpt lat="34.31122937474108" lon="109.02874829807725">
        <ele>391.2515519950539</ele>
        <time>2022-03-17T11:53:14Z</time>
      </trkpt>
      <trkpt lat="34.31128313657003" lon="109.02862526869993">
        <ele>391.94502399489284</ele>
        <time>2022-03-17T11:53:16Z</time>
      </trkpt>
      <trkpt lat="34.311327306684596" lon="109.028458994875">
        <ele>392.62493414152414</ele>
        <time>2022-03-17T11:53:18Z</time>
      </trkpt>
      <trkpt lat="34.3114490303403" lon="109.02811437477384">
        <ele>392.15175028983504</ele>
        <time>2022-03-17T11:53:22Z</time>
      </trkpt>
      <trkpt lat="34.31150262824282" lon="109.02781902382257">
        <ele>391.75914356764406</ele>
        <time>2022-03-17T11:53:26Z</time>
      </trkpt>
      <trkpt lat="34.311499844063874" lon="109.02761920984533">
        <ele>390.7460890887305</ele>
        <time>2022-03-17T11:53:30Z</time>
      </trkpt>
      <trkpt lat="34.31153235676176" lon="109.02749393017146">
        <ele>391.2797804120928</ele>
        <time>2022-03-17T11:53:32Z</time>
      </trkpt>
      <trkpt lat="34.31153584458664" lon="109.0273837163511">
        <ele>391.8234568797052</ele>
        <time>2022-03-17T11:53:34Z</time>
      </trkpt>
      <trkpt lat="34.3116755648199" lon="109.0269599366683">
        <ele>392.0220746817067</ele>
        <time>2022-03-17T11:53:42Z</time>
      </trkpt>
      <trkpt lat="34.31179259562861" lon="109.02676789047588">
        <ele>392.3436475098133</ele>
        <time>2022-03-17T11:53:46Z</time>
      </trkpt>
      <trkpt lat="34.31194753570639" lon="109.02659886607198">
        <ele>392.09232039097697</ele>
        <time>2022-03-17T11:53:50Z</time>
      </trkpt>
      <trkpt lat="34.31227926809401" lon="109.02633722653701">
        <ele>393.66405010502785</ele>
        <time>2022-03-17T11:53:58Z</time>
      </trkpt>
      <trkpt lat="34.312328023113714" lon="109.0262640868791">
        <ele>393.2590120723471</ele>
        <time>2022-03-17T11:54:00Z</time>
      </trkpt>
      <trkpt lat="34.312780499012035" lon="109.02596955759734">
        <ele>393.0267265411094</ele>
        <time>2022-03-17T11:54:10Z</time>
      </trkpt>
      <trkpt lat="34.31290937792364" lon="109.02584654998623">
        <ele>392.98457954637706</ele>
        <time>2022-03-17T11:54:14Z</time>
      </trkpt>
      <trkpt lat="34.31342509452812" lon="109.02565517614143">
        <ele>392.0848063006997</ele>
        <time>2022-03-17T11:54:24Z</time>
      </trkpt>
      <trkpt lat="34.31381916673042" lon="109.02552332918214">
        <ele>391.8602237254381</ele>
        <time>2022-03-17T11:54:32Z</time>
      </trkpt>
      <trkpt lat="34.31417057498005" lon="109.02533334974238">
        <ele>391.88912225700915</ele>
        <time>2022-03-17T11:54:40Z</time>
      </trkpt>
      <trkpt lat="34.31426623466546" lon="109.0253006769696">
        <ele>391.5115208681673</ele>
        <time>2022-03-17T11:54:42Z</time>
      </trkpt>
      <trkpt lat="34.31468084469131" lon="109.02501508391418">
        <ele>390.8727568918839</ele>
        <time>2022-03-17T11:54:52Z</time>
      </trkpt>
      <trkpt lat="34.31509347913723" lon="109.0246915596723">
        <ele>391.0540301958099</ele>
        <time>2022-03-17T11:55:02Z</time>
      </trkpt>
      <trkpt lat="34.31554823063117" lon="109.02441555855793">
        <ele>391.01373705174774</ele>
        <time>2022-03-17T11:55:12Z</time>
      </trkpt>
      <trkpt lat="34.31602279410703" lon="109.02415749427615">
        <ele>391.27751696202904</ele>
        <time>2022-03-17T11:55:22Z</time>
      </trkpt>
      <trkpt lat="34.31611621984475" lon="109.02411223147412">
        <ele>390.6169797675684</ele>
        <time>2022-03-17T11:55:24Z</time>
      </trkpt>
      <trkpt lat="34.316138067374105" lon="109.02394153710632">
        <ele>391.02418634761125</ele>
        <time>2022-03-17T11:55:28Z</time>
      </trkpt>
      <trkpt lat="34.31618658035302" lon="109.0237554517825">
        <ele>390.4983510300517</ele>
        <time>2022-03-17T11:55:32Z</time>
      </trkpt>
      <trkpt lat="34.31624142451245" lon="109.02366709459118">
        <ele>390.5934029184282</ele>
        <time>2022-03-17T11:55:34Z</time>
      </trkpt>
      <trkpt lat="34.31625114692612" lon="109.0235581164524">
        <ele>390.54917662777007</ele>
        <time>2022-03-17T11:55:36Z</time>
      </trkpt>
      <trkpt lat="34.3162113146772" lon="109.02335943664391">
        <ele>389.3710381966084</ele>
        <time>2022-03-17T11:55:40Z</time>
      </trkpt>
      <trkpt lat="34.31600986284211" lon="109.02285177893232">
        <ele>388.98475238122046</ele>
        <time>2022-03-17T11:55:50Z</time>
      </trkpt>
      <trkpt lat="34.31583816552017" lon="109.02240877063552">
        <ele>389.3088684529066</ele>
        <time>2022-03-17T11:56:00Z</time>
      </trkpt>
      <trkpt lat="34.31585323665353" lon="109.02226990927882">
        <ele>390.1977485110983</ele>
        <time>2022-03-17T11:56:04Z</time>
      </trkpt>
      <trkpt lat="34.31590756331995" lon="109.0221646646569">
        <ele>390.98190924245864</ele>
        <time>2022-03-17T11:56:16Z</time>
      </trkpt>
      <trkpt lat="34.31596858903327" lon="109.022109706509">
        <ele>390.9768759133294</ele>
        <time>2022-03-17T11:56:21Z</time>
      </trkpt>
      <trkpt lat="34.315904116225745" lon="109.02157785125418">
        <ele>392.16402033157647</ele>
        <time>2022-03-17T11:56:32Z</time>
      </trkpt>
      <trkpt lat="34.31588460166791" lon="109.02105178053587">
        <ele>395.28810791671276</ele>
        <time>2022-03-17T11:56:44Z</time>
      </trkpt>
      <trkpt lat="34.31586989833659" lon="109.02088087337414">
        <ele>395.60556077118963</ele>
        <time>2022-03-17T11:56:48Z</time>
      </trkpt>
      <trkpt lat="34.315881940466184" lon="109.02078376490077">
        <ele>395.3006936358288</ele>
        <time>2022-03-17T11:56:50Z</time>
      </trkpt>
      <trkpt lat="34.31586245912283" lon="109.02061994296852">
        <ele>395.7458795737475</ele>
        <time>2022-03-17T11:56:54Z</time>
      </trkpt>
      <trkpt lat="34.315893985344616" lon="109.02015721087686">
        <ele>396.6728578042239</ele>
        <time>2022-03-17T11:57:04Z</time>
      </trkpt>
      <trkpt lat="34.31585736836571" lon="109.01968186368902">
        <ele>399.11774032656103</ele>
        <time>2022-03-17T11:57:16Z</time>
      </trkpt>
      <trkpt lat="34.31585993327361" lon="109.01953296140232">
        <ele>399.65315336268395</ele>
        <time>2022-03-17T11:57:20Z</time>
      </trkpt>
      <trkpt lat="34.315816158514615" lon="109.01922119253311">
        <ele>400.96736756525934</ele>
        <time>2022-03-17T11:57:32Z</time>
      </trkpt>
      <trkpt lat="34.315866769077964" lon="109.01878231735601">
        <ele>401.2925227144733</ele>
        <time>2022-03-17T11:57:44Z</time>
      </trkpt>
      <trkpt lat="34.315784795322266" lon="109.01816695693299">
        <ele>403.5345639837906</ele>
        <time>2022-03-17T11:58:04Z</time>
      </trkpt>
      <trkpt lat="34.31576299346329" lon="109.01789350953275">
        <ele>404.29094037692994</ele>
        <time>2022-03-17T11:58:12Z</time>
      </trkpt>
      <trkpt lat="34.31578369769422" lon="109.01780392790381">
        <ele>404.4311678716913</ele>
        <time>2022-03-17T11:58:14Z</time>
      </trkpt>
      <trkpt lat="34.31577734282143" lon="109.01738815357497">
        <ele>405.269487763755</ele>
        <time>2022-03-17T11:58:24Z</time>
      </trkpt>
      <trkpt lat="34.31575218261715" lon="109.01729388026058">
        <ele>405.31950323842466</ele>
        <time>2022-03-17T11:58:26Z</time>
      </trkpt>
      <trkpt lat="34.315754765013935" lon="109.01718565263607">
        <ele>405.54207664728165</ele>
        <time>2022-03-17T11:58:28Z</time>
      </trkpt>
      <trkpt lat="34.31573909369569" lon="109.0170946650308">
        <ele>405.74876738432795</ele>
        <time>2022-03-17T11:58:30Z</time>
      </trkpt>
      <trkpt lat="34.315751388601235" lon="109.01700197485856">
        <ele>406.0351197756827</ele>
        <time>2022-03-17T11:58:32Z</time>
      </trkpt>
      <trkpt lat="34.315738084029675" lon="109.01667806988915">
        <ele>407.09195233974606</ele>
        <time>2022-03-17T11:58:38Z</time>
      </trkpt>
      <trkpt lat="34.3157344236867" lon="109.01599682459852">
        <ele>407.4557717246935</ele>
        <time>2022-03-17T11:58:52Z</time>
      </trkpt>
      <trkpt lat="34.31573514424554" lon="109.01545684938314">
        <ele>408.35834733303636</ele>
        <time>2022-03-17T11:59:04Z</time>
      </trkpt>
      <trkpt lat="34.31573770515084" lon="109.01519860457043">
        <ele>408.80985158029944</ele>
        <time>2022-03-17T11:59:10Z</time>
      </trkpt>
      <trkpt lat="34.31570615845784" lon="109.01504792010599">
        <ele>408.7508208844811</ele>
        <time>2022-03-17T11:59:14Z</time>
      </trkpt>
      <trkpt lat="34.315684780174095" lon="109.01465153273212">
        <ele>409.30821589846164</ele>
        <time>2022-03-17T11:59:24Z</time>
      </trkpt>
      <trkpt lat="34.315691973317186" lon="109.01456474401948">
        <ele>409.04449033364654</ele>
        <time>2022-03-17T11:59:26Z</time>
      </trkpt>
      <trkpt lat="34.31567815100315" lon="109.01442189391514">
        <ele>409.48319292161614</ele>
        <time>2022-03-17T11:59:30Z</time>
      </trkpt>
      <trkpt lat="34.31570088567615" lon="109.01410160698772">
        <ele>408.3432721402496</ele>
        <time>2022-03-17T11:59:38Z</time>
      </trkpt>
      <trkpt lat="34.31561311995928" lon="109.01352932546085">
        <ele>408.1516122147441</ele>
        <time>2022-03-17T11:59:54Z</time>
      </trkpt>
      <trkpt lat="34.315598664033786" lon="109.01337509770708">
        <ele>408.6354658314958</ele>
        <time>2022-03-17T11:59:58Z</time>
      </trkpt>
      <trkpt lat="34.3155393708066" lon="109.01311520832364">
        <ele>408.03444795589894</ele>
        <time>2022-03-17T12:00:06Z</time>
      </trkpt>
      <trkpt lat="34.31553051715313" lon="109.01294447226773">
        <ele>408.35376042313874</ele>
        <time>2022-03-17T12:00:10Z</time>
      </trkpt>
      <trkpt lat="34.315488272007634" lon="109.01278221324098">
        <ele>407.9248914849013</ele>
        <time>2022-03-17T12:00:14Z</time>
      </trkpt>
      <trkpt lat="34.31546963577888" lon="109.01255990518023">
        <ele>408.29543058853596</ele>
        <time>2022-03-17T12:00:18Z</time>
      </trkpt>
      <trkpt lat="34.31550381640064" lon="109.01204194203844">
        <ele>407.7212979188189</ele>
        <time>2022-03-17T12:00:24Z</time>
      </trkpt>
      <trkpt lat="34.31555802657617" lon="109.01163023764603">
        <ele>408.50287918467075</ele>
        <time>2022-03-17T12:00:28Z</time>
      </trkpt>
      <trkpt lat="34.31561995465143" lon="109.0113875037411">
        <ele>409.49630785081536</ele>
        <time>2022-03-17T12:00:32Z</time>
      </trkpt>
      <trkpt lat="34.31580919416895" lon="109.01115793106132">
        <ele>409.32219640444964</ele>
        <time>2022-03-17T12:00:36Z</time>
      </trkpt>
      <trkpt lat="34.316001231809096" lon="109.01082351784467">
        <ele>409.62472131010145</ele>
        <time>2022-03-17T12:00:40Z</time>
      </trkpt>
      <trkpt lat="34.316137677153854" lon="109.01063989374344">
        <ele>409.61653206311166</ele>
        <time>2022-03-17T12:00:42Z</time>
      </trkpt>
      <trkpt lat="34.316355347896476" lon="109.01020239046068">
        <ele>409.2982679028064</ele>
        <time>2022-03-17T12:00:46Z</time>
      </trkpt>
      <trkpt lat="34.31650747102818" lon="109.00994278708153">
        <ele>408.8625767054036</ele>
        <time>2022-03-17T12:00:48Z</time>
      </trkpt>
      <trkpt lat="34.31667925277806" lon="109.00979155526372">
        <ele>409.70919027738273</ele>
        <time>2022-03-17T12:00:50Z</time>
      </trkpt>
      <trkpt lat="34.31694208636294" lon="109.00965936568">
        <ele>409.31453544367105</ele>
        <time>2022-03-17T12:00:54Z</time>
      </trkpt>
      <trkpt lat="34.31741020486098" lon="109.00954456750868">
        <ele>409.19904062338173</ele>
        <time>2022-03-17T12:01:04Z</time>
      </trkpt>
      <trkpt lat="34.31778120366481" lon="109.00951154608315">
        <ele>409.9221224943176</ele>
        <time>2022-03-17T12:01:12Z</time>
      </trkpt>
      <trkpt lat="34.31809124690659" lon="109.00953351542229">
        <ele>409.72725911438465</ele>
        <time>2022-03-17T12:01:18Z</time>
      </trkpt>
      <trkpt lat="34.31830619569668" lon="109.00946120136855">
        <ele>409.5717210555449</ele>
        <time>2022-03-17T12:01:24Z</time>
      </trkpt>
      <trkpt lat="34.3184054002013" lon="109.00944542825344">
        <ele>409.2695759842172</ele>
        <time>2022-03-17T12:01:26Z</time>
      </trkpt>
      <trkpt lat="34.31863578517629" lon="109.00922413880379">
        <ele>409.3887283038348</ele>
        <time>2022-03-17T12:01:32Z</time>
      </trkpt>
      <trkpt lat="34.318667114996714" lon="109.00911317042336">
        <ele>408.8143962295726</ele>
        <time>2022-03-17T12:01:34Z</time>
      </trkpt>
      <trkpt lat="34.31864745647246" lon="109.00858738679138">
        <ele>408.2674334254116</ele>
        <time>2022-03-17T12:01:44Z</time>
      </trkpt>
      <trkpt lat="34.31865666001683" lon="109.0083627785722">
        <ele>408.45035121496767</ele>
        <time>2022-03-17T12:01:48Z</time>
      </trkpt>
      <trkpt lat="34.318621631857674" lon="109.00779637966457">
        <ele>409.58883685898036</ele>
        <time>2022-03-17T12:01:58Z</time>
      </trkpt>
      <trkpt lat="34.31861588125552" lon="109.00747262925">
        <ele>408.6710846517235</ele>
        <time>2022-03-17T12:02:04Z</time>
      </trkpt>
      <trkpt lat="34.318565672641284" lon="109.00738816970119">
        <ele>409.70873916801065</ele>
        <time>2022-03-17T12:02:06Z</time>
      </trkpt>
      <trkpt lat="34.31855032291259" lon="109.00729272465571">
        <ele>410.1263627903536</ele>
        <time>2022-03-17T12:02:08Z</time>
      </trkpt>
      <trkpt lat="34.31855753952456" lon="109.00707503316563">
        <ele>409.3304043756798</ele>
        <time>2022-03-17T12:02:12Z</time>
      </trkpt>
      <trkpt lat="34.31857488963305" lon="109.00697861474285">
        <ele>408.39624571893364</ele>
        <time>2022-03-17T12:02:14Z</time>
      </trkpt>
      <trkpt lat="34.318565624113106" lon="109.00687669245926">
        <ele>408.9354943167418</ele>
        <time>2022-03-17T12:02:16Z</time>
      </trkpt>
      <trkpt lat="34.318646084256045" lon="109.00661905754204">
        <ele>407.63001948129386</ele>
        <time>2022-03-17T12:02:20Z</time>
      </trkpt>
      <trkpt lat="34.31868462674366" lon="109.00638935472426">
        <ele>408.33400476071984</ele>
        <time>2022-03-17T12:02:24Z</time>
      </trkpt>
      <trkpt lat="34.3187023563213" lon="109.00584232372928">
        <ele>408.6561886873096</ele>
        <time>2022-03-17T12:02:34Z</time>
      </trkpt>
      <trkpt lat="34.3186936019978" lon="109.0057263513539">
        <ele>408.09732158482075</ele>
        <time>2022-03-17T12:02:36Z</time>
      </trkpt>
      <trkpt lat="34.31870916825021" lon="109.0056314622641">
        <ele>409.16940363962203</ele>
        <time>2022-03-17T12:02:38Z</time>
      </trkpt>
      <trkpt lat="34.31869984091267" lon="109.00540318975287">
        <ele>409.772068714723</ele>
        <time>2022-03-17T12:02:42Z</time>
      </trkpt>
      <trkpt lat="34.31873631248597" lon="109.00494831789409">
        <ele>411.64759840629995</ele>
        <time>2022-03-17T12:02:50Z</time>
      </trkpt>
      <trkpt lat="34.318720666094535" lon="109.00471775000284">
        <ele>410.75537501461804</ele>
        <time>2022-03-17T12:02:54Z</time>
      </trkpt>
      <trkpt lat="34.3187322028945" lon="109.0046076767807">
        <ele>411.51987782213837</ele>
        <time>2022-03-17T12:02:56Z</time>
      </trkpt>
      <trkpt lat="34.318786529998654" lon="109.0045250982947">
        <ele>411.30036705732346</ele>
        <time>2022-03-17T12:02:58Z</time>
      </trkpt>
      <trkpt lat="34.31885372494435" lon="109.0044579731036">
        <ele>411.11373136844486</ele>
        <time>2022-03-17T12:03:00Z</time>
      </trkpt>
      <trkpt lat="34.318931330408546" lon="109.00440863683654">
        <ele>409.85790483281016</ele>
        <time>2022-03-17T12:03:02Z</time>
      </trkpt>
      <trkpt lat="34.319020744918056" lon="109.00438483004756">
        <ele>409.4517034422606</ele>
        <time>2022-03-17T12:03:04Z</time>
      </trkpt>
      <trkpt lat="34.3193218520663" lon="109.00434557726221">
        <ele>409.42144664004445</ele>
        <time>2022-03-17T12:03:10Z</time>
      </trkpt>
      <trkpt lat="34.31979385632332" lon="109.00425808179038">
        <ele>408.083447069861</ele>
        <time>2022-03-17T12:03:20Z</time>
      </trkpt>
      <trkpt lat="34.32024332566293" lon="109.00416963060812">
        <ele>406.835590839386</ele>
        <time>2022-03-17T12:03:30Z</time>
      </trkpt>
      <trkpt lat="34.3205436973647" lon="109.00418844141204">
        <ele>407.1451242817566</ele>
        <time>2022-03-17T12:03:38Z</time>
      </trkpt>
      <trkpt lat="34.32062151833902" lon="109.00416969444427">
        <ele>406.8353692376986</ele>
        <time>2022-03-17T12:03:40Z</time>
      </trkpt>
      <trkpt lat="34.3208047537139" lon="109.00420569166701">
        <ele>406.60527910478413</ele>
        <time>2022-03-17T12:03:44Z</time>
      </trkpt>
      <trkpt lat="34.320931430239376" lon="109.00419789603676">
        <ele>406.07659181021154</ele>
        <time>2022-03-17T12:03:48Z</time>
      </trkpt>
      <trkpt lat="34.32133063223987" lon="109.00422042577668">
        <ele>404.4247357165441</ele>
        <time>2022-03-17T12:03:58Z</time>
      </trkpt>
      <trkpt lat="34.32185787110437" lon="109.00419144247948">
        <ele>404.26286187488586</ele>
        <time>2022-03-17T12:04:08Z</time>
      </trkpt>
      <trkpt lat="34.32234816610977" lon="109.00416992581702">
        <ele>401.95589535683393</ele>
        <time>2022-03-17T12:04:16Z</time>
      </trkpt>
      <trkpt lat="34.32288395770933" lon="109.00414206529976">
        <ele>398.7133838478476</ele>
        <time>2022-03-17T12:04:24Z</time>
      </trkpt>
      <trkpt lat="34.323024574731996" lon="109.00431046580239">
        <ele>398.56428203359246</ele>
        <time>2022-03-17T12:04:26Z</time>
      </trkpt>
      <trkpt lat="34.323162964479096" lon="109.00418142999936">
        <ele>397.454561910592</ele>
        <time>2022-03-17T12:04:28Z</time>
      </trkpt>
      <trkpt lat="34.32348407928685" lon="109.00419254784924">
        <ele>397.47811682429165</ele>
        <time>2022-03-17T12:04:36Z</time>
      </trkpt>
      <trkpt lat="34.3235298951298" lon="109.00428332478842">
        <ele>398.1030747126788</ele>
        <time>2022-03-17T12:04:44Z</time>
      </trkpt>
      <trkpt lat="34.32358577935351" lon="109.0042265555952">
        <ele>399.1535075949505</ele>
        <time>2022-03-17T12:05:01Z</time>
      </trkpt>
      <trkpt lat="34.323524454427535" lon="109.00391867029747">
        <ele>397.6711964579299</ele>
        <time>2022-03-17T12:05:10Z</time>
      </trkpt>
      <trkpt lat="34.323520309216995" lon="109.00347609173505">
        <ele>397.44199014268816</ele>
        <time>2022-03-17T12:05:20Z</time>
      </trkpt>
      <trkpt lat="34.32354352223674" lon="109.0033642819029">
        <ele>397.58304624818265</ele>
        <time>2022-03-17T12:05:22Z</time>
      </trkpt>
      <trkpt lat="34.32350060848702" lon="109.00329041491125">
        <ele>396.72667908482254</ele>
        <time>2022-03-17T12:05:26Z</time>
      </trkpt>
      <trkpt lat="34.32351376729993" lon="109.0031973852352">
        <ele>396.9151483718306</ele>
        <time>2022-03-17T12:05:30Z</time>
      </trkpt>
      <trkpt lat="34.323503600734696" lon="109.00310775477425">
        <ele>396.7417351687327</ele>
        <time>2022-03-17T12:05:34Z</time>
      </trkpt>
      <trkpt lat="34.32338845034868" lon="109.00294515500961">
        <ele>396.9775631725788</ele>
        <time>2022-03-17T12:05:40Z</time>
      </trkpt>
      <trkpt lat="34.32332477670771" lon="109.00280578211783">
        <ele>396.8957826476544</ele>
        <time>2022-03-17T12:05:44Z</time>
      </trkpt>
      <trkpt lat="34.32329092448584" lon="109.00255499563998">
        <ele>396.72416965663433</ele>
        <time>2022-03-17T12:05:50Z</time>
      </trkpt>
      <trkpt lat="34.323208504261466" lon="109.00235817497132">
        <ele>397.5860991412774</ele>
        <time>2022-03-17T12:05:54Z</time>
      </trkpt>
      <trkpt lat="34.32319654833339" lon="109.00208333956103">
        <ele>396.863194020465</ele>
        <time>2022-03-17T12:06:00Z</time>
      </trkpt>
      <trkpt lat="34.32316989258018" lon="109.00197819395561">
        <ele>397.2108902260661</ele>
        <time>2022-03-17T12:06:02Z</time>
      </trkpt>
      <trkpt lat="34.32318421877164" lon="109.0018292461749">
        <ele>397.24578548874706</ele>
        <time>2022-03-17T12:06:06Z</time>
      </trkpt>
      <trkpt lat="34.32321880017256" lon="109.00167505531796">
        <ele>397.48974915780127</ele>
        <time>2022-03-17T12:06:10Z</time>
      </trkpt>
      <trkpt lat="34.32321437223331" lon="109.00139387340417">
        <ele>397.94424341991544</ele>
        <time>2022-03-17T12:06:16Z</time>
      </trkpt>
      <trkpt lat="34.323338698652904" lon="109.00098310758509">
        <ele>396.45703278295696</ele>
        <time>2022-03-17T12:06:25Z</time>
      </trkpt>
      <trkpt lat="34.323389509360446" lon="109.00090025498669">
        <ele>395.9972715936601</ele>
        <time>2022-03-17T12:06:29Z</time>
      </trkpt>
      <trkpt lat="34.323432105685846" lon="109.00050026133385">
        <ele>395.59132787398994</ele>
        <time>2022-03-17T12:06:37Z</time>
      </trkpt>
      <trkpt lat="34.32336733896709" lon="109.00024902052073">
        <ele>395.29386836569756</ele>
        <time>2022-03-17T12:06:41Z</time>
      </trkpt>
      <trkpt lat="34.32336728493192" lon="109.00014637891928">
        <ele>394.9463453628123</ele>
        <time>2022-03-17T12:06:43Z</time>
      </trkpt>
      <trkpt lat="34.323447426079674" lon="108.999995210334">
        <ele>395.836577703245</ele>
        <time>2022-03-17T12:06:47Z</time>
      </trkpt>
      <trkpt lat="34.32357601325225" lon="108.99984023891577">
        <ele>395.6102081965655</ele>
        <time>2022-03-17T12:06:58Z</time>
      </trkpt>
      <trkpt lat="34.323683703402615" lon="109.00002176481115">
        <ele>394.56753290537745</ele>
        <time>2022-03-17T12:07:15Z</time>
      </trkpt>
      <trkpt lat="34.323630523591234" lon="109.00022194269182">
        <ele>394.49732938129455</ele>
        <time>2022-03-17T12:07:31Z</time>
      </trkpt>
      <trkpt lat="34.32363538555308" lon="109.00032139540775">
        <ele>395.1799652511254</ele>
        <time>2022-03-17T12:07:37Z</time>
      </trkpt>
      <trkpt lat="34.32356200731051" lon="109.00037253318379">
        <ele>395.2206702744588</ele>
        <time>2022-03-17T12:07:43Z</time>
      </trkpt>
      <trkpt lat="34.323515373549" lon="109.00036858327479">
        <ele>394.8968482250348</ele>
        <time>2022-03-17T12:07:49Z</time>
      </trkpt>
      <trkpt lat="34.32331059626966" lon="109.00037408691361">
        <ele>395.041450205259</ele>
        <time>2022-03-17T12:14:15Z</time>
      </trkpt>
      <trkpt lat="34.32337486978718" lon="109.00044085533868">
        <ele>394.91983346268535</ele>
        <time>2022-03-17T12:14:19Z</time>
      </trkpt>
      <trkpt lat="34.3233058017856" lon="109.0004216164561">
        <ele>394.5719766030088</ele>
        <time>2022-03-17T12:14:27Z</time>
      </trkpt>
      <trkpt lat="34.323329974314206" lon="109.0003917092438">
        <ele>394.8567272918299</ele>
        <time>2022-03-17T12:16:38Z</time>
      </trkpt>
      <trkpt lat="34.32367240141521" lon="109.00050080545867">
        <ele>371.04821026774914</ele>
        <time>2022-03-17T12:17:02Z</time>
      </trkpt>
      <trkpt lat="34.3236746064038" lon="109.00041145852383">
        <ele>373.8113708496094</ele>
        <time>2022-03-17T12:17:12Z</time>
      </trkpt>
      <trkpt lat="34.3236345173223" lon="109.00028982903237">
        <ele>372.04974365234375</ele>
        <time>2022-03-17T12:17:18Z</time>
      </trkpt>
      <trkpt lat="34.323673908055376" lon="109.00051315824534">
        <ele>371.2956237792969</ele>
        <time>2022-03-17T12:17:31Z</time>
      </trkpt>
      <trkpt lat="34.323631253055154" lon="109.0004132650371">
        <ele>371.1642150878906</ele>
        <time>2022-03-17T12:17:39Z</time>
      </trkpt>
      <trkpt lat="34.32365460785992" lon="109.00032565684579">
        <ele>371.0482177734375</ele>
        <time>2022-03-17T12:18:50Z</time>
      </trkpt>
      <trkpt lat="34.32366222883635" lon="109.00047417830382">
        <ele>371.0482177734375</ele>
        <time>2022-03-17T12:18:58Z</time>
      </trkpt>
      <trkpt lat="34.32366569933182" lon="109.00038427947982">
        <ele>371.0482177734375</ele>
        <time>2022-03-17T12:19:58Z</time>
      </trkpt>
      <trkpt lat="34.32360343799368" lon="109.00033202499046">
        <ele>371.0482177734375</ele>
        <time>2022-03-17T12:20:35Z</time>
      </trkpt>
      <trkpt lat="34.32371267234324" lon="109.00036250970386">
        <ele>371.0482177734375</ele>
        <time>2022-03-17T12:20:42Z</time>
      </trkpt>
      <trkpt lat="34.32363704238592" lon="109.00045400522846">
        <ele>371.0482177734375</ele>
        <time>2022-03-17T12:20:48Z</time>
      </trkpt>
      <trkpt lat="34.32374567964163" lon="109.00036129415214">
        <ele>371.0482177734375</ele>
        <time>2022-03-17T12:21:13Z</time>
      </trkpt>
      <trkpt lat="34.323682303112264" lon="109.00047720609808">
        <ele>371.0482177734375</ele>
        <time>2022-03-17T12:21:19Z</time>
      </trkpt>
      <trkpt lat="34.323642408647075" lon="109.00031483217057">
        <ele>371.0482177734375</ele>
        <time>2022-03-17T12:21:32Z</time>
      </trkpt>
      <trkpt lat="34.32367754901274" lon="109.00044859821264">
        <ele>371.0482177734375</ele>
        <time>2022-03-17T12:22:02Z</time>
      </trkpt>
      <trkpt lat="34.32361852515829" lon="109.00039491386292">
        <ele>371.0482177734375</ele>
        <time>2022-03-17T12:22:32Z</time>
      </trkpt>
      <trkpt lat="34.323715881095524" lon="109.000312891515">
        <ele>371.0482177734375</ele>
        <time>2022-03-17T12:22:52Z</time>
      </trkpt>
      <trkpt lat="34.32362762879099" lon="109.00035436321046">
        <ele>371.0482177734375</ele>
        <time>2022-03-17T12:22:53Z</time>
      </trkpt>
      <trkpt lat="34.323679323150344" lon="109.00043209782291">
        <ele>371.0482177734375</ele>
        <time>2022-03-17T12:23:00Z</time>
      </trkpt>
      <trkpt lat="34.32362995040784" lon="109.00023427044664">
        <ele>371.0482177734375</ele>
        <time>2022-03-17T12:23:13Z</time>
      </trkpt>
      <trkpt lat="34.32364275790603" lon="109.00038666049348">
        <ele>371.0482177734375</ele>
        <time>2022-03-17T12:23:21Z</time>
      </trkpt>
      <trkpt lat="34.323595741714655" lon="109.00027292057625">
        <ele>371.0482177734375</ele>
        <time>2022-03-17T12:24:01Z</time>
      </trkpt>
      <trkpt lat="34.32364700740406" lon="109.00034628877424">
        <ele>371.0482177734375</ele>
        <time>2022-03-17T12:24:23Z</time>
      </trkpt>
      <trkpt lat="34.32365860929488" lon="109.0004542417191">
        <ele>369.0870361328125</ele>
        <time>2022-03-17T12:25:02Z</time>
      </trkpt>
      <trkpt lat="34.32361673465121" lon="109.00033971172971">
        <ele>368.80145263671875</ele>
        <time>2022-03-17T12:25:18Z</time>
      </trkpt>
      <trkpt lat="34.32365319379176" lon="109.0004631278743">
        <ele>368.737060546875</ele>
        <time>2022-03-17T12:25:33Z</time>
      </trkpt>
      <trkpt lat="34.32364048261433" lon="109.00036218922511">
        <ele>368.7188415527344</ele>
        <time>2022-03-17T12:26:05Z</time>
      </trkpt>
      <trkpt lat="34.323683248507876" lon="109.00044599634808">
        <ele>368.71832275390625</ele>
        <time>2022-03-17T12:26:20Z</time>
      </trkpt>
      <trkpt lat="34.32364607956913" lon="109.00035740028524">
        <ele>368.7182312011719</ele>
        <time>2022-03-17T12:27:16Z</time>
      </trkpt>
      <trkpt lat="34.323657729675816" lon="109.00045261619019">
        <ele>368.7182312011719</ele>
        <time>2022-03-17T12:29:36Z</time>
      </trkpt>
      <trkpt lat="34.32362133960955" lon="109.00025731237706">
        <ele>368.7182312011719</ele>
        <time>2022-03-17T12:30:18Z</time>
      </trkpt>
      <trkpt lat="34.32368406687119" lon="109.00048804434476">
        <ele>368.7182312011719</ele>
        <time>2022-03-17T12:31:32Z</time>
      </trkpt>
      <trkpt lat="34.3236476178377" lon="109.00033088069983">
        <ele>368.7182312011719</ele>
        <time>2022-03-17T12:32:06Z</time>
      </trkpt>
      <trkpt lat="34.323633355731346" lon="109.00044388330146">
        <ele>368.7182312011719</ele>
        <time>2022-03-17T12:32:32Z</time>
      </trkpt>
      <trkpt lat="34.323630407722185" lon="109.00033561061923">
        <ele>368.7182312011719</ele>
        <time>2022-03-17T12:32:39Z</time>
      </trkpt>
      <trkpt lat="34.32364396989672" lon="109.00044337575979">
        <ele>368.7182312011719</ele>
        <time>2022-03-17T12:32:58Z</time>
      </trkpt>
      <trkpt lat="34.32361477032324" lon="109.00036152538799">
        <ele>368.7182312011719</ele>
        <time>2022-03-17T12:33:17Z</time>
      </trkpt>
      <trkpt lat="34.32366417105828" lon="109.00042807315779">
        <ele>366.7987060546875</ele>
        <time>2022-03-17T12:34:09Z</time>
      </trkpt>
      <trkpt lat="34.323629487470754" lon="109.00034491781275">
        <ele>366.6138000488281</ele>
        <time>2022-03-17T12:34:21Z</time>
      </trkpt>
      <trkpt lat="34.32371303524551" lon="109.00038698936756">
        <ele>366.448486328125</ele>
        <time>2022-03-17T12:35:26Z</time>
      </trkpt>
      <trkpt lat="34.323614099231754" lon="109.00027876281439">
        <ele>366.4483337402344</ele>
        <time>2022-03-17T12:35:32Z</time>
      </trkpt>
      <trkpt lat="34.32366545960913" lon="109.00038885463239">
        <ele>366.4482421875</ele>
        <time>2022-03-17T12:35:40Z</time>
      </trkpt>
      <trkpt lat="34.32359430945422" lon="109.00027543415743">
        <ele>366.4482116699219</ele>
        <time>2022-03-17T12:36:13Z</time>
      </trkpt>
      <trkpt lat="34.32362881807067" lon="109.00040939529053">
        <ele>366.4482116699219</ele>
        <time>2022-03-17T12:36:19Z</time>
      </trkpt>
      <trkpt lat="34.323612184920016" lon="109.00031621263486">
        <ele>366.4482116699219</ele>
        <time>2022-03-17T12:37:04Z</time>
      </trkpt>
      <trkpt lat="34.323640916972" lon="109.00043321168376">
        <ele>366.4482116699219</ele>
        <time>2022-03-17T12:37:17Z</time>
      </trkpt>
      <trkpt lat="34.3236420238533" lon="109.00031386490043">
        <ele>366.4482116699219</ele>
        <time>2022-03-17T12:39:02Z</time>
      </trkpt>
      <trkpt lat="34.3236535381186" lon="109.00044101712577">
        <ele>366.4482116699219</ele>
        <time>2022-03-17T12:39:09Z</time>
      </trkpt>
      <trkpt lat="34.323634379809384" lon="109.00035115128145">
        <ele>366.4482116699219</ele>
        <time>2022-03-17T12:39:21Z</time>
      </trkpt>
      <trkpt lat="34.323660828356374" lon="109.000458639422">
        <ele>366.4482116699219</ele>
        <time>2022-03-17T12:39:57Z</time>
      </trkpt>
      <trkpt lat="34.3236037610382" lon="109.00034599422928">
        <ele>366.4482116699219</ele>
        <time>2022-03-17T12:40:03Z</time>
      </trkpt>
      <trkpt lat="34.323747611206244" lon="109.00032119908064">
        <ele>366.4482116699219</ele>
        <time>2022-03-17T12:40:10Z</time>
      </trkpt>
      <trkpt lat="34.32363338004581" lon="109.0003546012955">
        <ele>366.4482116699219</ele>
        <time>2022-03-17T12:40:23Z</time>
      </trkpt>
      <trkpt lat="34.32364462507918" lon="109.00022928153497">
        <ele>366.4482116699219</ele>
        <time>2022-03-17T12:41:30Z</time>
      </trkpt>
      <trkpt lat="34.32362569948677" lon="109.00037810603031">
        <ele>366.4482116699219</ele>
        <time>2022-03-17T12:41:36Z</time>
      </trkpt>
      <trkpt lat="34.32359100261154" lon="109.0002404384405">
        <ele>366.4482116699219</ele>
        <time>2022-03-17T12:41:58Z</time>
      </trkpt>
      <trkpt lat="34.32365217569873" lon="109.00034211574878">
        <ele>366.4482116699219</ele>
        <time>2022-03-17T12:42:19Z</time>
      </trkpt>
      <trkpt lat="34.323617331631894" lon="109.00020038442769">
        <ele>366.4482116699219</ele>
        <time>2022-03-17T12:42:25Z</time>
      </trkpt>
      <trkpt lat="34.32367832844769" lon="109.00024995186769">
        <ele>395.17343643680215</ele>
        <time>2022-03-17T12:42:38Z</time>
      </trkpt>
      <trkpt lat="34.32376966802603" lon="109.00026505374423">
        <ele>395.4033256582916</ele>
        <time>2022-03-17T12:42:44Z</time>
      </trkpt>
      <trkpt lat="34.32351337165332" lon="109.00022337041715">
        <ele>394.8473902614787</ele>
        <time>2022-03-17T12:43:08Z</time>
      </trkpt>
      <trkpt lat="34.323305290399404" lon="109.00008589980204">
        <ele>394.59084516763687</ele>
        <time>2022-03-17T12:43:20Z</time>
      </trkpt>
      <trkpt lat="34.32332277466027" lon="109.00000144776122">
        <ele>395.0193757461384</ele>
        <time>2022-03-17T12:43:26Z</time>
      </trkpt>
      <trkpt lat="34.32337581723316" lon="108.99989869417821">
        <ele>394.73948970995843</ele>
        <time>2022-03-17T12:43:36Z</time>
      </trkpt>
      <trkpt lat="34.32345255785698" lon="108.99984653818791">
        <ele>395.19855327997357</ele>
        <time>2022-03-17T12:43:40Z</time>
      </trkpt>
      <trkpt lat="34.3234393436183" lon="108.99974630797682">
        <ele>395.9290015241131</ele>
        <time>2022-03-17T12:43:46Z</time>
      </trkpt>
      <trkpt lat="34.32349844545961" lon="108.99968321651149">
        <ele>395.06835163012147</ele>
        <time>2022-03-17T12:43:56Z</time>
      </trkpt>
      <trkpt lat="34.32364726981633" lon="108.99970054368288">
        <ele>394.9262862894684</ele>
        <time>2022-03-17T12:44:19Z</time>
      </trkpt>
      <trkpt lat="34.323722377817205" lon="108.99969696569642">
        <ele>395.80727597046643</ele>
        <time>2022-03-17T12:44:23Z</time>
      </trkpt>
      <trkpt lat="34.32380817230884" lon="108.99973014471901">
        <ele>395.4678593184799</ele>
        <time>2022-03-17T12:44:27Z</time>
      </trkpt>
      <trkpt lat="34.32397710512612" lon="108.9997569847438">
        <ele>395.6192722246051</ele>
        <time>2022-03-17T12:44:33Z</time>
      </trkpt>
      <trkpt lat="34.32404858859178" lon="108.99997765426312">
        <ele>395.4851664705202</ele>
        <time>2022-03-17T12:44:49Z</time>
      </trkpt>
      <trkpt lat="34.3240610591924" lon="109.00007813718673">
        <ele>395.15285821352154</ele>
        <time>2022-03-17T12:44:57Z</time>
      </trkpt>
      <trkpt lat="34.324120251365585" lon="109.00027344275873">
        <ele>395.02005380392075</ele>
        <time>2022-03-17T12:45:13Z</time>
      </trkpt>
      <trkpt lat="34.3241202631002" lon="109.00048034397159">
        <ele>395.07871199492365</ele>
        <time>2022-03-17T12:45:29Z</time>
      </trkpt>
      <trkpt lat="34.324203981597925" lon="109.0006525951574">
        <ele>394.9425831697881</ele>
        <time>2022-03-17T12:45:45Z</time>
      </trkpt>
      <trkpt lat="34.32417352645135" lon="109.00073368385934">
        <ele>395.16834192723036</ele>
        <time>2022-03-17T12:45:57Z</time>
      </trkpt>
      <trkpt lat="34.324133004785836" lon="109.00103289702129">
        <ele>395.21263880934566</ele>
        <time>2022-03-17T12:46:21Z</time>
      </trkpt>
      <trkpt lat="34.32414127130067" lon="109.00113185946859">
        <ele>395.50645421631634</ele>
        <time>2022-03-17T12:46:29Z</time>
      </trkpt>
      <trkpt lat="34.324046228241116" lon="109.00174113661133">
        <ele>396.30434049479663</ele>
        <time>2022-03-17T12:47:21Z</time>
      </trkpt>
      <trkpt lat="34.32406882896053" lon="109.00184442405022">
        <ele>395.9064007224515</ele>
        <time>2022-03-17T12:47:27Z</time>
      </trkpt>
      <trkpt lat="34.324066720475834" lon="109.00202734524089">
        <ele>394.8875038931146</ele>
        <time>2022-03-17T12:47:41Z</time>
      </trkpt>
      <trkpt lat="34.32409669464794" lon="109.00211687863849">
        <ele>394.49425860401243</ele>
        <time>2022-03-17T12:47:47Z</time>
      </trkpt>
      <trkpt lat="34.32410047275813" lon="109.00230148197247">
        <ele>394.6549797328189</ele>
        <time>2022-03-17T12:48:01Z</time>
      </trkpt>
      <trkpt lat="34.324136433102176" lon="109.00240364716188">
        <ele>394.4712061062455</ele>
        <time>2022-03-17T12:48:11Z</time>
      </trkpt>
      <trkpt lat="34.32410578789278" lon="109.00252738677834">
        <ele>394.5841471590102</ele>
        <time>2022-03-17T12:48:19Z</time>
      </trkpt>
      <trkpt lat="34.324134292198366" lon="109.00262152396675">
        <ele>394.08147046063095</ele>
        <time>2022-03-17T12:48:27Z</time>
      </trkpt>
      <trkpt lat="34.32418584562959" lon="109.00269875760567">
        <ele>393.54414190072566</ele>
        <time>2022-03-17T12:48:33Z</time>
      </trkpt>
      <trkpt lat="34.324243358416034" lon="109.00263354042751">
        <ele>393.5094087375328</ele>
        <time>2022-03-17T12:48:43Z</time>
      </trkpt>
      <trkpt lat="34.32432621866304" lon="109.00265869772761">
        <ele>393.84496674407274</ele>
        <time>2022-03-17T12:48:51Z</time>
      </trkpt>
      <trkpt lat="34.32439822061366" lon="109.0027276044607">
        <ele>393.7342324545607</ele>
        <time>2022-03-17T12:48:59Z</time>
      </trkpt>
      <trkpt lat="34.324492639953945" lon="109.00270748475941">
        <ele>393.7827087882906</ele>
        <time>2022-03-17T12:49:05Z</time>
      </trkpt>
      <trkpt lat="34.32468581172186" lon="109.00250646562841">
        <ele>395.64474000316113</ele>
        <time>2022-03-17T12:49:25Z</time>
      </trkpt>
      <trkpt lat="34.32471312684754" lon="109.00244642659116">
        <ele>395.9680787231773</ele>
        <time>2022-03-17T12:49:39Z</time>
      </trkpt>
      <trkpt lat="34.32485046117754" lon="109.00254806569288">
        <ele>396.43775441590697</ele>
        <time>2022-03-17T12:50:00Z</time>
      </trkpt>
      <trkpt lat="34.325026318849325" lon="109.00249213257734">
        <ele>396.743418848142</ele>
        <time>2022-03-17T12:50:10Z</time>
      </trkpt>
      <trkpt lat="34.32502438236749" lon="109.00256715779663">
        <ele>396.48297645151615</ele>
        <time>2022-03-17T12:50:18Z</time>
      </trkpt>
      <trkpt lat="34.325014980990304" lon="109.00295304829399">
        <ele>395.0976009843871</ele>
        <time>2022-03-17T12:50:47Z</time>
      </trkpt>
      <trkpt lat="34.32498234178723" lon="109.00304600402396">
        <ele>395.0073390593752</ele>
        <time>2022-03-17T12:50:55Z</time>
      </trkpt>
      <trkpt lat="34.325010544390224" lon="109.0029790508982">
        <ele>394.9036108935252</ele>
        <time>2022-03-17T12:51:07Z</time>
      </trkpt>
      <trkpt lat="34.32502357382374" lon="109.00266401814353">
        <ele>395.85384391527623</ele>
        <time>2022-03-17T12:51:24Z</time>
      </trkpt>
      <trkpt lat="34.32497563295465" lon="109.00248785583382">
        <ele>396.5813370728865</ele>
        <time>2022-03-17T12:51:38Z</time>
      </trkpt>
      <trkpt lat="34.32498042210215" lon="109.00239444546092">
        <ele>396.6651722397655</ele>
        <time>2022-03-17T12:51:46Z</time>
      </trkpt>
      <trkpt lat="34.32502558939454" lon="109.00231428590676">
        <ele>396.5737407607958</ele>
        <time>2022-03-17T12:51:52Z</time>
      </trkpt>
      <trkpt lat="34.32505990684205" lon="109.00239954297182">
        <ele>396.3855889355764</ele>
        <time>2022-03-17T12:52:02Z</time>
      </trkpt>
      <trkpt lat="34.325086909043804" lon="109.00228249667242">
        <ele>395.92192229628563</ele>
        <time>2022-03-17T12:52:11Z</time>
      </trkpt>
      <trkpt lat="34.325069638733794" lon="109.00196833508258">
        <ele>395.66006660368294</ele>
        <time>2022-03-17T12:52:41Z</time>
      </trkpt>
      <trkpt lat="34.32509136228495" lon="109.00186387873167">
        <ele>395.27141010109335</ele>
        <time>2022-03-17T12:52:53Z</time>
      </trkpt>
      <trkpt lat="34.32508802624747" lon="109.00177197605277">
        <ele>396.01123769488186</ele>
        <time>2022-03-17T12:53:03Z</time>
      </trkpt>
      <trkpt lat="34.32511923225024" lon="109.0015913368929">
        <ele>395.74600287061185</ele>
        <time>2022-03-17T12:53:25Z</time>
      </trkpt>
      <trkpt lat="34.324988765975284" lon="109.00080156320075">
        <ele>394.7187264068052</ele>
        <time>2022-03-17T12:54:48Z</time>
      </trkpt>
      <trkpt lat="34.32500468378521" lon="109.00071609994013">
        <ele>395.35029281303287</ele>
        <time>2022-03-17T12:54:58Z</time>
      </trkpt>
      <trkpt lat="34.32499264572318" lon="109.00068536517784">
        <ele>395.04961264133453</ele>
        <time>2022-03-17T12:55:00Z</time>
      </trkpt>
      <trkpt lat="34.32620862065484" lon="108.99934135236443">
        <ele>393.18613240867853</ele>
        <time>2022-03-17T12:59:16Z</time>
      </trkpt>
      <trkpt lat="34.326194868856085" lon="108.99923663120809">
        <ele>393.6334331361577</ele>
        <time>2022-03-17T12:59:24Z</time>
      </trkpt>
      <trkpt lat="34.32622999670534" lon="108.99920761000509">
        <ele>393.29208233673126</ele>
        <time>2022-03-17T12:59:41Z</time>
      </trkpt>
    </trkseg>
  </trk>
</gpx>