<?xml version="1.0" encoding="UTF-8"?>
<gpx xmlns="http://www.topografix.com/GPX/1/1" xmlns:gpxtpx="http://www.garmin.com/xmlschemas/TrackPointExtension/v1" xmlns:xsi="http://www.w3.org/2001/XMLSchema-instance" xsi:schemaLocation="http://www.topografix.com/GPX/1/1 http://www.topografix.com/GPX/1/1/gpx.xsd" version="1.1" creator="gpx.py -- https://github.com/tkrajina/gpxpy">
  <trk>
    <name>gpx from keep</name>
    <type>Run</type>
    <trkseg>
      <trkpt lat="34.29727178665591" lon="108.71050670507204">
        <ele>392.6167700231978</ele>
        <time>2026-08-18T22:59:43Z</time>
      </trkpt>
      <trkpt lat="34.29801778235451" lon="108.71054375612003">
        <ele>392.6924003522822</ele>
        <time>2026-08-18T23:00:02Z</time>
      </trkpt>
      <trkpt lat="34.297683431056235" lon="108.7105346677556">
        <ele>394.4226127701998</ele>
        <time>2026-08-18T23:00:12Z</time>
      </trkpt>
      <trkpt lat="34.29754957872575" lon="108.71061402285409">
        <ele>406.4265365600586</ele>
        <time>2026-08-18T23:00:38Z</time>
      </trkpt>
      <trkpt lat="34.29759655794897" lon="108.71058624771116">
        <ele>387.5116198854521</ele>
        <time>2026-08-18T23:00:41Z</time>
      </trkpt>
      <trkpt lat="34.29772517517304" lon="108.71032600507553">
        <ele>386.22267923969775</ele>
        <time>2026-08-18T23:00:45Z</time>
      </trkpt>
      <trkpt lat="34.29771825327446" lon="108.71020737955303">
        <ele>384.97743997815996</ele>
        <time>2026-08-18T23:00:54Z</time>
      </trkpt>
      <trkpt lat="34.297873646713825" lon="108.71015967008657">
        <ele>388.065391048789</ele>
        <time>2026-08-18T23:01:03Z</time>
      </trkpt>
      <trkpt lat="34.29798721225836" lon="108.7101731230605">
        <ele>388.2481501502916</ele>
        <time>2026-08-18T23:01:09Z</time>
      </trkpt>
      <trkpt lat="34.29803262015955" lon="108.71024528401702">
        <ele>388.9284389708191</ele>
        <time>2026-08-18T23:01:12Z</time>
      </trkpt>
      <trkpt lat="34.29809437955019" lon="108.71057381648815">
        <ele>389.1258107442409</ele>
        <time>2026-08-18T23:01:27Z</time>
      </trkpt>
      <trkpt lat="34.29807965297173" lon="108.71070427031465">
        <ele>388.24752288963646</ele>
        <time>2026-08-18T23:01:33Z</time>
      </trkpt>
      <trkpt lat="34.29809484465401" lon="108.71077744143547">
        <ele>388.96033437829465</ele>
        <time>2026-08-18T23:01:36Z</time>
      </trkpt>
      <trkpt lat="34.29808962357907" lon="108.71084275120991">
        <ele>388.5548901595175</ele>
        <time>2026-08-18T23:01:39Z</time>
      </trkpt>
      <trkpt lat="34.298161228629766" lon="108.71104840134262">
        <ele>389.3401877172291</ele>
        <time>2026-08-18T23:01:48Z</time>
      </trkpt>
      <trkpt lat="34.298186779941354" lon="108.71137162734553">
        <ele>390.2899268558249</ele>
        <time>2026-08-18T23:02:03Z</time>
      </trkpt>
      <trkpt lat="34.298165592981896" lon="108.71142051544273">
        <ele>389.0378517098725</ele>
        <time>2026-08-18T23:02:06Z</time>
      </trkpt>
      <trkpt lat="34.297897893555174" lon="108.71150604287351">
        <ele>388.6487249303609</ele>
        <time>2026-08-18T23:02:21Z</time>
      </trkpt>
      <trkpt lat="34.297598924294725" lon="108.71164566456297">
        <ele>388.87115769833326</ele>
        <time>2026-08-18T23:02:39Z</time>
      </trkpt>
      <trkpt lat="34.297309864895055" lon="108.71174106731009">
        <ele>389.7723715361208</ele>
        <time>2026-08-18T23:02:56Z</time>
      </trkpt>
      <trkpt lat="34.297040004901056" lon="108.71183875535128">
        <ele>389.46210004389286</ele>
        <time>2026-08-18T23:03:12Z</time>
      </trkpt>
      <trkpt lat="34.29699110344056" lon="108.71186840303189">
        <ele>388.90455825906247</ele>
        <time>2026-08-18T23:03:15Z</time>
      </trkpt>
      <trkpt lat="34.29693844346076" lon="108.71187319183494">
        <ele>390.0876628914848</ele>
        <time>2026-08-18T23:03:18Z</time>
      </trkpt>
      <trkpt lat="34.29664484469318" lon="108.71201998037174">
        <ele>389.4017356848344</ele>
        <time>2026-08-18T23:03:36Z</time>
      </trkpt>
      <trkpt lat="34.29644027427399" lon="108.71209877614604">
        <ele>389.3542733732611</ele>
        <time>2026-08-18T23:03:48Z</time>
      </trkpt>
      <trkpt lat="34.296390389682394" lon="108.7120862939189">
        <ele>389.1821623938158</ele>
        <time>2026-08-18T23:03:51Z</time>
      </trkpt>
      <trkpt lat="34.29631734425935" lon="108.71200323493714">
        <ele>388.30876141693443</ele>
        <time>2026-08-18T23:03:57Z</time>
      </trkpt>
      <trkpt lat="34.29627745716175" lon="108.7116654583514">
        <ele>388.74352254904807</ele>
        <time>2026-08-18T23:04:15Z</time>
      </trkpt>
      <trkpt lat="34.29623129921833" lon="108.71132183611026">
        <ele>390.16010738164186</ele>
        <time>2026-08-18T23:04:33Z</time>
      </trkpt>
      <trkpt lat="34.296205377937426" lon="108.71096371853133">
        <ele>390.00298590492457</ele>
        <time>2026-08-18T23:04:51Z</time>
      </trkpt>
      <trkpt lat="34.29615568649905" lon="108.71066824215431">
        <ele>389.548499208875</ele>
        <time>2026-08-18T23:05:06Z</time>
      </trkpt>
      <trkpt lat="34.29610448268126" lon="108.71060139092286">
        <ele>390.3889385201037</ele>
        <time>2026-08-18T23:05:10Z</time>
      </trkpt>
      <trkpt lat="34.2961119646829" lon="108.7105145842901">
        <ele>390.12313013803214</ele>
        <time>2026-08-18T23:05:14Z</time>
      </trkpt>
      <trkpt lat="34.29607301968581" lon="108.71034840015517">
        <ele>391.10938935913146</ele>
        <time>2026-08-18T23:05:23Z</time>
      </trkpt>
      <trkpt lat="34.296086426120766" lon="108.71025822975288">
        <ele>390.2049481496215</ele>
        <time>2026-08-18T23:05:29Z</time>
      </trkpt>
      <trkpt lat="34.29605797459879" lon="108.71016638921104">
        <ele>390.52723623998463</ele>
        <time>2026-08-18T23:05:35Z</time>
      </trkpt>
      <trkpt lat="34.296017858619734" lon="108.70984329747797">
        <ele>390.93378930166364</ele>
        <time>2026-08-18T23:05:53Z</time>
      </trkpt>
      <trkpt lat="34.29599198595938" lon="108.70963788735129">
        <ele>389.85588633827865</ele>
        <time>2026-08-18T23:06:05Z</time>
      </trkpt>
      <trkpt lat="34.29596945259656" lon="108.70956737144517">
        <ele>390.77309170924127</ele>
        <time>2026-08-18T23:06:11Z</time>
      </trkpt>
      <trkpt lat="34.295984844050245" lon="108.70947153876844">
        <ele>389.29540654923767</ele>
        <time>2026-08-18T23:06:17Z</time>
      </trkpt>
      <trkpt lat="34.295920533732854" lon="108.70911012033771">
        <ele>390.9227965166792</ele>
        <time>2026-08-18T23:06:35Z</time>
      </trkpt>
      <trkpt lat="34.29591350718257" lon="108.70889341049529">
        <ele>390.2486036196351</ele>
        <time>2026-08-18T23:06:47Z</time>
      </trkpt>
      <trkpt lat="34.295889525705476" lon="108.70883898572836">
        <ele>390.5481246942654</ele>
        <time>2026-08-18T23:06:50Z</time>
      </trkpt>
      <trkpt lat="34.29589176642463" lon="108.70873097845605">
        <ele>390.5341385900974</ele>
        <time>2026-08-18T23:06:56Z</time>
      </trkpt>
      <trkpt lat="34.295837468299666" lon="108.70862046575898">
        <ele>390.3455197894946</ele>
        <time>2026-08-18T23:07:03Z</time>
      </trkpt>
      <trkpt lat="34.295825309421886" lon="108.70826686887534">
        <ele>389.97773809172213</ele>
        <time>2026-08-18T23:07:22Z</time>
      </trkpt>
      <trkpt lat="34.29583363495384" lon="108.70820815366989">
        <ele>390.8867829628289</ele>
        <time>2026-08-18T23:07:25Z</time>
      </trkpt>
      <trkpt lat="34.29579258953876" lon="108.70795796361799">
        <ele>388.04511198215187</ele>
        <time>2026-08-18T23:07:40Z</time>
      </trkpt>
      <trkpt lat="34.29579017688798" lon="108.7078624994664">
        <ele>389.67378707416356</ele>
        <time>2026-08-18T23:07:46Z</time>
      </trkpt>
      <trkpt lat="34.29577120338831" lon="108.70778209712519">
        <ele>389.37978250160813</ele>
        <time>2026-08-18T23:07:52Z</time>
      </trkpt>
      <trkpt lat="34.2957950584144" lon="108.70763377314542">
        <ele>390.3316500559449</ele>
        <time>2026-08-18T23:08:01Z</time>
      </trkpt>
      <trkpt lat="34.295769263380755" lon="108.70747230860836">
        <ele>391.23545361030847</ele>
        <time>2026-08-18T23:08:10Z</time>
      </trkpt>
      <trkpt lat="34.29578120248458" lon="108.70741294920602">
        <ele>390.72034781146795</ele>
        <time>2026-08-18T23:08:13Z</time>
      </trkpt>
      <trkpt lat="34.29574868827682" lon="108.70734975319193">
        <ele>391.0585213024169</ele>
        <time>2026-08-18T23:08:19Z</time>
      </trkpt>
      <trkpt lat="34.29573586906853" lon="108.70724823595384">
        <ele>391.0016936250031</ele>
        <time>2026-08-18T23:08:25Z</time>
      </trkpt>
      <trkpt lat="34.29574810231184" lon="108.70705615148685">
        <ele>390.1649178173393</ele>
        <time>2026-08-18T23:08:37Z</time>
      </trkpt>
      <trkpt lat="34.29572862994726" lon="108.70687344007001">
        <ele>389.9435611907393</ele>
        <time>2026-08-18T23:08:46Z</time>
      </trkpt>
      <trkpt lat="34.2956956441579" lon="108.70683210993836">
        <ele>390.04483150318265</ele>
        <time>2026-08-18T23:08:49Z</time>
      </trkpt>
      <trkpt lat="34.29570599181737" lon="108.70671927872353">
        <ele>389.97046751808375</ele>
        <time>2026-08-18T23:08:55Z</time>
      </trkpt>
      <trkpt lat="34.29567602046856" lon="108.70640869915485">
        <ele>389.4630642142147</ele>
        <time>2026-08-18T23:09:11Z</time>
      </trkpt>
      <trkpt lat="34.29579400709409" lon="108.70612098404236">
        <ele>388.45253854896873</ele>
        <time>2026-08-18T23:09:27Z</time>
      </trkpt>
      <trkpt lat="34.29583661031767" lon="108.70607504346195">
        <ele>389.90826666075736</ele>
        <time>2026-08-18T23:09:31Z</time>
      </trkpt>
      <trkpt lat="34.29600438923789" lon="108.7060266776721">
        <ele>390.24390223808587</ele>
        <time>2026-08-18T23:09:43Z</time>
      </trkpt>
      <trkpt lat="34.296285479867066" lon="108.70599486646769">
        <ele>388.84371051285416</ele>
        <time>2026-08-18T23:10:01Z</time>
      </trkpt>
      <trkpt lat="34.29656096445044" lon="108.70596086327822">
        <ele>388.40234694536775</ele>
        <time>2026-08-18T23:10:19Z</time>
      </trkpt>
      <trkpt lat="34.29685585242694" lon="108.70590228721403">
        <ele>389.4217603346333</ele>
        <time>2026-08-18T23:10:37Z</time>
      </trkpt>
      <trkpt lat="34.29715947854538" lon="108.7058627895619">
        <ele>387.92551152408123</ele>
        <time>2026-08-18T23:10:55Z</time>
      </trkpt>
      <trkpt lat="34.29730819180743" lon="108.70583978279808">
        <ele>388.82880413811654</ele>
        <time>2026-08-18T23:11:04Z</time>
      </trkpt>
      <trkpt lat="34.297403843184796" lon="108.70580342686611">
        <ele>388.75608135107905</ele>
        <time>2026-08-18T23:11:10Z</time>
      </trkpt>
      <trkpt lat="34.29770681634784" lon="108.70575375962942">
        <ele>388.0038214782253</ele>
        <time>2026-08-18T23:11:29Z</time>
      </trkpt>
      <trkpt lat="34.29800362330036" lon="108.70570464248472">
        <ele>387.5761080114171</ele>
        <time>2026-08-18T23:11:48Z</time>
      </trkpt>
      <trkpt lat="34.298345792625256" lon="108.70563931130219">
        <ele>388.0354803930968</ele>
        <time>2026-08-18T23:12:09Z</time>
      </trkpt>
      <trkpt lat="34.298635189351934" lon="108.70558193447525">
        <ele>389.5430896105245</ele>
        <time>2026-08-18T23:12:27Z</time>
      </trkpt>
      <trkpt lat="34.29896772766286" lon="108.70552835339782">
        <ele>388.8874153038487</ele>
        <time>2026-08-18T23:12:48Z</time>
      </trkpt>
      <trkpt lat="34.29901382681733" lon="108.70549984405221">
        <ele>389.85316115245223</ele>
        <time>2026-08-18T23:12:51Z</time>
      </trkpt>
      <trkpt lat="34.2992406390641" lon="108.70546592308149">
        <ele>390.95978377293795</ele>
        <time>2026-08-18T23:13:06Z</time>
      </trkpt>
      <trkpt lat="34.29923938237018" lon="108.70553209229271">
        <ele>391.20239831507206</ele>
        <time>2026-08-18T23:13:09Z</time>
      </trkpt>
      <trkpt lat="34.29895420174466" lon="108.7056050702903">
        <ele>390.1768174376339</ele>
        <time>2026-08-18T23:13:26Z</time>
      </trkpt>
      <trkpt lat="34.298662950535785" lon="108.70566682093039">
        <ele>389.13057006616145</ele>
        <time>2026-08-18T23:13:43Z</time>
      </trkpt>
      <trkpt lat="34.29834398137707" lon="108.70570716222089">
        <ele>389.35513976961374</ele>
        <time>2026-08-18T23:14:04Z</time>
      </trkpt>
      <trkpt lat="34.29819405408468" lon="108.7057374446059">
        <ele>389.5831073606387</ele>
        <time>2026-08-18T23:14:13Z</time>
      </trkpt>
      <trkpt lat="34.298104217049584" lon="108.70573755771434">
        <ele>389.23635860625654</ele>
        <time>2026-08-18T23:14:19Z</time>
      </trkpt>
      <trkpt lat="34.29782827374307" lon="108.70580023109079">
        <ele>388.0518373157829</ele>
        <time>2026-08-18T23:14:37Z</time>
      </trkpt>
      <trkpt lat="34.29753518682264" lon="108.7058714512116">
        <ele>388.54425052087754</ele>
        <time>2026-08-18T23:14:55Z</time>
      </trkpt>
      <trkpt lat="34.297253312512076" lon="108.7059237415072">
        <ele>388.4911673022434</ele>
        <time>2026-08-18T23:15:13Z</time>
      </trkpt>
      <trkpt lat="34.296924395039234" lon="108.70598232015773">
        <ele>388.78287820052356</ele>
        <time>2026-08-18T23:15:33Z</time>
      </trkpt>
      <trkpt lat="34.296640582455126" lon="108.70602903805147">
        <ele>389.3595100976527</ele>
        <time>2026-08-18T23:15:50Z</time>
      </trkpt>
      <trkpt lat="34.29649277399041" lon="108.70607172645524">
        <ele>389.7164478292689</ele>
        <time>2026-08-18T23:15:59Z</time>
      </trkpt>
      <trkpt lat="34.296343571839685" lon="108.70607494705294">
        <ele>388.4603055147454</ele>
        <time>2026-08-18T23:16:11Z</time>
      </trkpt>
      <trkpt lat="34.296274487035795" lon="108.7061048056303">
        <ele>389.56891285069287</ele>
        <time>2026-08-18T23:16:17Z</time>
      </trkpt>
      <trkpt lat="34.29602596986842" lon="108.70613975252512">
        <ele>388.5413410849869</ele>
        <time>2026-08-18T23:16:38Z</time>
      </trkpt>
      <trkpt lat="34.295835271225165" lon="108.70615352517628">
        <ele>389.1786486264318</ele>
        <time>2026-08-18T23:16:50Z</time>
      </trkpt>
      <trkpt lat="34.29579157180599" lon="108.7061318988834">
        <ele>389.4631756497547</ele>
        <time>2026-08-18T23:16:53Z</time>
      </trkpt>
      <trkpt lat="34.29581006127466" lon="108.70607161690994">
        <ele>388.9410478482023</ele>
        <time>2026-08-18T23:16:56Z</time>
      </trkpt>
      <trkpt lat="34.296134814694135" lon="108.70601484798149">
        <ele>389.17237958405167</ele>
        <time>2026-08-18T23:17:17Z</time>
      </trkpt>
      <trkpt lat="34.296419786902" lon="108.70595650612795">
        <ele>389.7842668648809</ele>
        <time>2026-08-18T23:17:33Z</time>
      </trkpt>
      <trkpt lat="34.29648606399005" lon="108.70596589027876">
        <ele>388.388216977939</ele>
        <time>2026-08-18T23:17:37Z</time>
      </trkpt>
      <trkpt lat="34.29676801540995" lon="108.70590063651616">
        <ele>389.05572992935777</ele>
        <time>2026-08-18T23:17:54Z</time>
      </trkpt>
      <trkpt lat="34.297034859313584" lon="108.70587437694051">
        <ele>389.0166493039578</ele>
        <time>2026-08-18T23:18:09Z</time>
      </trkpt>
      <trkpt lat="34.297091155914416" lon="108.70585468022018">
        <ele>388.46333076804876</ele>
        <time>2026-08-18T23:18:12Z</time>
      </trkpt>
      <trkpt lat="34.297247755832736" lon="108.70584856290222">
        <ele>388.7661488847807</ele>
        <time>2026-08-18T23:18:21Z</time>
      </trkpt>
      <trkpt lat="34.297500429681385" lon="108.70578785109052">
        <ele>388.9887811765075</ele>
        <time>2026-08-18T23:18:36Z</time>
      </trkpt>
      <trkpt lat="34.29754748377636" lon="108.70580170468145">
        <ele>387.5257676523179</ele>
        <time>2026-08-18T23:18:39Z</time>
      </trkpt>
      <trkpt lat="34.29781107146062" lon="108.7057334702101">
        <ele>387.4404701311141</ele>
        <time>2026-08-18T23:18:54Z</time>
      </trkpt>
      <trkpt lat="34.29796235560149" lon="108.70571519353813">
        <ele>388.31163371074945</ele>
        <time>2026-08-18T23:19:03Z</time>
      </trkpt>
      <trkpt lat="34.298270128992456" lon="108.70565236539159">
        <ele>389.0722014643252</ele>
        <time>2026-08-18T23:19:21Z</time>
      </trkpt>
      <trkpt lat="34.298550443997684" lon="108.70559687724322">
        <ele>389.0087967803702</ele>
        <time>2026-08-18T23:19:40Z</time>
      </trkpt>
      <trkpt lat="34.29875868561993" lon="108.70554784241486">
        <ele>389.1732658324763</ele>
        <time>2026-08-18T23:19:57Z</time>
      </trkpt>
      <trkpt lat="34.2990135200485" lon="108.70550196184271">
        <ele>390.43438180722296</ele>
        <time>2026-08-18T23:20:15Z</time>
      </trkpt>
      <trkpt lat="34.29908467774373" lon="108.70547245106968">
        <ele>391.3288865061477</ele>
        <time>2026-08-18T23:20:21Z</time>
      </trkpt>
      <trkpt lat="34.2992243839211" lon="108.70546256614604">
        <ele>390.7263510916382</ele>
        <time>2026-08-18T23:20:33Z</time>
      </trkpt>
      <trkpt lat="34.29931069017378" lon="108.70558534015936">
        <ele>390.83043207693845</ele>
        <time>2026-08-18T23:20:42Z</time>
      </trkpt>
      <trkpt lat="34.299358402822946" lon="108.70583549162626">
        <ele>391.18097911868244</ele>
        <time>2026-08-18T23:20:54Z</time>
      </trkpt>
      <trkpt lat="34.299352207802364" lon="108.70590423495956">
        <ele>391.34077049884945</ele>
        <time>2026-08-18T23:20:57Z</time>
      </trkpt>
      <trkpt lat="34.299396681993805" lon="108.70601461137245">
        <ele>391.390848191455</ele>
        <time>2026-08-18T23:21:03Z</time>
      </trkpt>
      <trkpt lat="34.29942648283883" lon="108.70638057879448">
        <ele>390.44230961520225</ele>
        <time>2026-08-18T23:21:21Z</time>
      </trkpt>
      <trkpt lat="34.29943271069488" lon="108.70649968029352">
        <ele>388.9424202982336</ele>
        <time>2026-08-18T23:21:27Z</time>
      </trkpt>
      <trkpt lat="34.299471319848514" lon="108.70670060607841">
        <ele>389.68694315385073</ele>
        <time>2026-08-18T23:21:36Z</time>
      </trkpt>
      <trkpt lat="34.29946924024844" lon="108.70677538678638">
        <ele>390.67428297083825</ele>
        <time>2026-08-18T23:21:39Z</time>
      </trkpt>
      <trkpt lat="34.299515263291795" lon="108.70697997488428">
        <ele>390.65290979202837</ele>
        <time>2026-08-18T23:21:53Z</time>
      </trkpt>
      <trkpt lat="34.29955746810617" lon="108.70702291157255">
        <ele>391.4314983021468</ele>
        <time>2026-08-18T23:21:57Z</time>
      </trkpt>
      <trkpt lat="34.29961151983887" lon="108.7070353443825">
        <ele>390.7004025960341</ele>
        <time>2026-08-18T23:22:00Z</time>
      </trkpt>
      <trkpt lat="34.2996205417472" lon="108.70710035331577">
        <ele>390.50319080706686</ele>
        <time>2026-08-18T23:22:03Z</time>
      </trkpt>
      <trkpt lat="34.299568027552475" lon="108.70720928681392">
        <ele>389.8527119755745</ele>
        <time>2026-08-18T23:22:09Z</time>
      </trkpt>
      <trkpt lat="34.29952427276384" lon="108.70725948490556">
        <ele>388.745799748227</ele>
        <time>2026-08-18T23:22:12Z</time>
      </trkpt>
      <trkpt lat="34.29949882351678" lon="108.70745681951432">
        <ele>390.2275083325803</ele>
        <time>2026-08-18T23:22:21Z</time>
      </trkpt>
      <trkpt lat="34.2995357945265" lon="108.70763653035158">
        <ele>390.92915927711874</ele>
        <time>2026-08-18T23:22:30Z</time>
      </trkpt>
      <trkpt lat="34.29950885909545" lon="108.70777330802285">
        <ele>388.39615464862436</ele>
        <time>2026-08-18T23:22:39Z</time>
      </trkpt>
      <trkpt lat="34.299561896235986" lon="108.7079131253678">
        <ele>390.4835271984339</ele>
        <time>2026-08-18T23:22:48Z</time>
      </trkpt>
      <trkpt lat="34.29959147899015" lon="108.70813882124457">
        <ele>389.844167759642</ele>
        <time>2026-08-18T23:23:00Z</time>
      </trkpt>
      <trkpt lat="34.299659754602686" lon="108.7083634618457">
        <ele>388.76932611037046</ele>
        <time>2026-08-18T23:23:15Z</time>
      </trkpt>
      <trkpt lat="34.29972515359374" lon="108.70835892149681">
        <ele>390.2035969104618</ele>
        <time>2026-08-18T23:23:18Z</time>
      </trkpt>
      <trkpt lat="34.29976255065932" lon="108.70839350884373">
        <ele>390.27545434609056</ele>
        <time>2026-08-18T23:23:21Z</time>
      </trkpt>
      <trkpt lat="34.29981135158808" lon="108.70857110639948">
        <ele>391.9202975202352</ele>
        <time>2026-08-18T23:23:30Z</time>
      </trkpt>
      <trkpt lat="34.29981768499465" lon="108.7087081953564">
        <ele>390.8239318644628</ele>
        <time>2026-08-18T23:23:36Z</time>
      </trkpt>
      <trkpt lat="34.29980505904282" lon="108.7087624343517">
        <ele>390.4119050670415</ele>
        <time>2026-08-18T23:23:39Z</time>
      </trkpt>
      <trkpt lat="34.29982384585541" lon="108.70881187789585">
        <ele>390.9276167023927</ele>
        <time>2026-08-18T23:23:42Z</time>
      </trkpt>
      <trkpt lat="34.2996991799967" lon="108.70884163716725">
        <ele>390.40546509996057</ele>
        <time>2026-08-18T23:23:52Z</time>
      </trkpt>
      <trkpt lat="34.29969051346813" lon="108.708903316623">
        <ele>390.0235916553065</ele>
        <time>2026-08-18T23:23:55Z</time>
      </trkpt>
      <trkpt lat="34.29969565892374" lon="108.7092247852788">
        <ele>389.3317106803879</ele>
        <time>2026-08-18T23:24:10Z</time>
      </trkpt>
      <trkpt lat="34.299741981550184" lon="108.70936045489906">
        <ele>389.7626992613077</ele>
        <time>2026-08-18T23:24:16Z</time>
      </trkpt>
      <trkpt lat="34.29972543298824" lon="108.7094110250238">
        <ele>389.4788306672126</ele>
        <time>2026-08-18T23:24:19Z</time>
      </trkpt>
      <trkpt lat="34.29973000515805" lon="108.70951101915497">
        <ele>390.23787159100175</ele>
        <time>2026-08-18T23:24:25Z</time>
      </trkpt>
      <trkpt lat="34.299821033650645" lon="108.70956111155138">
        <ele>391.0355931809172</ele>
        <time>2026-08-18T23:24:34Z</time>
      </trkpt>
      <trkpt lat="34.299828111134495" lon="108.70962479420544">
        <ele>390.6680936748162</ele>
        <time>2026-08-18T23:24:37Z</time>
      </trkpt>
      <trkpt lat="34.29977522118604" lon="108.7098199358768">
        <ele>390.16779546346515</ele>
        <time>2026-08-18T23:24:46Z</time>
      </trkpt>
      <trkpt lat="34.29979382277918" lon="108.70988338878753">
        <ele>390.0452438797802</ele>
        <time>2026-08-18T23:24:49Z</time>
      </trkpt>
      <trkpt lat="34.29978092938437" lon="108.71000391947172">
        <ele>389.91072611231357</ele>
        <time>2026-08-18T23:24:55Z</time>
      </trkpt>
      <trkpt lat="34.299794306862694" lon="108.71006865814243">
        <ele>389.8945542657748</ele>
        <time>2026-08-18T23:24:58Z</time>
      </trkpt>
      <trkpt lat="34.29990578570235" lon="108.71022619008092">
        <ele>390.50132158678025</ele>
        <time>2026-08-18T23:25:07Z</time>
      </trkpt>
      <trkpt lat="34.299865222383666" lon="108.7103153902445">
        <ele>390.74019052647054</ele>
        <time>2026-08-18T23:25:13Z</time>
      </trkpt>
      <trkpt lat="34.29970552413558" lon="108.71051210254888">
        <ele>390.41421291045845</ele>
        <time>2026-08-18T23:25:28Z</time>
      </trkpt>
      <trkpt lat="34.29949997460456" lon="108.71060628742472">
        <ele>393.58346911147237</ele>
        <time>2026-08-18T23:25:46Z</time>
      </trkpt>
      <trkpt lat="34.2995085230625" lon="108.71079576221982">
        <ele>392.3714791107923</ele>
        <time>2026-08-18T23:25:59Z</time>
      </trkpt>
      <trkpt lat="34.299451792646344" lon="108.7108292958224">
        <ele>391.8315587518737</ele>
        <time>2026-08-18T23:26:02Z</time>
      </trkpt>
      <trkpt lat="34.299436129231665" lon="108.7108907217913">
        <ele>390.49481769278646</ele>
        <time>2026-08-18T23:27:05Z</time>
      </trkpt>
      <trkpt lat="34.29931299674499" lon="108.71088320688762">
        <ele>389.81077544763684</ele>
        <time>2026-08-18T23:27:11Z</time>
      </trkpt>
      <trkpt lat="34.29905487893857" lon="108.71100179739334">
        <ele>390.11248731426895</ele>
        <time>2026-08-18T23:27:32Z</time>
      </trkpt>
      <trkpt lat="34.29873460102374" lon="108.71113146762326">
        <ele>389.3013586997986</ele>
        <time>2026-08-18T23:27:56Z</time>
      </trkpt>
      <trkpt lat="34.29843027981077" lon="108.71128612869391">
        <ele>388.442458583042</ele>
        <time>2026-08-18T23:28:21Z</time>
      </trkpt>
      <trkpt lat="34.298365757901294" lon="108.71134146725933">
        <ele>390.1332487463951</ele>
        <time>2026-08-18T23:28:27Z</time>
      </trkpt>
      <trkpt lat="34.29818657665965" lon="108.71139466686333">
        <ele>388.79419096931815</ele>
        <time>2026-08-18T23:28:39Z</time>
      </trkpt>
      <trkpt lat="34.29816350963157" lon="108.71125782012764">
        <ele>385.27995658665895</ele>
        <time>2026-08-18T23:28:45Z</time>
      </trkpt>
      <trkpt lat="34.29816832723798" lon="108.71117025063374">
        <ele>386.0704972902313</ele>
        <time>2026-08-18T23:28:48Z</time>
      </trkpt>
      <trkpt lat="34.2980754315468" lon="108.71094734288755">
        <ele>387.5276383375749</ele>
        <time>2026-08-18T23:29:00Z</time>
      </trkpt>
      <trkpt lat="34.298050345171816" lon="108.71057356505686">
        <ele>390.37280215416104</ele>
        <time>2026-08-18T23:29:27Z</time>
      </trkpt>
      <trkpt lat="34.29795771289773" lon="108.71023044757007">
        <ele>387.8640975691378</ele>
        <time>2026-08-18T23:29:48Z</time>
      </trkpt>
      <trkpt lat="34.29793292438226" lon="108.71018455742417">
        <ele>388.6693680938333</ele>
        <time>2026-08-18T23:29:54Z</time>
      </trkpt>
      <trkpt lat="34.29773346684775" lon="108.71022870541806">
        <ele>388.87394326459616</ele>
        <time>2026-08-18T23:30:10Z</time>
      </trkpt>
      <trkpt lat="34.29777342032251" lon="108.71037036400364">
        <ele>387.77160181012005</ele>
        <time>2026-08-18T23:30:22Z</time>
      </trkpt>
      <trkpt lat="34.297748550842826" lon="108.71043686134297">
        <ele>388.16228814423084</ele>
        <time>2026-08-18T23:30:28Z</time>
      </trkpt>
      <trkpt lat="34.297773852888234" lon="108.71042864626608">
        <ele>387.7854459695518</ele>
        <time>2026-08-18T23:30:31Z</time>
      </trkpt>
    </trkseg>
  </trk>
</gpx>