<?xml version="1.0" encoding="UTF-8"?>
<gpx xmlns="http://www.topografix.com/GPX/1/1" xmlns:gpxtpx="http://www.garmin.com/xmlschemas/TrackPointExtension/v1" xmlns:xsi="http://www.w3.org/2001/XMLSchema-instance" xsi:schemaLocation="http://www.topografix.com/GPX/1/1 http://www.topografix.com/GPX/1/1/gpx.xsd" version="1.1" creator="gpx.py -- https://github.com/tkrajina/gpxpy">
  <trk>
    <name>gpx from keep</name>
    <type>Ride</type>
    <trkseg>
      <trkpt lat="34.328364956405295" lon="108.98042699814776">
        <ele>474.6457824707031</ele>
        <time>2022-03-21T23:35:46Z</time>
      </trkpt>
      <trkpt lat="34.32833043055447" lon="108.98057365937856">
        <ele>458.2088317871094</ele>
        <time>2022-03-21T23:36:09Z</time>
      </trkpt>
      <trkpt lat="34.328213469617815" lon="108.98066794764358">
        <ele>433.3287048339844</ele>
        <time>2022-03-21T23:36:22Z</time>
      </trkpt>
      <trkpt lat="34.32813242419097" lon="108.98060936735946">
        <ele>418.0435791015625</ele>
        <time>2022-03-21T23:36:30Z</time>
      </trkpt>
      <trkpt lat="34.32808850713695" lon="108.98052438152645">
        <ele>413.4781494140625</ele>
        <time>2022-03-21T23:36:31Z</time>
      </trkpt>
      <trkpt lat="34.32872485951099" lon="108.980367404032">
        <ele>389.0152587890625</ele>
        <time>2022-03-21T23:36:44Z</time>
      </trkpt>
      <trkpt lat="34.32865154191682" lon="108.98055273353633">
        <ele>383.7576599121094</ele>
        <time>2022-03-21T23:37:02Z</time>
      </trkpt>
      <trkpt lat="34.32867930967312" lon="108.98065251690947">
        <ele>395.7832665096274</ele>
        <time>2022-03-21T23:37:11Z</time>
      </trkpt>
      <trkpt lat="34.32868446332029" lon="108.98076796801678">
        <ele>395.7804969185963</ele>
        <time>2022-03-21T23:37:16Z</time>
      </trkpt>
      <trkpt lat="34.32849942512438" lon="108.98083712648294">
        <ele>395.66164617426693</ele>
        <time>2022-03-21T23:37:26Z</time>
      </trkpt>
      <trkpt lat="34.32826174446515" lon="108.9807978480951">
        <ele>394.3912679059431</ele>
        <time>2022-03-21T23:37:38Z</time>
      </trkpt>
      <trkpt lat="34.32818583628428" lon="108.98082337306327">
        <ele>395.62185008078814</ele>
        <time>2022-03-21T23:37:43Z</time>
      </trkpt>
      <trkpt lat="34.32813892821886" lon="108.98090281764105">
        <ele>395.25099833961576</ele>
        <time>2022-03-21T23:37:48Z</time>
      </trkpt>
      <trkpt lat="34.32815361531713" lon="108.98100685610291">
        <ele>394.87302209530026</ele>
        <time>2022-03-21T23:37:54Z</time>
      </trkpt>
      <trkpt lat="34.32814163243927" lon="108.98099710961927">
        <ele>395.53292097430676</ele>
        <time>2022-03-21T23:38:04Z</time>
      </trkpt>
      <trkpt lat="34.3281856694919" lon="108.98119567726903">
        <ele>394.9798473222181</ele>
        <time>2022-03-21T23:39:01Z</time>
      </trkpt>
      <trkpt lat="34.32822238696579" lon="108.9813330262116">
        <ele>395.23178878612816</ele>
        <time>2022-03-21T23:39:05Z</time>
      </trkpt>
      <trkpt lat="34.3282267086492" lon="108.98156735424186">
        <ele>394.70567135419697</ele>
        <time>2022-03-21T23:39:13Z</time>
      </trkpt>
      <trkpt lat="34.32819382561113" lon="108.98167648048674">
        <ele>394.5142316389829</ele>
        <time>2022-03-21T23:39:15Z</time>
      </trkpt>
      <trkpt lat="34.32815906270909" lon="108.98210888345734">
        <ele>393.57578893750906</ele>
        <time>2022-03-21T23:39:23Z</time>
      </trkpt>
      <trkpt lat="34.328112102668044" lon="108.9822360816684">
        <ele>392.6101302774623</ele>
        <time>2022-03-21T23:39:27Z</time>
      </trkpt>
      <trkpt lat="34.32806696763846" lon="108.98247197859965">
        <ele>391.58337275963277</ele>
        <time>2022-03-21T23:39:31Z</time>
      </trkpt>
      <trkpt lat="34.328106130577936" lon="108.982827617237">
        <ele>396.36061091162264</ele>
        <time>2022-03-21T23:39:37Z</time>
      </trkpt>
      <trkpt lat="34.32808519051875" lon="108.9830184594111">
        <ele>390.55992608703673</ele>
        <time>2022-03-21T23:39:41Z</time>
      </trkpt>
      <trkpt lat="34.32811865469589" lon="108.98334719761992">
        <ele>391.16549300123006</ele>
        <time>2022-03-21T23:39:47Z</time>
      </trkpt>
      <trkpt lat="34.32814741728447" lon="108.98346204121304">
        <ele>391.40630487166345</ele>
        <time>2022-03-21T23:39:49Z</time>
      </trkpt>
      <trkpt lat="34.32816604721092" lon="108.98399110331465">
        <ele>392.05156344361603</ele>
        <time>2022-03-21T23:39:59Z</time>
      </trkpt>
      <trkpt lat="34.3281432670577" lon="108.98440189389198">
        <ele>392.0694504957646</ele>
        <time>2022-03-21T23:40:09Z</time>
      </trkpt>
      <trkpt lat="34.32810965913312" lon="108.98450548912781">
        <ele>391.45969770941883</ele>
        <time>2022-03-21T23:40:19Z</time>
      </trkpt>
      <trkpt lat="34.32795676386691" lon="108.98462659263129">
        <ele>391.64033748582006</ele>
        <time>2022-03-21T23:40:26Z</time>
      </trkpt>
      <trkpt lat="34.32786806757329" lon="108.98470086498185">
        <ele>389.47983351070434</ele>
        <time>2022-03-21T23:40:30Z</time>
      </trkpt>
      <trkpt lat="34.32784849404592" lon="108.98478536597929">
        <ele>390.46807242464274</ele>
        <time>2022-03-21T23:40:32Z</time>
      </trkpt>
      <trkpt lat="34.32787128867534" lon="108.98534046466473">
        <ele>392.64020686224103</ele>
        <time>2022-03-21T23:40:42Z</time>
      </trkpt>
      <trkpt lat="34.32789569442745" lon="108.98546796921273">
        <ele>391.347131440416</ele>
        <time>2022-03-21T23:40:44Z</time>
      </trkpt>
      <trkpt lat="34.327912000850816" lon="108.9858697337126">
        <ele>390.9991673780605</ele>
        <time>2022-03-21T23:40:52Z</time>
      </trkpt>
      <trkpt lat="34.32789864576602" lon="108.98595528751146">
        <ele>389.49114864319563</ele>
        <time>2022-03-21T23:40:54Z</time>
      </trkpt>
      <trkpt lat="34.32796139393611" lon="108.98636789565087">
        <ele>393.2683495497331</ele>
        <time>2022-03-21T23:41:02Z</time>
      </trkpt>
      <trkpt lat="34.3279429946099" lon="108.98657725867392">
        <ele>390.64687611255795</ele>
        <time>2022-03-21T23:41:06Z</time>
      </trkpt>
      <trkpt lat="34.32797285210453" lon="108.98689125747433">
        <ele>392.40713833644986</ele>
        <time>2022-03-21T23:41:12Z</time>
      </trkpt>
      <trkpt lat="34.327955869117496" lon="108.98719597731376">
        <ele>392.8927542800084</ele>
        <time>2022-03-21T23:41:18Z</time>
      </trkpt>
      <trkpt lat="34.32793772018492" lon="108.9873007932687">
        <ele>392.3050329098478</ele>
        <time>2022-03-21T23:41:20Z</time>
      </trkpt>
      <trkpt lat="34.327960442879494" lon="108.98746840800099">
        <ele>393.7966671716422</ele>
        <time>2022-03-21T23:41:23Z</time>
      </trkpt>
      <trkpt lat="34.32794562618281" lon="108.98757298974995">
        <ele>391.7068366659805</ele>
        <time>2022-03-21T23:41:25Z</time>
      </trkpt>
      <trkpt lat="34.32795435692706" lon="108.98768523226833">
        <ele>390.49432491511106</ele>
        <time>2022-03-21T23:41:27Z</time>
      </trkpt>
      <trkpt lat="34.32794190342609" lon="108.98789830208435">
        <ele>390.3329577995464</ele>
        <time>2022-03-21T23:41:31Z</time>
      </trkpt>
      <trkpt lat="34.32796596482351" lon="108.98812656926822">
        <ele>389.8509683990851</ele>
        <time>2022-03-21T23:41:35Z</time>
      </trkpt>
      <trkpt lat="34.32795068163037" lon="108.98833661566158">
        <ele>388.03774550929666</ele>
        <time>2022-03-21T23:41:39Z</time>
      </trkpt>
      <trkpt lat="34.32795630432605" lon="108.98876344825821">
        <ele>393.6966387918219</ele>
        <time>2022-03-21T23:41:47Z</time>
      </trkpt>
      <trkpt lat="34.327984001283326" lon="108.98888046547873">
        <ele>395.97307142522186</ele>
        <time>2022-03-21T23:41:49Z</time>
      </trkpt>
      <trkpt lat="34.32795678572328" lon="108.98898198284847">
        <ele>393.75241292081773</ele>
        <time>2022-03-21T23:41:51Z</time>
      </trkpt>
      <trkpt lat="34.32795940986047" lon="108.98928473411583">
        <ele>391.63257207069546</ele>
        <time>2022-03-21T23:41:57Z</time>
      </trkpt>
      <trkpt lat="34.327927569589555" lon="108.98938936421628">
        <ele>390.10452084615827</ele>
        <time>2022-03-21T23:41:59Z</time>
      </trkpt>
      <trkpt lat="34.32794760558014" lon="108.98949241518257">
        <ele>391.9324838370085</ele>
        <time>2022-03-21T23:42:01Z</time>
      </trkpt>
      <trkpt lat="34.32789251259962" lon="108.98980873612096">
        <ele>390.0220329500735</ele>
        <time>2022-03-21T23:42:07Z</time>
      </trkpt>
      <trkpt lat="34.32791049003748" lon="108.98991272611445">
        <ele>391.6271668886766</ele>
        <time>2022-03-21T23:42:09Z</time>
      </trkpt>
      <trkpt lat="34.32787089237773" lon="108.99009625145703">
        <ele>391.5880544744432</ele>
        <time>2022-03-21T23:42:13Z</time>
      </trkpt>
      <trkpt lat="34.32785942894074" lon="108.99031869309808">
        <ele>392.88640117365867</ele>
        <time>2022-03-21T23:42:29Z</time>
      </trkpt>
      <trkpt lat="34.32784391805657" lon="108.99056889351803">
        <ele>391.8590657124296</ele>
        <time>2022-03-21T23:42:36Z</time>
      </trkpt>
      <trkpt lat="34.327879290053794" lon="108.99116633878674">
        <ele>396.48103372193873</ele>
        <time>2022-03-21T23:42:46Z</time>
      </trkpt>
      <trkpt lat="34.32789620397614" lon="108.99129249579818">
        <ele>395.28386785741895</ele>
        <time>2022-03-21T23:42:48Z</time>
      </trkpt>
      <trkpt lat="34.327850315411055" lon="108.99147491781278">
        <ele>394.16601741779596</ele>
        <time>2022-03-21T23:42:52Z</time>
      </trkpt>
      <trkpt lat="34.327838374561374" lon="108.99200543432815">
        <ele>391.7913888525218</ele>
        <time>2022-03-21T23:43:02Z</time>
      </trkpt>
      <trkpt lat="34.32788111379849" lon="108.99254431519667">
        <ele>393.3471167543903</ele>
        <time>2022-03-21T23:43:12Z</time>
      </trkpt>
      <trkpt lat="34.32789730124227" lon="108.9926372896879">
        <ele>391.7526798164472</ele>
        <time>2022-03-21T23:43:14Z</time>
      </trkpt>
      <trkpt lat="34.32789157864833" lon="108.99322134549607">
        <ele>393.6010914063081</ele>
        <time>2022-03-21T23:43:24Z</time>
      </trkpt>
      <trkpt lat="34.32788359694924" lon="108.993316614804">
        <ele>393.74771834909916</ele>
        <time>2022-03-21T23:43:26Z</time>
      </trkpt>
      <trkpt lat="34.32791535453723" lon="108.99383790176437">
        <ele>394.18378523085266</ele>
        <time>2022-03-21T23:43:35Z</time>
      </trkpt>
      <trkpt lat="34.327929712525766" lon="108.9941680523212">
        <ele>393.19341435749084</ele>
        <time>2022-03-21T23:43:41Z</time>
      </trkpt>
      <trkpt lat="34.32795592323154" lon="108.99437738858951">
        <ele>392.47949950397015</ele>
        <time>2022-03-21T23:43:45Z</time>
      </trkpt>
      <trkpt lat="34.32795374140668" lon="108.9949392903294">
        <ele>392.1113362144679</ele>
        <time>2022-03-21T23:43:55Z</time>
      </trkpt>
      <trkpt lat="34.32793402771222" lon="108.99548526474062">
        <ele>395.2915622862056</ele>
        <time>2022-03-21T23:44:05Z</time>
      </trkpt>
      <trkpt lat="34.32794770675921" lon="108.99583076962304">
        <ele>394.1185175329447</ele>
        <time>2022-03-21T23:44:11Z</time>
      </trkpt>
      <trkpt lat="34.327923048861926" lon="108.99606172134847">
        <ele>394.5372068500146</ele>
        <time>2022-03-21T23:44:15Z</time>
      </trkpt>
      <trkpt lat="34.327914682439626" lon="108.99658720130971">
        <ele>393.5755741391331</ele>
        <time>2022-03-21T23:44:25Z</time>
      </trkpt>
      <trkpt lat="34.327902998503916" lon="108.99682455285274">
        <ele>395.3531060256064</ele>
        <time>2022-03-21T23:44:29Z</time>
      </trkpt>
      <trkpt lat="34.327866118155356" lon="108.99713638474502">
        <ele>392.99966134969145</ele>
        <time>2022-03-21T23:44:35Z</time>
      </trkpt>
      <trkpt lat="34.32782717561363" lon="108.99773224367587">
        <ele>393.69877023715526</ele>
        <time>2022-03-21T23:44:45Z</time>
      </trkpt>
      <trkpt lat="34.32784247159168" lon="108.99799709815862">
        <ele>393.3807619558647</ele>
        <time>2022-03-21T23:44:49Z</time>
      </trkpt>
      <trkpt lat="34.327839163874046" lon="108.99858491279818">
        <ele>393.73937209509313</ele>
        <time>2022-03-21T23:44:59Z</time>
      </trkpt>
      <trkpt lat="34.32782314343358" lon="108.9986805931321">
        <ele>393.28155147563666</ele>
        <time>2022-03-21T23:45:01Z</time>
      </trkpt>
      <trkpt lat="34.327829985230835" lon="108.99879274716723">
        <ele>392.51474844291806</ele>
        <time>2022-03-21T23:45:03Z</time>
      </trkpt>
      <trkpt lat="34.32780302662148" lon="108.99913612525793">
        <ele>393.0292293392122</ele>
        <time>2022-03-21T23:45:09Z</time>
      </trkpt>
      <trkpt lat="34.327829498949264" lon="108.99969275877682">
        <ele>391.21410737000406</ele>
        <time>2022-03-21T23:45:19Z</time>
      </trkpt>
      <trkpt lat="34.327849499240514" lon="108.99981495033148">
        <ele>392.30172646511346</ele>
        <time>2022-03-21T23:45:21Z</time>
      </trkpt>
      <trkpt lat="34.32781604456149" lon="109.00035188602789">
        <ele>393.2326756110415</ele>
        <time>2022-03-21T23:45:31Z</time>
      </trkpt>
      <trkpt lat="34.327805139128586" lon="109.00056749256532">
        <ele>392.9529087068513</ele>
        <time>2022-03-21T23:45:35Z</time>
      </trkpt>
      <trkpt lat="34.32786781360844" lon="109.00091996945692">
        <ele>393.02109714597464</ele>
        <time>2022-03-21T23:45:41Z</time>
      </trkpt>
      <trkpt lat="34.32784751790344" lon="109.00121965672827">
        <ele>393.9531272817403</ele>
        <time>2022-03-21T23:45:47Z</time>
      </trkpt>
      <trkpt lat="34.32784753542505" lon="109.00144018056156">
        <ele>393.65579545125365</ele>
        <time>2022-03-21T23:45:51Z</time>
      </trkpt>
      <trkpt lat="34.32782270107989" lon="109.00155233570175">
        <ele>393.2118628490716</ele>
        <time>2022-03-21T23:45:53Z</time>
      </trkpt>
      <trkpt lat="34.32784625489061" lon="109.00179946276052">
        <ele>393.4622982563451</ele>
        <time>2022-03-21T23:45:57Z</time>
      </trkpt>
      <trkpt lat="34.32782095318781" lon="109.00191048967203">
        <ele>393.3456848161295</ele>
        <time>2022-03-21T23:45:59Z</time>
      </trkpt>
      <trkpt lat="34.32782053334896" lon="109.00244900692695">
        <ele>394.1639110520482</ele>
        <time>2022-03-21T23:46:09Z</time>
      </trkpt>
      <trkpt lat="34.32779504285524" lon="109.00287582302771">
        <ele>393.28045730665326</ele>
        <time>2022-03-21T23:46:17Z</time>
      </trkpt>
      <trkpt lat="34.3278019357971" lon="109.002966874631">
        <ele>394.302508472465</ele>
        <time>2022-03-21T23:46:19Z</time>
      </trkpt>
      <trkpt lat="34.32778089474434" lon="109.00317226105663">
        <ele>393.2475939951837</ele>
        <time>2022-03-21T23:46:23Z</time>
      </trkpt>
      <trkpt lat="34.3278087584169" lon="109.00327923974419">
        <ele>395.47677405923605</ele>
        <time>2022-03-21T23:46:25Z</time>
      </trkpt>
      <trkpt lat="34.32775111533725" lon="109.00354176642809">
        <ele>392.77915862202644</ele>
        <time>2022-03-21T23:46:31Z</time>
      </trkpt>
      <trkpt lat="34.32778537819033" lon="109.00385473886827">
        <ele>393.5301804477349</ele>
        <time>2022-03-21T23:46:37Z</time>
      </trkpt>
      <trkpt lat="34.32783850986699" lon="109.00396521218">
        <ele>393.8254906842485</ele>
        <time>2022-03-21T23:46:41Z</time>
      </trkpt>
      <trkpt lat="34.32788643288639" lon="109.00452280723292">
        <ele>394.90284389909357</ele>
        <time>2022-03-21T23:46:51Z</time>
      </trkpt>
      <trkpt lat="34.32785358990027" lon="109.00460656859472">
        <ele>397.25323938112706</ele>
        <time>2022-03-21T23:46:53Z</time>
      </trkpt>
      <trkpt lat="34.32783934236938" lon="109.00470028400485">
        <ele>396.54839434474707</ele>
        <time>2022-03-21T23:46:55Z</time>
      </trkpt>
      <trkpt lat="34.32784608596467" lon="109.00481515608305">
        <ele>396.4328318843618</ele>
        <time>2022-03-21T23:46:57Z</time>
      </trkpt>
      <trkpt lat="34.32782683794823" lon="109.00490359701612">
        <ele>395.8266900116578</ele>
        <time>2022-03-21T23:46:59Z</time>
      </trkpt>
      <trkpt lat="34.32783656019628" lon="109.00500353541167">
        <ele>395.74215038865805</ele>
        <time>2022-03-21T23:47:01Z</time>
      </trkpt>
      <trkpt lat="34.3278133294425" lon="109.00530220175091">
        <ele>394.0268351621926</ele>
        <time>2022-03-21T23:47:07Z</time>
      </trkpt>
      <trkpt lat="34.32781718861037" lon="109.00569692301686">
        <ele>393.6391773018986</ele>
        <time>2022-03-21T23:47:15Z</time>
      </trkpt>
      <trkpt lat="34.327833272297134" lon="109.00581001905981">
        <ele>393.68689973745495</ele>
        <time>2022-03-21T23:47:17Z</time>
      </trkpt>
      <trkpt lat="34.327807568749385" lon="109.00598810151">
        <ele>392.89206373039633</ele>
        <time>2022-03-21T23:47:21Z</time>
      </trkpt>
      <trkpt lat="34.32781356786464" lon="109.0061983425647">
        <ele>393.40770947840065</ele>
        <time>2022-03-21T23:47:25Z</time>
      </trkpt>
      <trkpt lat="34.327834586404585" lon="109.00631311098452">
        <ele>394.1880866801366</ele>
        <time>2022-03-21T23:47:27Z</time>
      </trkpt>
      <trkpt lat="34.327826313365996" lon="109.00640839692349">
        <ele>394.33098782785237</ele>
        <time>2022-03-21T23:47:29Z</time>
      </trkpt>
      <trkpt lat="34.32787554198877" lon="109.00660991335342">
        <ele>395.42672958318144</ele>
        <time>2022-03-21T23:47:33Z</time>
      </trkpt>
      <trkpt lat="34.32788090889249" lon="109.00693187628396">
        <ele>394.58567351289093</ele>
        <time>2022-03-21T23:47:39Z</time>
      </trkpt>
      <trkpt lat="34.327859582472854" lon="109.00713811776463">
        <ele>394.14200502447784</ele>
        <time>2022-03-21T23:47:43Z</time>
      </trkpt>
      <trkpt lat="34.32786467603936" lon="109.00724335364234">
        <ele>394.33517569862306</ele>
        <time>2022-03-21T23:47:45Z</time>
      </trkpt>
      <trkpt lat="34.327810539541225" lon="109.00770665938504">
        <ele>392.623892756179</ele>
        <time>2022-03-21T23:47:53Z</time>
      </trkpt>
      <trkpt lat="34.327818698627254" lon="109.0082395346493">
        <ele>392.7189591554925</ele>
        <time>2022-03-21T23:48:01Z</time>
      </trkpt>
      <trkpt lat="34.32783942497811" lon="109.00866465619347">
        <ele>391.77513370569795</ele>
        <time>2022-03-21T23:48:07Z</time>
      </trkpt>
      <trkpt lat="34.327885851869155" lon="109.00880984178916">
        <ele>391.7215073844418</ele>
        <time>2022-03-21T23:48:09Z</time>
      </trkpt>
      <trkpt lat="34.32788651836499" lon="109.00940102234695">
        <ele>390.13509732391685</ele>
        <time>2022-03-21T23:48:17Z</time>
      </trkpt>
      <trkpt lat="34.32788557862251" lon="109.00998310022189">
        <ele>386.45671783201396</ele>
        <time>2022-03-21T23:48:25Z</time>
      </trkpt>
      <trkpt lat="34.32788511974073" lon="109.01013793376964">
        <ele>386.05502004083246</ele>
        <time>2022-03-21T23:48:27Z</time>
      </trkpt>
      <trkpt lat="34.32788470340331" lon="109.01027817182347">
        <ele>385.7563203088939</ele>
        <time>2022-03-21T23:48:29Z</time>
      </trkpt>
      <trkpt lat="34.32788392915046" lon="109.01054032875452">
        <ele>385.8922009896487</ele>
        <time>2022-03-21T23:48:33Z</time>
      </trkpt>
      <trkpt lat="34.327854915095415" lon="109.01066204072632">
        <ele>385.93164702132344</ele>
        <time>2022-03-21T23:48:35Z</time>
      </trkpt>
      <trkpt lat="34.32782369043685" lon="109.01110604313892">
        <ele>386.42219405900687</ele>
        <time>2022-03-21T23:48:43Z</time>
      </trkpt>
      <trkpt lat="34.32781996471265" lon="109.0116695236796">
        <ele>387.1059872340411</ele>
        <time>2022-03-21T23:48:53Z</time>
      </trkpt>
      <trkpt lat="34.32782870131536" lon="109.01221183812436">
        <ele>387.58209807798266</ele>
        <time>2022-03-21T23:49:03Z</time>
      </trkpt>
      <trkpt lat="34.32783823789635" lon="109.01253318407211">
        <ele>388.42710976302624</ele>
        <time>2022-03-21T23:49:09Z</time>
      </trkpt>
      <trkpt lat="34.3278314495143" lon="109.01308494676886">
        <ele>388.22161751333624</ele>
        <time>2022-03-21T23:49:19Z</time>
      </trkpt>
      <trkpt lat="34.327847928511744" lon="109.0136383777935">
        <ele>388.86924132797867</ele>
        <time>2022-03-21T23:49:29Z</time>
      </trkpt>
      <trkpt lat="34.327867318053485" lon="109.01420027203363">
        <ele>387.0785224670544</ele>
        <time>2022-03-21T23:49:39Z</time>
      </trkpt>
      <trkpt lat="34.327843477007235" lon="109.01441083719206">
        <ele>387.3411435801536</ele>
        <time>2022-03-21T23:49:43Z</time>
      </trkpt>
      <trkpt lat="34.327876204748236" lon="109.01500295878105">
        <ele>386.7279454432428</ele>
        <time>2022-03-21T23:49:53Z</time>
      </trkpt>
      <trkpt lat="34.327855456317465" lon="109.01553161390186">
        <ele>387.1733126565814</ele>
        <time>2022-03-21T23:50:03Z</time>
      </trkpt>
      <trkpt lat="34.32781058170927" lon="109.01612277682365">
        <ele>387.047600726597</ele>
        <time>2022-03-21T23:50:15Z</time>
      </trkpt>
      <trkpt lat="34.3277572338637" lon="109.01664945742874">
        <ele>386.346197348088</ele>
        <time>2022-03-21T23:50:25Z</time>
      </trkpt>
      <trkpt lat="34.32770258773704" lon="109.01695515347082">
        <ele>386.2906655371189</ele>
        <time>2022-03-21T23:50:31Z</time>
      </trkpt>
      <trkpt lat="34.32759340172546" lon="109.0173334856827">
        <ele>387.30893776845187</ele>
        <time>2022-03-21T23:50:39Z</time>
      </trkpt>
      <trkpt lat="34.32755411711366" lon="109.01776736045738">
        <ele>388.60309894476086</ele>
        <time>2022-03-21T23:50:47Z</time>
      </trkpt>
      <trkpt lat="34.327598616461984" lon="109.01826128303225">
        <ele>388.4090902786702</ele>
        <time>2022-03-21T23:50:57Z</time>
      </trkpt>
      <trkpt lat="34.327575597873356" lon="109.01845284000356">
        <ele>388.75504507962614</ele>
        <time>2022-03-21T23:51:01Z</time>
      </trkpt>
      <trkpt lat="34.32745335754748" lon="109.01871936000907">
        <ele>388.67945383396</ele>
        <time>2022-03-21T23:51:07Z</time>
      </trkpt>
      <trkpt lat="34.32712636827843" lon="109.01920579763312">
        <ele>389.17914000339806</ele>
        <time>2022-03-21T23:51:19Z</time>
      </trkpt>
      <trkpt lat="34.3269650589975" lon="109.01947482010931">
        <ele>388.5153127973899</ele>
        <time>2022-03-21T23:51:25Z</time>
      </trkpt>
      <trkpt lat="34.32690346017792" lon="109.01954723410964">
        <ele>388.2471458138898</ele>
        <time>2022-03-21T23:51:27Z</time>
      </trkpt>
      <trkpt lat="34.32674087812349" lon="109.01982890598448">
        <ele>387.4834668636322</ele>
        <time>2022-03-21T23:51:33Z</time>
      </trkpt>
      <trkpt lat="34.32654464540437" lon="109.02009172342166">
        <ele>387.8189961705357</ele>
        <time>2022-03-21T23:51:39Z</time>
      </trkpt>
      <trkpt lat="34.32639556942376" lon="109.02024236504978">
        <ele>387.47291092947125</ele>
        <time>2022-03-21T23:51:43Z</time>
      </trkpt>
      <trkpt lat="34.326266474957414" lon="109.02041796632344">
        <ele>387.47291071526706</ele>
        <time>2022-03-21T23:51:47Z</time>
      </trkpt>
      <trkpt lat="34.325891747409784" lon="109.02077224643074">
        <ele>388.4456387106329</ele>
        <time>2022-03-21T23:51:57Z</time>
      </trkpt>
      <trkpt lat="34.32573099938133" lon="109.0209074826265">
        <ele>388.0029917601496</ele>
        <time>2022-03-21T23:52:01Z</time>
      </trkpt>
      <trkpt lat="34.32533263384785" lon="109.02116615276562">
        <ele>387.09868812561035</ele>
        <time>2022-03-21T23:52:11Z</time>
      </trkpt>
      <trkpt lat="34.32490688724751" lon="109.02139250714123">
        <ele>388.3295029271394</ele>
        <time>2022-03-21T23:52:21Z</time>
      </trkpt>
      <trkpt lat="34.32447340092586" lon="109.02156578228734">
        <ele>387.15437633916736</ele>
        <time>2022-03-21T23:52:31Z</time>
      </trkpt>
      <trkpt lat="34.323991134325894" lon="109.0216809862667">
        <ele>387.7539893426001</ele>
        <time>2022-03-21T23:52:41Z</time>
      </trkpt>
      <trkpt lat="34.323893211791386" lon="109.02168068238755">
        <ele>387.20142202079296</ele>
        <time>2022-03-21T23:52:43Z</time>
      </trkpt>
      <trkpt lat="34.323409666065466" lon="109.02173425424847">
        <ele>389.240225632675</ele>
        <time>2022-03-21T23:52:53Z</time>
      </trkpt>
      <trkpt lat="34.32293744616409" lon="109.02173873747432">
        <ele>388.8710386501625</ele>
        <time>2022-03-21T23:53:03Z</time>
      </trkpt>
      <trkpt lat="34.322638066146034" lon="109.0217556029438">
        <ele>388.88656673487276</ele>
        <time>2022-03-21T23:53:09Z</time>
      </trkpt>
      <trkpt lat="34.322459637819314" lon="109.0217235925954">
        <ele>388.20379398949444</ele>
        <time>2022-03-21T23:53:13Z</time>
      </trkpt>
      <trkpt lat="34.32197676341152" lon="109.02169014005813">
        <ele>388.93067433219403</ele>
        <time>2022-03-21T23:53:23Z</time>
      </trkpt>
      <trkpt lat="34.32160190683477" lon="109.02160484437894">
        <ele>387.4252245584503</ele>
        <time>2022-03-21T23:53:31Z</time>
      </trkpt>
      <trkpt lat="34.32111143727633" lon="109.02155261063155">
        <ele>389.86233283858746</ele>
        <time>2022-03-21T23:53:41Z</time>
      </trkpt>
      <trkpt lat="34.32062812669482" lon="109.02148833659892">
        <ele>390.11768192611635</ele>
        <time>2022-03-21T23:53:51Z</time>
      </trkpt>
      <trkpt lat="34.32042330438959" lon="109.02147150507007">
        <ele>390.3115697251633</ele>
        <time>2022-03-21T23:53:55Z</time>
      </trkpt>
      <trkpt lat="34.32022583184426" lon="109.0214245235823">
        <ele>389.9319202611223</ele>
        <time>2022-03-21T23:53:59Z</time>
      </trkpt>
      <trkpt lat="34.3200327845476" lon="109.02140575360026">
        <ele>390.03469746466726</ele>
        <time>2022-03-21T23:54:03Z</time>
      </trkpt>
      <trkpt lat="34.31993122946323" lon="109.02137304027774">
        <ele>390.3697890397161</ele>
        <time>2022-03-21T23:54:05Z</time>
      </trkpt>
      <trkpt lat="34.31945352884488" lon="109.0213862728026">
        <ele>389.7902248688042</ele>
        <time>2022-03-21T23:54:15Z</time>
      </trkpt>
      <trkpt lat="34.31926083732151" lon="109.02137495377754">
        <ele>388.93483670149</ele>
        <time>2022-03-21T23:54:19Z</time>
      </trkpt>
      <trkpt lat="34.318754175485715" lon="109.02140036746016">
        <ele>390.1498420583084</ele>
        <time>2022-03-21T23:54:29Z</time>
      </trkpt>
      <trkpt lat="34.31827341339516" lon="109.02145008718996">
        <ele>390.0573770562187</ele>
        <time>2022-03-21T23:54:39Z</time>
      </trkpt>
      <trkpt lat="34.31817413459536" lon="109.02147211053361">
        <ele>390.6595380650833</ele>
        <time>2022-03-21T23:54:41Z</time>
      </trkpt>
      <trkpt lat="34.31777884388287" lon="109.02150735639113">
        <ele>391.53743500448763</ele>
        <time>2022-03-21T23:54:49Z</time>
      </trkpt>
      <trkpt lat="34.31729811864031" lon="109.02156009891195">
        <ele>391.32653705682606</ele>
        <time>2022-03-21T23:54:59Z</time>
      </trkpt>
      <trkpt lat="34.31681302845133" lon="109.02161107951798">
        <ele>390.68171098455787</ele>
        <time>2022-03-21T23:55:09Z</time>
      </trkpt>
      <trkpt lat="34.31651495543317" lon="109.02167500759671">
        <ele>391.0841083750129</ele>
        <time>2022-03-21T23:55:15Z</time>
      </trkpt>
      <trkpt lat="34.316174900280714" lon="109.02179657242189">
        <ele>390.75870003178716</ele>
        <time>2022-03-21T23:55:23Z</time>
      </trkpt>
      <trkpt lat="34.316104344099024" lon="109.02185033448981">
        <ele>390.7304523428902</ele>
        <time>2022-03-21T23:55:25Z</time>
      </trkpt>
      <trkpt lat="34.3160941807815" lon="109.02195013852993">
        <ele>390.89649123791605</ele>
        <time>2022-03-21T23:55:27Z</time>
      </trkpt>
      <trkpt lat="34.31605686956815" lon="109.0220440033045">
        <ele>391.7908462109044</ele>
        <time>2022-03-21T23:55:29Z</time>
      </trkpt>
      <trkpt lat="34.315994434651174" lon="109.02211143057706">
        <ele>391.6025869557634</ele>
        <time>2022-03-21T23:55:31Z</time>
      </trkpt>
      <trkpt lat="34.31588993211237" lon="109.0221763030396">
        <ele>391.9538153698668</ele>
        <time>2022-03-21T23:55:35Z</time>
      </trkpt>
      <trkpt lat="34.31586433614641" lon="109.02224496711737">
        <ele>390.5802551526576</ele>
        <time>2022-03-21T23:55:45Z</time>
      </trkpt>
      <trkpt lat="34.315727527191015" lon="109.02246131914232">
        <ele>391.4162355000153</ele>
        <time>2022-03-21T23:56:26Z</time>
      </trkpt>
      <trkpt lat="34.315733320330736" lon="109.02254867178821">
        <ele>391.0284568089992</ele>
        <time>2022-03-21T23:56:28Z</time>
      </trkpt>
      <trkpt lat="34.31594397739756" lon="109.02302798486012">
        <ele>388.6166491797194</ele>
        <time>2022-03-21T23:56:38Z</time>
      </trkpt>
      <trkpt lat="34.3162051832749" lon="109.02358092605624">
        <ele>388.28786398191005</ele>
        <time>2022-03-21T23:56:50Z</time>
      </trkpt>
      <trkpt lat="34.3161660452298" lon="109.0236804461499">
        <ele>388.26864958833903</ele>
        <time>2022-03-21T23:56:54Z</time>
      </trkpt>
      <trkpt lat="34.31607015786416" lon="109.0237400993527">
        <ele>387.3444383991882</ele>
        <time>2022-03-21T23:56:58Z</time>
      </trkpt>
      <trkpt lat="34.31601143038102" lon="109.02380832323676">
        <ele>388.7664255555719</ele>
        <time>2022-03-21T23:57:00Z</time>
      </trkpt>
      <trkpt lat="34.315941666794906" lon="109.02385521428667">
        <ele>389.69088336918503</ele>
        <time>2022-03-21T23:57:02Z</time>
      </trkpt>
      <trkpt lat="34.315860529259616" lon="109.02388304062649">
        <ele>389.00442459248006</ele>
        <time>2022-03-21T23:57:04Z</time>
      </trkpt>
      <trkpt lat="34.315470324890335" lon="109.02411808816551">
        <ele>389.5700050657615</ele>
        <time>2022-03-21T23:57:14Z</time>
      </trkpt>
      <trkpt lat="34.3150672277922" lon="109.02437358287047">
        <ele>390.28818717226386</ele>
        <time>2022-03-21T23:57:24Z</time>
      </trkpt>
      <trkpt lat="34.31468256234815" lon="109.02463621878829">
        <ele>389.88002390414476</ele>
        <time>2022-03-21T23:57:34Z</time>
      </trkpt>
      <trkpt lat="34.31461269225948" lon="109.02467097314289">
        <ele>389.24040924571455</ele>
        <time>2022-03-21T23:57:36Z</time>
      </trkpt>
      <trkpt lat="34.31454020494255" lon="109.02470697616623">
        <ele>390.0676097795367</ele>
        <time>2022-03-21T23:57:38Z</time>
      </trkpt>
      <trkpt lat="34.31436580953229" lon="109.02494387739557">
        <ele>391.97574771475047</ele>
        <time>2022-03-21T23:57:44Z</time>
      </trkpt>
      <trkpt lat="34.31403490285704" lon="109.02515777760874">
        <ele>389.4830751065165</ele>
        <time>2022-03-21T23:57:52Z</time>
      </trkpt>
      <trkpt lat="34.313763007906765" lon="109.02530894933552">
        <ele>390.9084595255554</ele>
        <time>2022-03-21T23:57:58Z</time>
      </trkpt>
      <trkpt lat="34.31329665904296" lon="109.02553764377302">
        <ele>390.86697534285486</ele>
        <time>2022-03-21T23:58:08Z</time>
      </trkpt>
      <trkpt lat="34.312982243502" lon="109.02571009437418">
        <ele>391.48031575325876</ele>
        <time>2022-03-21T23:58:15Z</time>
      </trkpt>
      <trkpt lat="34.31255611962335" lon="109.0259907704874">
        <ele>390.5405432218686</ele>
        <time>2022-03-21T23:58:25Z</time>
      </trkpt>
      <trkpt lat="34.3123094927532" lon="109.02615706981737">
        <ele>391.5204894449562</ele>
        <time>2022-03-21T23:58:31Z</time>
      </trkpt>
      <trkpt lat="34.312258838074314" lon="109.02626639956287">
        <ele>393.00272690318525</ele>
        <time>2022-03-21T23:58:33Z</time>
      </trkpt>
      <trkpt lat="34.31214579690674" lon="109.02632259313467">
        <ele>392.69373777881265</ele>
        <time>2022-03-21T23:58:35Z</time>
      </trkpt>
      <trkpt lat="34.311859644255684" lon="109.026546895575">
        <ele>391.76963649876416</ele>
        <time>2022-03-21T23:58:41Z</time>
      </trkpt>
      <trkpt lat="34.31171329559772" lon="109.0267112169068">
        <ele>392.40944568719715</ele>
        <time>2022-03-21T23:58:45Z</time>
      </trkpt>
      <trkpt lat="34.311559415867585" lon="109.0269717294851">
        <ele>392.0422827983275</ele>
        <time>2022-03-21T23:58:51Z</time>
      </trkpt>
      <trkpt lat="34.31150159736759" lon="109.02716210217777">
        <ele>392.6149305747822</ele>
        <time>2022-03-21T23:58:55Z</time>
      </trkpt>
      <trkpt lat="34.31145682816354" lon="109.02752930003899">
        <ele>394.1199134513736</ele>
        <time>2022-03-21T23:59:02Z</time>
      </trkpt>
      <trkpt lat="34.311462280324754" lon="109.02775667999394">
        <ele>392.73952899873257</ele>
        <time>2022-03-21T23:59:06Z</time>
      </trkpt>
      <trkpt lat="34.31139735524171" lon="109.02815685745864">
        <ele>392.89350104518235</ele>
        <time>2022-03-21T23:59:14Z</time>
      </trkpt>
      <trkpt lat="34.31131952571288" lon="109.02849278066398">
        <ele>390.4461962040514</ele>
        <time>2022-03-21T23:59:20Z</time>
      </trkpt>
      <trkpt lat="34.31122131345591" lon="109.02871242422675">
        <ele>392.92728730197996</ele>
        <time>2022-03-21T23:59:26Z</time>
      </trkpt>
      <trkpt lat="34.31084838317825" lon="109.02910285115827">
        <ele>389.61363877914846</ele>
        <time>2022-03-21T23:59:36Z</time>
      </trkpt>
      <trkpt lat="34.310478069654486" lon="109.02944273506095">
        <ele>390.82717024721205</ele>
        <time>2022-03-21T23:59:46Z</time>
      </trkpt>
      <trkpt lat="34.3101338945497" lon="109.02976244487706">
        <ele>392.1145157497376</ele>
        <time>2022-03-21T23:59:56Z</time>
      </trkpt>
      <trkpt lat="34.30992627845969" lon="109.02994040511993">
        <ele>391.1610661074519</ele>
        <time>2022-03-22T00:00:02Z</time>
      </trkpt>
      <trkpt lat="34.309537224513896" lon="109.03018525563955">
        <ele>392.6038005016744</ele>
        <time>2022-03-22T00:00:12Z</time>
      </trkpt>
      <trkpt lat="34.30907651804186" lon="109.0303877447415">
        <ele>393.4652256127447</ele>
        <time>2022-03-22T00:00:23Z</time>
      </trkpt>
      <trkpt lat="34.30890002095103" lon="109.03044591085711">
        <ele>393.03091069869697</ele>
        <time>2022-03-22T00:00:27Z</time>
      </trkpt>
      <trkpt lat="34.30854181095081" lon="109.03052983370118">
        <ele>393.19409700483084</ele>
        <time>2022-03-22T00:00:35Z</time>
      </trkpt>
      <trkpt lat="34.308056722943775" lon="109.03058609095865">
        <ele>393.6379466801882</ele>
        <time>2022-03-22T00:00:45Z</time>
      </trkpt>
      <trkpt lat="34.307572436526776" lon="109.03064993694804">
        <ele>394.2087883260101</ele>
        <time>2022-03-22T00:00:55Z</time>
      </trkpt>
      <trkpt lat="34.30707984973243" lon="109.03067664782175">
        <ele>391.69261089526117</ele>
        <time>2022-03-22T00:01:05Z</time>
      </trkpt>
      <trkpt lat="34.30658057380766" lon="109.03073227440538">
        <ele>391.9791004275903</ele>
        <time>2022-03-22T00:01:15Z</time>
      </trkpt>
      <trkpt lat="34.30639636256031" lon="109.03074527240778">
        <ele>389.6041336338967</ele>
        <time>2022-03-22T00:01:19Z</time>
      </trkpt>
      <trkpt lat="34.30632245205693" lon="109.03078348146461">
        <ele>389.54964301083237</ele>
        <time>2022-03-22T00:01:21Z</time>
      </trkpt>
      <trkpt lat="34.30627989850768" lon="109.03090125338484">
        <ele>389.6688227755949</ele>
        <time>2022-03-22T00:01:23Z</time>
      </trkpt>
      <trkpt lat="34.30626717315283" lon="109.03131542768733">
        <ele>390.55852655973285</ele>
        <time>2022-03-22T00:01:31Z</time>
      </trkpt>
      <trkpt lat="34.30629506239958" lon="109.03188837447767">
        <ele>390.6375537989661</ele>
        <time>2022-03-22T00:01:41Z</time>
      </trkpt>
      <trkpt lat="34.30627787730053" lon="109.03200637978924">
        <ele>389.8320469725877</ele>
        <time>2022-03-22T00:01:43Z</time>
      </trkpt>
      <trkpt lat="34.306324129992994" lon="109.03234705381155">
        <ele>392.52317380998284</ele>
        <time>2022-03-22T00:01:49Z</time>
      </trkpt>
      <trkpt lat="34.3063834311673" lon="109.03293998006428">
        <ele>392.8377261934802</ele>
        <time>2022-03-22T00:01:59Z</time>
      </trkpt>
      <trkpt lat="34.306412113616474" lon="109.03328139253054">
        <ele>392.84784813039005</ele>
        <time>2022-03-22T00:02:05Z</time>
      </trkpt>
      <trkpt lat="34.30647701309886" lon="109.0338638299262">
        <ele>392.0588104762137</ele>
        <time>2022-03-22T00:02:15Z</time>
      </trkpt>
      <trkpt lat="34.30650644656105" lon="109.03420406264853">
        <ele>392.49749069288373</ele>
        <time>2022-03-22T00:02:21Z</time>
      </trkpt>
      <trkpt lat="34.30650610168925" lon="109.03444513823412">
        <ele>391.51808043476194</ele>
        <time>2022-03-22T00:02:25Z</time>
      </trkpt>
      <trkpt lat="34.30654864105044" lon="109.0346814728556">
        <ele>392.5868039717898</ele>
        <time>2022-03-22T00:02:29Z</time>
      </trkpt>
      <trkpt lat="34.30659309165113" lon="109.03529995919702">
        <ele>392.2406469443813</ele>
        <time>2022-03-22T00:02:39Z</time>
      </trkpt>
      <trkpt lat="34.306629144468864" lon="109.03578784318483">
        <ele>392.4480260768905</ele>
        <time>2022-03-22T00:02:47Z</time>
      </trkpt>
      <trkpt lat="34.30661412596167" lon="109.03589215654324">
        <ele>391.06754868198186</ele>
        <time>2022-03-22T00:02:49Z</time>
      </trkpt>
      <trkpt lat="34.30662751609151" lon="109.03623555279582">
        <ele>392.3051397856325</ele>
        <time>2022-03-22T00:02:55Z</time>
      </trkpt>
      <trkpt lat="34.306610581357205" lon="109.03632381572629">
        <ele>391.53731578588486</ele>
        <time>2022-03-22T00:02:59Z</time>
      </trkpt>
      <trkpt lat="34.30656408762684" lon="109.03632320405328">
        <ele>391.8235574355349</ele>
        <time>2022-03-22T00:03:07Z</time>
      </trkpt>
      <trkpt lat="34.30654661292863" lon="109.03649190417244">
        <ele>391.7560767736286</ele>
        <time>2022-03-22T00:03:16Z</time>
      </trkpt>
      <trkpt lat="34.30658814569832" lon="109.03667859386053">
        <ele>391.98200673796237</ele>
        <time>2022-03-22T00:03:28Z</time>
      </trkpt>
      <trkpt lat="34.3066547191339" lon="109.03685443054682">
        <ele>392.3315403498709</ele>
        <time>2022-03-22T00:03:40Z</time>
      </trkpt>
      <trkpt lat="34.3066611278371" lon="109.03694847969795">
        <ele>391.4764914913103</ele>
        <time>2022-03-22T00:03:46Z</time>
      </trkpt>
      <trkpt lat="34.30661768932278" lon="109.03702130073164">
        <ele>392.53392119985074</ele>
        <time>2022-03-22T00:03:52Z</time>
      </trkpt>
      <trkpt lat="34.3064475707475" lon="109.03707332187139">
        <ele>391.9577776482329</ele>
        <time>2022-03-22T00:04:12Z</time>
      </trkpt>
      <trkpt lat="34.30635176906489" lon="109.03717859350337">
        <ele>391.9315119031817</ele>
        <time>2022-03-22T00:04:33Z</time>
      </trkpt>
    </trkseg>
  </trk>
</gpx>