<?xml version="1.0" encoding="UTF-8"?>
<gpx xmlns="http://www.topografix.com/GPX/1/1" xmlns:gpxtpx="http://www.garmin.com/xmlschemas/TrackPointExtension/v1" xmlns:xsi="http://www.w3.org/2001/XMLSchema-instance" xsi:schemaLocation="http://www.topografix.com/GPX/1/1 http://www.topografix.com/GPX/1/1/gpx.xsd" version="1.1" creator="gpx.py -- https://github.com/tkrajina/gpxpy">
  <trk>
    <name>gpx from keep</name>
    <type>Ride</type>
    <trkseg>
      <trkpt lat="34.328264067369226" lon="108.98036726704127">
        <ele>413.48696517944336</ele>
        <time>2022-03-17T23:28:07Z</time>
      </trkpt>
      <trkpt lat="34.3283497669005" lon="108.98035208703173">
        <ele>405.05088806152344</ele>
        <time>2022-03-17T23:28:15Z</time>
      </trkpt>
      <trkpt lat="34.32826129674344" lon="108.98036607069483">
        <ele>412.3756980895996</ele>
        <time>2022-03-17T23:28:34Z</time>
      </trkpt>
      <trkpt lat="34.32838377699798" lon="108.98033238214879">
        <ele>406.65587425231934</ele>
        <time>2022-03-17T23:28:51Z</time>
      </trkpt>
      <trkpt lat="34.3284568863197" lon="108.98039041556758">
        <ele>403.7818832397461</ele>
        <time>2022-03-17T23:29:04Z</time>
      </trkpt>
      <trkpt lat="34.32830305102044" lon="108.98049207773676">
        <ele>402.1036548614502</ele>
        <time>2022-03-17T23:29:22Z</time>
      </trkpt>
      <trkpt lat="34.32826106036911" lon="108.98061086294766">
        <ele>399.8170909881592</ele>
        <time>2022-03-17T23:29:28Z</time>
      </trkpt>
      <trkpt lat="34.3281599992966" lon="108.98059562906509">
        <ele>398.0605583190918</ele>
        <time>2022-03-17T23:29:39Z</time>
      </trkpt>
      <trkpt lat="34.32804239581816" lon="108.98037803121008">
        <ele>396.8653907775879</ele>
        <time>2022-03-17T23:30:00Z</time>
      </trkpt>
      <trkpt lat="34.32875500891935" lon="108.9803029953289">
        <ele>396.9106101989746</ele>
        <time>2022-03-17T23:30:42Z</time>
      </trkpt>
      <trkpt lat="34.328701842564755" lon="108.98023297485008">
        <ele>397.0243034362793</ele>
        <time>2022-03-17T23:30:48Z</time>
      </trkpt>
      <trkpt lat="34.32872711645748" lon="108.98037178900258">
        <ele>396.7088774310092</ele>
        <time>2022-03-17T23:30:50Z</time>
      </trkpt>
      <trkpt lat="34.3287046098928" lon="108.98048122286214">
        <ele>395.82918650527563</ele>
        <time>2022-03-17T23:30:54Z</time>
      </trkpt>
      <trkpt lat="34.328622275418795" lon="108.9805313359437">
        <ele>395.8866349523635</ele>
        <time>2022-03-17T23:30:57Z</time>
      </trkpt>
      <trkpt lat="34.3286587381985" lon="108.98063462016779">
        <ele>396.0019497858057</ele>
        <time>2022-03-17T23:31:01Z</time>
      </trkpt>
      <trkpt lat="34.3286635043391" lon="108.98075620149825">
        <ele>396.27223289664835</ele>
        <time>2022-03-17T23:31:07Z</time>
      </trkpt>
      <trkpt lat="34.32858137324711" lon="108.98080749494183">
        <ele>396.2970594270155</ele>
        <time>2022-03-17T23:31:11Z</time>
      </trkpt>
      <trkpt lat="34.32840663987972" lon="108.98086205871515">
        <ele>395.81547215301543</ele>
        <time>2022-03-17T23:31:21Z</time>
      </trkpt>
      <trkpt lat="34.328237154459124" lon="108.98087703367598">
        <ele>394.7439879998565</ele>
        <time>2022-03-17T23:31:33Z</time>
      </trkpt>
      <trkpt lat="34.32816567524825" lon="108.98084691778841">
        <ele>394.89367599692196</ele>
        <time>2022-03-17T23:31:37Z</time>
      </trkpt>
      <trkpt lat="34.328147488387835" lon="108.98101205089134">
        <ele>394.661542118527</ele>
        <time>2022-03-17T23:32:01Z</time>
      </trkpt>
      <trkpt lat="34.32815358549782" lon="108.98111249444297">
        <ele>394.9467736063525</ele>
        <time>2022-03-17T23:32:42Z</time>
      </trkpt>
      <trkpt lat="34.32822872788746" lon="108.98137584027046">
        <ele>394.60613401513547</ele>
        <time>2022-03-17T23:32:50Z</time>
      </trkpt>
      <trkpt lat="34.32830185621887" lon="108.98153036167524">
        <ele>394.6229078415781</ele>
        <time>2022-03-17T23:32:54Z</time>
      </trkpt>
      <trkpt lat="34.32839081063052" lon="108.98152740155017">
        <ele>394.5434289155528</ele>
        <time>2022-03-17T23:32:58Z</time>
      </trkpt>
      <trkpt lat="34.32844526171287" lon="108.98163701375556">
        <ele>394.64768342953175</ele>
        <time>2022-03-17T23:33:02Z</time>
      </trkpt>
      <trkpt lat="34.32844926395843" lon="108.98180909079983">
        <ele>394.45811706688255</ele>
        <time>2022-03-17T23:33:06Z</time>
      </trkpt>
      <trkpt lat="34.328266833623516" lon="108.9823629267461">
        <ele>394.01832844130695</ele>
        <time>2022-03-17T23:33:18Z</time>
      </trkpt>
      <trkpt lat="34.32825808581169" lon="108.98251207751322">
        <ele>393.8388490555808</ele>
        <time>2022-03-17T23:33:22Z</time>
      </trkpt>
      <trkpt lat="34.32815582505176" lon="108.98273460330701">
        <ele>394.40443862602115</ele>
        <time>2022-03-17T23:33:30Z</time>
      </trkpt>
      <trkpt lat="34.328124713942834" lon="108.98286038213402">
        <ele>393.14389080926776</ele>
        <time>2022-03-17T23:33:34Z</time>
      </trkpt>
      <trkpt lat="34.328171472306664" lon="108.98299921076793">
        <ele>392.8059281334281</ele>
        <time>2022-03-17T23:33:38Z</time>
      </trkpt>
      <trkpt lat="34.32825745476353" lon="108.98309214940481">
        <ele>392.9768569888547</ele>
        <time>2022-03-17T23:33:40Z</time>
      </trkpt>
      <trkpt lat="34.32836004788663" lon="108.9835117648258">
        <ele>392.5170148592442</ele>
        <time>2022-03-17T23:33:48Z</time>
      </trkpt>
      <trkpt lat="34.328352728461525" lon="108.98363464962074">
        <ele>393.1205454720184</ele>
        <time>2022-03-17T23:33:50Z</time>
      </trkpt>
      <trkpt lat="34.3282353791431" lon="108.98374108519103">
        <ele>392.8657609736547</ele>
        <time>2022-03-17T23:33:52Z</time>
      </trkpt>
      <trkpt lat="34.328140102300104" lon="108.98386400810672">
        <ele>392.824324471876</ele>
        <time>2022-03-17T23:33:54Z</time>
      </trkpt>
      <trkpt lat="34.32809426162124" lon="108.98401623863708">
        <ele>391.82753317337483</ele>
        <time>2022-03-17T23:33:56Z</time>
      </trkpt>
      <trkpt lat="34.328109653888056" lon="108.98416706983005">
        <ele>392.36297315731645</ele>
        <time>2022-03-17T23:33:58Z</time>
      </trkpt>
      <trkpt lat="34.328084817070454" lon="108.98477214180612">
        <ele>392.18585244193673</ele>
        <time>2022-03-17T23:34:06Z</time>
      </trkpt>
      <trkpt lat="34.328077833796385" lon="108.98492588053264">
        <ele>392.06788493227214</ele>
        <time>2022-03-17T23:34:08Z</time>
      </trkpt>
      <trkpt lat="34.3280923576307" lon="108.98504312706265">
        <ele>391.87901569344103</ele>
        <time>2022-03-17T23:34:10Z</time>
      </trkpt>
      <trkpt lat="34.32798021122926" lon="108.98564780409363">
        <ele>392.07289387192577</ele>
        <time>2022-03-17T23:34:18Z</time>
      </trkpt>
      <trkpt lat="34.32794724929358" lon="108.98611897025441">
        <ele>392.102250427939</ele>
        <time>2022-03-17T23:34:26Z</time>
      </trkpt>
      <trkpt lat="34.32791139574485" lon="108.98654327198443">
        <ele>392.2136877961457</ele>
        <time>2022-03-17T23:34:34Z</time>
      </trkpt>
      <trkpt lat="34.3279186712267" lon="108.9866437135957">
        <ele>392.88836058788</ele>
        <time>2022-03-17T23:34:36Z</time>
      </trkpt>
      <trkpt lat="34.32791080569124" lon="108.9868511933044">
        <ele>392.9629809940234</ele>
        <time>2022-03-17T23:34:40Z</time>
      </trkpt>
      <trkpt lat="34.32793082143656" lon="108.9869471994273">
        <ele>393.49927959404886</ele>
        <time>2022-03-17T23:34:42Z</time>
      </trkpt>
      <trkpt lat="34.32792427337069" lon="108.98705953358707">
        <ele>393.89690204523504</ele>
        <time>2022-03-17T23:34:44Z</time>
      </trkpt>
      <trkpt lat="34.327948243329054" lon="108.98715507798721">
        <ele>394.4968822915107</ele>
        <time>2022-03-17T23:34:46Z</time>
      </trkpt>
      <trkpt lat="34.32793798047205" lon="108.98769388562876">
        <ele>394.16055318154395</ele>
        <time>2022-03-17T23:34:56Z</time>
      </trkpt>
      <trkpt lat="34.32792685766468" lon="108.9877984666074">
        <ele>393.98372453451157</ele>
        <time>2022-03-17T23:34:58Z</time>
      </trkpt>
      <trkpt lat="34.32794500879477" lon="108.98790906888561">
        <ele>394.4387213503942</ele>
        <time>2022-03-17T23:35:00Z</time>
      </trkpt>
      <trkpt lat="34.32792670600835" lon="108.98844118077297">
        <ele>393.4330064468086</ele>
        <time>2022-03-17T23:35:10Z</time>
      </trkpt>
      <trkpt lat="34.32795809880036" lon="108.98855832387017">
        <ele>392.9877872169018</ele>
        <time>2022-03-17T23:35:12Z</time>
      </trkpt>
      <trkpt lat="34.32795836643322" lon="108.98886769221028">
        <ele>393.14283693768084</ele>
        <time>2022-03-17T23:35:18Z</time>
      </trkpt>
      <trkpt lat="34.32793647459045" lon="108.98896120150944">
        <ele>392.41794150695205</ele>
        <time>2022-03-17T23:35:20Z</time>
      </trkpt>
      <trkpt lat="34.32793617626711" lon="108.98916275671547">
        <ele>392.22819212358445</ele>
        <time>2022-03-17T23:35:24Z</time>
      </trkpt>
      <trkpt lat="34.32796624022972" lon="108.98924185991275">
        <ele>392.36190205812454</ele>
        <time>2022-03-17T23:35:26Z</time>
      </trkpt>
      <trkpt lat="34.3279571308755" lon="108.98963711954084">
        <ele>391.49624451529235</ele>
        <time>2022-03-17T23:35:34Z</time>
      </trkpt>
      <trkpt lat="34.32797260899972" lon="108.98974112570977">
        <ele>392.04202687367797</ele>
        <time>2022-03-17T23:35:36Z</time>
      </trkpt>
      <trkpt lat="34.32794688365043" lon="108.99012944722449">
        <ele>392.27372278738767</ele>
        <time>2022-03-17T23:35:44Z</time>
      </trkpt>
      <trkpt lat="34.32788525350265" lon="108.99032870331827">
        <ele>392.52883869502693</ele>
        <time>2022-03-17T23:35:48Z</time>
      </trkpt>
      <trkpt lat="34.32785677447375" lon="108.99092861749288">
        <ele>392.03925676923245</ele>
        <time>2022-03-17T23:35:58Z</time>
      </trkpt>
      <trkpt lat="34.32792874043968" lon="108.99115571007124">
        <ele>391.286458754912</ele>
        <time>2022-03-17T23:36:02Z</time>
      </trkpt>
      <trkpt lat="34.32801588069887" lon="108.99130586404176">
        <ele>392.26997153274715</ele>
        <time>2022-03-17T23:36:06Z</time>
      </trkpt>
      <trkpt lat="34.32800135773306" lon="108.9915279797225">
        <ele>392.7040586695075</ele>
        <time>2022-03-17T23:36:10Z</time>
      </trkpt>
      <trkpt lat="34.32793163135177" lon="108.9919196307929">
        <ele>395.34617769997567</ele>
        <time>2022-03-17T23:36:16Z</time>
      </trkpt>
      <trkpt lat="34.32794989013725" lon="108.9921783422342">
        <ele>393.3974942266941</ele>
        <time>2022-03-17T23:36:22Z</time>
      </trkpt>
      <trkpt lat="34.327938099862386" lon="108.99226715923547">
        <ele>393.5284441411495</ele>
        <time>2022-03-17T23:36:24Z</time>
      </trkpt>
      <trkpt lat="34.32798779920525" lon="108.9926101536396">
        <ele>394.3523130742833</ele>
        <time>2022-03-17T23:36:30Z</time>
      </trkpt>
      <trkpt lat="34.32798457008039" lon="108.99321638873703">
        <ele>395.5124008618295</ele>
        <time>2022-03-17T23:36:42Z</time>
      </trkpt>
      <trkpt lat="34.327955826030106" lon="108.99338992007026">
        <ele>395.3785243500024</ele>
        <time>2022-03-17T23:36:46Z</time>
      </trkpt>
      <trkpt lat="34.327952365802545" lon="108.99378958561628">
        <ele>396.77728351484984</ele>
        <time>2022-03-17T23:36:54Z</time>
      </trkpt>
      <trkpt lat="34.32800166134821" lon="108.99414777321364">
        <ele>396.4734214004129</ele>
        <time>2022-03-17T23:37:02Z</time>
      </trkpt>
      <trkpt lat="34.32807460358823" lon="108.9943099130224">
        <ele>396.5402427809313</ele>
        <time>2022-03-17T23:37:08Z</time>
      </trkpt>
      <trkpt lat="34.3281119434324" lon="108.9944626645418">
        <ele>395.93246079050004</ele>
        <time>2022-03-17T23:37:12Z</time>
      </trkpt>
      <trkpt lat="34.3281055380896" lon="108.99502034519624">
        <ele>395.76129628159106</ele>
        <time>2022-03-17T23:37:22Z</time>
      </trkpt>
      <trkpt lat="34.328110816155636" lon="108.99529336431709">
        <ele>394.9453091211617</ele>
        <time>2022-03-17T23:37:28Z</time>
      </trkpt>
      <trkpt lat="34.32817254451878" lon="108.9956632424574">
        <ele>394.62983321305364</ele>
        <time>2022-03-17T23:37:38Z</time>
      </trkpt>
      <trkpt lat="34.32819078662956" lon="108.99601139547428">
        <ele>393.25303727854043</ele>
        <time>2022-03-17T23:37:50Z</time>
      </trkpt>
      <trkpt lat="34.328180338837676" lon="108.99628794113735">
        <ele>394.4464489305392</ele>
        <time>2022-03-17T23:37:58Z</time>
      </trkpt>
      <trkpt lat="34.32820748728743" lon="108.9964125329347">
        <ele>394.26137285586447</ele>
        <time>2022-03-17T23:38:02Z</time>
      </trkpt>
      <trkpt lat="34.32817011737349" lon="108.99651070313499">
        <ele>394.14307543169707</ele>
        <time>2022-03-17T23:38:04Z</time>
      </trkpt>
      <trkpt lat="34.32819503127353" lon="108.99662815449116">
        <ele>395.0215815231204</ele>
        <time>2022-03-17T23:38:08Z</time>
      </trkpt>
      <trkpt lat="34.32818397080887" lon="108.99672488171431">
        <ele>395.1279852427542</ele>
        <time>2022-03-17T23:38:10Z</time>
      </trkpt>
      <trkpt lat="34.328205276712126" lon="108.9969702358401">
        <ele>395.5184941114858</ele>
        <time>2022-03-17T23:38:16Z</time>
      </trkpt>
      <trkpt lat="34.328194749010045" lon="108.99713139887373">
        <ele>396.0494815511629</ele>
        <time>2022-03-17T23:38:20Z</time>
      </trkpt>
      <trkpt lat="34.32792781437848" lon="108.99823388372687">
        <ele>397.7488156994805</ele>
        <time>2022-03-17T23:38:22Z</time>
      </trkpt>
      <trkpt lat="34.32790740502864" lon="108.99848789404803">
        <ele>397.47818580362946</ele>
        <time>2022-03-17T23:38:26Z</time>
      </trkpt>
      <trkpt lat="34.327917682277146" lon="108.99859413682933">
        <ele>396.6035674447194</ele>
        <time>2022-03-17T23:38:28Z</time>
      </trkpt>
      <trkpt lat="34.32788536665338" lon="108.99918147740222">
        <ele>393.9184976769611</ele>
        <time>2022-03-17T23:38:38Z</time>
      </trkpt>
      <trkpt lat="34.3278800907299" lon="108.99959264007845">
        <ele>394.1451373882592</ele>
        <time>2022-03-17T23:38:44Z</time>
      </trkpt>
      <trkpt lat="34.327858066962335" lon="108.99969640835317">
        <ele>394.1018490800634</ele>
        <time>2022-03-17T23:38:46Z</time>
      </trkpt>
      <trkpt lat="34.327923802289774" lon="109.00025781593875">
        <ele>394.36553201358765</ele>
        <time>2022-03-17T23:38:56Z</time>
      </trkpt>
      <trkpt lat="34.32795910429785" lon="109.00082124624022">
        <ele>396.1729940995574</ele>
        <time>2022-03-17T23:39:06Z</time>
      </trkpt>
      <trkpt lat="34.327934700688544" lon="109.00116913233232">
        <ele>394.5630461201072</ele>
        <time>2022-03-17T23:39:12Z</time>
      </trkpt>
      <trkpt lat="34.32793749568877" lon="109.00171988128514">
        <ele>394.7911721970886</ele>
        <time>2022-03-17T23:39:22Z</time>
      </trkpt>
      <trkpt lat="34.327953152913594" lon="109.00213885591315">
        <ele>396.0464520221576</ele>
        <time>2022-03-17T23:39:30Z</time>
      </trkpt>
      <trkpt lat="34.32797030167267" lon="109.00224280248659">
        <ele>395.89082409162074</ele>
        <time>2022-03-17T23:39:32Z</time>
      </trkpt>
      <trkpt lat="34.32795820701867" lon="109.00272670349105">
        <ele>396.2526408340782</ele>
        <time>2022-03-17T23:39:42Z</time>
      </trkpt>
      <trkpt lat="34.327911793453126" lon="109.00314923542224">
        <ele>396.5125841125846</ele>
        <time>2022-03-17T23:39:50Z</time>
      </trkpt>
      <trkpt lat="34.327895258045196" lon="109.00361535178267">
        <ele>395.063620175235</ele>
        <time>2022-03-17T23:40:00Z</time>
      </trkpt>
      <trkpt lat="34.327903261330995" lon="109.00372892559167">
        <ele>395.4609393058345</ele>
        <time>2022-03-17T23:40:02Z</time>
      </trkpt>
      <trkpt lat="34.32788777732373" lon="109.00390675360951">
        <ele>395.0676927585155</ele>
        <time>2022-03-17T23:40:06Z</time>
      </trkpt>
      <trkpt lat="34.32791150373419" lon="109.00398977424727">
        <ele>395.27947408147156</ele>
        <time>2022-03-17T23:40:08Z</time>
      </trkpt>
      <trkpt lat="34.32791808298054" lon="109.00417597395743">
        <ele>395.95135270804167</ele>
        <time>2022-03-17T23:40:12Z</time>
      </trkpt>
      <trkpt lat="34.327906717376486" lon="109.00428680953816">
        <ele>395.06046760454774</ele>
        <time>2022-03-17T23:40:14Z</time>
      </trkpt>
      <trkpt lat="34.327937277591836" lon="109.0046010905865">
        <ele>395.2656719889492</ele>
        <time>2022-03-17T23:40:20Z</time>
      </trkpt>
      <trkpt lat="34.32789838664816" lon="109.00468503801643">
        <ele>395.3416999699548</ele>
        <time>2022-03-17T23:40:22Z</time>
      </trkpt>
      <trkpt lat="34.327926069406374" lon="109.00515718958403">
        <ele>395.2333676125854</ele>
        <time>2022-03-17T23:40:32Z</time>
      </trkpt>
      <trkpt lat="34.327899129956776" lon="109.00523839025026">
        <ele>395.3063033791259</ele>
        <time>2022-03-17T23:40:34Z</time>
      </trkpt>
      <trkpt lat="34.32790311685707" lon="109.00566756799338">
        <ele>395.20744468830526</ele>
        <time>2022-03-17T23:40:42Z</time>
      </trkpt>
      <trkpt lat="34.327921910009835" lon="109.00596402689561">
        <ele>396.1110120341182</ele>
        <time>2022-03-17T23:40:48Z</time>
      </trkpt>
      <trkpt lat="34.32790726626505" lon="109.00638745346924">
        <ele>395.3060148470104</ele>
        <time>2022-03-17T23:40:56Z</time>
      </trkpt>
      <trkpt lat="34.32794529151858" lon="109.00659686951053">
        <ele>395.0897572832182</ele>
        <time>2022-03-17T23:41:00Z</time>
      </trkpt>
      <trkpt lat="34.327911228832384" lon="109.00666706145681">
        <ele>394.3532268162817</ele>
        <time>2022-03-17T23:41:12Z</time>
      </trkpt>
      <trkpt lat="34.32780068988521" lon="109.00685988697072">
        <ele>393.56711346656084</ele>
        <time>2022-03-17T23:41:27Z</time>
      </trkpt>
      <trkpt lat="34.32779706424494" lon="109.00700241188012">
        <ele>394.49478145875037</ele>
        <time>2022-03-17T23:41:32Z</time>
      </trkpt>
      <trkpt lat="34.327864966322046" lon="109.00743719580905">
        <ele>394.48429635260254</ele>
        <time>2022-03-17T23:41:42Z</time>
      </trkpt>
      <trkpt lat="34.32784915299718" lon="109.00755246398182">
        <ele>393.9264885401353</ele>
        <time>2022-03-17T23:41:44Z</time>
      </trkpt>
      <trkpt lat="34.32787712763843" lon="109.00771339882162">
        <ele>394.88810198847204</ele>
        <time>2022-03-17T23:41:48Z</time>
      </trkpt>
      <trkpt lat="34.32787971825644" lon="109.00787610865912">
        <ele>394.8937240820378</ele>
        <time>2022-03-17T23:41:50Z</time>
      </trkpt>
      <trkpt lat="34.32790363886477" lon="109.00801963749429">
        <ele>395.02369803749025</ele>
        <time>2022-03-17T23:41:52Z</time>
      </trkpt>
      <trkpt lat="34.32787924762139" lon="109.0084137906813">
        <ele>393.26254349015653</ele>
        <time>2022-03-17T23:41:58Z</time>
      </trkpt>
      <trkpt lat="34.32791940270597" lon="109.00893354520154">
        <ele>392.69734540209174</ele>
        <time>2022-03-17T23:42:06Z</time>
      </trkpt>
      <trkpt lat="34.32793970663576" lon="109.0094773437305">
        <ele>390.36449264734983</ele>
        <time>2022-03-17T23:42:14Z</time>
      </trkpt>
      <trkpt lat="34.32796155004805" lon="109.01003036510747">
        <ele>386.64234097022563</ele>
        <time>2022-03-17T23:42:22Z</time>
      </trkpt>
      <trkpt lat="34.32797183483688" lon="109.01027792730757">
        <ele>386.57550768367946</ele>
        <time>2022-03-17T23:42:26Z</time>
      </trkpt>
      <trkpt lat="34.327907948390965" lon="109.01077504693296">
        <ele>386.22526838909835</ele>
        <time>2022-03-17T23:42:34Z</time>
      </trkpt>
      <trkpt lat="34.32789113613764" lon="109.01121824433602">
        <ele>386.7721922751516</ele>
        <time>2022-03-17T23:42:42Z</time>
      </trkpt>
      <trkpt lat="34.32790872384831" lon="109.01175486247033">
        <ele>388.05233696009964</ele>
        <time>2022-03-17T23:42:52Z</time>
      </trkpt>
      <trkpt lat="34.32786451557352" lon="109.01228261862333">
        <ele>387.6934175416827</ele>
        <time>2022-03-17T23:43:02Z</time>
      </trkpt>
      <trkpt lat="34.32784975972047" lon="109.01280921180934">
        <ele>388.86524541210383</ele>
        <time>2022-03-17T23:43:12Z</time>
      </trkpt>
      <trkpt lat="34.327870990305854" lon="109.01313409981422">
        <ele>390.0362949054688</ele>
        <time>2022-03-17T23:43:18Z</time>
      </trkpt>
      <trkpt lat="34.32786968888797" lon="109.01354926809033">
        <ele>389.8896076409146</ele>
        <time>2022-03-17T23:43:26Z</time>
      </trkpt>
      <trkpt lat="34.32791544495595" lon="109.01407402003578">
        <ele>389.6793197924271</ele>
        <time>2022-03-17T23:43:36Z</time>
      </trkpt>
      <trkpt lat="34.32790940121541" lon="109.01460670183575">
        <ele>387.56812770757824</ele>
        <time>2022-03-17T23:43:46Z</time>
      </trkpt>
      <trkpt lat="34.327911345052975" lon="109.01480825686072">
        <ele>388.0218318067491</ele>
        <time>2022-03-17T23:43:50Z</time>
      </trkpt>
      <trkpt lat="34.32793610912029" lon="109.01492751435865">
        <ele>388.64884022064507</ele>
        <time>2022-03-17T23:43:52Z</time>
      </trkpt>
      <trkpt lat="34.32792437587359" lon="109.01516959176983">
        <ele>387.55036599189043</ele>
        <time>2022-03-17T23:43:56Z</time>
      </trkpt>
      <trkpt lat="34.32795512879764" lon="109.01540236524724">
        <ele>387.8081967867911</ele>
        <time>2022-03-17T23:44:00Z</time>
      </trkpt>
      <trkpt lat="34.32796154364578" lon="109.01580463334093">
        <ele>387.5342581644654</ele>
        <time>2022-03-17T23:44:08Z</time>
      </trkpt>
      <trkpt lat="34.32797628192819" lon="109.01589093032032">
        <ele>386.951454709284</ele>
        <time>2022-03-17T23:44:10Z</time>
      </trkpt>
      <trkpt lat="34.32798351711495" lon="109.0160810908195">
        <ele>387.21304138563573</ele>
        <time>2022-03-17T23:44:14Z</time>
      </trkpt>
      <trkpt lat="34.327928157350065" lon="109.01651053809138">
        <ele>387.5985211543739</ele>
        <time>2022-03-17T23:44:22Z</time>
      </trkpt>
      <trkpt lat="34.327793703329" lon="109.01703049739676">
        <ele>388.40476289764047</ele>
        <time>2022-03-17T23:44:32Z</time>
      </trkpt>
      <trkpt lat="34.32770948621827" lon="109.01730879587109">
        <ele>389.1100163506344</ele>
        <time>2022-03-17T23:44:38Z</time>
      </trkpt>
      <trkpt lat="34.32764789261355" lon="109.01760188822098">
        <ele>389.05865233950317</ele>
        <time>2022-03-17T23:44:44Z</time>
      </trkpt>
      <trkpt lat="34.327637480835655" lon="109.01814049952976">
        <ele>389.70732147432864</ele>
        <time>2022-03-17T23:44:56Z</time>
      </trkpt>
      <trkpt lat="34.327617642766114" lon="109.0184195968083">
        <ele>388.8920454522595</ele>
        <time>2022-03-17T23:45:02Z</time>
      </trkpt>
      <trkpt lat="34.32748711538175" lon="109.01868468368474">
        <ele>388.9491062387824</ele>
        <time>2022-03-17T23:45:08Z</time>
      </trkpt>
      <trkpt lat="34.327355405057574" lon="109.01892882242058">
        <ele>389.58485426194966</ele>
        <time>2022-03-17T23:45:14Z</time>
      </trkpt>
      <trkpt lat="34.327038838742" lon="109.01940165881174">
        <ele>389.05049029458314</ele>
        <time>2022-03-17T23:45:26Z</time>
      </trkpt>
      <trkpt lat="34.32680371386894" lon="109.01980106253473">
        <ele>388.575077409856</ele>
        <time>2022-03-17T23:45:36Z</time>
      </trkpt>
      <trkpt lat="34.32649176030082" lon="109.02019624384923">
        <ele>388.9449479347095</ele>
        <time>2022-03-17T23:45:46Z</time>
      </trkpt>
      <trkpt lat="34.326448153947574" lon="109.02026975984806">
        <ele>388.9784418102354</ele>
        <time>2022-03-17T23:45:48Z</time>
      </trkpt>
      <trkpt lat="34.326102707047575" lon="109.02062087977414">
        <ele>388.77968664560467</ele>
        <time>2022-03-17T23:45:58Z</time>
      </trkpt>
      <trkpt lat="34.32574365144439" lon="109.02092052088068">
        <ele>387.9291062373668</ele>
        <time>2022-03-17T23:46:08Z</time>
      </trkpt>
      <trkpt lat="34.325596465114515" lon="109.02104135401879">
        <ele>389.3966059293598</ele>
        <time>2022-03-17T23:46:12Z</time>
      </trkpt>
      <trkpt lat="34.325201606980045" lon="109.02126773066843">
        <ele>387.89191172178835</ele>
        <time>2022-03-17T23:46:22Z</time>
      </trkpt>
      <trkpt lat="34.32479472762665" lon="109.02144591187106">
        <ele>388.443331268616</ele>
        <time>2022-03-17T23:46:32Z</time>
      </trkpt>
      <trkpt lat="34.32462282030022" lon="109.02152933285359">
        <ele>389.02395396400243</ele>
        <time>2022-03-17T23:46:36Z</time>
      </trkpt>
      <trkpt lat="34.324193127963206" lon="109.02167027186191">
        <ele>388.1763269053772</ele>
        <time>2022-03-17T23:46:46Z</time>
      </trkpt>
      <trkpt lat="34.32410169119168" lon="109.02169297116929">
        <ele>388.63875827379525</ele>
        <time>2022-03-17T23:46:48Z</time>
      </trkpt>
      <trkpt lat="34.32365944096679" lon="109.0217474710682">
        <ele>389.60291117150337</ele>
        <time>2022-03-17T23:46:58Z</time>
      </trkpt>
      <trkpt lat="34.323288222302374" lon="109.02180740848318">
        <ele>390.33235086034983</ele>
        <time>2022-03-17T23:47:06Z</time>
      </trkpt>
      <trkpt lat="34.32310565873237" lon="109.02179364327631">
        <ele>390.0668708756566</ele>
        <time>2022-03-17T23:47:10Z</time>
      </trkpt>
      <trkpt lat="34.32293544417392" lon="109.02182270960306">
        <ele>390.05162095092237</ele>
        <time>2022-03-17T23:47:14Z</time>
      </trkpt>
      <trkpt lat="34.32248150570803" lon="109.02179263707946">
        <ele>390.1154529135674</ele>
        <time>2022-03-17T23:47:24Z</time>
      </trkpt>
      <trkpt lat="34.32211720847412" lon="109.02175480683321">
        <ele>389.7325953580439</ele>
        <time>2022-03-17T23:47:32Z</time>
      </trkpt>
      <trkpt lat="34.32185681915178" lon="109.02174322926547">
        <ele>389.8071389552206</ele>
        <time>2022-03-17T23:47:38Z</time>
      </trkpt>
      <trkpt lat="34.32160024007441" lon="109.02168387216722">
        <ele>389.501664143987</ele>
        <time>2022-03-17T23:47:44Z</time>
      </trkpt>
      <trkpt lat="34.32142064853759" lon="109.02167586939267">
        <ele>389.94953483436257</ele>
        <time>2022-03-17T23:47:48Z</time>
      </trkpt>
      <trkpt lat="34.32107043435277" lon="109.0216110656314">
        <ele>390.5388136738911</ele>
        <time>2022-03-17T23:47:56Z</time>
      </trkpt>
      <trkpt lat="34.320626767316675" lon="109.02154476245201">
        <ele>390.5558625049889</ele>
        <time>2022-03-17T23:48:06Z</time>
      </trkpt>
      <trkpt lat="34.320104637631616" lon="109.02149111997706">
        <ele>390.64643786568195</ele>
        <time>2022-03-17T23:48:18Z</time>
      </trkpt>
      <trkpt lat="34.31964403996235" lon="109.02144600424454">
        <ele>390.42912377323955</ele>
        <time>2022-03-17T23:48:28Z</time>
      </trkpt>
      <trkpt lat="34.31935605337484" lon="109.02142421494327">
        <ele>390.61897901725024</ele>
        <time>2022-03-17T23:48:34Z</time>
      </trkpt>
      <trkpt lat="34.319263267451056" lon="109.02144027401172">
        <ele>390.7218355676159</ele>
        <time>2022-03-17T23:48:36Z</time>
      </trkpt>
      <trkpt lat="34.31917518504452" lon="109.02142606992587">
        <ele>390.5962726371363</ele>
        <time>2022-03-17T23:48:38Z</time>
      </trkpt>
      <trkpt lat="34.31907951721464" lon="109.02144530027071">
        <ele>390.71123114507645</ele>
        <time>2022-03-17T23:48:40Z</time>
      </trkpt>
      <trkpt lat="34.31898735483048" lon="109.02143432927727">
        <ele>390.3181458953768</ele>
        <time>2022-03-17T23:48:42Z</time>
      </trkpt>
      <trkpt lat="34.318634019884804" lon="109.021452312751">
        <ele>390.5783962784335</ele>
        <time>2022-03-17T23:48:50Z</time>
      </trkpt>
      <trkpt lat="34.318270822683324" lon="109.02148499873147">
        <ele>390.62959312740713</ele>
        <time>2022-03-17T23:48:58Z</time>
      </trkpt>
      <trkpt lat="34.3180922465693" lon="109.02154229121636">
        <ele>391.83790444675833</ele>
        <time>2022-03-17T23:49:02Z</time>
      </trkpt>
      <trkpt lat="34.31763120716216" lon="109.02157601132595">
        <ele>391.3019529208541</ele>
        <time>2022-03-17T23:49:12Z</time>
      </trkpt>
      <trkpt lat="34.31718743947933" lon="109.02163941875484">
        <ele>392.18372097983956</ele>
        <time>2022-03-17T23:49:22Z</time>
      </trkpt>
      <trkpt lat="34.31673946339876" lon="109.02170854170963">
        <ele>392.24930396396667</ele>
        <time>2022-03-17T23:49:32Z</time>
      </trkpt>
      <trkpt lat="34.31647341554871" lon="109.02175822844056">
        <ele>391.5554540390149</ele>
        <time>2022-03-17T23:49:38Z</time>
      </trkpt>
      <trkpt lat="34.31628802220473" lon="109.0218165322456">
        <ele>391.5789848836139</ele>
        <time>2022-03-17T23:49:42Z</time>
      </trkpt>
      <trkpt lat="34.31622420947112" lon="109.0218759805766">
        <ele>391.8572010817006</ele>
        <time>2022-03-17T23:49:44Z</time>
      </trkpt>
      <trkpt lat="34.31617488772669" lon="109.02195786751916">
        <ele>391.9619253287092</ele>
        <time>2022-03-17T23:49:46Z</time>
      </trkpt>
      <trkpt lat="34.31614179873622" lon="109.02210194974448">
        <ele>391.4671018719673</ele>
        <time>2022-03-17T23:49:50Z</time>
      </trkpt>
      <trkpt lat="34.3159573896241" lon="109.02224408229715">
        <ele>390.1242055622861</ele>
        <time>2022-03-17T23:49:58Z</time>
      </trkpt>
      <trkpt lat="34.31592762198091" lon="109.02232588367926">
        <ele>390.49379228428006</ele>
        <time>2022-03-17T23:50:04Z</time>
      </trkpt>
      <trkpt lat="34.315899210344774" lon="109.02231943957865">
        <ele>390.4809060646221</ele>
        <time>2022-03-17T23:50:12Z</time>
      </trkpt>
      <trkpt lat="34.31580119430761" lon="109.02247030666004">
        <ele>390.7613450521603</ele>
        <time>2022-03-17T23:50:23Z</time>
      </trkpt>
      <trkpt lat="34.31580546592191" lon="109.02258858673589">
        <ele>390.59464407525957</ele>
        <time>2022-03-17T23:50:26Z</time>
      </trkpt>
      <trkpt lat="34.315991045796224" lon="109.02306483985713">
        <ele>388.32077303528786</ele>
        <time>2022-03-17T23:50:36Z</time>
      </trkpt>
      <trkpt lat="34.31616252659471" lon="109.02355268001595">
        <ele>388.86325891222805</ele>
        <time>2022-03-17T23:50:46Z</time>
      </trkpt>
      <trkpt lat="34.316181100170574" lon="109.02365217801376">
        <ele>388.3805228173733</ele>
        <time>2022-03-17T23:50:48Z</time>
      </trkpt>
      <trkpt lat="34.31614162458968" lon="109.0237389083995">
        <ele>389.0693299798295</ele>
        <time>2022-03-17T23:50:50Z</time>
      </trkpt>
      <trkpt lat="34.31597299714226" lon="109.02389774157527">
        <ele>389.41673093196005</ele>
        <time>2022-03-17T23:50:56Z</time>
      </trkpt>
      <trkpt lat="34.31581152547782" lon="109.02396795805144">
        <ele>389.27611622586846</ele>
        <time>2022-03-17T23:51:00Z</time>
      </trkpt>
      <trkpt lat="34.31541949451904" lon="109.02425144476143">
        <ele>390.7544376589358</ele>
        <time>2022-03-17T23:51:12Z</time>
      </trkpt>
      <trkpt lat="34.315223935524344" lon="109.02441945312823">
        <ele>391.0168093973771</ele>
        <time>2022-03-17T23:51:18Z</time>
      </trkpt>
      <trkpt lat="34.315065893350116" lon="109.02451432936368">
        <ele>390.56448168028146</ele>
        <time>2022-03-17T23:51:22Z</time>
      </trkpt>
      <trkpt lat="34.314838782842784" lon="109.02467014083753">
        <ele>390.765107688494</ele>
        <time>2022-03-17T23:51:28Z</time>
      </trkpt>
      <trkpt lat="34.31465309447948" lon="109.02474641885492">
        <ele>390.1470039188862</ele>
        <time>2022-03-17T23:51:32Z</time>
      </trkpt>
      <trkpt lat="34.31452757421341" lon="109.02486383487461">
        <ele>390.12071922328323</ele>
        <time>2022-03-17T23:51:36Z</time>
      </trkpt>
      <trkpt lat="34.314211208407464" lon="109.0250955871159">
        <ele>390.55645589344203</ele>
        <time>2022-03-17T23:51:44Z</time>
      </trkpt>
      <trkpt lat="34.31378275446713" lon="109.02532717503964">
        <ele>390.865103578195</ele>
        <time>2022-03-17T23:51:54Z</time>
      </trkpt>
      <trkpt lat="34.313324699342" lon="109.02550962286146">
        <ele>391.18147301580757</ele>
        <time>2022-03-17T23:52:04Z</time>
      </trkpt>
      <trkpt lat="34.31294014799616" lon="109.02575888643233">
        <ele>392.6132277371362</ele>
        <time>2022-03-17T23:52:14Z</time>
      </trkpt>
      <trkpt lat="34.31268028455445" lon="109.02591325310527">
        <ele>392.80072061065584</ele>
        <time>2022-03-17T23:52:20Z</time>
      </trkpt>
      <trkpt lat="34.31257131489688" lon="109.02601201973997">
        <ele>392.1775178918615</ele>
        <time>2022-03-17T23:52:24Z</time>
      </trkpt>
      <trkpt lat="34.31248326573642" lon="109.02613334782679">
        <ele>392.4867593785748</ele>
        <time>2022-03-17T23:52:28Z</time>
      </trkpt>
      <trkpt lat="34.31232683285472" lon="109.02626127788605">
        <ele>393.53106429055333</ele>
        <time>2022-03-17T23:52:32Z</time>
      </trkpt>
      <trkpt lat="34.31220351905554" lon="109.02627561721955">
        <ele>393.3468248480931</ele>
        <time>2022-03-17T23:52:34Z</time>
      </trkpt>
      <trkpt lat="34.31213265586995" lon="109.02631861741793">
        <ele>393.7957517784089</ele>
        <time>2022-03-17T23:52:36Z</time>
      </trkpt>
      <trkpt lat="34.31220798782128" lon="109.02632871121789">
        <ele>393.17661277670413</ele>
        <time>2022-03-17T23:52:38Z</time>
      </trkpt>
      <trkpt lat="34.31201531081735" lon="109.02648907175558">
        <ele>393.8714379053563</ele>
        <time>2022-03-17T23:52:42Z</time>
      </trkpt>
      <trkpt lat="34.311764254983885" lon="109.027050288014">
        <ele>393.810834210366</ele>
        <time>2022-03-17T23:52:58Z</time>
      </trkpt>
      <trkpt lat="34.311605644074056" lon="109.02748299494945">
        <ele>393.77056655753404</ele>
        <time>2022-03-17T23:53:10Z</time>
      </trkpt>
      <trkpt lat="34.31157541672855" lon="109.02762432707605">
        <ele>393.9673753948882</ele>
        <time>2022-03-17T23:53:14Z</time>
      </trkpt>
      <trkpt lat="34.31144382642331" lon="109.02786004262367">
        <ele>394.2350493473932</ele>
        <time>2022-03-17T23:53:22Z</time>
      </trkpt>
      <trkpt lat="34.31143146977685" lon="109.02798961234708">
        <ele>394.5122445039451</ele>
        <time>2022-03-17T23:53:26Z</time>
      </trkpt>
      <trkpt lat="34.311394679673434" lon="109.02808916552362">
        <ele>394.81693037971854</ele>
        <time>2022-03-17T23:53:30Z</time>
      </trkpt>
      <trkpt lat="34.311395533414206" lon="109.02823340028924">
        <ele>394.28891836013645</ele>
        <time>2022-03-17T23:53:34Z</time>
      </trkpt>
      <trkpt lat="34.31143301999987" lon="109.0283715716825">
        <ele>394.1508645499125</ele>
        <time>2022-03-17T23:53:38Z</time>
      </trkpt>
      <trkpt lat="34.31147456889257" lon="109.02846059059229">
        <ele>393.476352580823</ele>
        <time>2022-03-17T23:53:40Z</time>
      </trkpt>
      <trkpt lat="34.31149112931074" lon="109.02874426442199">
        <ele>393.2453929577023</ele>
        <time>2022-03-17T23:53:48Z</time>
      </trkpt>
      <trkpt lat="34.3114479081762" lon="109.02886698933555">
        <ele>393.4027152694762</ele>
        <time>2022-03-17T23:53:52Z</time>
      </trkpt>
      <trkpt lat="34.311278091902835" lon="109.02904847707065">
        <ele>393.60559352952987</ele>
        <time>2022-03-17T23:54:00Z</time>
      </trkpt>
      <trkpt lat="34.310975656501924" lon="109.02923256294568">
        <ele>392.8240841496736</ele>
        <time>2022-03-17T23:54:10Z</time>
      </trkpt>
      <trkpt lat="34.310890084819306" lon="109.02925457371884">
        <ele>392.42309048213065</ele>
        <time>2022-03-17T23:54:12Z</time>
      </trkpt>
      <trkpt lat="34.31042529923024" lon="109.02949284958713">
        <ele>392.35613756161183</ele>
        <time>2022-03-17T23:54:24Z</time>
      </trkpt>
      <trkpt lat="34.30996864664227" lon="109.02963476161422">
        <ele>393.248179031536</ele>
        <time>2022-03-17T23:54:36Z</time>
      </trkpt>
      <trkpt lat="34.309812513918466" lon="109.02966699824243">
        <ele>393.34469311498106</ele>
        <time>2022-03-17T23:54:40Z</time>
      </trkpt>
      <trkpt lat="34.30967137290432" lon="109.02966867297137">
        <ele>394.04156121145934</ele>
        <time>2022-03-17T23:54:44Z</time>
      </trkpt>
      <trkpt lat="34.30824207088997" lon="109.03063170266424">
        <ele>397.43585063237697</ele>
        <time>2022-03-17T23:54:48Z</time>
      </trkpt>
      <trkpt lat="34.30778901044925" lon="109.03069892980886">
        <ele>396.1831721123308</ele>
        <time>2022-03-17T23:54:56Z</time>
      </trkpt>
      <trkpt lat="34.30726591098765" lon="109.03075825224141">
        <ele>393.02133603952825</ele>
        <time>2022-03-17T23:55:04Z</time>
      </trkpt>
      <trkpt lat="34.30709568904328" lon="109.0307906314423">
        <ele>393.25677932053804</ele>
        <time>2022-03-17T23:55:06Z</time>
      </trkpt>
      <trkpt lat="34.306608013812244" lon="109.03082597912709">
        <ele>391.2480324944481</ele>
        <time>2022-03-17T23:55:16Z</time>
      </trkpt>
      <trkpt lat="34.30633084731205" lon="109.03082352203381">
        <ele>391.0721221761778</ele>
        <time>2022-03-17T23:55:22Z</time>
      </trkpt>
      <trkpt lat="34.30625944646024" lon="109.03094583831022">
        <ele>391.49678898602724</ele>
        <time>2022-03-17T23:55:26Z</time>
      </trkpt>
      <trkpt lat="34.306288324415625" lon="109.03103371737247">
        <ele>390.83990511484444</ele>
        <time>2022-03-17T23:55:28Z</time>
      </trkpt>
      <trkpt lat="34.30631684948285" lon="109.03121677005278">
        <ele>391.57283481024206</ele>
        <time>2022-03-17T23:55:32Z</time>
      </trkpt>
      <trkpt lat="34.30631886725121" lon="109.03132359184036">
        <ele>391.2714146543294</ele>
        <time>2022-03-17T23:55:34Z</time>
      </trkpt>
      <trkpt lat="34.30633820967627" lon="109.03141503109298">
        <ele>391.45340642984957</ele>
        <time>2022-03-17T23:55:36Z</time>
      </trkpt>
      <trkpt lat="34.30634900132582" lon="109.0319397156053">
        <ele>391.75842915382236</ele>
        <time>2022-03-17T23:55:46Z</time>
      </trkpt>
      <trkpt lat="34.30637150545221" lon="109.03215976686619">
        <ele>392.459571108222</ele>
        <time>2022-03-17T23:55:50Z</time>
      </trkpt>
      <trkpt lat="34.30640050955906" lon="109.03279051574086">
        <ele>392.734732715413</ele>
        <time>2022-03-17T23:56:00Z</time>
      </trkpt>
      <trkpt lat="34.306421871543826" lon="109.0330203797349">
        <ele>392.38272104691714</ele>
        <time>2022-03-17T23:56:04Z</time>
      </trkpt>
      <trkpt lat="34.30648610624607" lon="109.03326276223075">
        <ele>393.09930889774114</ele>
        <time>2022-03-17T23:56:08Z</time>
      </trkpt>
      <trkpt lat="34.30652720886273" lon="109.03370131307963">
        <ele>393.05206819437444</ele>
        <time>2022-03-17T23:56:16Z</time>
      </trkpt>
      <trkpt lat="34.306520171121896" lon="109.03382291695516">
        <ele>393.49485270120203</ele>
        <time>2022-03-17T23:56:18Z</time>
      </trkpt>
      <trkpt lat="34.30654064417534" lon="109.0343902798027">
        <ele>392.9205052740872</ele>
        <time>2022-03-17T23:56:28Z</time>
      </trkpt>
      <trkpt lat="34.30660440398399" lon="109.03494980061012">
        <ele>393.6700086379424</ele>
        <time>2022-03-17T23:56:38Z</time>
      </trkpt>
      <trkpt lat="34.30659751296089" lon="109.03507299928515">
        <ele>392.80127264000475</ele>
        <time>2022-03-17T23:56:40Z</time>
      </trkpt>
      <trkpt lat="34.30663283002976" lon="109.0352819568474">
        <ele>393.4202445419505</ele>
        <time>2022-03-17T23:56:44Z</time>
      </trkpt>
      <trkpt lat="34.30663008663364" lon="109.03553761726488">
        <ele>393.4126311726868</ele>
        <time>2022-03-17T23:56:48Z</time>
      </trkpt>
      <trkpt lat="34.306677737129775" lon="109.0361072809432">
        <ele>392.72358340676874</ele>
        <time>2022-03-17T23:56:58Z</time>
      </trkpt>
      <trkpt lat="34.306702431397746" lon="109.03645610347739">
        <ele>392.3034986946732</ele>
        <time>2022-03-17T23:57:08Z</time>
      </trkpt>
      <trkpt lat="34.30667445309389" lon="109.03653714440061">
        <ele>391.76328387018293</ele>
        <time>2022-03-17T23:57:14Z</time>
      </trkpt>
      <trkpt lat="34.30659797998904" lon="109.03654443192286">
        <ele>391.9979609111324</ele>
        <time>2022-03-17T23:57:20Z</time>
      </trkpt>
      <trkpt lat="34.306602473399565" lon="109.03664408979847">
        <ele>391.83902803529054</ele>
        <time>2022-03-17T23:57:24Z</time>
      </trkpt>
      <trkpt lat="34.30662555725105" lon="109.0367355193835">
        <ele>392.81896533910185</ele>
        <time>2022-03-17T23:57:30Z</time>
      </trkpt>
      <trkpt lat="34.30664553557154" lon="109.0370125517106">
        <ele>392.0562270283699</ele>
        <time>2022-03-17T23:57:54Z</time>
      </trkpt>
      <trkpt lat="34.30655164312803" lon="109.03701504786632">
        <ele>391.98421373497695</ele>
        <time>2022-03-17T23:58:02Z</time>
      </trkpt>
      <trkpt lat="34.306502141270464" lon="109.03708793132735">
        <ele>391.51851759199053</ele>
        <time>2022-03-17T23:58:14Z</time>
      </trkpt>
      <trkpt lat="34.30636256772136" lon="109.0371968375048">
        <ele>391.0007905839011</ele>
        <time>2022-03-17T23:58:28Z</time>
      </trkpt>
      <trkpt lat="34.30636411305234" lon="109.03722436117883">
        <ele>391.54547101445496</ele>
        <time>2022-03-17T23:58:38Z</time>
      </trkpt>
    </trkseg>
  </trk>
</gpx>