<?xml version="1.0" encoding="UTF-8"?>
<gpx xmlns="http://www.topografix.com/GPX/1/1" xmlns:gpxtpx="http://www.garmin.com/xmlschemas/TrackPointExtension/v1" xmlns:xsi="http://www.w3.org/2001/XMLSchema-instance" xsi:schemaLocation="http://www.topografix.com/GPX/1/1 http://www.topografix.com/GPX/1/1/gpx.xsd" version="1.1" creator="gpx.py -- https://github.com/tkrajina/gpxpy">
  <trk>
    <name>gpx from keep</name>
    <type>Ride</type>
    <trkseg>
      <trkpt lat="34.32842357327017" lon="108.98073745539077">
        <ele>395.584384938702</ele>
        <time>2022-03-13T23:32:22Z</time>
      </trkpt>
      <trkpt lat="34.32834004314925" lon="108.98075906660827">
        <ele>395.32346757967025</ele>
        <time>2022-03-13T23:32:30Z</time>
      </trkpt>
      <trkpt lat="34.32825149552757" lon="108.9807485062466">
        <ele>395.075193438679</ele>
        <time>2022-03-13T23:32:37Z</time>
      </trkpt>
      <trkpt lat="34.32817188751075" lon="108.98078776825551">
        <ele>394.87443540710956</ele>
        <time>2022-03-13T23:32:44Z</time>
      </trkpt>
      <trkpt lat="34.328143509533696" lon="108.9811815575364">
        <ele>395.17418885603547</ele>
        <time>2022-03-13T23:33:08Z</time>
      </trkpt>
      <trkpt lat="34.328158259898885" lon="108.98124105057504">
        <ele>394.7309874109924</ele>
        <time>2022-03-13T23:33:15Z</time>
      </trkpt>
      <trkpt lat="34.32816332173172" lon="108.98135219847866">
        <ele>394.89391144551337</ele>
        <time>2022-03-13T23:33:25Z</time>
      </trkpt>
      <trkpt lat="34.32814389786378" lon="108.98134126260182">
        <ele>394.9796435087919</ele>
        <time>2022-03-13T23:33:30Z</time>
      </trkpt>
      <trkpt lat="34.32815029883484" lon="108.98137873882423">
        <ele>394.44493496231735</ele>
        <time>2022-03-13T23:34:18Z</time>
      </trkpt>
      <trkpt lat="34.328236417677104" lon="108.98161011474022">
        <ele>394.9379270002246</ele>
        <time>2022-03-13T23:34:26Z</time>
      </trkpt>
      <trkpt lat="34.32826422096133" lon="108.98184576744961">
        <ele>395.0325945606455</ele>
        <time>2022-03-13T23:34:32Z</time>
      </trkpt>
      <trkpt lat="34.32820875131149" lon="108.98205068021643">
        <ele>395.1892423843965</ele>
        <time>2022-03-13T23:34:40Z</time>
      </trkpt>
      <trkpt lat="34.32826316458387" lon="108.98212333295508">
        <ele>393.8275528950617</ele>
        <time>2022-03-13T23:35:04Z</time>
      </trkpt>
      <trkpt lat="34.3281490592557" lon="108.98244352155977">
        <ele>393.9401468299329</ele>
        <time>2022-03-13T23:35:22Z</time>
      </trkpt>
      <trkpt lat="34.328160746575335" lon="108.98296640613336">
        <ele>393.2777986796573</ele>
        <time>2022-03-13T23:35:33Z</time>
      </trkpt>
      <trkpt lat="34.32810931687922" lon="108.98328668766685">
        <ele>392.49188140966</ele>
        <time>2022-03-13T23:35:39Z</time>
      </trkpt>
      <trkpt lat="34.3281174225876" lon="108.9833805114558">
        <ele>392.8410858819261</ele>
        <time>2022-03-13T23:35:41Z</time>
      </trkpt>
      <trkpt lat="34.3281485261864" lon="108.9834728091069">
        <ele>392.5074227331206</ele>
        <time>2022-03-13T23:35:43Z</time>
      </trkpt>
      <trkpt lat="34.32815809658142" lon="108.98359073749596">
        <ele>392.4909529229626</ele>
        <time>2022-03-13T23:35:45Z</time>
      </trkpt>
      <trkpt lat="34.3283188004159" lon="108.98400018602338">
        <ele>392.91549210622907</ele>
        <time>2022-03-13T23:35:54Z</time>
      </trkpt>
      <trkpt lat="34.3283733942713" lon="108.98405868177481">
        <ele>394.4151626294479</ele>
        <time>2022-03-13T23:35:57Z</time>
      </trkpt>
      <trkpt lat="34.32836921433707" lon="108.98415164687397">
        <ele>394.42442058678716</ele>
        <time>2022-03-13T23:36:00Z</time>
      </trkpt>
      <trkpt lat="34.328314297935265" lon="108.98428512320407">
        <ele>394.3979112505913</ele>
        <time>2022-03-13T23:36:02Z</time>
      </trkpt>
      <trkpt lat="34.32813223142518" lon="108.98449485409637">
        <ele>392.5760894510895</ele>
        <time>2022-03-13T23:36:11Z</time>
      </trkpt>
      <trkpt lat="34.3281056724356" lon="108.98462096824083">
        <ele>392.1562069002539</ele>
        <time>2022-03-13T23:36:13Z</time>
      </trkpt>
      <trkpt lat="34.32804634812983" lon="108.98473858570196">
        <ele>392.3353649517521</ele>
        <time>2022-03-13T23:36:15Z</time>
      </trkpt>
      <trkpt lat="34.327983906166175" lon="108.98528677713246">
        <ele>391.8897367743775</ele>
        <time>2022-03-13T23:36:26Z</time>
      </trkpt>
      <trkpt lat="34.327992148321044" lon="108.98571642572033">
        <ele>391.79862816724926</ele>
        <time>2022-03-13T23:36:34Z</time>
      </trkpt>
      <trkpt lat="34.32796626778366" lon="108.98625501157917">
        <ele>391.5775013146922</ele>
        <time>2022-03-13T23:36:44Z</time>
      </trkpt>
      <trkpt lat="34.32795800235536" lon="108.98636255319842">
        <ele>391.5302707562223</ele>
        <time>2022-03-13T23:36:46Z</time>
      </trkpt>
      <trkpt lat="34.32796784247484" lon="108.98646813548325">
        <ele>391.9470859421417</ele>
        <time>2022-03-13T23:36:48Z</time>
      </trkpt>
      <trkpt lat="34.32793702199006" lon="108.9866810193678">
        <ele>392.45986561011523</ele>
        <time>2022-03-13T23:36:52Z</time>
      </trkpt>
      <trkpt lat="34.32793272829031" lon="108.9870808984627">
        <ele>393.33549620676786</ele>
        <time>2022-03-13T23:37:00Z</time>
      </trkpt>
      <trkpt lat="34.327926945652756" lon="108.98760363107627">
        <ele>393.48200077190995</ele>
        <time>2022-03-13T23:37:10Z</time>
      </trkpt>
      <trkpt lat="34.327947959183064" lon="108.98791960151716">
        <ele>393.20759991463274</ele>
        <time>2022-03-13T23:37:16Z</time>
      </trkpt>
      <trkpt lat="34.32793186757759" lon="108.98803365582594">
        <ele>392.87897242140025</ele>
        <time>2022-03-13T23:37:18Z</time>
      </trkpt>
      <trkpt lat="34.3279561678741" lon="108.9881375986101">
        <ele>392.981209281832</ele>
        <time>2022-03-13T23:37:20Z</time>
      </trkpt>
      <trkpt lat="34.32793378527404" lon="108.98846501578463">
        <ele>392.68793030641973</ele>
        <time>2022-03-13T23:37:26Z</time>
      </trkpt>
      <trkpt lat="34.327966879549116" lon="108.98888266726297">
        <ele>392.6271588113159</ele>
        <time>2022-03-13T23:37:34Z</time>
      </trkpt>
      <trkpt lat="34.3279417556399" lon="108.98941270363508">
        <ele>392.3240156285465</ele>
        <time>2022-03-13T23:37:44Z</time>
      </trkpt>
      <trkpt lat="34.32791315381617" lon="108.98974470520231">
        <ele>392.35153304133564</ele>
        <time>2022-03-13T23:37:50Z</time>
      </trkpt>
      <trkpt lat="34.32792677562012" lon="108.99014967271326">
        <ele>392.4289924548939</ele>
        <time>2022-03-13T23:37:58Z</time>
      </trkpt>
      <trkpt lat="34.32791743394876" lon="108.99023730445597">
        <ele>392.37192915473133</ele>
        <time>2022-03-13T23:38:00Z</time>
      </trkpt>
      <trkpt lat="34.327885619196756" lon="108.99033092281023">
        <ele>391.8841140875593</ele>
        <time>2022-03-13T23:38:04Z</time>
      </trkpt>
      <trkpt lat="34.32786332510558" lon="108.99033026804909">
        <ele>391.80017641652375</ele>
        <time>2022-03-13T23:38:12Z</time>
      </trkpt>
      <trkpt lat="34.32782857699558" lon="108.99063722476754">
        <ele>391.4229380264878</ele>
        <time>2022-03-13T23:39:11Z</time>
      </trkpt>
      <trkpt lat="34.327863301875254" lon="108.99089508442096">
        <ele>391.49076634831727</ele>
        <time>2022-03-13T23:39:17Z</time>
      </trkpt>
      <trkpt lat="34.32792549937492" lon="108.99109560475632">
        <ele>391.891530896537</ele>
        <time>2022-03-13T23:39:21Z</time>
      </trkpt>
      <trkpt lat="34.32789105562406" lon="108.9913609614073">
        <ele>392.37844066601247</ele>
        <time>2022-03-13T23:39:27Z</time>
      </trkpt>
      <trkpt lat="34.32791175707031" lon="108.99152787595152">
        <ele>393.4063836187124</ele>
        <time>2022-03-13T23:39:31Z</time>
      </trkpt>
      <trkpt lat="34.327879111491" lon="108.99181181663019">
        <ele>394.44247282203287</ele>
        <time>2022-03-13T23:39:39Z</time>
      </trkpt>
      <trkpt lat="34.327907551558404" lon="108.99227854621017">
        <ele>394.92634972464293</ele>
        <time>2022-03-13T23:39:55Z</time>
      </trkpt>
      <trkpt lat="34.327933869169385" lon="108.99240557673492">
        <ele>393.9226430207491</ele>
        <time>2022-03-13T23:39:59Z</time>
      </trkpt>
      <trkpt lat="34.32792066372696" lon="108.99270374144423">
        <ele>394.658852417022</ele>
        <time>2022-03-13T23:40:07Z</time>
      </trkpt>
      <trkpt lat="34.327986562397975" lon="108.99329720961826">
        <ele>395.9080352820456</ele>
        <time>2022-03-13T23:40:19Z</time>
      </trkpt>
      <trkpt lat="34.32801218656594" lon="108.99346978142802">
        <ele>395.2955663250759</ele>
        <time>2022-03-13T23:40:23Z</time>
      </trkpt>
      <trkpt lat="34.328151039773566" lon="108.9940138885023">
        <ele>394.182868312113</ele>
        <time>2022-03-13T23:40:35Z</time>
      </trkpt>
      <trkpt lat="34.32814672452933" lon="108.99453279629383">
        <ele>394.58500409219414</ele>
        <time>2022-03-13T23:40:50Z</time>
      </trkpt>
      <trkpt lat="34.32826026243405" lon="108.99493294141588">
        <ele>392.2659381804988</ele>
        <time>2022-03-13T23:41:00Z</time>
      </trkpt>
      <trkpt lat="34.32826418136318" lon="108.9950548926445">
        <ele>392.1661831587553</ele>
        <time>2022-03-13T23:41:04Z</time>
      </trkpt>
      <trkpt lat="34.328336722384265" lon="108.99538772847572">
        <ele>391.69091655500233</ele>
        <time>2022-03-13T23:41:16Z</time>
      </trkpt>
      <trkpt lat="34.328320098421834" lon="108.9955963661323">
        <ele>391.9113461840898</ele>
        <time>2022-03-13T23:41:24Z</time>
      </trkpt>
      <trkpt lat="34.328350014164805" lon="108.99578594475143">
        <ele>393.71741451881826</ele>
        <time>2022-03-13T23:41:32Z</time>
      </trkpt>
      <trkpt lat="34.328404326879095" lon="108.99589653433102">
        <ele>391.77263766061515</ele>
        <time>2022-03-13T23:41:36Z</time>
      </trkpt>
      <trkpt lat="34.3283930122099" lon="108.99600378341006">
        <ele>393.4640797544271</ele>
        <time>2022-03-13T23:41:46Z</time>
      </trkpt>
      <trkpt lat="34.328277594227785" lon="108.99683781192074">
        <ele>394.83772395551205</ele>
        <time>2022-03-13T23:42:17Z</time>
      </trkpt>
      <trkpt lat="34.32829554456198" lon="108.99736558418316">
        <ele>394.7550239339471</ele>
        <time>2022-03-13T23:42:25Z</time>
      </trkpt>
      <trkpt lat="34.32832154656936" lon="108.99762317098678">
        <ele>395.15768326446414</ele>
        <time>2022-03-13T23:42:29Z</time>
      </trkpt>
      <trkpt lat="34.32830295387717" lon="108.9978475208397">
        <ele>395.01210335548967</ele>
        <time>2022-03-13T23:42:35Z</time>
      </trkpt>
      <trkpt lat="34.32833766232238" lon="108.99821748436307">
        <ele>395.3290478531271</ele>
        <time>2022-03-13T23:42:46Z</time>
      </trkpt>
      <trkpt lat="34.32832500528624" lon="108.99834418580745">
        <ele>395.642601669766</ele>
        <time>2022-03-13T23:42:50Z</time>
      </trkpt>
      <trkpt lat="34.32842590556102" lon="108.99885305769914">
        <ele>395.7489288300276</ele>
        <time>2022-03-13T23:43:06Z</time>
      </trkpt>
      <trkpt lat="34.328445662468624" lon="108.99897194824072">
        <ele>395.8484418950975</ele>
        <time>2022-03-13T23:43:10Z</time>
      </trkpt>
      <trkpt lat="34.328553266123194" lon="108.99931186317194">
        <ele>395.759611797519</ele>
        <time>2022-03-13T23:43:22Z</time>
      </trkpt>
      <trkpt lat="34.32858427555893" lon="108.99954139560283">
        <ele>395.4911449011415</ele>
        <time>2022-03-13T23:43:30Z</time>
      </trkpt>
      <trkpt lat="34.328751662332635" lon="109.00012930480096">
        <ele>395.98418875876814</ele>
        <time>2022-03-13T23:43:50Z</time>
      </trkpt>
      <trkpt lat="34.328809056713155" lon="109.00034935658421">
        <ele>396.26436169445515</ele>
        <time>2022-03-13T23:43:58Z</time>
      </trkpt>
      <trkpt lat="34.32883474788596" lon="109.00053196280972">
        <ele>395.9434384088963</ele>
        <time>2022-03-13T23:44:02Z</time>
      </trkpt>
      <trkpt lat="34.32790317985807" lon="109.00372125937417">
        <ele>395.70528377592564</ele>
        <time>2022-03-13T23:44:04Z</time>
      </trkpt>
      <trkpt lat="34.32787406489344" lon="109.00412351992019">
        <ele>394.379399494268</ele>
        <time>2022-03-13T23:44:12Z</time>
      </trkpt>
      <trkpt lat="34.32789247398817" lon="109.0043229542695">
        <ele>396.35593277122825</ele>
        <time>2022-03-13T23:44:16Z</time>
      </trkpt>
      <trkpt lat="34.327866005896276" lon="109.0044818591311">
        <ele>396.3574116118252</ele>
        <time>2022-03-13T23:44:18Z</time>
      </trkpt>
      <trkpt lat="34.32788987304221" lon="109.00493459007437">
        <ele>394.4891033973545</ele>
        <time>2022-03-13T23:44:26Z</time>
      </trkpt>
      <trkpt lat="34.32791248195292" lon="109.0051282076177">
        <ele>394.4965448891744</ele>
        <time>2022-03-13T23:44:30Z</time>
      </trkpt>
      <trkpt lat="34.32788303190319" lon="109.00554468605112">
        <ele>394.5888627516106</ele>
        <time>2022-03-13T23:44:44Z</time>
      </trkpt>
      <trkpt lat="34.32787351091983" lon="109.00584172546377">
        <ele>394.57188711315393</ele>
        <time>2022-03-13T23:44:52Z</time>
      </trkpt>
      <trkpt lat="34.32783361508962" lon="109.0060924222644">
        <ele>394.39442743360996</ele>
        <time>2022-03-13T23:44:58Z</time>
      </trkpt>
      <trkpt lat="34.327854672920324" lon="109.00639942385274">
        <ele>394.83927477151155</ele>
        <time>2022-03-13T23:45:04Z</time>
      </trkpt>
      <trkpt lat="34.327877959932735" lon="109.00658201248875">
        <ele>394.9832679461688</ele>
        <time>2022-03-13T23:45:08Z</time>
      </trkpt>
      <trkpt lat="34.32779984944132" lon="109.00682834387469">
        <ele>394.92427846603096</ele>
        <time>2022-03-13T23:45:14Z</time>
      </trkpt>
      <trkpt lat="34.32777541607078" lon="109.00704570667595">
        <ele>394.4207674181089</ele>
        <time>2022-03-13T23:45:18Z</time>
      </trkpt>
      <trkpt lat="34.327778194896986" lon="109.00720460167494">
        <ele>394.5658537391573</ele>
        <time>2022-03-13T23:45:20Z</time>
      </trkpt>
      <trkpt lat="34.32775831439754" lon="109.00735810687858">
        <ele>394.2775909025222</ele>
        <time>2022-03-13T23:45:22Z</time>
      </trkpt>
      <trkpt lat="34.327765399537505" lon="109.00751737023462">
        <ele>393.5848376210779</ele>
        <time>2022-03-13T23:45:25Z</time>
      </trkpt>
      <trkpt lat="34.32781410678881" lon="109.00767399917534">
        <ele>393.9329910762608</ele>
        <time>2022-03-13T23:45:26Z</time>
      </trkpt>
      <trkpt lat="34.32788475929506" lon="109.00783406563446">
        <ele>394.1018482996151</ele>
        <time>2022-03-13T23:45:28Z</time>
      </trkpt>
      <trkpt lat="34.3278849612775" lon="109.0080163697606">
        <ele>393.2035482823849</ele>
        <time>2022-03-13T23:45:30Z</time>
      </trkpt>
      <trkpt lat="34.32788515222568" lon="109.00819078273187">
        <ele>392.8004728956148</ele>
        <time>2022-03-13T23:45:32Z</time>
      </trkpt>
      <trkpt lat="34.327871707644746" lon="109.00868641798871">
        <ele>392.5588608980179</ele>
        <time>2022-03-13T23:45:38Z</time>
      </trkpt>
      <trkpt lat="34.32787824816906" lon="109.00925357849002">
        <ele>392.06350885052234</ele>
        <time>2022-03-13T23:45:44Z</time>
      </trkpt>
      <trkpt lat="34.327884834016665" lon="109.00964543635537">
        <ele>390.17156846635044</ele>
        <time>2022-03-13T23:45:48Z</time>
      </trkpt>
      <trkpt lat="34.327905157161595" lon="109.00986666620389">
        <ele>388.9814415546134</ele>
        <time>2022-03-13T23:45:50Z</time>
      </trkpt>
      <trkpt lat="34.32790835435886" lon="109.01044626735442">
        <ele>387.3700970914215</ele>
        <time>2022-03-13T23:45:56Z</time>
      </trkpt>
      <trkpt lat="34.327896611942954" lon="109.01097122850898">
        <ele>386.8920265529305</ele>
        <time>2022-03-13T23:46:04Z</time>
      </trkpt>
      <trkpt lat="34.327903786999904" lon="109.01149192546787">
        <ele>387.3564102174714</ele>
        <time>2022-03-13T23:46:12Z</time>
      </trkpt>
      <trkpt lat="34.327905571546715" lon="109.01172450288279">
        <ele>387.3678878583014</ele>
        <time>2022-03-13T23:46:16Z</time>
      </trkpt>
      <trkpt lat="34.327890811464044" lon="109.01183520224652">
        <ele>387.2728466549888</ele>
        <time>2022-03-13T23:46:18Z</time>
      </trkpt>
      <trkpt lat="34.327884534410245" lon="109.01229852460999">
        <ele>387.72148257214576</ele>
        <time>2022-03-13T23:46:26Z</time>
      </trkpt>
      <trkpt lat="34.32789889815821" lon="109.01263289755154">
        <ele>388.2186655988917</ele>
        <time>2022-03-13T23:46:32Z</time>
      </trkpt>
      <trkpt lat="34.32791472703798" lon="109.01272201830079">
        <ele>389.14574559405446</ele>
        <time>2022-03-13T23:46:34Z</time>
      </trkpt>
      <trkpt lat="34.32791254864678" lon="109.01303967135584">
        <ele>390.26989558525383</ele>
        <time>2022-03-13T23:46:40Z</time>
      </trkpt>
      <trkpt lat="34.327936155588525" lon="109.0133951788249">
        <ele>389.7860858524218</ele>
        <time>2022-03-13T23:46:46Z</time>
      </trkpt>
      <trkpt lat="34.32798973229639" lon="109.01361720996123">
        <ele>389.5947378091514</ele>
        <time>2022-03-13T23:46:50Z</time>
      </trkpt>
      <trkpt lat="34.32799654552774" lon="109.01415808277162">
        <ele>388.6946500726044</ele>
        <time>2022-03-13T23:47:00Z</time>
      </trkpt>
      <trkpt lat="34.32799985298931" lon="109.0143763909224">
        <ele>388.46201167814434</ele>
        <time>2022-03-13T23:47:04Z</time>
      </trkpt>
      <trkpt lat="34.32801591894004" lon="109.01449214327269">
        <ele>388.97707165032625</ele>
        <time>2022-03-13T23:47:06Z</time>
      </trkpt>
      <trkpt lat="34.328003532791335" lon="109.01471263028907">
        <ele>388.21363021433353</ele>
        <time>2022-03-13T23:47:10Z</time>
      </trkpt>
      <trkpt lat="34.32804798928482" lon="109.01494155038128">
        <ele>387.85749859455973</ele>
        <time>2022-03-13T23:47:14Z</time>
      </trkpt>
      <trkpt lat="34.32806026882165" lon="109.0151489836379">
        <ele>387.7875984823331</ele>
        <time>2022-03-13T23:47:18Z</time>
      </trkpt>
      <trkpt lat="34.3280888367383" lon="109.01526778929755">
        <ele>387.8428367488086</ele>
        <time>2022-03-13T23:47:20Z</time>
      </trkpt>
      <trkpt lat="34.32808683890086" lon="109.01539101620067">
        <ele>388.4462830964476</ele>
        <time>2022-03-13T23:47:22Z</time>
      </trkpt>
      <trkpt lat="34.328199271123594" lon="109.01562241531174">
        <ele>388.30319473706186</ele>
        <time>2022-03-13T23:47:28Z</time>
      </trkpt>
      <trkpt lat="34.32812335437245" lon="109.01606244198481">
        <ele>387.6459614755586</ele>
        <time>2022-03-13T23:47:36Z</time>
      </trkpt>
      <trkpt lat="34.32812673164754" lon="109.01617435740715">
        <ele>387.8842354211956</ele>
        <time>2022-03-13T23:47:38Z</time>
      </trkpt>
      <trkpt lat="34.328110532549196" lon="109.01629379598816">
        <ele>388.3079492589459</ele>
        <time>2022-03-13T23:47:40Z</time>
      </trkpt>
      <trkpt lat="34.32798642275317" lon="109.01676052573445">
        <ele>389.1832134872675</ele>
        <time>2022-03-13T23:47:48Z</time>
      </trkpt>
      <trkpt lat="34.32794258175151" lon="109.01685934327776">
        <ele>388.82651553768665</ele>
        <time>2022-03-13T23:47:50Z</time>
      </trkpt>
      <trkpt lat="34.32792606889147" lon="109.01697199988469">
        <ele>389.61642078496516</ele>
        <time>2022-03-13T23:47:52Z</time>
      </trkpt>
      <trkpt lat="34.3277319295908" lon="109.01749497110487">
        <ele>389.0740755451843</ele>
        <time>2022-03-13T23:48:02Z</time>
      </trkpt>
      <trkpt lat="34.32770449845087" lon="109.01789155075731">
        <ele>389.6082347854972</ele>
        <time>2022-03-13T23:48:10Z</time>
      </trkpt>
      <trkpt lat="34.32772317335142" lon="109.01817266608703">
        <ele>389.9960206774995</ele>
        <time>2022-03-13T23:48:16Z</time>
      </trkpt>
      <trkpt lat="34.32770367077499" lon="109.0183943723339">
        <ele>389.40713010635227</ele>
        <time>2022-03-13T23:48:20Z</time>
      </trkpt>
      <trkpt lat="34.3275494196695" lon="109.01867260685917">
        <ele>389.41941188648343</ele>
        <time>2022-03-13T23:48:26Z</time>
      </trkpt>
      <trkpt lat="34.32751983553599" lon="109.01876927183274">
        <ele>388.91120811831206</ele>
        <time>2022-03-13T23:48:28Z</time>
      </trkpt>
      <trkpt lat="34.327465279449385" lon="109.01885637982498">
        <ele>389.2814945988357</ele>
        <time>2022-03-13T23:48:30Z</time>
      </trkpt>
      <trkpt lat="34.32739009962972" lon="109.01893623287681">
        <ele>389.77884573396295</ele>
        <time>2022-03-13T23:48:32Z</time>
      </trkpt>
      <trkpt lat="34.32708336448653" lon="109.0193870640844">
        <ele>388.4973415909335</ele>
        <time>2022-03-13T23:48:42Z</time>
      </trkpt>
      <trkpt lat="34.32694267981574" lon="109.01956070648372">
        <ele>388.5246427524835</ele>
        <time>2022-03-13T23:48:46Z</time>
      </trkpt>
      <trkpt lat="34.32671847134796" lon="109.01993218640621">
        <ele>388.6486443262547</ele>
        <time>2022-03-13T23:48:54Z</time>
      </trkpt>
      <trkpt lat="34.326507951584155" lon="109.0201784082608">
        <ele>388.4845166057348</ele>
        <time>2022-03-13T23:49:00Z</time>
      </trkpt>
      <trkpt lat="34.326419848339654" lon="109.0202540528343">
        <ele>388.2990873744711</ele>
        <time>2022-03-13T23:49:02Z</time>
      </trkpt>
      <trkpt lat="34.32614026434044" lon="109.02057630969821">
        <ele>388.63423698488623</ele>
        <time>2022-03-13T23:49:10Z</time>
      </trkpt>
      <trkpt lat="34.32590658042684" lon="109.0207803762086">
        <ele>388.83308178186417</ele>
        <time>2022-03-13T23:49:16Z</time>
      </trkpt>
      <trkpt lat="34.32570260267229" lon="109.02092103268663">
        <ele>389.12829176709056</ele>
        <time>2022-03-13T23:49:21Z</time>
      </trkpt>
      <trkpt lat="34.325444595783445" lon="109.02112773915876">
        <ele>388.4806512752548</ele>
        <time>2022-03-13T23:49:28Z</time>
      </trkpt>
      <trkpt lat="34.32513606444142" lon="109.02130482195588">
        <ele>388.8049800330773</ele>
        <time>2022-03-13T23:49:36Z</time>
      </trkpt>
      <trkpt lat="34.32470739457139" lon="109.02150202291413">
        <ele>388.80337569117546</ele>
        <time>2022-03-13T23:49:46Z</time>
      </trkpt>
      <trkpt lat="34.3243675189975" lon="109.0216276477508">
        <ele>388.9296121262014</ele>
        <time>2022-03-13T23:49:54Z</time>
      </trkpt>
      <trkpt lat="34.32426723013249" lon="109.02163308137834">
        <ele>388.8125132061541</ele>
        <time>2022-03-13T23:49:56Z</time>
      </trkpt>
      <trkpt lat="34.32383688976524" lon="109.0217291074232">
        <ele>388.6640234971419</ele>
        <time>2022-03-13T23:50:06Z</time>
      </trkpt>
      <trkpt lat="34.323740076448544" lon="109.02174289191068">
        <ele>389.00918210297823</ele>
        <time>2022-03-13T23:50:08Z</time>
      </trkpt>
      <trkpt lat="34.323639069487996" lon="109.02173242925726">
        <ele>389.0153138041496</ele>
        <time>2022-03-13T23:50:10Z</time>
      </trkpt>
      <trkpt lat="34.32338543292249" lon="109.02178027684147">
        <ele>390.11712145619094</ele>
        <time>2022-03-13T23:50:16Z</time>
      </trkpt>
      <trkpt lat="34.3229346932728" lon="109.021799754198">
        <ele>390.74339670408517</ele>
        <time>2022-03-13T23:50:26Z</time>
      </trkpt>
      <trkpt lat="34.32267180722681" lon="109.02182250323932">
        <ele>390.52729705534875</ele>
        <time>2022-03-13T23:50:32Z</time>
      </trkpt>
      <trkpt lat="34.322230757238366" lon="109.02177968358043">
        <ele>390.45474862866104</ele>
        <time>2022-03-13T23:50:42Z</time>
      </trkpt>
      <trkpt lat="34.32179033644347" lon="109.02171560451168">
        <ele>390.09398363530636</ele>
        <time>2022-03-13T23:50:52Z</time>
      </trkpt>
      <trkpt lat="34.32161098226799" lon="109.02168465141034">
        <ele>389.6877589514479</ele>
        <time>2022-03-13T23:50:56Z</time>
      </trkpt>
      <trkpt lat="34.32152357367944" lon="109.02169499413155">
        <ele>389.9835936939344</ele>
        <time>2022-03-13T23:50:58Z</time>
      </trkpt>
      <trkpt lat="34.32116130973238" lon="109.02164333581489">
        <ele>390.5136639578268</ele>
        <time>2022-03-13T23:51:06Z</time>
      </trkpt>
      <trkpt lat="34.32097465636077" lon="109.02159501293353">
        <ele>391.21579650230706</ele>
        <time>2022-03-13T23:51:10Z</time>
      </trkpt>
      <trkpt lat="34.320608567748835" lon="109.02153423263205">
        <ele>390.79662782512605</ele>
        <time>2022-03-13T23:51:18Z</time>
      </trkpt>
      <trkpt lat="34.3202184413003" lon="109.02148487606252">
        <ele>390.3002743460238</ele>
        <time>2022-03-13T23:51:26Z</time>
      </trkpt>
      <trkpt lat="34.32013660082011" lon="109.0214900734276">
        <ele>390.59156219288707</ele>
        <time>2022-03-13T23:51:28Z</time>
      </trkpt>
      <trkpt lat="34.320039707771066" lon="109.02146127273046">
        <ele>390.35593835730106</ele>
        <time>2022-03-13T23:51:30Z</time>
      </trkpt>
      <trkpt lat="34.31955805584003" lon="109.0214435338141">
        <ele>390.84944358933717</ele>
        <time>2022-03-13T23:51:40Z</time>
      </trkpt>
      <trkpt lat="34.31909446171204" lon="109.02142358485027">
        <ele>391.0701985703781</ele>
        <time>2022-03-13T23:51:50Z</time>
      </trkpt>
      <trkpt lat="34.31864843771004" lon="109.02143736832566">
        <ele>391.1089683836326</ele>
        <time>2022-03-13T23:52:00Z</time>
      </trkpt>
      <trkpt lat="34.31829776378946" lon="109.02150883481454">
        <ele>391.20119113475084</ele>
        <time>2022-03-13T23:52:08Z</time>
      </trkpt>
      <trkpt lat="34.317886087192974" lon="109.02154477076223">
        <ele>391.5923011964187</ele>
        <time>2022-03-13T23:52:17Z</time>
      </trkpt>
      <trkpt lat="34.31770658701557" lon="109.02157914595436">
        <ele>391.77564717270434</ele>
        <time>2022-03-13T23:52:21Z</time>
      </trkpt>
      <trkpt lat="34.31751934557453" lon="109.02158009884384">
        <ele>391.7252208935097</ele>
        <time>2022-03-13T23:52:25Z</time>
      </trkpt>
      <trkpt lat="34.31732538962048" lon="109.02161786380633">
        <ele>391.9357759496197</ele>
        <time>2022-03-13T23:52:29Z</time>
      </trkpt>
      <trkpt lat="34.316792060626064" lon="109.02168679317266">
        <ele>390.73459516</ele>
        <time>2022-03-13T23:52:41Z</time>
      </trkpt>
      <trkpt lat="34.31654269176212" lon="109.02176875312806">
        <ele>391.38668253831565</ele>
        <time>2022-03-13T23:52:47Z</time>
      </trkpt>
      <trkpt lat="34.316263686419695" lon="109.02183400900572">
        <ele>392.02314335107803</ele>
        <time>2022-03-13T23:52:53Z</time>
      </trkpt>
      <trkpt lat="34.31584812801372" lon="109.02203256510478">
        <ele>391.5886763976887</ele>
        <time>2022-03-13T23:53:03Z</time>
      </trkpt>
      <trkpt lat="34.31577270726593" lon="109.02209818703868">
        <ele>391.68418462201953</ele>
        <time>2022-03-13T23:53:05Z</time>
      </trkpt>
      <trkpt lat="34.31573638326726" lon="109.02227945326369">
        <ele>391.70188591070473</ele>
        <time>2022-03-13T23:53:09Z</time>
      </trkpt>
      <trkpt lat="34.31574368023125" lon="109.02238633151204">
        <ele>391.3978288806975</ele>
        <time>2022-03-13T23:53:11Z</time>
      </trkpt>
      <trkpt lat="34.315788214306814" lon="109.0224646682987">
        <ele>391.7761327046901</ele>
        <time>2022-03-13T23:53:13Z</time>
      </trkpt>
      <trkpt lat="34.31581843831606" lon="109.02258758844738">
        <ele>391.3439020840451</ele>
        <time>2022-03-13T23:53:15Z</time>
      </trkpt>
      <trkpt lat="34.315993737458065" lon="109.02307350481246">
        <ele>388.70632693730295</ele>
        <time>2022-03-13T23:53:24Z</time>
      </trkpt>
      <trkpt lat="34.316196666230816" lon="109.02360074911212">
        <ele>387.7222026474774</ele>
        <time>2022-03-13T23:53:34Z</time>
      </trkpt>
      <trkpt lat="34.31617469246598" lon="109.02368579555147">
        <ele>388.64722908474505</ele>
        <time>2022-03-13T23:53:36Z</time>
      </trkpt>
      <trkpt lat="34.31610509108776" lon="109.02382065403819">
        <ele>389.6883622156456</ele>
        <time>2022-03-13T23:53:40Z</time>
      </trkpt>
      <trkpt lat="34.31564764710068" lon="109.02407788649523">
        <ele>389.98095898050815</ele>
        <time>2022-03-13T23:53:52Z</time>
      </trkpt>
      <trkpt lat="34.31538013943828" lon="109.024282145791">
        <ele>391.0183373102918</ele>
        <time>2022-03-13T23:54:00Z</time>
      </trkpt>
      <trkpt lat="34.315330170029405" lon="109.02435722365398">
        <ele>390.81626844778657</ele>
        <time>2022-03-13T23:54:02Z</time>
      </trkpt>
      <trkpt lat="34.31517714914953" lon="109.02446268798334">
        <ele>391.12081930972636</ele>
        <time>2022-03-13T23:54:06Z</time>
      </trkpt>
      <trkpt lat="34.31506874243909" lon="109.02449912784236">
        <ele>390.5867996858433</ele>
        <time>2022-03-13T23:54:08Z</time>
      </trkpt>
      <trkpt lat="34.3148724352274" lon="109.024656272938">
        <ele>391.124944540672</ele>
        <time>2022-03-13T23:54:14Z</time>
      </trkpt>
      <trkpt lat="34.31469638742421" lon="109.02473663531352">
        <ele>390.6228147232905</ele>
        <time>2022-03-13T23:54:18Z</time>
      </trkpt>
      <trkpt lat="34.31457387984369" lon="109.02485385362023">
        <ele>390.8547410154715</ele>
        <time>2022-03-13T23:54:22Z</time>
      </trkpt>
      <trkpt lat="34.31440236555469" lon="109.02495950955709">
        <ele>390.65635479800403</ele>
        <time>2022-03-13T23:54:26Z</time>
      </trkpt>
      <trkpt lat="34.31431806931277" lon="109.02503291466284">
        <ele>390.80028416682035</ele>
        <time>2022-03-13T23:54:28Z</time>
      </trkpt>
      <trkpt lat="34.31412679621119" lon="109.02513996589826">
        <ele>390.42582956701517</ele>
        <time>2022-03-13T23:54:32Z</time>
      </trkpt>
      <trkpt lat="34.314056988609984" lon="109.02519703192898">
        <ele>390.6828814940527</ele>
        <time>2022-03-13T23:54:34Z</time>
      </trkpt>
      <trkpt lat="34.31355493091551" lon="109.025391280377">
        <ele>390.84051226917654</ele>
        <time>2022-03-13T23:54:44Z</time>
      </trkpt>
      <trkpt lat="34.31319296985628" lon="109.02558088437961">
        <ele>390.82011452130973</ele>
        <time>2022-03-13T23:54:52Z</time>
      </trkpt>
      <trkpt lat="34.312786108303115" lon="109.02583039538237">
        <ele>391.79105755034834</ele>
        <time>2022-03-13T23:55:02Z</time>
      </trkpt>
      <trkpt lat="34.312598905058515" lon="109.0259899520682">
        <ele>392.8504612771794</ele>
        <time>2022-03-13T23:55:08Z</time>
      </trkpt>
      <trkpt lat="34.31255534126895" lon="109.02607154443419">
        <ele>392.75463804695755</ele>
        <time>2022-03-13T23:55:10Z</time>
      </trkpt>
      <trkpt lat="34.31245489021918" lon="109.0261933263001">
        <ele>392.51257758773863</ele>
        <time>2022-03-13T23:55:14Z</time>
      </trkpt>
      <trkpt lat="34.312274044814735" lon="109.02627017145471">
        <ele>392.9009350547567</ele>
        <time>2022-03-13T23:55:16Z</time>
      </trkpt>
      <trkpt lat="34.31232975426587" lon="109.02634080791839">
        <ele>393.2054527690634</ele>
        <time>2022-03-13T23:55:18Z</time>
      </trkpt>
      <trkpt lat="34.312169513471595" lon="109.02640192736145">
        <ele>394.6555513916537</ele>
        <time>2022-03-13T23:55:22Z</time>
      </trkpt>
      <trkpt lat="34.31203387170396" lon="109.02655659163163">
        <ele>394.71533636469394</ele>
        <time>2022-03-13T23:55:26Z</time>
      </trkpt>
      <trkpt lat="34.311899534695556" lon="109.02681774401152">
        <ele>393.48120563849807</ele>
        <time>2022-03-13T23:55:32Z</time>
      </trkpt>
      <trkpt lat="34.31187861136701" lon="109.0269459755704">
        <ele>393.0639996789396</ele>
        <time>2022-03-13T23:55:38Z</time>
      </trkpt>
      <trkpt lat="34.31165965618559" lon="109.02740488760759">
        <ele>392.9565079808235</ele>
        <time>2022-03-13T23:55:54Z</time>
      </trkpt>
      <trkpt lat="34.3115533750446" lon="109.02759699741794">
        <ele>393.9420260358602</ele>
        <time>2022-03-13T23:56:02Z</time>
      </trkpt>
      <trkpt lat="34.31155786721222" lon="109.02784890396705">
        <ele>393.45382539276034</ele>
        <time>2022-03-13T23:56:10Z</time>
      </trkpt>
      <trkpt lat="34.311601861213866" lon="109.02800396052994">
        <ele>393.48983979411423</ele>
        <time>2022-03-13T23:56:14Z</time>
      </trkpt>
      <trkpt lat="34.31175850295663" lon="109.02831261466062">
        <ele>393.2963650068268</ele>
        <time>2022-03-13T23:56:22Z</time>
      </trkpt>
      <trkpt lat="34.311783353647876" lon="109.02843365242902">
        <ele>393.53697799518704</ele>
        <time>2022-03-13T23:56:26Z</time>
      </trkpt>
      <trkpt lat="34.311575954094096" lon="109.0288428586553">
        <ele>394.01553111709654</ele>
        <time>2022-03-13T23:56:42Z</time>
      </trkpt>
      <trkpt lat="34.31147929213445" lon="109.02893630461207">
        <ele>394.40678666345775</ele>
        <time>2022-03-13T23:56:46Z</time>
      </trkpt>
      <trkpt lat="34.311344330448584" lon="109.02911179110407">
        <ele>393.3057374227792</ele>
        <time>2022-03-13T23:56:54Z</time>
      </trkpt>
      <trkpt lat="34.311047083535435" lon="109.02930829340991">
        <ele>392.3455979395658</ele>
        <time>2022-03-13T23:57:06Z</time>
      </trkpt>
      <trkpt lat="34.310949408047996" lon="109.02935481767298">
        <ele>392.12732542678714</ele>
        <time>2022-03-13T23:57:10Z</time>
      </trkpt>
      <trkpt lat="34.31083018808794" lon="109.02938132676034">
        <ele>392.41507451888174</ele>
        <time>2022-03-13T23:57:14Z</time>
      </trkpt>
      <trkpt lat="34.310615869752596" lon="109.02948320106098">
        <ele>392.4879931025207</ele>
        <time>2022-03-13T23:57:22Z</time>
      </trkpt>
      <trkpt lat="34.310488555510986" lon="109.02951974436125">
        <ele>391.84308933559805</ele>
        <time>2022-03-13T23:57:26Z</time>
      </trkpt>
      <trkpt lat="34.31037913604232" lon="109.02952859287588">
        <ele>391.86695171985775</ele>
        <time>2022-03-13T23:57:30Z</time>
      </trkpt>
      <trkpt lat="34.31012007089342" lon="109.02960552855275">
        <ele>392.78243885282427</ele>
        <time>2022-03-13T23:57:38Z</time>
      </trkpt>
      <trkpt lat="34.30999493585805" lon="109.02962248600629">
        <ele>391.70957292523235</ele>
        <time>2022-03-13T23:57:42Z</time>
      </trkpt>
      <trkpt lat="34.309926465856826" lon="109.02964983504587">
        <ele>392.4114023614675</ele>
        <time>2022-03-13T23:57:44Z</time>
      </trkpt>
      <trkpt lat="34.30947999865195" lon="109.0296519953558">
        <ele>393.68616219144315</ele>
        <time>2022-03-13T23:57:56Z</time>
      </trkpt>
      <trkpt lat="34.30936808486552" lon="109.02969060663939">
        <ele>395.0448807636276</ele>
        <time>2022-03-13T23:58:00Z</time>
      </trkpt>
      <trkpt lat="34.30851141071197" lon="109.03013086896077">
        <ele>395.6325260978192</ele>
        <time>2022-03-13T23:58:02Z</time>
      </trkpt>
      <trkpt lat="34.30841818521062" lon="109.03015539220753">
        <ele>396.5583285558969</ele>
        <time>2022-03-13T23:58:04Z</time>
      </trkpt>
      <trkpt lat="34.30825757546051" lon="109.03024040156689">
        <ele>397.6695874305442</ele>
        <time>2022-03-13T23:58:08Z</time>
      </trkpt>
      <trkpt lat="34.308114563248765" lon="109.0304024551114">
        <ele>397.31691284198314</ele>
        <time>2022-03-13T23:58:12Z</time>
      </trkpt>
      <trkpt lat="34.308076392355645" lon="109.03057217792093">
        <ele>396.0316523909569</ele>
        <time>2022-03-13T23:58:16Z</time>
      </trkpt>
      <trkpt lat="34.307939239139394" lon="109.03092247279756">
        <ele>394.7594002550468</ele>
        <time>2022-03-13T23:58:20Z</time>
      </trkpt>
      <trkpt lat="34.30782540054022" lon="109.03110664663917">
        <ele>394.9301894111559</ele>
        <time>2022-03-13T23:58:24Z</time>
      </trkpt>
      <trkpt lat="34.30807745480682" lon="109.03114005295264">
        <ele>393.72826165612787</ele>
        <time>2022-03-13T23:58:30Z</time>
      </trkpt>
      <trkpt lat="34.308080296388155" lon="109.03127574047981">
        <ele>394.45215803571045</ele>
        <time>2022-03-13T23:58:32Z</time>
      </trkpt>
      <trkpt lat="34.30798265088892" lon="109.03145115557894">
        <ele>394.10464670229703</ele>
        <time>2022-03-13T23:58:35Z</time>
      </trkpt>
      <trkpt lat="34.3079280735007" lon="109.03159383110086">
        <ele>394.4047456169501</ele>
        <time>2022-03-13T23:58:37Z</time>
      </trkpt>
      <trkpt lat="34.30775260586918" lon="109.03169298466614">
        <ele>394.4928510701284</ele>
        <time>2022-03-13T23:58:39Z</time>
      </trkpt>
      <trkpt lat="34.30767469920469" lon="109.0318105793741">
        <ele>393.9461129484698</ele>
        <time>2022-03-13T23:58:41Z</time>
      </trkpt>
      <trkpt lat="34.307527646890755" lon="109.03217963011318">
        <ele>394.3943879297003</ele>
        <time>2022-03-13T23:58:45Z</time>
      </trkpt>
      <trkpt lat="34.307416971396925" lon="109.03253714337392">
        <ele>395.4074041331187</ele>
        <time>2022-03-13T23:58:49Z</time>
      </trkpt>
      <trkpt lat="34.30726649307082" lon="109.0327393548305">
        <ele>395.64617440477014</ele>
        <time>2022-03-13T23:58:51Z</time>
      </trkpt>
      <trkpt lat="34.30716476819969" lon="109.03290825672885">
        <ele>395.4474914604798</ele>
        <time>2022-03-13T23:58:53Z</time>
      </trkpt>
      <trkpt lat="34.30710891115363" lon="109.03306108061454">
        <ele>395.831982569769</ele>
        <time>2022-03-13T23:58:55Z</time>
      </trkpt>
      <trkpt lat="34.30694563068618" lon="109.0332652435525">
        <ele>395.84543719887733</ele>
        <time>2022-03-13T23:58:57Z</time>
      </trkpt>
      <trkpt lat="34.30687368995405" lon="109.03344854326765">
        <ele>395.8265515100211</ele>
        <time>2022-03-13T23:58:59Z</time>
      </trkpt>
      <trkpt lat="34.30676201871883" lon="109.03364072428317">
        <ele>395.5949012627825</ele>
        <time>2022-03-13T23:59:01Z</time>
      </trkpt>
      <trkpt lat="34.30667869364759" lon="109.03392608461999">
        <ele>394.1650842772797</ele>
        <time>2022-03-13T23:59:05Z</time>
      </trkpt>
      <trkpt lat="34.30665486196508" lon="109.03406277697253">
        <ele>394.0819173073396</ele>
        <time>2022-03-13T23:59:07Z</time>
      </trkpt>
      <trkpt lat="34.306669118909525" lon="109.03466429234399">
        <ele>393.33916119206697</ele>
        <time>2022-03-13T23:59:17Z</time>
      </trkpt>
      <trkpt lat="34.30667477700066" lon="109.03478362524936">
        <ele>393.73265175241977</ele>
        <time>2022-03-13T23:59:19Z</time>
      </trkpt>
      <trkpt lat="34.30665698692419" lon="109.03490541916436">
        <ele>392.90057177562267</ele>
        <time>2022-03-13T23:59:21Z</time>
      </trkpt>
      <trkpt lat="34.30667956326029" lon="109.03526552339262">
        <ele>393.2996305106208</ele>
        <time>2022-03-13T23:59:27Z</time>
      </trkpt>
      <trkpt lat="34.306683341891876" lon="109.03559378516054">
        <ele>393.84213019162416</ele>
        <time>2022-03-13T23:59:33Z</time>
      </trkpt>
      <trkpt lat="34.30670598756668" lon="109.03588354469542">
        <ele>392.90790838748217</ele>
        <time>2022-03-13T23:59:40Z</time>
      </trkpt>
      <trkpt lat="34.30662223830515" lon="109.0359191588999">
        <ele>391.39760970696807</ele>
        <time>2022-03-13T23:59:44Z</time>
      </trkpt>
      <trkpt lat="34.30655652805065" lon="109.03597016400293">
        <ele>392.187340606004</ele>
        <time>2022-03-13T23:59:50Z</time>
      </trkpt>
      <trkpt lat="34.30661197605541" lon="109.03657487670174">
        <ele>391.9291849154979</ele>
        <time>2022-03-14T00:00:28Z</time>
      </trkpt>
      <trkpt lat="34.30662737444912" lon="109.03685583436999">
        <ele>392.09359130077064</ele>
        <time>2022-03-14T00:00:52Z</time>
      </trkpt>
      <trkpt lat="34.3066357312008" lon="109.03700799906143">
        <ele>392.0962047521025</ele>
        <time>2022-03-14T00:01:23Z</time>
      </trkpt>
      <trkpt lat="34.3065348281933" lon="109.03703912585189">
        <ele>391.93867795635015</ele>
        <time>2022-03-14T00:01:37Z</time>
      </trkpt>
      <trkpt lat="34.30638371433265" lon="109.03715920513955">
        <ele>390.94507768098265</ele>
        <time>2022-03-14T00:01:56Z</time>
      </trkpt>
      <trkpt lat="34.306361135267046" lon="109.03719016646666">
        <ele>391.6774360155687</ele>
        <time>2022-03-14T00:02:08Z</time>
      </trkpt>
    </trkseg>
  </trk>
</gpx>