<?xml version="1.0" encoding="UTF-8"?>
<gpx xmlns="http://www.topografix.com/GPX/1/1" xmlns:gpxtpx="http://www.garmin.com/xmlschemas/TrackPointExtension/v1" xmlns:xsi="http://www.w3.org/2001/XMLSchema-instance" xsi:schemaLocation="http://www.topografix.com/GPX/1/1 http://www.topografix.com/GPX/1/1/gpx.xsd" version="1.1" creator="gpx.py -- https://github.com/tkrajina/gpxpy">
  <trk>
    <name>gpx from keep</name>
    <type>Ride</type>
    <trkseg>
      <trkpt lat="34.306077441542506" lon="109.03720733193379">
        <ele>406.7442932128906</ele>
        <time>2022-04-28T09:44:34Z</time>
      </trkpt>
      <trkpt lat="34.30624877054961" lon="109.03706117631835">
        <ele>405.2178039550781</ele>
        <time>2022-04-28T09:44:47Z</time>
      </trkpt>
      <trkpt lat="34.30650829722979" lon="109.03705052559162">
        <ele>404.59716796875</ele>
        <time>2022-04-28T09:44:54Z</time>
      </trkpt>
      <trkpt lat="34.3064254366745" lon="109.03721847961046">
        <ele>391.0537132667718</ele>
        <time>2022-04-28T09:44:59Z</time>
      </trkpt>
      <trkpt lat="34.3065410097078" lon="109.03711090056841">
        <ele>391.3069477250148</ele>
        <time>2022-04-28T09:45:01Z</time>
      </trkpt>
      <trkpt lat="34.306481518126276" lon="109.0370523358892">
        <ele>391.56290475425743</ele>
        <time>2022-04-28T09:45:05Z</time>
      </trkpt>
      <trkpt lat="34.30640689872572" lon="109.03701724564338">
        <ele>391.62709098961204</ele>
        <time>2022-04-28T09:45:11Z</time>
      </trkpt>
      <trkpt lat="34.30641584835623" lon="109.03710670386283">
        <ele>391.44923287816346</ele>
        <time>2022-04-28T09:45:27Z</time>
      </trkpt>
      <trkpt lat="34.30637319273123" lon="109.03718156467396">
        <ele>391.5193460099399</ele>
        <time>2022-04-28T09:45:29Z</time>
      </trkpt>
      <trkpt lat="34.30629395867082" lon="109.03722066867113">
        <ele>391.21160918753594</ele>
        <time>2022-04-28T09:45:34Z</time>
      </trkpt>
      <trkpt lat="34.306285173766554" lon="109.03729250583578">
        <ele>391.81407876405865</ele>
        <time>2022-04-28T09:45:45Z</time>
      </trkpt>
      <trkpt lat="34.3065887280884" lon="109.03689289709152">
        <ele>391.8285780167207</ele>
        <time>2022-04-28T09:51:33Z</time>
      </trkpt>
      <trkpt lat="34.30660842103531" lon="109.03680884585896">
        <ele>392.19180546235293</ele>
        <time>2022-04-28T09:51:39Z</time>
      </trkpt>
      <trkpt lat="34.30658584399877" lon="109.03662766554883">
        <ele>392.0952097689733</ele>
        <time>2022-04-28T09:51:57Z</time>
      </trkpt>
      <trkpt lat="34.306551165776746" lon="109.03660581743168">
        <ele>391.1296555707231</ele>
        <time>2022-04-28T09:52:07Z</time>
      </trkpt>
      <trkpt lat="34.30646450000717" lon="109.0363884541767">
        <ele>392.123471185565</ele>
        <time>2022-04-28T09:52:26Z</time>
      </trkpt>
      <trkpt lat="34.306354389435214" lon="109.03615048322519">
        <ele>392.3552569625899</ele>
        <time>2022-04-28T09:52:34Z</time>
      </trkpt>
      <trkpt lat="34.30635739567132" lon="109.03604525317532">
        <ele>392.23712746147066</ele>
        <time>2022-04-28T09:52:38Z</time>
      </trkpt>
      <trkpt lat="34.30642517265207" lon="109.0359801723594">
        <ele>392.4187133917585</ele>
        <time>2022-04-28T09:52:42Z</time>
      </trkpt>
      <trkpt lat="34.306425597371785" lon="109.03581874358576">
        <ele>392.5083981025964</ele>
        <time>2022-04-28T09:52:46Z</time>
      </trkpt>
      <trkpt lat="34.30636387029414" lon="109.03555674548562">
        <ele>392.46355420630425</ele>
        <time>2022-04-28T09:52:52Z</time>
      </trkpt>
      <trkpt lat="34.30636685806825" lon="109.03538728588474">
        <ele>392.3636665614322</ele>
        <time>2022-04-28T09:52:56Z</time>
      </trkpt>
      <trkpt lat="34.306403606020716" lon="109.03500187253013">
        <ele>392.51247827429324</ele>
        <time>2022-04-28T09:53:04Z</time>
      </trkpt>
      <trkpt lat="34.306386415560326" lon="109.03470398494545">
        <ele>393.10492460709065</ele>
        <time>2022-04-28T09:53:12Z</time>
      </trkpt>
      <trkpt lat="34.306335252912135" lon="109.03445731466704">
        <ele>392.86913443077356</ele>
        <time>2022-04-28T09:53:19Z</time>
      </trkpt>
      <trkpt lat="34.306254409491075" lon="109.03426535289577">
        <ele>392.632002745755</ele>
        <time>2022-04-28T09:53:24Z</time>
      </trkpt>
      <trkpt lat="34.30623865743314" lon="109.03397206480457">
        <ele>392.209869611077</ele>
        <time>2022-04-28T09:53:32Z</time>
      </trkpt>
      <trkpt lat="34.3063090715814" lon="109.03372200874503">
        <ele>391.9009670363739</ele>
        <time>2022-04-28T09:53:38Z</time>
      </trkpt>
      <trkpt lat="34.306320768499724" lon="109.03357137048361">
        <ele>392.10059406328946</ele>
        <time>2022-04-28T09:53:42Z</time>
      </trkpt>
      <trkpt lat="34.306240551559846" lon="109.03321356600979">
        <ele>391.63542195782065</ele>
        <time>2022-04-28T09:53:50Z</time>
      </trkpt>
      <trkpt lat="34.30623320975501" lon="109.03305990603351">
        <ele>391.34953296463937</ele>
        <time>2022-04-28T09:53:54Z</time>
      </trkpt>
      <trkpt lat="34.30618750433817" lon="109.03289516194714">
        <ele>391.9853924801573</ele>
        <time>2022-04-28T09:53:58Z</time>
      </trkpt>
      <trkpt lat="34.30617779334208" lon="109.03280434346983">
        <ele>391.5209314189851</ele>
        <time>2022-04-28T09:54:00Z</time>
      </trkpt>
      <trkpt lat="34.30610216381549" lon="109.03262473398676">
        <ele>391.8891046065837</ele>
        <time>2022-04-28T09:54:04Z</time>
      </trkpt>
      <trkpt lat="34.306095697242206" lon="109.03249372203328">
        <ele>393.23704379517585</ele>
        <time>2022-04-28T09:54:08Z</time>
      </trkpt>
      <trkpt lat="34.30614028576311" lon="109.0323711004057">
        <ele>395.0043861558661</ele>
        <time>2022-04-28T09:54:12Z</time>
      </trkpt>
      <trkpt lat="34.30649835032265" lon="109.03214050173148">
        <ele>394.63320496398956</ele>
        <time>2022-04-28T09:54:22Z</time>
      </trkpt>
      <trkpt lat="34.306742724508176" lon="109.03199435005163">
        <ele>392.7180158905685</ele>
        <time>2022-04-28T09:54:30Z</time>
      </trkpt>
      <trkpt lat="34.30712131357598" lon="109.03162918433644">
        <ele>392.32166171073914</ele>
        <time>2022-04-28T09:54:36Z</time>
      </trkpt>
      <trkpt lat="34.30724179172269" lon="109.03144571996762">
        <ele>392.61835168953985</ele>
        <time>2022-04-28T09:54:38Z</time>
      </trkpt>
      <trkpt lat="34.30764244526142" lon="109.0310150984669">
        <ele>393.62911277171224</ele>
        <time>2022-04-28T09:54:42Z</time>
      </trkpt>
      <trkpt lat="34.30778762914663" lon="109.03095815606567">
        <ele>392.70253188349307</ele>
        <time>2022-04-28T09:54:44Z</time>
      </trkpt>
      <trkpt lat="34.307891542619096" lon="109.03087020334421">
        <ele>394.16654855012894</ele>
        <time>2022-04-28T09:54:46Z</time>
      </trkpt>
      <trkpt lat="34.30808288747864" lon="109.03084554730441">
        <ele>395.21964771300554</ele>
        <time>2022-04-28T09:54:50Z</time>
      </trkpt>
      <trkpt lat="34.30817474556123" lon="109.03080853968028">
        <ele>394.200395016931</ele>
        <time>2022-04-28T09:54:52Z</time>
      </trkpt>
      <trkpt lat="34.30827294948133" lon="109.03080681048758">
        <ele>394.8288818197325</ele>
        <time>2022-04-28T09:54:54Z</time>
      </trkpt>
      <trkpt lat="34.30854442284354" lon="109.03074764611179">
        <ele>395.29892879351974</ele>
        <time>2022-04-28T09:55:00Z</time>
      </trkpt>
      <trkpt lat="34.308640750329054" lon="109.03074359274281">
        <ele>395.17198184877634</ele>
        <time>2022-04-28T09:55:02Z</time>
      </trkpt>
      <trkpt lat="34.30881821654449" lon="109.03068691409248">
        <ele>394.54578921571374</ele>
        <time>2022-04-28T09:55:06Z</time>
      </trkpt>
      <trkpt lat="34.30908516247425" lon="109.03061448056035">
        <ele>394.52210923377424</ele>
        <time>2022-04-28T09:55:12Z</time>
      </trkpt>
      <trkpt lat="34.30935722487612" lon="109.03050549072246">
        <ele>394.3467690926045</ele>
        <time>2022-04-28T09:55:18Z</time>
      </trkpt>
      <trkpt lat="34.309606610953196" lon="109.03034203410752">
        <ele>395.3270308012143</ele>
        <time>2022-04-28T09:55:24Z</time>
      </trkpt>
      <trkpt lat="34.30970081306236" lon="109.03029995251029">
        <ele>394.96457052603364</ele>
        <time>2022-04-28T09:55:26Z</time>
      </trkpt>
      <trkpt lat="34.309858732799164" lon="109.03016242461706">
        <ele>394.39553842600435</ele>
        <time>2022-04-28T09:55:30Z</time>
      </trkpt>
      <trkpt lat="34.309948112682186" lon="109.03010970287782">
        <ele>394.7435096902773</ele>
        <time>2022-04-28T09:55:32Z</time>
      </trkpt>
      <trkpt lat="34.31016701958667" lon="109.02989688646014">
        <ele>394.3606017520651</ele>
        <time>2022-04-28T09:55:38Z</time>
      </trkpt>
      <trkpt lat="34.31028156479355" lon="109.02990606192229">
        <ele>393.66388843767345</ele>
        <time>2022-04-28T09:55:40Z</time>
      </trkpt>
      <trkpt lat="34.310377356138574" lon="109.02974314675964">
        <ele>393.5310839880258</ele>
        <time>2022-04-28T09:55:44Z</time>
      </trkpt>
      <trkpt lat="34.31046826414416" lon="109.02967886479621">
        <ele>393.5278963018209</ele>
        <time>2022-04-28T09:55:46Z</time>
      </trkpt>
      <trkpt lat="34.31058891255665" lon="109.0295269916031">
        <ele>393.24227904342115</ele>
        <time>2022-04-28T09:55:50Z</time>
      </trkpt>
      <trkpt lat="34.31099779544348" lon="109.02916150093554">
        <ele>392.52198167704046</ele>
        <time>2022-04-28T09:56:00Z</time>
      </trkpt>
      <trkpt lat="34.3112166786691" lon="109.0289197096598">
        <ele>392.0166419837624</ele>
        <time>2022-04-28T09:56:06Z</time>
      </trkpt>
      <trkpt lat="34.3113219367842" lon="109.02872819574483">
        <ele>392.15026950556785</ele>
        <time>2022-04-28T09:56:10Z</time>
      </trkpt>
      <trkpt lat="34.31139828308966" lon="109.0286450026677">
        <ele>392.6717560114339</ele>
        <time>2022-04-28T09:56:12Z</time>
      </trkpt>
      <trkpt lat="34.31148663737591" lon="109.02835916269625">
        <ele>393.4168588863686</ele>
        <time>2022-04-28T09:56:18Z</time>
      </trkpt>
      <trkpt lat="34.31157834245135" lon="109.02771551245436">
        <ele>393.8663769150153</ele>
        <time>2022-04-28T09:56:36Z</time>
      </trkpt>
      <trkpt lat="34.31158273244078" lon="109.02749430859637">
        <ele>394.1155644757673</ele>
        <time>2022-04-28T09:56:40Z</time>
      </trkpt>
      <trkpt lat="34.311667506811844" lon="109.02712799168741">
        <ele>394.2295091096312</ele>
        <time>2022-04-28T09:56:46Z</time>
      </trkpt>
      <trkpt lat="34.311840859546685" lon="109.02680761491384">
        <ele>393.22708202246577</ele>
        <time>2022-04-28T09:56:52Z</time>
      </trkpt>
      <trkpt lat="34.31191178511343" lon="109.02672199212864">
        <ele>392.65318877249956</ele>
        <time>2022-04-28T09:56:54Z</time>
      </trkpt>
      <trkpt lat="34.31201267170215" lon="109.02654814609046">
        <ele>392.79651514813304</ele>
        <time>2022-04-28T09:56:58Z</time>
      </trkpt>
      <trkpt lat="34.31224132250318" lon="109.02634774549858">
        <ele>393.82860934734344</ele>
        <time>2022-04-28T09:57:04Z</time>
      </trkpt>
      <trkpt lat="34.312311016909426" lon="109.02621809487106">
        <ele>394.5478329434991</ele>
        <time>2022-04-28T09:57:08Z</time>
      </trkpt>
      <trkpt lat="34.31253162986084" lon="109.02606378455093">
        <ele>393.68849855754524</ele>
        <time>2022-04-28T09:57:12Z</time>
      </trkpt>
      <trkpt lat="34.31301238565648" lon="109.0258333232569">
        <ele>393.4216143088415</ele>
        <time>2022-04-28T09:57:22Z</time>
      </trkpt>
      <trkpt lat="34.313175170984344" lon="109.02574551073265">
        <ele>393.1746432110667</ele>
        <time>2022-04-28T09:57:26Z</time>
      </trkpt>
      <trkpt lat="34.31325677733639" lon="109.02574864308811">
        <ele>392.6719118254259</ele>
        <time>2022-04-28T09:57:30Z</time>
      </trkpt>
      <trkpt lat="34.31327221792169" lon="109.02577702104307">
        <ele>392.2858624793589</ele>
        <time>2022-04-28T09:57:44Z</time>
      </trkpt>
      <trkpt lat="34.31343320399968" lon="109.02569808831045">
        <ele>392.6384003115818</ele>
        <time>2022-04-28T09:58:05Z</time>
      </trkpt>
      <trkpt lat="34.313542916448526" lon="109.02563549813249">
        <ele>392.80020711012185</ele>
        <time>2022-04-28T09:58:09Z</time>
      </trkpt>
      <trkpt lat="34.313750150377835" lon="109.02557602297517">
        <ele>392.4831892075017</ele>
        <time>2022-04-28T09:58:15Z</time>
      </trkpt>
      <trkpt lat="34.314043751375706" lon="109.02544827915555">
        <ele>391.1267115455121</ele>
        <time>2022-04-28T09:58:25Z</time>
      </trkpt>
      <trkpt lat="34.314456233736045" lon="109.02522592823311">
        <ele>390.4810364181176</ele>
        <time>2022-04-28T09:58:35Z</time>
      </trkpt>
      <trkpt lat="34.3148853785449" lon="109.02492378179217">
        <ele>390.23171480186284</ele>
        <time>2022-04-28T09:58:47Z</time>
      </trkpt>
      <trkpt lat="34.315315060180126" lon="109.02462033414409">
        <ele>390.22958063334227</ele>
        <time>2022-04-28T09:58:59Z</time>
      </trkpt>
      <trkpt lat="34.31555320005031" lon="109.02445142405807">
        <ele>390.7517922092229</ele>
        <time>2022-04-28T09:59:05Z</time>
      </trkpt>
      <trkpt lat="34.31596349064108" lon="109.02422635107317">
        <ele>390.63980092387646</ele>
        <time>2022-04-28T09:59:15Z</time>
      </trkpt>
      <trkpt lat="34.31610819058617" lon="109.02414800510903">
        <ele>390.47182999458164</ele>
        <time>2022-04-28T09:59:19Z</time>
      </trkpt>
      <trkpt lat="34.31617974713855" lon="109.0240468384239">
        <ele>390.3589098220691</ele>
        <time>2022-04-28T09:59:23Z</time>
      </trkpt>
      <trkpt lat="34.31617570118256" lon="109.02391212594844">
        <ele>390.2198430914432</ele>
        <time>2022-04-28T09:59:27Z</time>
      </trkpt>
      <trkpt lat="34.3161901381548" lon="109.0237891863327">
        <ele>390.0000640647486</ele>
        <time>2022-04-28T09:59:38Z</time>
      </trkpt>
      <trkpt lat="34.31630521572005" lon="109.02360053952661">
        <ele>389.83819518983364</ele>
        <time>2022-04-28T10:00:35Z</time>
      </trkpt>
      <trkpt lat="34.31624706002993" lon="109.02328985316583">
        <ele>390.40457641426474</ele>
        <time>2022-04-28T10:00:43Z</time>
      </trkpt>
      <trkpt lat="34.31605403081065" lon="109.02282419398696">
        <ele>389.4123968305066</ele>
        <time>2022-04-28T10:00:53Z</time>
      </trkpt>
      <trkpt lat="34.31593592578453" lon="109.02255929857922">
        <ele>389.9521679710597</ele>
        <time>2022-04-28T10:00:59Z</time>
      </trkpt>
      <trkpt lat="34.31586637566414" lon="109.02231999287665">
        <ele>389.82526900060475</ele>
        <time>2022-04-28T10:01:05Z</time>
      </trkpt>
      <trkpt lat="34.31586903626149" lon="109.02222406978747">
        <ele>390.8174374392256</ele>
        <time>2022-04-28T10:01:07Z</time>
      </trkpt>
      <trkpt lat="34.31598166299749" lon="109.02181428867421">
        <ele>391.4075028002262</ele>
        <time>2022-04-28T10:01:15Z</time>
      </trkpt>
      <trkpt lat="34.31593844641346" lon="109.02127484176366">
        <ele>393.355143644847</ele>
        <time>2022-04-28T10:01:25Z</time>
      </trkpt>
      <trkpt lat="34.3159258402046" lon="109.02116492521996">
        <ele>393.5825132038444</ele>
        <time>2022-04-28T10:01:27Z</time>
      </trkpt>
      <trkpt lat="34.31594404731395" lon="109.02105600039846">
        <ele>393.7498595211655</ele>
        <time>2022-04-28T10:01:29Z</time>
      </trkpt>
      <trkpt lat="34.315931354203165" lon="109.02074904849064">
        <ele>394.86932580173016</ele>
        <time>2022-04-28T10:01:35Z</time>
      </trkpt>
      <trkpt lat="34.315890223411" lon="109.02021518972356">
        <ele>397.4338443931192</ele>
        <time>2022-04-28T10:01:46Z</time>
      </trkpt>
      <trkpt lat="34.315898459789125" lon="109.02009158133744">
        <ele>398.1242926158011</ele>
        <time>2022-04-28T10:01:48Z</time>
      </trkpt>
      <trkpt lat="34.31586928605431" lon="109.0196929472614">
        <ele>399.07236522994936</ele>
        <time>2022-04-28T10:01:56Z</time>
      </trkpt>
      <trkpt lat="34.315879093452224" lon="109.01910273646881">
        <ele>402.3348156902939</ele>
        <time>2022-04-28T10:02:06Z</time>
      </trkpt>
      <trkpt lat="34.31590763429854" lon="109.0185756072524">
        <ele>403.2062687994912</ele>
        <time>2022-04-28T10:02:14Z</time>
      </trkpt>
      <trkpt lat="34.315919786301144" lon="109.01833961523697">
        <ele>403.7281632628292</ele>
        <time>2022-04-28T10:02:18Z</time>
      </trkpt>
      <trkpt lat="34.315904758652714" lon="109.01822779006623">
        <ele>404.7699342733249</ele>
        <time>2022-04-28T10:02:20Z</time>
      </trkpt>
      <trkpt lat="34.31593937750236" lon="109.01788121511495">
        <ele>404.9395676413551</ele>
        <time>2022-04-28T10:02:26Z</time>
      </trkpt>
      <trkpt lat="34.31591977122538" lon="109.01763368969195">
        <ele>405.61702503450215</ele>
        <time>2022-04-28T10:02:32Z</time>
      </trkpt>
      <trkpt lat="34.31589936502484" lon="109.01710864933662">
        <ele>407.51482803002</ele>
        <time>2022-04-28T10:02:44Z</time>
      </trkpt>
      <trkpt lat="34.31587750185277" lon="109.01672170220651">
        <ele>408.53421152662486</ele>
        <time>2022-04-28T10:02:52Z</time>
      </trkpt>
      <trkpt lat="34.31588770224159" lon="109.01662318367264">
        <ele>408.01520965620875</ele>
        <time>2022-04-28T10:02:54Z</time>
      </trkpt>
      <trkpt lat="34.31585765435599" lon="109.01642903293221">
        <ele>409.4010602449998</ele>
        <time>2022-04-28T10:02:58Z</time>
      </trkpt>
      <trkpt lat="34.31587240328273" lon="109.01586386095693">
        <ele>409.636837631464</ele>
        <time>2022-04-28T10:03:08Z</time>
      </trkpt>
      <trkpt lat="34.3159073876463" lon="109.0156199123048">
        <ele>409.65693469531834</ele>
        <time>2022-04-28T10:03:14Z</time>
      </trkpt>
      <trkpt lat="34.315922124853245" lon="109.01533411756624">
        <ele>408.1688233483583</ele>
        <time>2022-04-28T10:03:20Z</time>
      </trkpt>
      <trkpt lat="34.31588660906356" lon="109.01507310618908">
        <ele>409.90258803777397</ele>
        <time>2022-04-28T10:03:26Z</time>
      </trkpt>
      <trkpt lat="34.31591044287472" lon="109.01453789043725">
        <ele>410.14981318917125</ele>
        <time>2022-04-28T10:03:34Z</time>
      </trkpt>
      <trkpt lat="34.31590472494032" lon="109.0139106488778">
        <ele>411.8755422178656</ele>
        <time>2022-04-28T10:03:46Z</time>
      </trkpt>
      <trkpt lat="34.31587488616981" lon="109.01357657602345">
        <ele>411.86044568382204</ele>
        <time>2022-04-28T10:03:52Z</time>
      </trkpt>
      <trkpt lat="34.31588071580988" lon="109.01347475285019">
        <ele>411.2289426876232</ele>
        <time>2022-04-28T10:03:54Z</time>
      </trkpt>
      <trkpt lat="34.31586351133414" lon="109.01328169914315">
        <ele>410.8303268952295</ele>
        <time>2022-04-28T10:03:58Z</time>
      </trkpt>
      <trkpt lat="34.31589550008942" lon="109.01275369841619">
        <ele>411.8283755648881</ele>
        <time>2022-04-28T10:04:06Z</time>
      </trkpt>
      <trkpt lat="34.315921835394" lon="109.01250175995412">
        <ele>410.02916090283543</ele>
        <time>2022-04-28T10:04:10Z</time>
      </trkpt>
      <trkpt lat="34.31588530793297" lon="109.01202438217773">
        <ele>411.1431157933548</ele>
        <time>2022-04-28T10:04:18Z</time>
      </trkpt>
      <trkpt lat="34.31591278679056" lon="109.01170789142218">
        <ele>409.9685065280646</ele>
        <time>2022-04-28T10:04:22Z</time>
      </trkpt>
      <trkpt lat="34.31588193829178" lon="109.01149311541552">
        <ele>410.4731771424413</ele>
        <time>2022-04-28T10:04:26Z</time>
      </trkpt>
      <trkpt lat="34.315872824926224" lon="109.01087515340292">
        <ele>410.6499225292355</ele>
        <time>2022-04-28T10:04:36Z</time>
      </trkpt>
      <trkpt lat="34.315865303390346" lon="109.01052753909634">
        <ele>410.09824845939875</ele>
        <time>2022-04-28T10:04:42Z</time>
      </trkpt>
      <trkpt lat="34.31589068960281" lon="109.01038811286551">
        <ele>409.14662315230817</ele>
        <time>2022-04-28T10:04:44Z</time>
      </trkpt>
      <trkpt lat="34.31587187246822" lon="109.01010580225774">
        <ele>409.31331205833703</ele>
        <time>2022-04-28T10:04:50Z</time>
      </trkpt>
      <trkpt lat="34.31588633443166" lon="109.01001732216007">
        <ele>409.50894644204527</ele>
        <time>2022-04-28T10:04:52Z</time>
      </trkpt>
      <trkpt lat="34.31592812769177" lon="109.00990816775008">
        <ele>408.78052915632725</ele>
        <time>2022-04-28T10:04:54Z</time>
      </trkpt>
      <trkpt lat="34.316007812173694" lon="109.0098261500403">
        <ele>409.72226852644235</ele>
        <time>2022-04-28T10:04:56Z</time>
      </trkpt>
      <trkpt lat="34.316288898657156" lon="109.00973373928576">
        <ele>410.4313897099346</ele>
        <time>2022-04-28T10:05:02Z</time>
      </trkpt>
      <trkpt lat="34.316486546082054" lon="109.00971587675396">
        <ele>410.0577825997025</ele>
        <time>2022-04-28T10:05:06Z</time>
      </trkpt>
      <trkpt lat="34.31665881914856" lon="109.00964938257576">
        <ele>408.85979056730866</ele>
        <time>2022-04-28T10:05:10Z</time>
      </trkpt>
      <trkpt lat="34.316998316658605" lon="109.00961774290565">
        <ele>409.74209494981915</ele>
        <time>2022-04-28T10:05:18Z</time>
      </trkpt>
      <trkpt lat="34.31710530719872" lon="109.00964235208771">
        <ele>409.9868389349431</ele>
        <time>2022-04-28T10:05:20Z</time>
      </trkpt>
      <trkpt lat="34.31721412467639" lon="109.00969565907471">
        <ele>409.94144598860294</ele>
        <time>2022-04-28T10:05:22Z</time>
      </trkpt>
      <trkpt lat="34.317658059358806" lon="109.00973353127844">
        <ele>409.1033458849415</ele>
        <time>2022-04-28T10:05:32Z</time>
      </trkpt>
      <trkpt lat="34.3178102142387" lon="109.00973901936955">
        <ele>409.7848923280835</ele>
        <time>2022-04-28T10:05:36Z</time>
      </trkpt>
      <trkpt lat="34.31788833559977" lon="109.00971922116081">
        <ele>409.497370140627</ele>
        <time>2022-04-28T10:05:38Z</time>
      </trkpt>
      <trkpt lat="34.31817140970905" lon="109.00973539819795">
        <ele>409.42282276507467</ele>
        <time>2022-04-28T10:05:44Z</time>
      </trkpt>
      <trkpt lat="34.318647249965075" lon="109.0096902521303">
        <ele>408.8261286849156</ele>
        <time>2022-04-28T10:05:54Z</time>
      </trkpt>
      <trkpt lat="34.31893709252321" lon="109.00965339004003">
        <ele>409.0003115013242</ele>
        <time>2022-04-28T10:06:00Z</time>
      </trkpt>
      <trkpt lat="34.31914847444161" lon="109.00968137031634">
        <ele>408.26100675109774</ele>
        <time>2022-04-28T10:06:04Z</time>
      </trkpt>
      <trkpt lat="34.31935204893872" lon="109.00960880346052">
        <ele>408.0213723545894</ele>
        <time>2022-04-28T10:06:08Z</time>
      </trkpt>
      <trkpt lat="34.319572006496436" lon="109.00960431077746">
        <ele>407.62514030281454</ele>
        <time>2022-04-28T10:06:12Z</time>
      </trkpt>
      <trkpt lat="34.31967065553408" lon="109.00957611777064">
        <ele>407.537903489545</ele>
        <time>2022-04-28T10:06:14Z</time>
      </trkpt>
      <trkpt lat="34.319750382522436" lon="109.0095306008422">
        <ele>407.97156293224543</ele>
        <time>2022-04-28T10:06:16Z</time>
      </trkpt>
      <trkpt lat="34.31997736867064" lon="109.00954351307381">
        <ele>406.80581489391625</ele>
        <time>2022-04-28T10:06:20Z</time>
      </trkpt>
      <trkpt lat="34.3201163488229" lon="109.00959137898319">
        <ele>406.2988841785118</ele>
        <time>2022-04-28T10:06:22Z</time>
      </trkpt>
      <trkpt lat="34.32058598093488" lon="109.00952276816005">
        <ele>405.22147990576923</ele>
        <time>2022-04-28T10:06:30Z</time>
      </trkpt>
      <trkpt lat="34.320962507539846" lon="109.00956095820841">
        <ele>404.00718522351235</ele>
        <time>2022-04-28T10:06:36Z</time>
      </trkpt>
      <trkpt lat="34.321175534756" lon="109.00953268370371">
        <ele>403.51858516409993</ele>
        <time>2022-04-28T10:06:40Z</time>
      </trkpt>
      <trkpt lat="34.321304783568934" lon="109.00956141844289">
        <ele>403.2535707671195</ele>
        <time>2022-04-28T10:06:42Z</time>
      </trkpt>
      <trkpt lat="34.32153278787537" lon="109.00955146314173">
        <ele>402.6532193887979</ele>
        <time>2022-04-28T10:06:46Z</time>
      </trkpt>
      <trkpt lat="34.32162384737687" lon="109.00951514356895">
        <ele>402.85537120420486</ele>
        <time>2022-04-28T10:06:48Z</time>
      </trkpt>
      <trkpt lat="34.321750323124256" lon="109.00959570328705">
        <ele>402.8560766968876</ele>
        <time>2022-04-28T10:06:50Z</time>
      </trkpt>
      <trkpt lat="34.32223701074276" lon="109.00958590192907">
        <ele>401.5864314502105</ele>
        <time>2022-04-28T10:06:58Z</time>
      </trkpt>
      <trkpt lat="34.322699038329894" lon="109.00955541874313">
        <ele>400.66034896392375</ele>
        <time>2022-04-28T10:07:06Z</time>
      </trkpt>
      <trkpt lat="34.32316839505316" lon="109.00947938693072">
        <ele>399.2503161234781</ele>
        <time>2022-04-28T10:07:14Z</time>
      </trkpt>
      <trkpt lat="34.32365096609519" lon="109.00938155607075">
        <ele>398.17651718389243</ele>
        <time>2022-04-28T10:07:22Z</time>
      </trkpt>
      <trkpt lat="34.324078850403225" lon="109.00926948996556">
        <ele>396.99077869579196</ele>
        <time>2022-04-28T10:07:30Z</time>
      </trkpt>
      <trkpt lat="34.32417005245859" lon="109.00921460642292">
        <ele>397.08502995967865</ele>
        <time>2022-04-28T10:07:32Z</time>
      </trkpt>
      <trkpt lat="34.32457558824091" lon="109.00909788012598">
        <ele>396.1217730967328</ele>
        <time>2022-04-28T10:07:40Z</time>
      </trkpt>
      <trkpt lat="34.32486882594744" lon="109.00896725708094">
        <ele>395.6938461456448</ele>
        <time>2022-04-28T10:07:46Z</time>
      </trkpt>
      <trkpt lat="34.32508379262491" lon="109.00890392852916">
        <ele>395.7393699064851</ele>
        <time>2022-04-28T10:07:50Z</time>
      </trkpt>
      <trkpt lat="34.32555587407376" lon="109.00866789672455">
        <ele>396.9624071754515</ele>
        <time>2022-04-28T10:08:00Z</time>
      </trkpt>
      <trkpt lat="34.32582536632547" lon="109.00851430809094">
        <ele>396.6020774273202</ele>
        <time>2022-04-28T10:08:06Z</time>
      </trkpt>
      <trkpt lat="34.32592101178592" lon="109.00847887740781">
        <ele>396.1407747352496</ele>
        <time>2022-04-28T10:08:08Z</time>
      </trkpt>
      <trkpt lat="34.32635203512719" lon="109.00820003367942">
        <ele>395.3824040563777</ele>
        <time>2022-04-28T10:08:18Z</time>
      </trkpt>
      <trkpt lat="34.32662091553896" lon="109.00803255063275">
        <ele>395.457377018407</ele>
        <time>2022-04-28T10:08:24Z</time>
      </trkpt>
      <trkpt lat="34.32670627862965" lon="109.00795831481827">
        <ele>395.37976799346507</ele>
        <time>2022-04-28T10:08:26Z</time>
      </trkpt>
      <trkpt lat="34.32679667587803" lon="109.00791562041478">
        <ele>395.1941022472456</ele>
        <time>2022-04-28T10:08:28Z</time>
      </trkpt>
      <trkpt lat="34.32704257871388" lon="109.0077191260567">
        <ele>394.49581098463386</ele>
        <time>2022-04-28T10:08:34Z</time>
      </trkpt>
      <trkpt lat="34.327432659819124" lon="109.00743192300831">
        <ele>394.37350255902857</ele>
        <time>2022-04-28T10:08:44Z</time>
      </trkpt>
      <trkpt lat="34.327499063414294" lon="109.00735909457502">
        <ele>393.48917903844267</ele>
        <time>2022-04-28T10:08:46Z</time>
      </trkpt>
      <trkpt lat="34.32765008266495" lon="109.00725042425375">
        <ele>394.34519260935485</ele>
        <time>2022-04-28T10:08:50Z</time>
      </trkpt>
      <trkpt lat="34.32769532712585" lon="109.00716049005754">
        <ele>394.6305621806532</ele>
        <time>2022-04-28T10:08:52Z</time>
      </trkpt>
      <trkpt lat="34.32773133339897" lon="109.00687172394825">
        <ele>394.2942778579891</ele>
        <time>2022-04-28T10:08:58Z</time>
      </trkpt>
      <trkpt lat="34.32780440814204" lon="109.00663296973126">
        <ele>394.83563907723874</ele>
        <time>2022-04-28T10:09:06Z</time>
      </trkpt>
      <trkpt lat="34.32791516720968" lon="109.00651104785122">
        <ele>395.65024500340223</ele>
        <time>2022-04-28T10:09:10Z</time>
      </trkpt>
      <trkpt lat="34.327944963106546" lon="109.00642670914107">
        <ele>395.2530595799908</ele>
        <time>2022-04-28T10:09:12Z</time>
      </trkpt>
      <trkpt lat="34.3279451465279" lon="109.00632587229319">
        <ele>395.0648612221703</ele>
        <time>2022-04-28T10:09:14Z</time>
      </trkpt>
      <trkpt lat="34.32796716268392" lon="109.00623283853577">
        <ele>395.22047419659793</ele>
        <time>2022-04-28T10:09:16Z</time>
      </trkpt>
      <trkpt lat="34.327958530919034" lon="109.00592724891764">
        <ele>394.70902395341545</ele>
        <time>2022-04-28T10:09:22Z</time>
      </trkpt>
      <trkpt lat="34.327861563045815" lon="109.00536832242759">
        <ele>394.87504963297397</ele>
        <time>2022-04-28T10:09:32Z</time>
      </trkpt>
      <trkpt lat="34.32782054636854" lon="109.00502401570644">
        <ele>393.8646997641772</ele>
        <time>2022-04-28T10:09:38Z</time>
      </trkpt>
      <trkpt lat="34.32782788738348" lon="109.00489007328036">
        <ele>394.1553328745067</ele>
        <time>2022-04-28T10:09:40Z</time>
      </trkpt>
      <trkpt lat="34.327850445959044" lon="109.00478076794616">
        <ele>394.46293829753995</ele>
        <time>2022-04-28T10:09:42Z</time>
      </trkpt>
      <trkpt lat="34.32787680796924" lon="109.00455502587464">
        <ele>395.3987051602453</ele>
        <time>2022-04-28T10:09:46Z</time>
      </trkpt>
      <trkpt lat="34.32785665950208" lon="109.00400018434576">
        <ele>394.9543906887993</ele>
        <time>2022-04-28T10:09:56Z</time>
      </trkpt>
      <trkpt lat="34.32788024964911" lon="109.00378406241353">
        <ele>395.02885047346354</ele>
        <time>2022-04-28T10:10:00Z</time>
      </trkpt>
      <trkpt lat="34.32782560653333" lon="109.00324152760679">
        <ele>395.45549388136715</ele>
        <time>2022-04-28T10:10:08Z</time>
      </trkpt>
      <trkpt lat="34.327787264193965" lon="109.0029928654773">
        <ele>394.22624881751835</ele>
        <time>2022-04-28T10:10:12Z</time>
      </trkpt>
      <trkpt lat="34.327809787812896" lon="109.00246918556802">
        <ele>394.1140489242971</ele>
        <time>2022-04-28T10:10:20Z</time>
      </trkpt>
      <trkpt lat="34.32784165573293" lon="109.00200709332312">
        <ele>394.6925079105422</ele>
        <time>2022-04-28T10:10:28Z</time>
      </trkpt>
      <trkpt lat="34.32783605444636" lon="109.00178462258737">
        <ele>394.92926100920886</ele>
        <time>2022-04-28T10:10:32Z</time>
      </trkpt>
      <trkpt lat="34.32779890728561" lon="109.00151300902088">
        <ele>394.34968473762274</ele>
        <time>2022-04-28T10:10:36Z</time>
      </trkpt>
      <trkpt lat="34.32780385426221" lon="109.00102271915301">
        <ele>395.44043912831694</ele>
        <time>2022-04-28T10:10:44Z</time>
      </trkpt>
      <trkpt lat="34.32778991458071" lon="109.00090671630096">
        <ele>395.6834835372865</ele>
        <time>2022-04-28T10:10:46Z</time>
      </trkpt>
      <trkpt lat="34.32780977211329" lon="109.00077787503697">
        <ele>395.3619959037751</ele>
        <time>2022-04-28T10:10:48Z</time>
      </trkpt>
      <trkpt lat="34.32782295231351" lon="109.00018152768297">
        <ele>394.51524925697595</ele>
        <time>2022-04-28T10:10:58Z</time>
      </trkpt>
      <trkpt lat="34.327851339177094" lon="108.99994372441981">
        <ele>394.97644388489425</ele>
        <time>2022-04-28T10:11:02Z</time>
      </trkpt>
      <trkpt lat="34.32786326590632" lon="108.99934382698865">
        <ele>394.1813068976626</ele>
        <time>2022-04-28T10:11:12Z</time>
      </trkpt>
      <trkpt lat="34.32784932170797" lon="108.99921953313525">
        <ele>394.1206985199824</ele>
        <time>2022-04-28T10:11:14Z</time>
      </trkpt>
      <trkpt lat="34.32785899279654" lon="108.99885806422701">
        <ele>394.3919919822365</ele>
        <time>2022-04-28T10:11:20Z</time>
      </trkpt>
      <trkpt lat="34.32784872291984" lon="108.99873725888669">
        <ele>394.1278481502086</ele>
        <time>2022-04-28T10:11:22Z</time>
      </trkpt>
      <trkpt lat="34.32787414287797" lon="108.99837763062244">
        <ele>394.10847646091133</ele>
        <time>2022-04-28T10:11:28Z</time>
      </trkpt>
      <trkpt lat="34.32794836535565" lon="108.99801306914804">
        <ele>395.7433593152091</ele>
        <time>2022-04-28T10:11:34Z</time>
      </trkpt>
      <trkpt lat="34.32794527557483" lon="108.9975539001352">
        <ele>395.0902934903279</ele>
        <time>2022-04-28T10:11:42Z</time>
      </trkpt>
      <trkpt lat="34.32798217070298" lon="108.99706993542466">
        <ele>395.272016745992</ele>
        <time>2022-04-28T10:11:50Z</time>
      </trkpt>
      <trkpt lat="34.32797403548071" lon="108.99672782004446">
        <ele>395.26701458357275</ele>
        <time>2022-04-28T10:11:56Z</time>
      </trkpt>
      <trkpt lat="34.32800373085933" lon="108.99614460389704">
        <ele>394.9099797215313</ele>
        <time>2022-04-28T10:12:06Z</time>
      </trkpt>
      <trkpt lat="34.32801414722838" lon="108.9955820363784">
        <ele>394.47708102408797</ele>
        <time>2022-04-28T10:12:16Z</time>
      </trkpt>
      <trkpt lat="34.32799695977392" lon="108.99524522304796">
        <ele>395.5289257802069</ele>
        <time>2022-04-28T10:12:22Z</time>
      </trkpt>
      <trkpt lat="34.32803347352123" lon="108.9951243883769">
        <ele>394.9707294218242</ele>
        <time>2022-04-28T10:12:26Z</time>
      </trkpt>
      <trkpt lat="34.328002505824486" lon="108.99499784747053">
        <ele>395.83248784113675</ele>
        <time>2022-04-28T10:12:30Z</time>
      </trkpt>
      <trkpt lat="34.328021393187775" lon="108.99447613539085">
        <ele>396.24837602768093</ele>
        <time>2022-04-28T10:12:40Z</time>
      </trkpt>
      <trkpt lat="34.32803769330016" lon="108.99401870065329">
        <ele>394.77393819205463</ele>
        <time>2022-04-28T10:12:48Z</time>
      </trkpt>
      <trkpt lat="34.32801463582489" lon="108.9939049160346">
        <ele>394.57854646630585</ele>
        <time>2022-04-28T10:12:50Z</time>
      </trkpt>
      <trkpt lat="34.32801768168291" lon="108.99354343567224">
        <ele>394.58259116485715</ele>
        <time>2022-04-28T10:12:56Z</time>
      </trkpt>
      <trkpt lat="34.327995012964735" lon="108.99297397292983">
        <ele>394.7218914087862</ele>
        <time>2022-04-28T10:13:06Z</time>
      </trkpt>
      <trkpt lat="34.32799552745024" lon="108.99251702758816">
        <ele>394.3772782655433</ele>
        <time>2022-04-28T10:13:14Z</time>
      </trkpt>
      <trkpt lat="34.32802272202502" lon="108.99227894394596">
        <ele>394.1625734195113</ele>
        <time>2022-04-28T10:13:18Z</time>
      </trkpt>
      <trkpt lat="34.328018005609024" lon="108.9920610510588">
        <ele>394.38010885566473</ele>
        <time>2022-04-28T10:13:22Z</time>
      </trkpt>
      <trkpt lat="34.32805579741445" lon="108.9915011387405">
        <ele>392.95236519165337</ele>
        <time>2022-04-28T10:13:32Z</time>
      </trkpt>
      <trkpt lat="34.3280847403372" lon="108.99081206340693">
        <ele>392.57597950380296</ele>
        <time>2022-04-28T10:13:48Z</time>
      </trkpt>
      <trkpt lat="34.32805796607909" lon="108.9905872789558">
        <ele>392.7112868670374</ele>
        <time>2022-04-28T10:13:52Z</time>
      </trkpt>
      <trkpt lat="34.32806771853009" lon="108.99047482173896">
        <ele>393.4085872853175</ele>
        <time>2022-04-28T10:13:54Z</time>
      </trkpt>
      <trkpt lat="34.32802467193731" lon="108.99033789474474">
        <ele>392.8615637663752</ele>
        <time>2022-04-28T10:13:56Z</time>
      </trkpt>
      <trkpt lat="34.32801446730639" lon="108.99009745579434">
        <ele>392.50161466933787</ele>
        <time>2022-04-28T10:14:00Z</time>
      </trkpt>
      <trkpt lat="34.328013828095685" lon="108.98985408068194">
        <ele>392.92154657654464</ele>
        <time>2022-04-28T10:14:04Z</time>
      </trkpt>
      <trkpt lat="34.32798396337926" lon="108.98963737404989">
        <ele>392.81441614497453</ele>
        <time>2022-04-28T10:14:08Z</time>
      </trkpt>
      <trkpt lat="34.32798859178453" lon="108.98952387524237">
        <ele>393.02472876757383</ele>
        <time>2022-04-28T10:14:10Z</time>
      </trkpt>
      <trkpt lat="34.32793927900452" lon="108.9890582752089">
        <ele>393.58797856234014</ele>
        <time>2022-04-28T10:14:18Z</time>
      </trkpt>
      <trkpt lat="34.32784730177687" lon="108.98881320420963">
        <ele>392.8914317144081</ele>
        <time>2022-04-28T10:14:22Z</time>
      </trkpt>
      <trkpt lat="34.327813347354294" lon="108.98844613631056">
        <ele>392.76204353850335</ele>
        <time>2022-04-28T10:14:28Z</time>
      </trkpt>
      <trkpt lat="34.32781953658218" lon="108.98832511120584">
        <ele>393.10907492320985</ele>
        <time>2022-04-28T10:14:30Z</time>
      </trkpt>
      <trkpt lat="34.32784608870082" lon="108.98819102588536">
        <ele>393.74229314923286</ele>
        <time>2022-04-28T10:14:32Z</time>
      </trkpt>
      <trkpt lat="34.32786390411801" lon="108.98771651997889">
        <ele>394.185729816556</ele>
        <time>2022-04-28T10:14:40Z</time>
      </trkpt>
      <trkpt lat="34.32784601865184" lon="108.98759782836457">
        <ele>395.277619484812</ele>
        <time>2022-04-28T10:14:42Z</time>
      </trkpt>
      <trkpt lat="34.32776718723447" lon="108.98724419189554">
        <ele>395.07340171094984</ele>
        <time>2022-04-28T10:14:48Z</time>
      </trkpt>
      <trkpt lat="34.32779922232288" lon="108.98699163347337">
        <ele>394.9298905711621</ele>
        <time>2022-04-28T10:14:52Z</time>
      </trkpt>
      <trkpt lat="34.3277935418803" lon="108.98672777681809">
        <ele>394.75955933425575</ele>
        <time>2022-04-28T10:14:56Z</time>
      </trkpt>
      <trkpt lat="34.327847995978054" lon="108.98636417106769">
        <ele>394.57196774799377</ele>
        <time>2022-04-28T10:15:02Z</time>
      </trkpt>
      <trkpt lat="34.327857136388936" lon="108.98578974350876">
        <ele>392.68163348920643</ele>
        <time>2022-04-28T10:15:12Z</time>
      </trkpt>
      <trkpt lat="34.32788346434057" lon="108.98555156973406">
        <ele>392.1846191510558</ele>
        <time>2022-04-28T10:15:16Z</time>
      </trkpt>
      <trkpt lat="34.327950027165954" lon="108.98530451153862">
        <ele>392.5427761534229</ele>
        <time>2022-04-28T10:15:20Z</time>
      </trkpt>
      <trkpt lat="34.32800325049038" lon="108.98495198288037">
        <ele>392.1963226431981</ele>
        <time>2022-04-28T10:15:28Z</time>
      </trkpt>
      <trkpt lat="34.32806010917336" lon="108.98478196325527">
        <ele>392.65434359386563</ele>
        <time>2022-04-28T10:15:32Z</time>
      </trkpt>
      <trkpt lat="34.328077449823255" lon="108.98453438077844">
        <ele>392.3625247022137</ele>
        <time>2022-04-28T10:15:40Z</time>
      </trkpt>
      <trkpt lat="34.32809893924397" lon="108.9844292425324">
        <ele>392.22958776541054</ele>
        <time>2022-04-28T10:15:52Z</time>
      </trkpt>
      <trkpt lat="34.328141400284494" lon="108.98421410711158">
        <ele>392.1666639884934</ele>
        <time>2022-04-28T10:16:47Z</time>
      </trkpt>
      <trkpt lat="34.32807100575155" lon="108.98356788899501">
        <ele>393.535482166335</ele>
        <time>2022-04-28T10:17:01Z</time>
      </trkpt>
      <trkpt lat="34.328056982935706" lon="108.98320359162439">
        <ele>393.3421369101852</ele>
        <time>2022-04-28T10:17:09Z</time>
      </trkpt>
      <trkpt lat="34.32798680039349" lon="108.9828329749561">
        <ele>393.6149790463969</ele>
        <time>2022-04-28T10:17:18Z</time>
      </trkpt>
      <trkpt lat="34.32798390023104" lon="108.98241672564005">
        <ele>394.6015969151631</ele>
        <time>2022-04-28T10:17:26Z</time>
      </trkpt>
      <trkpt lat="34.32794443537149" lon="108.98201420000964">
        <ele>394.38951650448143</ele>
        <time>2022-04-28T10:17:34Z</time>
      </trkpt>
      <trkpt lat="34.32801185200642" lon="108.98155480689786">
        <ele>395.6851964108646</ele>
        <time>2022-04-28T10:17:44Z</time>
      </trkpt>
      <trkpt lat="34.32799812828177" lon="108.9813158101831">
        <ele>395.4698907677084</ele>
        <time>2022-04-28T10:17:52Z</time>
      </trkpt>
      <trkpt lat="34.32802816765883" lon="108.98116769223412">
        <ele>394.7743464866653</ele>
        <time>2022-04-28T10:17:56Z</time>
      </trkpt>
      <trkpt lat="34.32810353042038" lon="108.98107926888638">
        <ele>394.73043001815677</ele>
        <time>2022-04-28T10:18:00Z</time>
      </trkpt>
      <trkpt lat="34.328129906468334" lon="108.98096489363654">
        <ele>394.5415708106011</ele>
        <time>2022-04-28T10:18:04Z</time>
      </trkpt>
      <trkpt lat="34.3281304370771" lon="108.98087621383095">
        <ele>395.15244570188224</ele>
        <time>2022-04-28T10:18:10Z</time>
      </trkpt>
      <trkpt lat="34.3281859711647" lon="108.98079524268881">
        <ele>395.31298945844173</ele>
        <time>2022-04-28T10:18:18Z</time>
      </trkpt>
      <trkpt lat="34.328262186620655" lon="108.98075762125474">
        <ele>395.0912448577583</ele>
        <time>2022-04-28T10:18:26Z</time>
      </trkpt>
      <trkpt lat="34.32835619285438" lon="108.98075906937886">
        <ele>394.8696143841371</ele>
        <time>2022-04-28T10:18:34Z</time>
      </trkpt>
      <trkpt lat="34.328512605652705" lon="108.98080379582001">
        <ele>395.70992629695684</ele>
        <time>2022-04-28T10:18:46Z</time>
      </trkpt>
      <trkpt lat="34.32856493872735" lon="108.98086726413216">
        <ele>395.5105470791459</ele>
        <time>2022-04-28T10:18:50Z</time>
      </trkpt>
      <trkpt lat="34.328565790765026" lon="108.98098951724477">
        <ele>394.852313650772</ele>
        <time>2022-04-28T10:18:56Z</time>
      </trkpt>
      <trkpt lat="34.32862360335787" lon="108.98106026649629">
        <ele>394.5553788971156</ele>
        <time>2022-04-28T10:19:10Z</time>
      </trkpt>
      <trkpt lat="34.3287738977544" lon="108.98080915379761">
        <ele>395.66249833162874</ele>
        <time>2022-04-28T10:20:47Z</time>
      </trkpt>
      <trkpt lat="34.32870209222115" lon="108.98077470207105">
        <ele>395.32210019417107</ele>
        <time>2022-04-28T10:20:52Z</time>
      </trkpt>
      <trkpt lat="34.32865367186245" lon="108.98068821578144">
        <ele>395.5688679981977</ele>
        <time>2022-04-28T10:21:01Z</time>
      </trkpt>
      <trkpt lat="34.32867875570504" lon="108.98060547541901">
        <ele>395.50668835267425</ele>
        <time>2022-04-28T10:21:09Z</time>
      </trkpt>
      <trkpt lat="34.328669325481506" lon="108.98049617747331">
        <ele>395.98352517932653</ele>
        <time>2022-04-28T10:21:17Z</time>
      </trkpt>
      <trkpt lat="34.32875762657368" lon="108.98032823156434">
        <ele>396.0116573162377</ele>
        <time>2022-04-28T10:21:29Z</time>
      </trkpt>
      <trkpt lat="34.32868382580457" lon="108.98003900200692">
        <ele>395.7527184896171</ele>
        <time>2022-04-28T10:21:43Z</time>
      </trkpt>
      <trkpt lat="34.328749380116605" lon="108.98010191712989">
        <ele>395.3959121834487</ele>
        <time>2022-04-28T10:21:59Z</time>
      </trkpt>
      <trkpt lat="34.32876591607433" lon="108.9802948040166">
        <ele>395.51347409561276</ele>
        <time>2022-04-28T10:22:15Z</time>
      </trkpt>
      <trkpt lat="34.32878219227718" lon="108.98034040095999">
        <ele>395.62049135100096</ele>
        <time>2022-04-28T10:22:23Z</time>
      </trkpt>
    </trkseg>
  </trk>
</gpx>