<?xml version="1.0" encoding="UTF-8"?>
<gpx xmlns="http://www.topografix.com/GPX/1/1" xmlns:gpxtpx="http://www.garmin.com/xmlschemas/TrackPointExtension/v1" xmlns:xsi="http://www.w3.org/2001/XMLSchema-instance" xsi:schemaLocation="http://www.topografix.com/GPX/1/1 http://www.topografix.com/GPX/1/1/gpx.xsd" version="1.1" creator="gpx.py -- https://github.com/tkrajina/gpxpy">
  <trk>
    <name>gpx from keep</name>
    <type>Ride</type>
    <trkseg>
      <trkpt lat="34.3287380045652" lon="108.98036070779051">
        <ele>398.0805206298828</ele>
        <time>2022-04-06T23:31:29Z</time>
      </trkpt>
      <trkpt lat="34.32865547113742" lon="108.98037172979222">
        <ele>397.3834800720215</ele>
        <time>2022-04-06T23:31:35Z</time>
      </trkpt>
      <trkpt lat="34.328650369332756" lon="108.98047331788358">
        <ele>396.9964294433594</ele>
        <time>2022-04-06T23:31:47Z</time>
      </trkpt>
      <trkpt lat="34.328590160651075" lon="108.98053436091352">
        <ele>395.89953973074563</ele>
        <time>2022-04-06T23:31:58Z</time>
      </trkpt>
      <trkpt lat="34.32859327649379" lon="108.9806433854853">
        <ele>395.8307620352134</ele>
        <time>2022-04-06T23:32:04Z</time>
      </trkpt>
      <trkpt lat="34.32856800230603" lon="108.98073483670609">
        <ele>395.8350135348737</ele>
        <time>2022-04-06T23:32:10Z</time>
      </trkpt>
      <trkpt lat="34.32850737001975" lon="108.98080355251965">
        <ele>395.7525083879009</ele>
        <time>2022-04-06T23:32:16Z</time>
      </trkpt>
      <trkpt lat="34.328433638709335" lon="108.98082840286584">
        <ele>395.3632138008252</ele>
        <time>2022-04-06T23:32:23Z</time>
      </trkpt>
      <trkpt lat="34.328271842036585" lon="108.98084230554265">
        <ele>394.8991239257157</ele>
        <time>2022-04-06T23:32:33Z</time>
      </trkpt>
      <trkpt lat="34.32819648624505" lon="108.98088010791108">
        <ele>394.60979299061</ele>
        <time>2022-04-06T23:32:38Z</time>
      </trkpt>
      <trkpt lat="34.32816923040114" lon="108.98096716400931">
        <ele>394.6699842642993</ele>
        <time>2022-04-06T23:32:44Z</time>
      </trkpt>
      <trkpt lat="34.328180317399365" lon="108.9811185244861">
        <ele>394.743158034049</ele>
        <time>2022-04-06T23:32:58Z</time>
      </trkpt>
      <trkpt lat="34.328157316813495" lon="108.98126840318518">
        <ele>395.0671119643375</ele>
        <time>2022-04-06T23:33:21Z</time>
      </trkpt>
      <trkpt lat="34.328204422664186" lon="108.98146425152399">
        <ele>394.5663916543126</ele>
        <time>2022-04-06T23:33:27Z</time>
      </trkpt>
      <trkpt lat="34.328249525678906" lon="108.98154406111327">
        <ele>394.7945029325783</ele>
        <time>2022-04-06T23:33:32Z</time>
      </trkpt>
      <trkpt lat="34.32830826053057" lon="108.98185964046321">
        <ele>394.5131226461381</ele>
        <time>2022-04-06T23:33:45Z</time>
      </trkpt>
      <trkpt lat="34.328285044734756" lon="108.9819668247989">
        <ele>395.0228143027052</ele>
        <time>2022-04-06T23:33:49Z</time>
      </trkpt>
      <trkpt lat="34.32819019684271" lon="108.98213488679369">
        <ele>394.9130402673036</ele>
        <time>2022-04-06T23:33:55Z</time>
      </trkpt>
      <trkpt lat="34.32825325561948" lon="108.98232649007032">
        <ele>393.78102741297334</ele>
        <time>2022-04-06T23:34:03Z</time>
      </trkpt>
      <trkpt lat="34.32827018639606" lon="108.98246390131207">
        <ele>394.2793490346521</ele>
        <time>2022-04-06T23:34:07Z</time>
      </trkpt>
      <trkpt lat="34.32818071876445" lon="108.98254363967312">
        <ele>393.9644855801016</ele>
        <time>2022-04-06T23:34:09Z</time>
      </trkpt>
      <trkpt lat="34.32813409597686" lon="108.98266318220966">
        <ele>393.55301982723176</ele>
        <time>2022-04-06T23:34:11Z</time>
      </trkpt>
      <trkpt lat="34.328264832666825" lon="108.98310215832814">
        <ele>392.51454505324364</ele>
        <time>2022-04-06T23:34:19Z</time>
      </trkpt>
      <trkpt lat="34.32824892535255" lon="108.98314881028323">
        <ele>392.6614918578416</ele>
        <time>2022-04-06T23:34:27Z</time>
      </trkpt>
      <trkpt lat="34.328175656124436" lon="108.9839937231875">
        <ele>392.7324498742819</ele>
        <time>2022-04-06T23:34:56Z</time>
      </trkpt>
      <trkpt lat="34.328108043290335" lon="108.98413873085737">
        <ele>393.021919362247</ele>
        <time>2022-04-06T23:35:00Z</time>
      </trkpt>
      <trkpt lat="34.32798570481478" lon="108.98432933012137">
        <ele>392.31193131022155</ele>
        <time>2022-04-06T23:35:06Z</time>
      </trkpt>
      <trkpt lat="34.32798993389693" lon="108.9848803279616">
        <ele>393.27106063999236</ele>
        <time>2022-04-06T23:35:24Z</time>
      </trkpt>
      <trkpt lat="34.32803854568006" lon="108.98518442773411">
        <ele>393.08172781951725</ele>
        <time>2022-04-06T23:35:32Z</time>
      </trkpt>
      <trkpt lat="34.328064854099345" lon="108.98556306053436">
        <ele>392.7863467950374</ele>
        <time>2022-04-06T23:35:40Z</time>
      </trkpt>
      <trkpt lat="34.32804874005692" lon="108.98617352569318">
        <ele>392.0678553916514</ele>
        <time>2022-04-06T23:35:55Z</time>
      </trkpt>
      <trkpt lat="34.32803849752878" lon="108.98628517560995">
        <ele>392.01383654400706</ele>
        <time>2022-04-06T23:35:58Z</time>
      </trkpt>
      <trkpt lat="34.328000993976964" lon="108.98649467236321">
        <ele>392.8269864022732</ele>
        <time>2022-04-06T23:36:04Z</time>
      </trkpt>
      <trkpt lat="34.328037914584165" lon="108.9868709262792">
        <ele>393.18246327899396</ele>
        <time>2022-04-06T23:36:13Z</time>
      </trkpt>
      <trkpt lat="34.32798726555894" lon="108.98744454108066">
        <ele>394.2001508427784</ele>
        <time>2022-04-06T23:36:29Z</time>
      </trkpt>
      <trkpt lat="34.327924515632304" lon="108.98756986080483">
        <ele>394.41855029109865</ele>
        <time>2022-04-06T23:36:31Z</time>
      </trkpt>
      <trkpt lat="34.327885150598775" lon="108.98779673921021">
        <ele>393.88180997688323</ele>
        <time>2022-04-06T23:36:39Z</time>
      </trkpt>
      <trkpt lat="34.32792112903628" lon="108.98792512466224">
        <ele>393.8834942737594</ele>
        <time>2022-04-06T23:36:43Z</time>
      </trkpt>
      <trkpt lat="34.32792278348078" lon="108.98805656672153">
        <ele>392.7724914448336</ele>
        <time>2022-04-06T23:36:47Z</time>
      </trkpt>
      <trkpt lat="34.32790832588667" lon="108.98815184798056">
        <ele>392.88282167725265</ele>
        <time>2022-04-06T23:36:51Z</time>
      </trkpt>
      <trkpt lat="34.32792273714053" lon="108.9882396611516">
        <ele>393.23231988493353</ele>
        <time>2022-04-06T23:36:55Z</time>
      </trkpt>
      <trkpt lat="34.3278630984936" lon="108.98831961456742">
        <ele>393.3094917256385</ele>
        <time>2022-04-06T23:36:57Z</time>
      </trkpt>
      <trkpt lat="34.3278602074688" lon="108.98845714366377">
        <ele>393.15387761220336</ele>
        <time>2022-04-06T23:37:01Z</time>
      </trkpt>
      <trkpt lat="34.32788276260878" lon="108.98859142992609">
        <ele>392.798229704611</ele>
        <time>2022-04-06T23:37:05Z</time>
      </trkpt>
      <trkpt lat="34.32788204820718" lon="108.98872721006614">
        <ele>393.0500151887536</ele>
        <time>2022-04-06T23:37:09Z</time>
      </trkpt>
      <trkpt lat="34.32786003546077" lon="108.98882048379102">
        <ele>392.02404993772507</ele>
        <time>2022-04-06T23:37:13Z</time>
      </trkpt>
      <trkpt lat="34.327802771527395" lon="108.9888859050825">
        <ele>391.62582440208644</ele>
        <time>2022-04-06T23:37:15Z</time>
      </trkpt>
      <trkpt lat="34.3277900632524" lon="108.98893933139566">
        <ele>391.2901261141524</ele>
        <time>2022-04-06T23:37:17Z</time>
      </trkpt>
      <trkpt lat="34.32788143855123" lon="108.99000679210593">
        <ele>391.7851463286206</ele>
        <time>2022-04-06T23:37:44Z</time>
      </trkpt>
      <trkpt lat="34.327903592409" lon="108.99010369108953">
        <ele>392.2279439009726</ele>
        <time>2022-04-06T23:37:46Z</time>
      </trkpt>
      <trkpt lat="34.32789609108339" lon="108.99024852930977">
        <ele>392.6754523385316</ele>
        <time>2022-04-06T23:37:48Z</time>
      </trkpt>
      <trkpt lat="34.32793311164194" lon="108.99045194196731">
        <ele>392.18010673392564</ele>
        <time>2022-04-06T23:37:52Z</time>
      </trkpt>
      <trkpt lat="34.32790308642231" lon="108.99091010272738">
        <ele>391.81772144977003</ele>
        <time>2022-04-06T23:37:58Z</time>
      </trkpt>
      <trkpt lat="34.32799093277045" lon="108.99096341468258">
        <ele>392.0457561183721</ele>
        <time>2022-04-06T23:38:02Z</time>
      </trkpt>
      <trkpt lat="34.328025902371266" lon="108.99111493999146">
        <ele>392.33703681640327</ele>
        <time>2022-04-06T23:38:04Z</time>
      </trkpt>
      <trkpt lat="34.32799895715944" lon="108.9914715299132">
        <ele>395.4938279045746</ele>
        <time>2022-04-06T23:38:12Z</time>
      </trkpt>
      <trkpt lat="34.328014770780335" lon="108.99175232867287">
        <ele>394.8323280122131</ele>
        <time>2022-04-06T23:38:17Z</time>
      </trkpt>
      <trkpt lat="34.32798905373561" lon="108.99197225204485">
        <ele>394.024530232884</ele>
        <time>2022-04-06T23:38:21Z</time>
      </trkpt>
      <trkpt lat="34.328020952980296" lon="108.99211386995741">
        <ele>393.6129676764831</ele>
        <time>2022-04-06T23:38:25Z</time>
      </trkpt>
      <trkpt lat="34.32803431028775" lon="108.9925172243139">
        <ele>393.3988266289234</ele>
        <time>2022-04-06T23:38:33Z</time>
      </trkpt>
      <trkpt lat="34.32802267114802" lon="108.99286120843578">
        <ele>393.9764892682433</ele>
        <time>2022-04-06T23:38:39Z</time>
      </trkpt>
      <trkpt lat="34.32797964294245" lon="108.9931834695857">
        <ele>394.72526824939996</ele>
        <time>2022-04-06T23:38:45Z</time>
      </trkpt>
      <trkpt lat="34.3279935750882" lon="108.99328618507117">
        <ele>394.3570235585794</ele>
        <time>2022-04-06T23:38:47Z</time>
      </trkpt>
      <trkpt lat="34.3279408366524" lon="108.9934977266143">
        <ele>394.6697466894984</ele>
        <time>2022-04-06T23:38:53Z</time>
      </trkpt>
      <trkpt lat="34.32795477365488" lon="108.99367885318576">
        <ele>395.54457575362176</ele>
        <time>2022-04-06T23:38:57Z</time>
      </trkpt>
      <trkpt lat="34.32802326985751" lon="108.9939621151087">
        <ele>394.61206012312323</ele>
        <time>2022-04-06T23:39:05Z</time>
      </trkpt>
      <trkpt lat="34.32803547727104" lon="108.99417643927008">
        <ele>394.95615531969815</ele>
        <time>2022-04-06T23:39:13Z</time>
      </trkpt>
      <trkpt lat="34.328058158649355" lon="108.99427562753924">
        <ele>394.93890488985926</ele>
        <time>2022-04-06T23:39:17Z</time>
      </trkpt>
      <trkpt lat="34.32811184214672" lon="108.99440833934658">
        <ele>395.0523335840553</ele>
        <time>2022-04-06T23:39:21Z</time>
      </trkpt>
      <trkpt lat="34.328125602357744" lon="108.99451796770474">
        <ele>395.8530923090875</ele>
        <time>2022-04-06T23:39:25Z</time>
      </trkpt>
      <trkpt lat="34.3281202536057" lon="108.99464959628916">
        <ele>395.26733710616827</ele>
        <time>2022-04-06T23:39:29Z</time>
      </trkpt>
      <trkpt lat="34.328173912282196" lon="108.99480493759596">
        <ele>394.48507910128683</ele>
        <time>2022-04-06T23:39:33Z</time>
      </trkpt>
      <trkpt lat="34.3281635041976" lon="108.99520710949247">
        <ele>393.573133896105</ele>
        <time>2022-04-06T23:39:43Z</time>
      </trkpt>
      <trkpt lat="34.32817797039806" lon="108.99534256554207">
        <ele>393.1419259766117</ele>
        <time>2022-04-06T23:39:47Z</time>
      </trkpt>
      <trkpt lat="34.32814419518464" lon="108.99556635620912">
        <ele>394.48848074581474</ele>
        <time>2022-04-06T23:39:55Z</time>
      </trkpt>
      <trkpt lat="34.32813920613547" lon="108.9957298526662">
        <ele>394.3884586179629</ele>
        <time>2022-04-06T23:39:59Z</time>
      </trkpt>
      <trkpt lat="34.328151449166185" lon="108.99582772989162">
        <ele>394.236087908037</ele>
        <time>2022-04-06T23:40:01Z</time>
      </trkpt>
      <trkpt lat="34.32813157200416" lon="108.996042775058">
        <ele>394.70834871567786</ele>
        <time>2022-04-06T23:40:05Z</time>
      </trkpt>
      <trkpt lat="34.32813779421842" lon="108.99613197957565">
        <ele>394.87120709661394</ele>
        <time>2022-04-06T23:40:07Z</time>
      </trkpt>
      <trkpt lat="34.32821815448734" lon="108.99639846560869">
        <ele>393.69195205625147</ele>
        <time>2022-04-06T23:40:15Z</time>
      </trkpt>
      <trkpt lat="34.32818193079949" lon="108.99647862147788">
        <ele>393.5113685587421</ele>
        <time>2022-04-06T23:40:17Z</time>
      </trkpt>
      <trkpt lat="34.3280901204642" lon="108.9969085252417">
        <ele>394.9548862054944</ele>
        <time>2022-04-06T23:40:33Z</time>
      </trkpt>
      <trkpt lat="34.32808446230448" lon="108.99701550330019">
        <ele>394.3608822673559</ele>
        <time>2022-04-06T23:40:41Z</time>
      </trkpt>
      <trkpt lat="34.328036830699006" lon="108.99712600524458">
        <ele>394.9284122483805</ele>
        <time>2022-04-06T23:40:43Z</time>
      </trkpt>
      <trkpt lat="34.32801004522174" lon="108.99725010832934">
        <ele>395.4143523052335</ele>
        <time>2022-04-06T23:40:45Z</time>
      </trkpt>
      <trkpt lat="34.32790208077936" lon="108.9988643302544">
        <ele>395.32320597115904</ele>
        <time>2022-04-06T23:40:47Z</time>
      </trkpt>
      <trkpt lat="34.32793999801658" lon="108.99928038207365">
        <ele>394.98686470091343</ele>
        <time>2022-04-06T23:40:49Z</time>
      </trkpt>
      <trkpt lat="34.327909437446756" lon="108.99984809806635">
        <ele>393.97275661770254</ele>
        <time>2022-04-06T23:40:51Z</time>
      </trkpt>
      <trkpt lat="34.32790173690132" lon="109.00047630370213">
        <ele>393.99989695381373</ele>
        <time>2022-04-06T23:41:01Z</time>
      </trkpt>
      <trkpt lat="34.32790900845652" lon="109.00077770216463">
        <ele>394.1344043863937</ele>
        <time>2022-04-06T23:41:05Z</time>
      </trkpt>
      <trkpt lat="34.32789428275628" lon="109.00090359348401">
        <ele>394.5534469904378</ele>
        <time>2022-04-06T23:41:07Z</time>
      </trkpt>
      <trkpt lat="34.32791354263409" lon="109.00106733515449">
        <ele>394.77627387084067</ele>
        <time>2022-04-06T23:41:11Z</time>
      </trkpt>
      <trkpt lat="34.3278889924761" lon="109.00126582103427">
        <ele>394.82178378663957</ele>
        <time>2022-04-06T23:41:15Z</time>
      </trkpt>
      <trkpt lat="34.327903631076836" lon="109.00146532630485">
        <ele>394.23198328725994</ele>
        <time>2022-04-06T23:41:19Z</time>
      </trkpt>
      <trkpt lat="34.327887838585454" lon="109.0017816771749">
        <ele>394.271057725884</ele>
        <time>2022-04-06T23:41:25Z</time>
      </trkpt>
      <trkpt lat="34.327904023803896" lon="109.00207815126798">
        <ele>394.6554306130856</ele>
        <time>2022-04-06T23:41:31Z</time>
      </trkpt>
      <trkpt lat="34.32788358117253" lon="109.00217757145634">
        <ele>395.0057054515928</ele>
        <time>2022-04-06T23:41:33Z</time>
      </trkpt>
      <trkpt lat="34.32790061520396" lon="109.00275604087966">
        <ele>395.64430465269834</ele>
        <time>2022-04-06T23:41:45Z</time>
      </trkpt>
      <trkpt lat="34.32786278101282" lon="109.00328526756398">
        <ele>394.4772579781711</ele>
        <time>2022-04-06T23:41:55Z</time>
      </trkpt>
      <trkpt lat="34.32788060459075" lon="109.00338302050993">
        <ele>394.7226149812341</ele>
        <time>2022-04-06T23:41:57Z</time>
      </trkpt>
      <trkpt lat="34.32783502036652" lon="109.00379144755861">
        <ele>394.79458933509886</ele>
        <time>2022-04-06T23:42:05Z</time>
      </trkpt>
      <trkpt lat="34.3278752837533" lon="109.0039883428821">
        <ele>395.05099549144506</ele>
        <time>2022-04-06T23:42:09Z</time>
      </trkpt>
      <trkpt lat="34.32788121113312" lon="109.00455253150129">
        <ele>394.1827039634809</ele>
        <time>2022-04-06T23:42:19Z</time>
      </trkpt>
      <trkpt lat="34.32785118515395" lon="109.00464832435335">
        <ele>394.36609075497836</ele>
        <time>2022-04-06T23:42:21Z</time>
      </trkpt>
      <trkpt lat="34.32784084645462" lon="109.00474137018598">
        <ele>394.5377336703241</ele>
        <time>2022-04-06T23:42:23Z</time>
      </trkpt>
      <trkpt lat="34.327873068402496" lon="109.00499535952102">
        <ele>395.3790420079604</ele>
        <time>2022-04-06T23:42:29Z</time>
      </trkpt>
      <trkpt lat="34.32786089463323" lon="109.00518492687873">
        <ele>395.1659705545753</ele>
        <time>2022-04-06T23:42:33Z</time>
      </trkpt>
      <trkpt lat="34.32789689507938" lon="109.0057124751654">
        <ele>394.43231281545013</ele>
        <time>2022-04-06T23:42:43Z</time>
      </trkpt>
      <trkpt lat="34.32786658007013" lon="109.005816148746">
        <ele>394.75373448617756</ele>
        <time>2022-04-06T23:42:45Z</time>
      </trkpt>
      <trkpt lat="34.32787554089461" lon="109.00625922511361">
        <ele>394.455136586912</ele>
        <time>2022-04-06T23:42:55Z</time>
      </trkpt>
      <trkpt lat="34.327893487208364" lon="109.0063522834445">
        <ele>393.9846829250455</ele>
        <time>2022-04-06T23:42:57Z</time>
      </trkpt>
      <trkpt lat="34.32789297903134" lon="109.00651555223565">
        <ele>393.87680245377123</ele>
        <time>2022-04-06T23:43:01Z</time>
      </trkpt>
      <trkpt lat="34.3278608968982" lon="109.00665384259769">
        <ele>393.6892835693434</ele>
        <time>2022-04-06T23:43:05Z</time>
      </trkpt>
      <trkpt lat="34.32786043107478" lon="109.00698449906392">
        <ele>394.1896369382739</ele>
        <time>2022-04-06T23:43:11Z</time>
      </trkpt>
      <trkpt lat="34.32785503344566" lon="109.00734385615662">
        <ele>393.80337611492723</ele>
        <time>2022-04-06T23:43:19Z</time>
      </trkpt>
      <trkpt lat="34.327821394835446" lon="109.00765611695509">
        <ele>393.39328326284885</ele>
        <time>2022-04-06T23:43:23Z</time>
      </trkpt>
      <trkpt lat="34.32785192785781" lon="109.00790456338585">
        <ele>392.7785401362926</ele>
        <time>2022-04-06T23:43:27Z</time>
      </trkpt>
      <trkpt lat="34.327844552534344" lon="109.00820269003741">
        <ele>392.49584131501615</ele>
        <time>2022-04-06T23:43:31Z</time>
      </trkpt>
      <trkpt lat="34.32785924339325" lon="109.00832711148577">
        <ele>392.79030937794596</ele>
        <time>2022-04-06T23:43:33Z</time>
      </trkpt>
      <trkpt lat="34.3278946248369" lon="109.00845665523033">
        <ele>393.02570815663785</ele>
        <time>2022-04-06T23:43:35Z</time>
      </trkpt>
      <trkpt lat="34.32788374957737" lon="109.00901406632728">
        <ele>392.8070819731802</ele>
        <time>2022-04-06T23:43:43Z</time>
      </trkpt>
      <trkpt lat="34.32793678531117" lon="109.00959701009432">
        <ele>388.6781889172271</ele>
        <time>2022-04-06T23:43:51Z</time>
      </trkpt>
      <trkpt lat="34.32793596758064" lon="109.00985427206496">
        <ele>386.77904091216624</ele>
        <time>2022-04-06T23:43:55Z</time>
      </trkpt>
      <trkpt lat="34.327951170570316" lon="109.01011135197045">
        <ele>385.97883434407413</ele>
        <time>2022-04-06T23:43:59Z</time>
      </trkpt>
      <trkpt lat="34.32793447242109" lon="109.01036141995455">
        <ele>385.8591062538326</ele>
        <time>2022-04-06T23:44:03Z</time>
      </trkpt>
      <trkpt lat="34.32794741288348" lon="109.01047360899808">
        <ele>385.9373025363311</ele>
        <time>2022-04-06T23:44:05Z</time>
      </trkpt>
      <trkpt lat="34.32790388386234" lon="109.01101370103704">
        <ele>386.2430532630533</ele>
        <time>2022-04-06T23:44:15Z</time>
      </trkpt>
      <trkpt lat="34.327907417763655" lon="109.01132096473424">
        <ele>386.6760187968612</ele>
        <time>2022-04-06T23:44:21Z</time>
      </trkpt>
      <trkpt lat="34.32792261045307" lon="109.01141739204328">
        <ele>387.0666352901608</ele>
        <time>2022-04-06T23:44:23Z</time>
      </trkpt>
      <trkpt lat="34.327891216169085" lon="109.01195604683417">
        <ele>386.7175154387951</ele>
        <time>2022-04-06T23:44:33Z</time>
      </trkpt>
      <trkpt lat="34.32786943130861" lon="109.01205604195411">
        <ele>387.35822588671</ele>
        <time>2022-04-06T23:44:35Z</time>
      </trkpt>
      <trkpt lat="34.32783224776679" lon="109.01266715013932">
        <ele>388.66555926576257</ele>
        <time>2022-04-06T23:44:47Z</time>
      </trkpt>
      <trkpt lat="34.327852390534666" lon="109.01313917386166">
        <ele>390.0679349703714</ele>
        <time>2022-04-06T23:44:57Z</time>
      </trkpt>
      <trkpt lat="34.32783833779542" lon="109.0132549059053">
        <ele>389.7251757774502</ele>
        <time>2022-04-06T23:44:59Z</time>
      </trkpt>
      <trkpt lat="34.327872838182934" lon="109.01384357203628">
        <ele>389.6200701352209</ele>
        <time>2022-04-06T23:45:11Z</time>
      </trkpt>
      <trkpt lat="34.32789137198282" lon="109.01424320385983">
        <ele>388.36248480994254</ele>
        <time>2022-04-06T23:45:19Z</time>
      </trkpt>
      <trkpt lat="34.32788231088455" lon="109.01433842074393">
        <ele>388.12738548684865</ele>
        <time>2022-04-06T23:45:21Z</time>
      </trkpt>
      <trkpt lat="34.327946013257055" lon="109.01496083768242">
        <ele>386.95558441150934</ele>
        <time>2022-04-06T23:45:33Z</time>
      </trkpt>
      <trkpt lat="34.32792834836066" lon="109.01550980352495">
        <ele>386.98739080503583</ele>
        <time>2022-04-06T23:45:43Z</time>
      </trkpt>
      <trkpt lat="34.32789551041555" lon="109.01607534913859">
        <ele>387.56002204306424</ele>
        <time>2022-04-06T23:45:55Z</time>
      </trkpt>
      <trkpt lat="34.32790384596885" lon="109.01616536997578">
        <ele>387.37132908031344</ele>
        <time>2022-04-06T23:45:57Z</time>
      </trkpt>
      <trkpt lat="34.327783111816224" lon="109.01670116047825">
        <ele>387.92454399261624</ele>
        <time>2022-04-06T23:46:07Z</time>
      </trkpt>
      <trkpt lat="34.32774882165795" lon="109.01690302510374">
        <ele>387.6408633943647</ele>
        <time>2022-04-06T23:46:11Z</time>
      </trkpt>
      <trkpt lat="34.327644389115235" lon="109.01721778464585">
        <ele>388.4702373119071</ele>
        <time>2022-04-06T23:46:17Z</time>
      </trkpt>
      <trkpt lat="34.327642475634136" lon="109.01731171327117">
        <ele>388.29712277650833</ele>
        <time>2022-04-06T23:46:19Z</time>
      </trkpt>
      <trkpt lat="34.32761179872314" lon="109.01742445892137">
        <ele>388.0872684875503</ele>
        <time>2022-04-06T23:46:21Z</time>
      </trkpt>
      <trkpt lat="34.32758907554146" lon="109.01772875246664">
        <ele>388.9261167589575</ele>
        <time>2022-04-06T23:46:27Z</time>
      </trkpt>
      <trkpt lat="34.32762507870346" lon="109.0183115877413">
        <ele>389.3002672912553</ele>
        <time>2022-04-06T23:46:39Z</time>
      </trkpt>
      <trkpt lat="34.32760221837256" lon="109.01843681809926">
        <ele>388.47226574644446</ele>
        <time>2022-04-06T23:46:41Z</time>
      </trkpt>
      <trkpt lat="34.32740426023094" lon="109.01887954096968">
        <ele>389.6076158853248</ele>
        <time>2022-04-06T23:46:51Z</time>
      </trkpt>
      <trkpt lat="34.32730157791317" lon="109.01903894016992">
        <ele>389.60170651227236</ele>
        <time>2022-04-06T23:46:55Z</time>
      </trkpt>
      <trkpt lat="34.32711765875623" lon="109.01940275310166">
        <ele>389.27136310376227</ele>
        <time>2022-04-06T23:47:03Z</time>
      </trkpt>
      <trkpt lat="34.3269966834764" lon="109.01957327879944">
        <ele>389.2784974547103</ele>
        <time>2022-04-06T23:47:07Z</time>
      </trkpt>
      <trkpt lat="34.32671375297266" lon="109.0200010287432">
        <ele>388.45638934429735</ele>
        <time>2022-04-06T23:47:17Z</time>
      </trkpt>
      <trkpt lat="34.326329104739415" lon="109.02041180721129">
        <ele>388.63650490995497</ele>
        <time>2022-04-06T23:47:27Z</time>
      </trkpt>
      <trkpt lat="34.326212758102734" lon="109.02056965281423">
        <ele>388.4700212618336</ele>
        <time>2022-04-06T23:47:31Z</time>
      </trkpt>
      <trkpt lat="34.32578893072609" lon="109.0209131018165">
        <ele>388.46220347471535</ele>
        <time>2022-04-06T23:47:41Z</time>
      </trkpt>
      <trkpt lat="34.32570485143669" lon="109.02098428697337">
        <ele>388.82910289335996</ele>
        <time>2022-04-06T23:47:43Z</time>
      </trkpt>
      <trkpt lat="34.325258709992674" lon="109.02124535844172">
        <ele>388.0403963588178</ele>
        <time>2022-04-06T23:47:53Z</time>
      </trkpt>
      <trkpt lat="34.32501412649517" lon="109.02138357711307">
        <ele>388.2989861164242</ele>
        <time>2022-04-06T23:47:59Z</time>
      </trkpt>
      <trkpt lat="34.32456009177854" lon="109.02154960691462">
        <ele>389.074585987255</ele>
        <time>2022-04-06T23:48:09Z</time>
      </trkpt>
      <trkpt lat="34.324103799645904" lon="109.02166970105661">
        <ele>388.03180414345115</ele>
        <time>2022-04-06T23:48:19Z</time>
      </trkpt>
      <trkpt lat="34.32382776357248" lon="109.02174505638281">
        <ele>388.85948013328016</ele>
        <time>2022-04-06T23:48:25Z</time>
      </trkpt>
      <trkpt lat="34.323338980919395" lon="109.0217799669802">
        <ele>390.61759335920215</ele>
        <time>2022-04-06T23:48:35Z</time>
      </trkpt>
      <trkpt lat="34.323039937923554" lon="109.02177767333424">
        <ele>389.8346983632073</ele>
        <time>2022-04-06T23:48:41Z</time>
      </trkpt>
      <trkpt lat="34.32257811538842" lon="109.0218040186984">
        <ele>389.9992060735822</ele>
        <time>2022-04-06T23:48:51Z</time>
      </trkpt>
      <trkpt lat="34.322482986919546" lon="109.0218086338333">
        <ele>390.09119040705264</ele>
        <time>2022-04-06T23:48:53Z</time>
      </trkpt>
      <trkpt lat="34.32200854518357" lon="109.02174538274065">
        <ele>389.493638606742</ele>
        <time>2022-04-06T23:49:03Z</time>
      </trkpt>
      <trkpt lat="34.32153851065074" lon="109.02167366753437">
        <ele>390.014995707199</ele>
        <time>2022-04-06T23:49:13Z</time>
      </trkpt>
      <trkpt lat="34.32116397658299" lon="109.02165227613438">
        <ele>390.6513533247635</ele>
        <time>2022-04-06T23:49:21Z</time>
      </trkpt>
      <trkpt lat="34.32106748134187" lon="109.02163029283011">
        <ele>391.10794475488365</ele>
        <time>2022-04-06T23:49:23Z</time>
      </trkpt>
      <trkpt lat="34.32097368070964" lon="109.02163417416834">
        <ele>390.92938132118434</ele>
        <time>2022-04-06T23:49:25Z</time>
      </trkpt>
      <trkpt lat="34.32078357794048" lon="109.02158023895453">
        <ele>391.123946307227</ele>
        <time>2022-04-06T23:49:29Z</time>
      </trkpt>
      <trkpt lat="34.32032030363563" lon="109.02150986821094">
        <ele>390.6266227615997</ele>
        <time>2022-04-06T23:49:39Z</time>
      </trkpt>
      <trkpt lat="34.32012448605652" lon="109.0214705444251">
        <ele>390.0669224532321</ele>
        <time>2022-04-06T23:49:43Z</time>
      </trkpt>
      <trkpt lat="34.319939045911" lon="109.02147359199864">
        <ele>390.44651657529175</ele>
        <time>2022-04-06T23:49:47Z</time>
      </trkpt>
      <trkpt lat="34.31984809814079" lon="109.02144647423978">
        <ele>390.1434608018026</ele>
        <time>2022-04-06T23:49:49Z</time>
      </trkpt>
      <trkpt lat="34.319385275554154" lon="109.02142061074667">
        <ele>390.55751048773527</ele>
        <time>2022-04-06T23:49:59Z</time>
      </trkpt>
      <trkpt lat="34.31920881682253" lon="109.02143713080206">
        <ele>390.70761564653367</ele>
        <time>2022-04-06T23:50:03Z</time>
      </trkpt>
      <trkpt lat="34.31912760427658" lon="109.02146589523934">
        <ele>391.0087914234027</ele>
        <time>2022-04-06T23:50:05Z</time>
      </trkpt>
      <trkpt lat="34.31885344088127" lon="109.02147204588174">
        <ele>391.40170815214515</ele>
        <time>2022-04-06T23:50:11Z</time>
      </trkpt>
      <trkpt lat="34.318764178903685" lon="109.02149432584196">
        <ele>390.5669410023838</ele>
        <time>2022-04-06T23:50:13Z</time>
      </trkpt>
      <trkpt lat="34.318577145871494" lon="109.02148083635538">
        <ele>390.3156876275316</ele>
        <time>2022-04-06T23:50:17Z</time>
      </trkpt>
      <trkpt lat="34.31820955181231" lon="109.02151760114114">
        <ele>390.73807466682047</ele>
        <time>2022-04-06T23:50:25Z</time>
      </trkpt>
      <trkpt lat="34.31812208589937" lon="109.02154100386655">
        <ele>390.5503847133368</ele>
        <time>2022-04-06T23:50:27Z</time>
      </trkpt>
      <trkpt lat="34.317668456669594" lon="109.02157189593602">
        <ele>390.7030426003039</ele>
        <time>2022-04-06T23:50:37Z</time>
      </trkpt>
      <trkpt lat="34.31748304179166" lon="109.02161224662484">
        <ele>391.580284351483</ele>
        <time>2022-04-06T23:50:41Z</time>
      </trkpt>
      <trkpt lat="34.31737418737594" lon="109.02161714248862">
        <ele>391.39182747900486</ele>
        <time>2022-04-06T23:50:43Z</time>
      </trkpt>
      <trkpt lat="34.31718887998392" lon="109.02164728193573">
        <ele>391.172544432804</ele>
        <time>2022-04-06T23:50:47Z</time>
      </trkpt>
      <trkpt lat="34.31698431848937" lon="109.02164508956938">
        <ele>391.2653496610001</ele>
        <time>2022-04-06T23:50:51Z</time>
      </trkpt>
      <trkpt lat="34.316725082638136" lon="109.02171497306327">
        <ele>391.22023088205606</ele>
        <time>2022-04-06T23:50:57Z</time>
      </trkpt>
      <trkpt lat="34.31662458393504" lon="109.02172208438155">
        <ele>390.59008945245296</ele>
        <time>2022-04-06T23:50:59Z</time>
      </trkpt>
      <trkpt lat="34.31619013900733" lon="109.02190215628876">
        <ele>391.14719817973673</ele>
        <time>2022-04-06T23:51:09Z</time>
      </trkpt>
      <trkpt lat="34.31614833260069" lon="109.02202394512267">
        <ele>390.9066490493715</ele>
        <time>2022-04-06T23:51:13Z</time>
      </trkpt>
      <trkpt lat="34.31607491944127" lon="109.02216340683538">
        <ele>390.68295984435827</ele>
        <time>2022-04-06T23:51:17Z</time>
      </trkpt>
      <trkpt lat="34.315994398930336" lon="109.02220026757567">
        <ele>390.26212128438056</ele>
        <time>2022-04-06T23:51:19Z</time>
      </trkpt>
      <trkpt lat="34.31592649208173" lon="109.02226950677385">
        <ele>390.13810885977</ele>
        <time>2022-04-06T23:51:23Z</time>
      </trkpt>
      <trkpt lat="34.3159138486673" lon="109.02225531477731">
        <ele>390.27406318485737</ele>
        <time>2022-04-06T23:51:31Z</time>
      </trkpt>
      <trkpt lat="34.31578757941702" lon="109.02239790434132">
        <ele>391.9374999413267</ele>
        <time>2022-04-06T23:52:24Z</time>
      </trkpt>
      <trkpt lat="34.315749141920016" lon="109.02247186075438">
        <ele>391.3382645063102</ele>
        <time>2022-04-06T23:52:26Z</time>
      </trkpt>
      <trkpt lat="34.31579849782201" lon="109.02265407907916">
        <ele>390.85882491152734</ele>
        <time>2022-04-06T23:52:30Z</time>
      </trkpt>
      <trkpt lat="34.31600497106581" lon="109.02315616779406">
        <ele>388.31298639345914</ele>
        <time>2022-04-06T23:52:40Z</time>
      </trkpt>
      <trkpt lat="34.31618578724641" lon="109.02367280645198">
        <ele>388.1605947846547</ele>
        <time>2022-04-06T23:52:50Z</time>
      </trkpt>
      <trkpt lat="34.31597474106471" lon="109.02388937299973">
        <ele>389.0430680094287</ele>
        <time>2022-04-06T23:52:57Z</time>
      </trkpt>
      <trkpt lat="34.31552179057665" lon="109.02416736130674">
        <ele>389.77777981199324</ele>
        <time>2022-04-06T23:53:09Z</time>
      </trkpt>
      <trkpt lat="34.31510496774115" lon="109.02448158611318">
        <ele>390.5750964200124</ele>
        <time>2022-04-06T23:53:21Z</time>
      </trkpt>
      <trkpt lat="34.314981839249604" lon="109.02458084356515">
        <ele>390.62858443241566</ele>
        <time>2022-04-06T23:53:25Z</time>
      </trkpt>
      <trkpt lat="34.31465565397854" lon="109.0247638185435">
        <ele>390.4155151322484</ele>
        <time>2022-04-06T23:53:33Z</time>
      </trkpt>
      <trkpt lat="34.31460775580714" lon="109.02488970180052">
        <ele>390.170637444593</ele>
        <time>2022-04-06T23:53:37Z</time>
      </trkpt>
      <trkpt lat="34.31427011436627" lon="109.0251064955032">
        <ele>390.33185174595565</ele>
        <time>2022-04-06T23:53:45Z</time>
      </trkpt>
      <trkpt lat="34.31378576881999" lon="109.02533795232118">
        <ele>390.6278753783554</ele>
        <time>2022-04-06T23:53:55Z</time>
      </trkpt>
      <trkpt lat="34.313320744356574" lon="109.02557841533155">
        <ele>391.15602040756494</ele>
        <time>2022-04-06T23:54:05Z</time>
      </trkpt>
      <trkpt lat="34.313075110801236" lon="109.02572826890139">
        <ele>392.0932604307309</ele>
        <time>2022-04-06T23:54:11Z</time>
      </trkpt>
      <trkpt lat="34.31296017666594" lon="109.02583379274176">
        <ele>392.63061949051917</ele>
        <time>2022-04-06T23:54:15Z</time>
      </trkpt>
      <trkpt lat="34.31271870840995" lon="109.02600595970507">
        <ele>393.2250261232257</ele>
        <time>2022-04-06T23:54:21Z</time>
      </trkpt>
      <trkpt lat="34.31262320366216" lon="109.02612879541577">
        <ele>392.94342357851565</ele>
        <time>2022-04-06T23:54:25Z</time>
      </trkpt>
      <trkpt lat="34.31248440600225" lon="109.02623914900867">
        <ele>392.8622666373849</ele>
        <time>2022-04-06T23:54:29Z</time>
      </trkpt>
      <trkpt lat="34.31243588279193" lon="109.02630849628324">
        <ele>392.896351008676</ele>
        <time>2022-04-06T23:54:31Z</time>
      </trkpt>
      <trkpt lat="34.3119971894086" lon="109.02654338569215">
        <ele>393.3383195614442</ele>
        <time>2022-04-06T23:54:39Z</time>
      </trkpt>
      <trkpt lat="34.311911701993495" lon="109.0266118030266">
        <ele>393.40826264116913</ele>
        <time>2022-04-06T23:54:41Z</time>
      </trkpt>
      <trkpt lat="34.311722020573754" lon="109.02689832720809">
        <ele>392.21127174049616</ele>
        <time>2022-04-06T23:54:49Z</time>
      </trkpt>
      <trkpt lat="34.311657150246475" lon="109.02706457582327">
        <ele>392.21655766665936</ele>
        <time>2022-04-06T23:54:53Z</time>
      </trkpt>
      <trkpt lat="34.31153223517087" lon="109.02754310333272">
        <ele>392.14978466089815</ele>
        <time>2022-04-06T23:55:03Z</time>
      </trkpt>
      <trkpt lat="34.311476009540804" lon="109.02807554019353">
        <ele>391.99921814817935</ele>
        <time>2022-04-06T23:55:13Z</time>
      </trkpt>
      <trkpt lat="34.311481149123345" lon="109.02817908051165">
        <ele>391.3624605797231</ele>
        <time>2022-04-06T23:55:15Z</time>
      </trkpt>
      <trkpt lat="34.311426943744664" lon="109.02837427187261">
        <ele>392.2014398369938</ele>
        <time>2022-04-06T23:55:19Z</time>
      </trkpt>
      <trkpt lat="34.311416082564556" lon="109.02847962820535">
        <ele>391.6693099113181</ele>
        <time>2022-04-06T23:55:21Z</time>
      </trkpt>
      <trkpt lat="34.31137453623912" lon="109.0285862257093">
        <ele>391.98526741284877</ele>
        <time>2022-04-06T23:55:23Z</time>
      </trkpt>
      <trkpt lat="34.311355851871255" lon="109.02868764666374">
        <ele>392.06611658260226</ele>
        <time>2022-04-06T23:55:25Z</time>
      </trkpt>
      <trkpt lat="34.31116410524102" lon="109.0289679259748">
        <ele>391.22904924768955</ele>
        <time>2022-04-06T23:55:31Z</time>
      </trkpt>
      <trkpt lat="34.31108728799354" lon="109.02905237219214">
        <ele>391.2792082428932</ele>
        <time>2022-04-06T23:55:33Z</time>
      </trkpt>
      <trkpt lat="34.31067538189762" lon="109.02940616676646">
        <ele>391.5067346692085</ele>
        <time>2022-04-06T23:55:43Z</time>
      </trkpt>
      <trkpt lat="34.31026004690768" lon="109.02976091128829">
        <ele>391.5222991174087</ele>
        <time>2022-04-06T23:55:53Z</time>
      </trkpt>
      <trkpt lat="34.309956464800415" lon="109.03001672552764">
        <ele>392.5733161503449</ele>
        <time>2022-04-06T23:56:01Z</time>
      </trkpt>
      <trkpt lat="34.30962280394541" lon="109.03023704729378">
        <ele>393.42920599505305</ele>
        <time>2022-04-06T23:56:09Z</time>
      </trkpt>
      <trkpt lat="34.30918652547473" lon="109.0304562471037">
        <ele>393.71760190464556</ele>
        <time>2022-04-06T23:56:19Z</time>
      </trkpt>
      <trkpt lat="34.30871635547699" lon="109.03059081136506">
        <ele>393.77718288451433</ele>
        <time>2022-04-06T23:56:29Z</time>
      </trkpt>
      <trkpt lat="34.30823192454951" lon="109.03066353190196">
        <ele>394.3890476413071</ele>
        <time>2022-04-06T23:56:39Z</time>
      </trkpt>
      <trkpt lat="34.30812595229822" lon="109.030659886003">
        <ele>394.6443127114326</ele>
        <time>2022-04-06T23:56:41Z</time>
      </trkpt>
      <trkpt lat="34.30792752820089" lon="109.03069999736795">
        <ele>394.64980930276215</ele>
        <time>2022-04-06T23:56:45Z</time>
      </trkpt>
      <trkpt lat="34.307815961705984" lon="109.03070019147306">
        <ele>394.43130188062787</ele>
        <time>2022-04-06T23:56:47Z</time>
      </trkpt>
      <trkpt lat="34.307614968727535" lon="109.0307522519956">
        <ele>394.56390008702874</ele>
        <time>2022-04-06T23:56:51Z</time>
      </trkpt>
      <trkpt lat="34.30710902699342" lon="109.03080846275193">
        <ele>392.1144025437534</ele>
        <time>2022-04-06T23:57:01Z</time>
      </trkpt>
      <trkpt lat="34.30690379266695" lon="109.0308079049507">
        <ele>391.58038344886154</ele>
        <time>2022-04-06T23:57:05Z</time>
      </trkpt>
      <trkpt lat="34.30648549000139" lon="109.03084804730415">
        <ele>391.23163556400687</ele>
        <time>2022-04-06T23:57:13Z</time>
      </trkpt>
      <trkpt lat="34.30625997567448" lon="109.03096407510573">
        <ele>391.48726847954094</ele>
        <time>2022-04-06T23:57:19Z</time>
      </trkpt>
      <trkpt lat="34.3063041560357" lon="109.03156820128936">
        <ele>390.7895914465189</ele>
        <time>2022-04-06T23:57:31Z</time>
      </trkpt>
      <trkpt lat="34.306322801714884" lon="109.03178577417292">
        <ele>391.41011108178645</ele>
        <time>2022-04-06T23:57:35Z</time>
      </trkpt>
      <trkpt lat="34.306313472097656" lon="109.03190600067147">
        <ele>391.65175507124513</ele>
        <time>2022-04-06T23:57:37Z</time>
      </trkpt>
      <trkpt lat="34.30633818700354" lon="109.03212638115095">
        <ele>392.8800610685721</ele>
        <time>2022-04-06T23:57:41Z</time>
      </trkpt>
      <trkpt lat="34.306331132436405" lon="109.03237546448563">
        <ele>392.8230028478429</ele>
        <time>2022-04-06T23:57:45Z</time>
      </trkpt>
      <trkpt lat="34.306356839086455" lon="109.03247837331716">
        <ele>392.59718045964837</ele>
        <time>2022-04-06T23:57:47Z</time>
      </trkpt>
      <trkpt lat="34.30635647931827" lon="109.03307693796961">
        <ele>391.95705460291356</ele>
        <time>2022-04-06T23:57:57Z</time>
      </trkpt>
      <trkpt lat="34.30633208811689" lon="109.0331863311052">
        <ele>392.0250200042501</ele>
        <time>2022-04-06T23:57:59Z</time>
      </trkpt>
      <trkpt lat="34.30627191198305" lon="109.03325160257077">
        <ele>391.8838813304901</ele>
        <time>2022-04-06T23:58:01Z</time>
      </trkpt>
      <trkpt lat="34.30611051143086" lon="109.03325450245877">
        <ele>391.8132377844304</ele>
        <time>2022-04-06T23:58:05Z</time>
      </trkpt>
      <trkpt lat="34.30573541125077" lon="109.03337703834107">
        <ele>390.99956277012825</ele>
        <time>2022-04-06T23:58:15Z</time>
      </trkpt>
      <trkpt lat="34.305624140240525" lon="109.03343104366918">
        <ele>389.9223339660093</ele>
        <time>2022-04-06T23:58:17Z</time>
      </trkpt>
      <trkpt lat="34.305537735719774" lon="109.03350142944134">
        <ele>390.9395312592387</ele>
        <time>2022-04-06T23:58:19Z</time>
      </trkpt>
      <trkpt lat="34.305473273317446" lon="109.03358167652883">
        <ele>390.1467657741159</ele>
        <time>2022-04-06T23:58:23Z</time>
      </trkpt>
      <trkpt lat="34.30539455046834" lon="109.03362802744131">
        <ele>390.51065508276224</ele>
        <time>2022-04-06T23:58:29Z</time>
      </trkpt>
      <trkpt lat="34.30519994750971" lon="109.03363607836519">
        <ele>389.9842682983726</ele>
        <time>2022-04-06T23:58:39Z</time>
      </trkpt>
      <trkpt lat="34.30515262102847" lon="109.03356019060521">
        <ele>390.159337727353</ele>
        <time>2022-04-06T23:58:49Z</time>
      </trkpt>
      <trkpt lat="34.30511377322389" lon="109.03339503143674">
        <ele>390.52233249880373</ele>
        <time>2022-04-07T00:00:10Z</time>
      </trkpt>
      <trkpt lat="34.305215102765274" lon="109.0334041168721">
        <ele>390.3560683550313</ele>
        <time>2022-04-07T00:00:14Z</time>
      </trkpt>
      <trkpt lat="34.305290107306874" lon="109.03335389406256">
        <ele>390.8368570357561</ele>
        <time>2022-04-07T00:00:18Z</time>
      </trkpt>
      <trkpt lat="34.305646938357526" lon="109.03324406966004">
        <ele>391.06473328359425</ele>
        <time>2022-04-07T00:00:30Z</time>
      </trkpt>
      <trkpt lat="34.30593570943431" lon="109.03324351284554">
        <ele>391.4379406068474</ele>
        <time>2022-04-07T00:00:40Z</time>
      </trkpt>
      <trkpt lat="34.306010961656774" lon="109.03326847677948">
        <ele>391.5935839852318</ele>
        <time>2022-04-07T00:00:42Z</time>
      </trkpt>
      <trkpt lat="34.30615734450779" lon="109.03327751720265">
        <ele>391.05264421366155</ele>
        <time>2022-04-07T00:00:46Z</time>
      </trkpt>
      <trkpt lat="34.306245333731965" lon="109.03324604929355">
        <ele>391.7733388347551</ele>
        <time>2022-04-07T00:00:50Z</time>
      </trkpt>
      <trkpt lat="34.30633427548495" lon="109.03331934704903">
        <ele>392.31514163315296</ele>
        <time>2022-04-07T00:00:54Z</time>
      </trkpt>
      <trkpt lat="34.306445791847615" lon="109.03370874898299">
        <ele>392.60211540944874</ele>
        <time>2022-04-07T00:01:04Z</time>
      </trkpt>
      <trkpt lat="34.30650618024974" lon="109.03410624857224">
        <ele>391.8716560024768</ele>
        <time>2022-04-07T00:01:14Z</time>
      </trkpt>
      <trkpt lat="34.30653722213423" lon="109.03467932018137">
        <ele>392.1016368707642</ele>
        <time>2022-04-07T00:01:27Z</time>
      </trkpt>
      <trkpt lat="34.3065961732245" lon="109.0352330333354">
        <ele>393.1891913730651</ele>
        <time>2022-04-07T00:01:39Z</time>
      </trkpt>
      <trkpt lat="34.3066126173066" lon="109.03541241951702">
        <ele>392.79515830334276</ele>
        <time>2022-04-07T00:01:43Z</time>
      </trkpt>
      <trkpt lat="34.306586621007376" lon="109.03550686315646">
        <ele>392.573369435966</ele>
        <time>2022-04-07T00:01:45Z</time>
      </trkpt>
      <trkpt lat="34.30651743595816" lon="109.03563849560204">
        <ele>392.68530478607863</ele>
        <time>2022-04-07T00:01:49Z</time>
      </trkpt>
      <trkpt lat="34.30648350852809" lon="109.03574312026544">
        <ele>392.2693979833275</ele>
        <time>2022-04-07T00:01:55Z</time>
      </trkpt>
      <trkpt lat="34.30650124837195" lon="109.03596219817204">
        <ele>391.2509838677943</ele>
        <time>2022-04-07T00:02:03Z</time>
      </trkpt>
      <trkpt lat="34.306528580360265" lon="109.03609184962849">
        <ele>391.12388425599784</ele>
        <time>2022-04-07T00:02:09Z</time>
      </trkpt>
      <trkpt lat="34.306558654120906" lon="109.03652674689748">
        <ele>392.01051068492234</ele>
        <time>2022-04-07T00:02:33Z</time>
      </trkpt>
      <trkpt lat="34.30655525734519" lon="109.03672216218236">
        <ele>392.03849732130766</ele>
        <time>2022-04-07T00:02:45Z</time>
      </trkpt>
      <trkpt lat="34.30660061146165" lon="109.03692276185363">
        <ele>392.0384091157466</ele>
        <time>2022-04-07T00:02:57Z</time>
      </trkpt>
      <trkpt lat="34.30652266484184" lon="109.03704787628187">
        <ele>392.02450529579073</ele>
        <time>2022-04-07T00:03:15Z</time>
      </trkpt>
    </trkseg>
  </trk>
</gpx>