<?xml version="1.0" encoding="UTF-8"?>
<gpx xmlns="http://www.topografix.com/GPX/1/1" xmlns:gpxtpx="http://www.garmin.com/xmlschemas/TrackPointExtension/v1" xmlns:xsi="http://www.w3.org/2001/XMLSchema-instance" xsi:schemaLocation="http://www.topografix.com/GPX/1/1 http://www.topografix.com/GPX/1/1/gpx.xsd" version="1.1" creator="gpx.py -- https://github.com/tkrajina/gpxpy">
  <trk>
    <name>gpx from keep</name>
    <type>Run</type>
    <trkseg>
      <trkpt lat="34.297625811285215" lon="108.71061932846487">
        <ele>392.39095306396484</ele>
        <time>2026-09-01T23:04:29Z</time>
      </trkpt>
      <trkpt lat="34.29768047931566" lon="108.71051865322467">
        <ele>403.5339585589245</ele>
        <time>2026-09-01T23:04:38Z</time>
      </trkpt>
      <trkpt lat="34.29772502850635" lon="108.71033436414575">
        <ele>404.50014521181583</ele>
        <time>2026-09-01T23:04:44Z</time>
      </trkpt>
      <trkpt lat="34.29772783844525" lon="108.71025755739021">
        <ele>402.6108630299568</ele>
        <time>2026-09-01T23:04:47Z</time>
      </trkpt>
      <trkpt lat="34.297771597514384" lon="108.71021233346232">
        <ele>398.92336299456656</ele>
        <time>2026-09-01T23:04:50Z</time>
      </trkpt>
      <trkpt lat="34.298029718066964" lon="108.71022798063119">
        <ele>387.79298357944936</ele>
        <time>2026-09-01T23:05:02Z</time>
      </trkpt>
      <trkpt lat="34.29805990474233" lon="108.71036773145407">
        <ele>388.56129239406437</ele>
        <time>2026-09-01T23:05:08Z</time>
      </trkpt>
      <trkpt lat="34.298058187158965" lon="108.71043717322632">
        <ele>388.9562885956839</ele>
        <time>2026-09-01T23:05:11Z</time>
      </trkpt>
      <trkpt lat="34.29809351208332" lon="108.71056989051597">
        <ele>389.6163793504238</ele>
        <time>2026-09-01T23:05:17Z</time>
      </trkpt>
      <trkpt lat="34.29809987705788" lon="108.71086461734073">
        <ele>388.59946334920824</ele>
        <time>2026-09-01T23:05:29Z</time>
      </trkpt>
      <trkpt lat="34.29812879507444" lon="108.71101537908869">
        <ele>389.2739670323208</ele>
        <time>2026-09-01T23:05:35Z</time>
      </trkpt>
      <trkpt lat="34.298160182163926" lon="108.71138801118195">
        <ele>390.27266617305577</ele>
        <time>2026-09-01T23:05:50Z</time>
      </trkpt>
      <trkpt lat="34.2979947978982" lon="108.71142922854555">
        <ele>388.2715015569702</ele>
        <time>2026-09-01T23:05:59Z</time>
      </trkpt>
      <trkpt lat="34.297721577473446" lon="108.71155242588725">
        <ele>388.020552075468</ele>
        <time>2026-09-01T23:06:14Z</time>
      </trkpt>
      <trkpt lat="34.29761256903479" lon="108.71161998586331">
        <ele>388.7497409954667</ele>
        <time>2026-09-01T23:06:20Z</time>
      </trkpt>
      <trkpt lat="34.29741816329126" lon="108.7116971874781">
        <ele>390.0954063478857</ele>
        <time>2026-09-01T23:06:33Z</time>
      </trkpt>
      <trkpt lat="34.29735732900535" lon="108.71169277108139">
        <ele>389.0549684986472</ele>
        <time>2026-09-01T23:06:36Z</time>
      </trkpt>
      <trkpt lat="34.29707292837002" lon="108.71177849953017">
        <ele>388.75061041954905</ele>
        <time>2026-09-01T23:06:51Z</time>
      </trkpt>
      <trkpt lat="34.2968211668917" lon="108.71189898933494">
        <ele>388.69871036335826</ele>
        <time>2026-09-01T23:07:06Z</time>
      </trkpt>
      <trkpt lat="34.29654953337103" lon="108.71203555941143">
        <ele>388.7348922016099</ele>
        <time>2026-09-01T23:07:21Z</time>
      </trkpt>
      <trkpt lat="34.29643798844016" lon="108.7120896958897">
        <ele>388.2153379647061</ele>
        <time>2026-09-01T23:07:27Z</time>
      </trkpt>
      <trkpt lat="34.29638404654844" lon="108.71208273437597">
        <ele>388.5182302026078</ele>
        <time>2026-09-01T23:07:30Z</time>
      </trkpt>
      <trkpt lat="34.2963380492878" lon="108.71205199761991">
        <ele>387.17496899701655</ele>
        <time>2026-09-01T23:07:33Z</time>
      </trkpt>
      <trkpt lat="34.29627773287126" lon="108.711716589356">
        <ele>388.28002718184143</ele>
        <time>2026-09-01T23:07:48Z</time>
      </trkpt>
      <trkpt lat="34.29625227436275" lon="108.71159491338038">
        <ele>388.0617538569495</ele>
        <time>2026-09-01T23:07:54Z</time>
      </trkpt>
      <trkpt lat="34.296254597424095" lon="108.71152833969911">
        <ele>388.4862641505897</ele>
        <time>2026-09-01T23:07:57Z</time>
      </trkpt>
      <trkpt lat="34.29623163808022" lon="108.71146887253565">
        <ele>388.0970025397837</ele>
        <time>2026-09-01T23:08:00Z</time>
      </trkpt>
      <trkpt lat="34.29622028688255" lon="108.71120598848293">
        <ele>389.6634128484875</ele>
        <time>2026-09-01T23:08:15Z</time>
      </trkpt>
      <trkpt lat="34.29618510599785" lon="108.71096509305376">
        <ele>390.50798311270773</ele>
        <time>2026-09-01T23:08:27Z</time>
      </trkpt>
      <trkpt lat="34.29611725525671" lon="108.71061152337245">
        <ele>389.96125161182135</ele>
        <time>2026-09-01T23:08:45Z</time>
      </trkpt>
      <trkpt lat="34.29605655817194" lon="108.71024083558392">
        <ele>390.48126231878996</ele>
        <time>2026-09-01T23:09:01Z</time>
      </trkpt>
      <trkpt lat="34.29602087010239" lon="108.70989175680171">
        <ele>390.08446792606264</ele>
        <time>2026-09-01T23:09:16Z</time>
      </trkpt>
      <trkpt lat="34.295978992223354" lon="108.70956428726053">
        <ele>390.4824897283688</ele>
        <time>2026-09-01T23:09:31Z</time>
      </trkpt>
      <trkpt lat="34.29592078511436" lon="108.70918716955612">
        <ele>391.2183367339894</ele>
        <time>2026-09-01T23:09:49Z</time>
      </trkpt>
      <trkpt lat="34.29588056654642" lon="108.70884428494703">
        <ele>390.71752424072474</ele>
        <time>2026-09-01T23:10:04Z</time>
      </trkpt>
      <trkpt lat="34.29586830260237" lon="108.7087140122155">
        <ele>390.745810944587</ele>
        <time>2026-09-01T23:10:10Z</time>
      </trkpt>
      <trkpt lat="34.29587652635584" lon="108.70864936725694">
        <ele>391.46447979286313</ele>
        <time>2026-09-01T23:10:13Z</time>
      </trkpt>
      <trkpt lat="34.29585786851081" lon="108.70857438642761">
        <ele>391.1399805136025</ele>
        <time>2026-09-01T23:10:16Z</time>
      </trkpt>
      <trkpt lat="34.295860014328504" lon="108.7085002273927">
        <ele>391.06536313984543</ele>
        <time>2026-09-01T23:10:19Z</time>
      </trkpt>
      <trkpt lat="34.29582354283935" lon="108.70837828920213">
        <ele>390.6716236937791</ele>
        <time>2026-09-01T23:10:25Z</time>
      </trkpt>
      <trkpt lat="34.29584577876708" lon="108.70832633290333">
        <ele>389.8229587431997</ele>
        <time>2026-09-01T23:10:28Z</time>
      </trkpt>
      <trkpt lat="34.29581512614065" lon="108.70823289415765">
        <ele>390.38090069498867</ele>
        <time>2026-09-01T23:10:34Z</time>
      </trkpt>
      <trkpt lat="34.295803121700104" lon="108.70801853219673">
        <ele>389.963017212227</ele>
        <time>2026-09-01T23:10:48Z</time>
      </trkpt>
      <trkpt lat="34.295773093769746" lon="108.70783360122178">
        <ele>390.7310965824872</ele>
        <time>2026-09-01T23:11:00Z</time>
      </trkpt>
      <trkpt lat="34.29578816843363" lon="108.7074831154974">
        <ele>390.6580225741491</ele>
        <time>2026-09-01T23:11:18Z</time>
      </trkpt>
      <trkpt lat="34.2957742218494" lon="108.70722103880217">
        <ele>390.06866583414376</ele>
        <time>2026-09-01T23:11:30Z</time>
      </trkpt>
      <trkpt lat="34.295719493211855" lon="108.70687964330426">
        <ele>390.44736351817846</ele>
        <time>2026-09-01T23:11:45Z</time>
      </trkpt>
      <trkpt lat="34.295716599106136" lon="108.70681591203778">
        <ele>390.2560732886195</ele>
        <time>2026-09-01T23:11:48Z</time>
      </trkpt>
      <trkpt lat="34.29568146608897" lon="108.70675440157629">
        <ele>390.32575162220746</ele>
        <time>2026-09-01T23:11:54Z</time>
      </trkpt>
      <trkpt lat="34.295688657533475" lon="108.70654406993312">
        <ele>391.5146692926064</ele>
        <time>2026-09-01T23:12:06Z</time>
      </trkpt>
      <trkpt lat="34.29567055604509" lon="108.70637575538095">
        <ele>391.3950429642573</ele>
        <time>2026-09-01T23:12:15Z</time>
      </trkpt>
      <trkpt lat="34.295692684991394" lon="108.70624988026259">
        <ele>391.3944965871051</ele>
        <time>2026-09-01T23:12:21Z</time>
      </trkpt>
      <trkpt lat="34.295744610230855" lon="108.7061449166664">
        <ele>391.23576776031405</ele>
        <time>2026-09-01T23:12:27Z</time>
      </trkpt>
      <trkpt lat="34.295987669126745" lon="108.70604160276308">
        <ele>389.06604872457683</ele>
        <time>2026-09-01T23:12:42Z</time>
      </trkpt>
      <trkpt lat="34.29624424817802" lon="108.7059855582787">
        <ele>389.07570742070675</ele>
        <time>2026-09-01T23:12:57Z</time>
      </trkpt>
      <trkpt lat="34.29637392325199" lon="108.7059838095419">
        <ele>389.8502815300599</ele>
        <time>2026-09-01T23:13:04Z</time>
      </trkpt>
      <trkpt lat="34.296517757100915" lon="108.70594212883857">
        <ele>388.6273529762402</ele>
        <time>2026-09-01T23:13:13Z</time>
      </trkpt>
      <trkpt lat="34.296689467703594" lon="108.70591122435906">
        <ele>388.6300460975617</ele>
        <time>2026-09-01T23:13:22Z</time>
      </trkpt>
      <trkpt lat="34.29695816080789" lon="108.7059003260371">
        <ele>388.3718377863988</ele>
        <time>2026-09-01T23:13:37Z</time>
      </trkpt>
      <trkpt lat="34.297234660857875" lon="108.70583184360814">
        <ele>389.51191425602883</ele>
        <time>2026-09-01T23:13:52Z</time>
      </trkpt>
      <trkpt lat="34.29744974807611" lon="108.70579813262685">
        <ele>389.0091138202697</ele>
        <time>2026-09-01T23:14:04Z</time>
      </trkpt>
      <trkpt lat="34.29773828161554" lon="108.70573188873209">
        <ele>390.0432865899056</ele>
        <time>2026-09-01T23:14:19Z</time>
      </trkpt>
      <trkpt lat="34.29802001684521" lon="108.70569352686044">
        <ele>388.72643147036433</ele>
        <time>2026-09-01T23:14:34Z</time>
      </trkpt>
      <trkpt lat="34.2981913484472" lon="108.70564047767157">
        <ele>389.5984113253653</ele>
        <time>2026-09-01T23:14:43Z</time>
      </trkpt>
      <trkpt lat="34.29825137113521" lon="108.70563839953655">
        <ele>388.96543355006725</ele>
        <time>2026-09-01T23:14:46Z</time>
      </trkpt>
      <trkpt lat="34.298446213683135" lon="108.70559068240789">
        <ele>390.0256326207891</ele>
        <time>2026-09-01T23:14:56Z</time>
      </trkpt>
      <trkpt lat="34.29874607226788" lon="108.70554887750005">
        <ele>388.97937669605017</ele>
        <time>2026-09-01T23:15:15Z</time>
      </trkpt>
      <trkpt lat="34.29901583048068" lon="108.70549087969987">
        <ele>390.62239798530936</ele>
        <time>2026-09-01T23:15:30Z</time>
      </trkpt>
      <trkpt lat="34.29922970417086" lon="108.70542219451882">
        <ele>392.06830386444926</ele>
        <time>2026-09-01T23:15:45Z</time>
      </trkpt>
      <trkpt lat="34.29920754891876" lon="108.70549940449749">
        <ele>391.3117994805798</ele>
        <time>2026-09-01T23:15:51Z</time>
      </trkpt>
      <trkpt lat="34.29916712555509" lon="108.70553856438995">
        <ele>391.0080192843452</ele>
        <time>2026-09-01T23:15:54Z</time>
      </trkpt>
      <trkpt lat="34.29888506635428" lon="108.70560562153591">
        <ele>389.66927067842335</ele>
        <time>2026-09-01T23:16:09Z</time>
      </trkpt>
      <trkpt lat="34.29860722443522" lon="108.70565851180888">
        <ele>389.5561365270987</ele>
        <time>2026-09-01T23:16:24Z</time>
      </trkpt>
      <trkpt lat="34.29829203571696" lon="108.70570366298352">
        <ele>389.6153661739081</ele>
        <time>2026-09-01T23:16:42Z</time>
      </trkpt>
      <trkpt lat="34.29800701895959" lon="108.70575361394773">
        <ele>388.7416236689314</ele>
        <time>2026-09-01T23:16:57Z</time>
      </trkpt>
      <trkpt lat="34.2976979603752" lon="108.70581356276182">
        <ele>389.4339848533273</ele>
        <time>2026-09-01T23:17:13Z</time>
      </trkpt>
      <trkpt lat="34.29761519298232" lon="108.70584282812187">
        <ele>389.5871590897441</ele>
        <time>2026-09-01T23:17:17Z</time>
      </trkpt>
      <trkpt lat="34.29751492141644" lon="108.70584150425259">
        <ele>388.88659267500043</ele>
        <time>2026-09-01T23:17:23Z</time>
      </trkpt>
      <trkpt lat="34.29722280446364" lon="108.70590148700889">
        <ele>389.2921613790095</ele>
        <time>2026-09-01T23:17:38Z</time>
      </trkpt>
      <trkpt lat="34.29710897295038" lon="108.70591262033992">
        <ele>388.97012395691127</ele>
        <time>2026-09-01T23:17:44Z</time>
      </trkpt>
      <trkpt lat="34.29681748577263" lon="108.7059767083965">
        <ele>388.4796090628952</ele>
        <time>2026-09-01T23:17:59Z</time>
      </trkpt>
      <trkpt lat="34.29664643312809" lon="108.70602220202129">
        <ele>388.4726369222626</ele>
        <time>2026-09-01T23:18:08Z</time>
      </trkpt>
      <trkpt lat="34.296344196558074" lon="108.70606475707467">
        <ele>390.3878225022927</ele>
        <time>2026-09-01T23:18:26Z</time>
      </trkpt>
      <trkpt lat="34.29627094415286" lon="108.70609976436165">
        <ele>390.3497559018433</ele>
        <time>2026-09-01T23:18:32Z</time>
      </trkpt>
      <trkpt lat="34.29613395392985" lon="108.7061140364058">
        <ele>390.29381246306</ele>
        <time>2026-09-01T23:18:44Z</time>
      </trkpt>
      <trkpt lat="34.29595013236851" lon="108.70611159644453">
        <ele>390.10687691904604</ele>
        <time>2026-09-01T23:18:56Z</time>
      </trkpt>
      <trkpt lat="34.29581133739076" lon="108.70614188767698">
        <ele>391.03657586779445</ele>
        <time>2026-09-01T23:19:05Z</time>
      </trkpt>
      <trkpt lat="34.2957772945379" lon="108.70610617236898">
        <ele>390.59889764059335</ele>
        <time>2026-09-01T23:19:09Z</time>
      </trkpt>
      <trkpt lat="34.29592414769531" lon="108.70603114045622">
        <ele>389.39136371202767</ele>
        <time>2026-09-01T23:19:21Z</time>
      </trkpt>
      <trkpt lat="34.29621926729895" lon="108.70599682062432">
        <ele>389.88126789964736</ele>
        <time>2026-09-01T23:19:41Z</time>
      </trkpt>
      <trkpt lat="34.29648593462849" lon="108.70593742759499">
        <ele>389.27112808823586</ele>
        <time>2026-09-01T23:19:56Z</time>
      </trkpt>
      <trkpt lat="34.296634783149564" lon="108.70592753309494">
        <ele>388.61261362209916</ele>
        <time>2026-09-01T23:20:05Z</time>
      </trkpt>
      <trkpt lat="34.296682509111115" lon="108.70590420398655">
        <ele>389.9589073434472</ele>
        <time>2026-09-01T23:20:08Z</time>
      </trkpt>
      <trkpt lat="34.29693757257142" lon="108.70588813871608">
        <ele>389.16001696139574</ele>
        <time>2026-09-01T23:20:23Z</time>
      </trkpt>
      <trkpt lat="34.297208079499065" lon="108.70583157676326">
        <ele>389.5784666445106</ele>
        <time>2026-09-01T23:20:38Z</time>
      </trkpt>
      <trkpt lat="34.29749030124827" lon="108.7057862589089">
        <ele>389.21258295327425</ele>
        <time>2026-09-01T23:20:53Z</time>
      </trkpt>
      <trkpt lat="34.29769764249789" lon="108.70573735421868">
        <ele>389.8208560757339</ele>
        <time>2026-09-01T23:21:05Z</time>
      </trkpt>
      <trkpt lat="34.29781931319683" lon="108.70573542635857">
        <ele>390.3269280977547</ele>
        <time>2026-09-01T23:21:11Z</time>
      </trkpt>
      <trkpt lat="34.29809151550994" lon="108.705675054946">
        <ele>389.8110748650506</ele>
        <time>2026-09-01T23:21:27Z</time>
      </trkpt>
      <trkpt lat="34.29815883159499" lon="108.70568156552662">
        <ele>388.9197403723374</ele>
        <time>2026-09-01T23:21:30Z</time>
      </trkpt>
      <trkpt lat="34.298460840401845" lon="108.70560521162004">
        <ele>390.6611535763368</ele>
        <time>2026-09-01T23:21:48Z</time>
      </trkpt>
      <trkpt lat="34.298519225941746" lon="108.70560916620035">
        <ele>390.9673298904672</ele>
        <time>2026-09-01T23:21:51Z</time>
      </trkpt>
      <trkpt lat="34.29858681606801" lon="108.70556767954008">
        <ele>389.88520622998476</ele>
        <time>2026-09-01T23:21:57Z</time>
      </trkpt>
      <trkpt lat="34.29866536134433" lon="108.70556974626818">
        <ele>390.65470901317894</ele>
        <time>2026-09-01T23:22:03Z</time>
      </trkpt>
      <trkpt lat="34.29896330657913" lon="108.70550909300206">
        <ele>390.0857528112829</ele>
        <time>2026-09-01T23:22:27Z</time>
      </trkpt>
      <trkpt lat="34.29911215907517" lon="108.70545115632203">
        <ele>391.63426482025534</ele>
        <time>2026-09-01T23:22:39Z</time>
      </trkpt>
      <trkpt lat="34.299197009015415" lon="108.70544553087544">
        <ele>391.4634334081784</ele>
        <time>2026-09-01T23:22:45Z</time>
      </trkpt>
      <trkpt lat="34.29927729507143" lon="108.70549262760562">
        <ele>391.87534557655454</ele>
        <time>2026-09-01T23:22:51Z</time>
      </trkpt>
      <trkpt lat="34.29932741080069" lon="108.70560209270107">
        <ele>391.0510523887351</ele>
        <time>2026-09-01T23:22:57Z</time>
      </trkpt>
      <trkpt lat="34.29934511219219" lon="108.70580206963004">
        <ele>390.6192884873599</ele>
        <time>2026-09-01T23:23:06Z</time>
      </trkpt>
      <trkpt lat="34.299425019716146" lon="108.70619682231131">
        <ele>390.33744987659156</ele>
        <time>2026-09-01T23:23:27Z</time>
      </trkpt>
      <trkpt lat="34.299452978813825" lon="108.70652062601563">
        <ele>390.5703899562359</ele>
        <time>2026-09-01T23:23:43Z</time>
      </trkpt>
      <trkpt lat="34.299502726190376" lon="108.70687461571544">
        <ele>391.5325082093477</ele>
        <time>2026-09-01T23:24:05Z</time>
      </trkpt>
      <trkpt lat="34.29952372767619" lon="108.70698336349916">
        <ele>391.5288529358804</ele>
        <time>2026-09-01T23:24:14Z</time>
      </trkpt>
      <trkpt lat="34.29952171728816" lon="108.70707264315301">
        <ele>391.5277517978102</ele>
        <time>2026-09-01T23:24:17Z</time>
      </trkpt>
      <trkpt lat="34.299539438910024" lon="108.70715067590311">
        <ele>392.1228044098243</ele>
        <time>2026-09-01T23:24:20Z</time>
      </trkpt>
      <trkpt lat="34.29950123220467" lon="108.70735349819718">
        <ele>391.43036355730146</ele>
        <time>2026-09-01T23:24:29Z</time>
      </trkpt>
      <trkpt lat="34.29951075612134" lon="108.70754816064787">
        <ele>390.94627657253295</ele>
        <time>2026-09-01T23:24:38Z</time>
      </trkpt>
      <trkpt lat="34.29953903057271" lon="108.70765699641093">
        <ele>391.9174493281171</ele>
        <time>2026-09-01T23:24:44Z</time>
      </trkpt>
      <trkpt lat="34.29955216262259" lon="108.70792330538166">
        <ele>392.08559428248554</ele>
        <time>2026-09-01T23:24:59Z</time>
      </trkpt>
      <trkpt lat="34.29953752709094" lon="108.70801601209544">
        <ele>392.2326414762065</ele>
        <time>2026-09-01T23:25:05Z</time>
      </trkpt>
      <trkpt lat="34.299567156460306" lon="108.70809482898329">
        <ele>392.4431603560224</ele>
        <time>2026-09-01T23:25:11Z</time>
      </trkpt>
      <trkpt lat="34.299576703999634" lon="108.70832920426231">
        <ele>391.8037492139265</ele>
        <time>2026-09-01T23:25:30Z</time>
      </trkpt>
      <trkpt lat="34.299592855579824" lon="108.70839287535405">
        <ele>391.21337910648435</ele>
        <time>2026-09-01T23:25:33Z</time>
      </trkpt>
      <trkpt lat="34.2996309246052" lon="108.70845593097356">
        <ele>391.47660141438246</ele>
        <time>2026-09-01T23:25:39Z</time>
      </trkpt>
      <trkpt lat="34.2996773896704" lon="108.70882357139688">
        <ele>391.39186097774655</ele>
        <time>2026-09-01T23:26:03Z</time>
      </trkpt>
      <trkpt lat="34.299679589939224" lon="108.70888252008439">
        <ele>390.07704156357795</ele>
        <time>2026-09-01T23:26:06Z</time>
      </trkpt>
      <trkpt lat="34.29970617547983" lon="108.70923267221977">
        <ele>390.3813685653731</ele>
        <time>2026-09-01T23:26:27Z</time>
      </trkpt>
      <trkpt lat="34.29970134104217" lon="108.7092930994414">
        <ele>390.7913245540112</ele>
        <time>2026-09-01T23:26:30Z</time>
      </trkpt>
      <trkpt lat="34.29972442717891" lon="108.70935944154424">
        <ele>390.83457764424384</ele>
        <time>2026-09-01T23:26:33Z</time>
      </trkpt>
      <trkpt lat="34.29973518066273" lon="108.70946005866296">
        <ele>391.099626140669</ele>
        <time>2026-09-01T23:26:39Z</time>
      </trkpt>
      <trkpt lat="34.29980592738438" lon="108.70960053620598">
        <ele>391.03446531202644</ele>
        <time>2026-09-01T23:26:54Z</time>
      </trkpt>
      <trkpt lat="34.29980474951791" lon="108.70967763098211">
        <ele>390.43481943104416</ele>
        <time>2026-09-01T23:26:57Z</time>
      </trkpt>
      <trkpt lat="34.29978016946862" lon="108.70972814935881">
        <ele>390.502951127477</ele>
        <time>2026-09-01T23:27:00Z</time>
      </trkpt>
      <trkpt lat="34.29982366404416" lon="108.70992975163485">
        <ele>391.23594112414867</ele>
        <time>2026-09-01T23:27:09Z</time>
      </trkpt>
      <trkpt lat="34.29984462137536" lon="108.71012628671697">
        <ele>390.54138535354286</ele>
        <time>2026-09-01T23:27:18Z</time>
      </trkpt>
      <trkpt lat="34.29986449386294" lon="108.71018318752894">
        <ele>390.2431842824444</ele>
        <time>2026-09-01T23:27:21Z</time>
      </trkpt>
      <trkpt lat="34.29986250886488" lon="108.71024860254944">
        <ele>390.565296635963</ele>
        <time>2026-09-01T23:27:24Z</time>
      </trkpt>
      <trkpt lat="34.2997047569678" lon="108.71047993594436">
        <ele>391.0731117473915</ele>
        <time>2026-09-01T23:27:43Z</time>
      </trkpt>
      <trkpt lat="34.299612853835676" lon="108.7105293592038">
        <ele>390.9933912307024</ele>
        <time>2026-09-01T23:27:49Z</time>
      </trkpt>
      <trkpt lat="34.29956146722836" lon="108.71052980638883">
        <ele>392.2849784968421</ele>
        <time>2026-09-01T23:27:52Z</time>
      </trkpt>
      <trkpt lat="34.2994998408281" lon="108.71058872676701">
        <ele>391.7513949163258</ele>
        <time>2026-09-01T23:27:58Z</time>
      </trkpt>
      <trkpt lat="34.29947563808745" lon="108.71066794161867">
        <ele>392.13272387348115</ele>
        <time>2026-09-01T23:28:01Z</time>
      </trkpt>
      <trkpt lat="34.29948759173673" lon="108.71074116226808">
        <ele>391.7357412343845</ele>
        <time>2026-09-01T23:28:04Z</time>
      </trkpt>
      <trkpt lat="34.299468058186335" lon="108.7108033919412">
        <ele>391.16774243023247</ele>
        <time>2026-09-01T23:28:07Z</time>
      </trkpt>
      <trkpt lat="34.29917074650314" lon="108.7109425973682">
        <ele>390.2415618458763</ele>
        <time>2026-09-01T23:28:34Z</time>
      </trkpt>
      <trkpt lat="34.298991693762126" lon="108.71101306825523">
        <ele>390.21644302178174</ele>
        <time>2026-09-01T23:28:46Z</time>
      </trkpt>
      <trkpt lat="34.29894011515719" lon="108.71101879778196">
        <ele>389.93400471750647</ele>
        <time>2026-09-01T23:28:49Z</time>
      </trkpt>
      <trkpt lat="34.29864329190432" lon="108.71115297004646">
        <ele>389.96602289937437</ele>
        <time>2026-09-01T23:29:07Z</time>
      </trkpt>
      <trkpt lat="34.298361728657426" lon="108.71125931858134">
        <ele>390.1772827440873</ele>
        <time>2026-09-01T23:29:31Z</time>
      </trkpt>
      <trkpt lat="34.29826231438266" lon="108.71128723258008">
        <ele>390.1568156639114</ele>
        <time>2026-09-01T23:29:38Z</time>
      </trkpt>
      <trkpt lat="34.298199592289734" lon="108.71123498660234">
        <ele>390.01828148402274</ele>
        <time>2026-09-01T23:29:44Z</time>
      </trkpt>
      <trkpt lat="34.298163279519294" lon="108.71112434155694">
        <ele>389.4320347374305</ele>
        <time>2026-09-01T23:29:50Z</time>
      </trkpt>
      <trkpt lat="34.29809993449992" lon="108.71102745535056">
        <ele>389.4574802685529</ele>
        <time>2026-09-01T23:29:56Z</time>
      </trkpt>
      <trkpt lat="34.29809201718974" lon="108.7108583873371">
        <ele>389.93753994908184</ele>
        <time>2026-09-01T23:30:08Z</time>
      </trkpt>
      <trkpt lat="34.29806167441209" lon="108.71077871677424">
        <ele>390.09723720978945</ele>
        <time>2026-09-01T23:30:14Z</time>
      </trkpt>
      <trkpt lat="34.29801957547753" lon="108.71052409366291">
        <ele>389.20459379348904</ele>
        <time>2026-09-01T23:30:32Z</time>
      </trkpt>
      <trkpt lat="34.298049214627014" lon="108.71035765559154">
        <ele>387.8599430862814</ele>
        <time>2026-09-01T23:30:44Z</time>
      </trkpt>
      <trkpt lat="34.298040441061644" lon="108.71019351687389">
        <ele>388.5167025998235</ele>
        <time>2026-09-01T23:30:53Z</time>
      </trkpt>
      <trkpt lat="34.29790683025288" lon="108.71018854881493">
        <ele>388.2776135150343</ele>
        <time>2026-09-01T23:31:02Z</time>
      </trkpt>
      <trkpt lat="34.29778333205272" lon="108.71022560997356">
        <ele>387.57560784649104</ele>
        <time>2026-09-01T23:31:11Z</time>
      </trkpt>
      <trkpt lat="34.297782211259566" lon="108.71032112625954">
        <ele>388.25996992830187</ele>
        <time>2026-09-01T23:31:17Z</time>
      </trkpt>
      <trkpt lat="34.29782278207061" lon="108.71037373327889">
        <ele>386.8936419421807</ele>
        <time>2026-09-01T23:31:23Z</time>
      </trkpt>
      <trkpt lat="34.297934408072166" lon="108.71034354520023">
        <ele>387.42791550885886</ele>
        <time>2026-09-01T23:31:38Z</time>
      </trkpt>
      <trkpt lat="34.297934408072166" lon="108.71034354520023">
        <ele>387.42791550885886</ele>
        <time>2026-09-01T23:31:49Z</time>
      </trkpt>
    </trkseg>
  </trk>
</gpx>