<?xml version="1.0" encoding="UTF-8"?>
<gpx xmlns="http://www.topografix.com/GPX/1/1" xmlns:gpxtpx="http://www.garmin.com/xmlschemas/TrackPointExtension/v1" xmlns:xsi="http://www.w3.org/2001/XMLSchema-instance" xsi:schemaLocation="http://www.topografix.com/GPX/1/1 http://www.topografix.com/GPX/1/1/gpx.xsd" version="1.1" creator="gpx.py -- https://github.com/tkrajina/gpxpy">
  <trk>
    <name>gpx from keep</name>
    <type>Walk</type>
    <trkseg>
      <trkpt lat="36.58311521705224" lon="109.44869132827182">
        <ele>1072.370937347412</ele>
        <time>2026-10-02T00:56:32Z</time>
      </trkpt>
      <trkpt lat="36.582887004817515" lon="109.44881486123889">
        <ele>1073.584820214659</ele>
        <time>2026-10-02T00:56:56Z</time>
      </trkpt>
      <trkpt lat="36.58281876423302" lon="109.44887374152994">
        <ele>1073.4613106576726</ele>
        <time>2026-10-02T00:57:02Z</time>
      </trkpt>
      <trkpt lat="36.58275908973808" lon="109.44887615100868">
        <ele>1073.4111495073885</ele>
        <time>2026-10-02T00:57:08Z</time>
      </trkpt>
      <trkpt lat="36.58268811711665" lon="109.44893643359782">
        <ele>1074.9389888038859</ele>
        <time>2026-10-02T00:57:14Z</time>
      </trkpt>
      <trkpt lat="36.582613208196555" lon="109.44896777004439">
        <ele>1075.6646327776834</ele>
        <time>2026-10-02T00:57:20Z</time>
      </trkpt>
      <trkpt lat="36.582497850720756" lon="109.44907419562135">
        <ele>1075.6463967273012</ele>
        <time>2026-10-02T00:57:32Z</time>
      </trkpt>
      <trkpt lat="36.58219114530694" lon="109.44925059926186">
        <ele>1076.542860343121</ele>
        <time>2026-10-02T00:58:05Z</time>
      </trkpt>
      <trkpt lat="36.58190321715659" lon="109.44941920234018">
        <ele>1076.9005466802046</ele>
        <time>2026-10-02T00:58:36Z</time>
      </trkpt>
      <trkpt lat="36.581823188673496" lon="109.44945776790718">
        <ele>1078.8180115558207</ele>
        <time>2026-10-02T00:58:44Z</time>
      </trkpt>
      <trkpt lat="36.5817375792397" lon="109.44943633835216">
        <ele>1079.6948080975562</ele>
        <time>2026-10-02T00:58:52Z</time>
      </trkpt>
      <trkpt lat="36.581548937110114" lon="109.4492002932721">
        <ele>1081.6418621335179</ele>
        <time>2026-10-02T00:59:16Z</time>
      </trkpt>
      <trkpt lat="36.581333315446535" lon="109.44889101333933">
        <ele>1084.366758662276</ele>
        <time>2026-10-02T00:59:46Z</time>
      </trkpt>
      <trkpt lat="36.58107571798089" lon="109.44876946780145">
        <ele>1093.4727067472413</ele>
        <time>2026-10-02T01:00:10Z</time>
      </trkpt>
      <trkpt lat="36.58102337150008" lon="109.44873070397948">
        <ele>1094.7471242835745</ele>
        <time>2026-10-02T01:00:16Z</time>
      </trkpt>
      <trkpt lat="36.58096242917907" lon="109.44872592128502">
        <ele>1097.0689432108775</ele>
        <time>2026-10-02T01:00:22Z</time>
      </trkpt>
      <trkpt lat="36.5808375758435" lon="109.44862594254838">
        <ele>1097.3743855515495</ele>
        <time>2026-10-02T01:00:34Z</time>
      </trkpt>
      <trkpt lat="36.580765150553944" lon="109.44834489484367">
        <ele>1100.2814387688413</ele>
        <time>2026-10-02T01:00:52Z</time>
      </trkpt>
      <trkpt lat="36.58080316387638" lon="109.44823749736192">
        <ele>1099.8285819618031</ele>
        <time>2026-10-02T01:01:00Z</time>
      </trkpt>
      <trkpt lat="36.580802929893075" lon="109.44815155172056">
        <ele>1100.1884158290923</ele>
        <time>2026-10-02T01:01:06Z</time>
      </trkpt>
      <trkpt lat="36.58083441743533" lon="109.44807041940885">
        <ele>1099.8457986442372</ele>
        <time>2026-10-02T01:01:12Z</time>
      </trkpt>
      <trkpt lat="36.58102015855357" lon="109.447880733064">
        <ele>1102.7037842944264</ele>
        <time>2026-10-02T01:01:36Z</time>
      </trkpt>
      <trkpt lat="36.58121390902973" lon="109.44785521498734">
        <ele>1103.8166784113273</ele>
        <time>2026-10-02T01:01:54Z</time>
      </trkpt>
      <trkpt lat="36.58147819222788" lon="109.44795219270503">
        <ele>1104.3416899386793</ele>
        <time>2026-10-02T01:02:18Z</time>
      </trkpt>
      <trkpt lat="36.58153095571885" lon="109.44798426300378">
        <ele>1104.7659659637138</ele>
        <time>2026-10-02T01:02:24Z</time>
      </trkpt>
      <trkpt lat="36.58162799210366" lon="109.44808215339768">
        <ele>1104.2788011673838</ele>
        <time>2026-10-02T01:02:36Z</time>
      </trkpt>
      <trkpt lat="36.581948401096966" lon="109.44822357951494">
        <ele>1106.6383157111704</ele>
        <time>2026-10-02T01:03:08Z</time>
      </trkpt>
      <trkpt lat="36.58217986601872" lon="109.4483656558522">
        <ele>1107.098971132189</ele>
        <time>2026-10-02T01:03:32Z</time>
      </trkpt>
      <trkpt lat="36.582312915558475" lon="109.44838472239726">
        <ele>1107.699199541472</ele>
        <time>2026-10-02T01:03:44Z</time>
      </trkpt>
      <trkpt lat="36.58250146845783" lon="109.44822686347365">
        <ele>1109.4623765908182</ele>
        <time>2026-10-02T01:04:08Z</time>
      </trkpt>
      <trkpt lat="36.58256296443964" lon="109.44809370918998">
        <ele>1110.1163968108594</ele>
        <time>2026-10-02T01:04:20Z</time>
      </trkpt>
      <trkpt lat="36.58259195988167" lon="109.44794811359212">
        <ele>1110.7073521586135</ele>
        <time>2026-10-02T01:04:32Z</time>
      </trkpt>
      <trkpt lat="36.582558318943136" lon="109.44780673852743">
        <ele>1113.2653958788142</ele>
        <time>2026-10-02T01:04:44Z</time>
      </trkpt>
      <trkpt lat="36.582471730446585" lon="109.4476583026289">
        <ele>1116.338804048486</ele>
        <time>2026-10-02T01:04:58Z</time>
      </trkpt>
      <trkpt lat="36.58220545529205" lon="109.44751841171094">
        <ele>1119.2946247514337</ele>
        <time>2026-10-02T01:05:26Z</time>
      </trkpt>
      <trkpt lat="36.58213089170923" lon="109.44750190136749">
        <ele>1119.8538172934204</ele>
        <time>2026-10-02T01:05:35Z</time>
      </trkpt>
      <trkpt lat="36.58187357439101" lon="109.44733689149005">
        <ele>1124.7224931074306</ele>
        <time>2026-10-02T01:06:08Z</time>
      </trkpt>
      <trkpt lat="36.5816110645537" lon="109.44719729098914">
        <ele>1126.3584618167952</ele>
        <time>2026-10-02T01:06:38Z</time>
      </trkpt>
      <trkpt lat="36.581319438817" lon="109.44706228405869">
        <ele>1130.823493254371</ele>
        <time>2026-10-02T01:07:12Z</time>
      </trkpt>
      <trkpt lat="36.58104774958602" lon="109.446926312421">
        <ele>1132.5577432988212</ele>
        <time>2026-10-02T01:07:53Z</time>
      </trkpt>
      <trkpt lat="36.5807856999324" lon="109.44681619973898">
        <ele>1137.8259592810646</ele>
        <time>2026-10-02T01:08:23Z</time>
      </trkpt>
      <trkpt lat="36.58066828456698" lon="109.44677260179166">
        <ele>1139.1842453451827</ele>
        <time>2026-10-02T01:09:06Z</time>
      </trkpt>
      <trkpt lat="36.58059277346163" lon="109.44677704780985">
        <ele>1139.7052574446425</ele>
        <time>2026-10-02T01:09:14Z</time>
      </trkpt>
      <trkpt lat="36.580544696638505" lon="109.44675624060774">
        <ele>1140.4183259606361</ele>
        <time>2026-10-02T01:09:24Z</time>
      </trkpt>
      <trkpt lat="36.5804906102069" lon="109.44676922137225">
        <ele>1140.31860077288</ele>
        <time>2026-10-02T01:09:30Z</time>
      </trkpt>
      <trkpt lat="36.58043039877076" lon="109.4467550771311">
        <ele>1139.7252318141982</ele>
        <time>2026-10-02T01:09:36Z</time>
      </trkpt>
      <trkpt lat="36.580216809738666" lon="109.44681105991242">
        <ele>1142.8297222796828</ele>
        <time>2026-10-02T01:10:00Z</time>
      </trkpt>
      <trkpt lat="36.580026456511646" lon="109.44690025822906">
        <ele>1143.9322920646518</ele>
        <time>2026-10-02T01:10:21Z</time>
      </trkpt>
      <trkpt lat="36.57995650937053" lon="109.4468985195835">
        <ele>1144.721945464611</ele>
        <time>2026-10-02T01:10:27Z</time>
      </trkpt>
      <trkpt lat="36.579921700412314" lon="109.44685853559494">
        <ele>1144.1733341598883</ele>
        <time>2026-10-02T01:10:30Z</time>
      </trkpt>
      <trkpt lat="36.57990838090214" lon="109.44677715499898">
        <ele>1146.4424174977466</ele>
        <time>2026-10-02T01:10:36Z</time>
      </trkpt>
      <trkpt lat="36.579990679702306" lon="109.44670969058252">
        <ele>1147.03693706356</ele>
        <time>2026-10-02T01:10:57Z</time>
      </trkpt>
      <trkpt lat="36.580029216901885" lon="109.4466522292276">
        <ele>1149.15730405692</ele>
        <time>2026-10-02T01:11:03Z</time>
      </trkpt>
      <trkpt lat="36.58024791955484" lon="109.44655640068133">
        <ele>1149.251768826507</ele>
        <time>2026-10-02T01:11:31Z</time>
      </trkpt>
      <trkpt lat="36.58033442351222" lon="109.44646618842344">
        <ele>1149.7698148973286</ele>
        <time>2026-10-02T01:11:43Z</time>
      </trkpt>
      <trkpt lat="36.58044267603682" lon="109.44639871472744">
        <ele>1149.757710381411</ele>
        <time>2026-10-02T01:11:55Z</time>
      </trkpt>
      <trkpt lat="36.580690895120746" lon="109.44617507352393">
        <ele>1151.679915570654</ele>
        <time>2026-10-02T01:12:28Z</time>
      </trkpt>
      <trkpt lat="36.58094929990367" lon="109.44601858823685">
        <ele>1152.6495788246393</ele>
        <time>2026-10-02T01:12:58Z</time>
      </trkpt>
      <trkpt lat="36.58121269554669" lon="109.44582606322128">
        <ele>1152.971696020104</ele>
        <time>2026-10-02T01:13:26Z</time>
      </trkpt>
      <trkpt lat="36.58126969794301" lon="109.44579437575791">
        <ele>1153.328016714193</ele>
        <time>2026-10-02T01:13:32Z</time>
      </trkpt>
      <trkpt lat="36.581382159674" lon="109.44568069942139">
        <ele>1154.235584703274</ele>
        <time>2026-10-02T01:13:44Z</time>
      </trkpt>
      <trkpt lat="36.58162089396945" lon="109.44549989185066">
        <ele>1155.4172410955653</ele>
        <time>2026-10-02T01:14:08Z</time>
      </trkpt>
      <trkpt lat="36.581684093237925" lon="109.44546968877991">
        <ele>1155.0731368567795</ele>
        <time>2026-10-02T01:14:14Z</time>
      </trkpt>
      <trkpt lat="36.581797966937536" lon="109.44535989407402">
        <ele>1155.6622793693095</ele>
        <time>2026-10-02T01:14:26Z</time>
      </trkpt>
      <trkpt lat="36.581931985177945" lon="109.44529734010403">
        <ele>1154.989274887368</ele>
        <time>2026-10-02T01:14:38Z</time>
      </trkpt>
      <trkpt lat="36.5821158270376" lon="109.44525454296543">
        <ele>1153.0032716440037</ele>
        <time>2026-10-02T01:14:56Z</time>
      </trkpt>
      <trkpt lat="36.58237903107742" lon="109.4450742561523">
        <ele>1151.6547741973773</ele>
        <time>2026-10-02T01:15:20Z</time>
      </trkpt>
      <trkpt lat="36.58261259845353" lon="109.44491489602957">
        <ele>1152.096425744705</ele>
        <time>2026-10-02T01:15:45Z</time>
      </trkpt>
      <trkpt lat="36.5826586931781" lon="109.444859671684">
        <ele>1151.9311667587608</ele>
        <time>2026-10-02T01:15:51Z</time>
      </trkpt>
      <trkpt lat="36.582721169989554" lon="109.44485727845371">
        <ele>1153.0346689168364</ele>
        <time>2026-10-02T01:15:57Z</time>
      </trkpt>
      <trkpt lat="36.58276438953908" lon="109.44488598364852">
        <ele>1153.296805136837</ele>
        <time>2026-10-02T01:16:06Z</time>
      </trkpt>
      <trkpt lat="36.58281487386954" lon="109.44481202023901">
        <ele>1153.945674199611</ele>
        <time>2026-10-02T01:16:42Z</time>
      </trkpt>
      <trkpt lat="36.5828915706592" lon="109.44477466232408">
        <ele>1154.5379189997911</ele>
        <time>2026-10-02T01:16:48Z</time>
      </trkpt>
      <trkpt lat="36.582962538295774" lon="109.44476461419522">
        <ele>1157.0268532913178</ele>
        <time>2026-10-02T01:16:54Z</time>
      </trkpt>
      <trkpt lat="36.58302355482616" lon="109.44478866145951">
        <ele>1156.626546469517</ele>
        <time>2026-10-02T01:17:00Z</time>
      </trkpt>
      <trkpt lat="36.58307902782061" lon="109.44479441352736">
        <ele>1157.4274209719151</ele>
        <time>2026-10-02T01:17:18Z</time>
      </trkpt>
      <trkpt lat="36.58314464701548" lon="109.44476286872441">
        <ele>1157.5322458008304</ele>
        <time>2026-10-02T01:17:31Z</time>
      </trkpt>
      <trkpt lat="36.58329553198499" lon="109.44473724179541">
        <ele>1158.9374076472595</ele>
        <time>2026-10-02T01:17:45Z</time>
      </trkpt>
      <trkpt lat="36.58341645424287" lon="109.44467932128693">
        <ele>1159.3904786230996</ele>
        <time>2026-10-02T01:17:57Z</time>
      </trkpt>
      <trkpt lat="36.5835220375508" lon="109.44460424934456">
        <ele>1160.184010323137</ele>
        <time>2026-10-02T01:18:09Z</time>
      </trkpt>
      <trkpt lat="36.58363953291027" lon="109.4445889662299">
        <ele>1161.7504000663757</ele>
        <time>2026-10-02T01:18:21Z</time>
      </trkpt>
      <trkpt lat="36.58368896193931" lon="109.44454301598967">
        <ele>1162.0408808533102</ele>
        <time>2026-10-02T01:18:27Z</time>
      </trkpt>
      <trkpt lat="36.58374850376854" lon="109.44453734594572">
        <ele>1162.3783049155027</ele>
        <time>2026-10-02T01:18:33Z</time>
      </trkpt>
      <trkpt lat="36.58384421382965" lon="109.44445568569536">
        <ele>1161.5911386162043</ele>
        <time>2026-10-02T01:18:45Z</time>
      </trkpt>
      <trkpt lat="36.583910026324354" lon="109.44432746197495">
        <ele>1162.9914976647124</ele>
        <time>2026-10-02T01:18:57Z</time>
      </trkpt>
      <trkpt lat="36.5839275956286" lon="109.44417579262509">
        <ele>1164.3816797640175</ele>
        <time>2026-10-02T01:19:09Z</time>
      </trkpt>
      <trkpt lat="36.58395934603569" lon="109.44405160940006">
        <ele>1166.6976278517395</ele>
        <time>2026-10-02T01:19:21Z</time>
      </trkpt>
      <trkpt lat="36.58393888842098" lon="109.4439318865688">
        <ele>1168.563866657205</ele>
        <time>2026-10-02T01:19:33Z</time>
      </trkpt>
      <trkpt lat="36.58384391195581" lon="109.44381053752173">
        <ele>1172.5061060544103</ele>
        <time>2026-10-02T01:19:55Z</time>
      </trkpt>
      <trkpt lat="36.58377936178183" lon="109.44366008627054">
        <ele>1173.6295164106414</ele>
        <time>2026-10-02T01:20:10Z</time>
      </trkpt>
      <trkpt lat="36.58378310396086" lon="109.44360281433231">
        <ele>1173.6723862532526</ele>
        <time>2026-10-02T01:20:16Z</time>
      </trkpt>
      <trkpt lat="36.58373782594345" lon="109.44337045099984">
        <ele>1177.1751364860684</ele>
        <time>2026-10-02T01:21:07Z</time>
      </trkpt>
      <trkpt lat="36.58364655384192" lon="109.4432042111059">
        <ele>1178.5645666066557</ele>
        <time>2026-10-02T01:21:31Z</time>
      </trkpt>
      <trkpt lat="36.58360741778884" lon="109.44305887270386">
        <ele>1180.6486158231273</ele>
        <time>2026-10-02T01:21:52Z</time>
      </trkpt>
      <trkpt lat="36.583604776000506" lon="109.44299800712844">
        <ele>1181.27973113209</ele>
        <time>2026-10-02T01:21:59Z</time>
      </trkpt>
      <trkpt lat="36.58366146384252" lon="109.44294463998487">
        <ele>1181.5889125075191</ele>
        <time>2026-10-02T01:22:05Z</time>
      </trkpt>
      <trkpt lat="36.583824527769075" lon="109.44314640833092">
        <ele>1187.1603647721931</ele>
        <time>2026-10-02T01:22:29Z</time>
      </trkpt>
      <trkpt lat="36.58392430934099" lon="109.44321077963266">
        <ele>1189.0350398663431</ele>
        <time>2026-10-02T01:22:41Z</time>
      </trkpt>
      <trkpt lat="36.58403902151553" lon="109.44322973382292">
        <ele>1190.0902401134372</ele>
        <time>2026-10-02T01:22:53Z</time>
      </trkpt>
      <trkpt lat="36.58410500767879" lon="109.44322673262744">
        <ele>1191.2694237735122</ele>
        <time>2026-10-02T01:23:17Z</time>
      </trkpt>
      <trkpt lat="36.58421202327502" lon="109.44321817445488">
        <ele>1192.4584900578484</ele>
        <time>2026-10-02T01:23:44Z</time>
      </trkpt>
      <trkpt lat="36.58435446588896" lon="109.44314894168508">
        <ele>1193.0361657356843</ele>
        <time>2026-10-02T01:23:58Z</time>
      </trkpt>
      <trkpt lat="36.584576238866696" lon="109.44301305828968">
        <ele>1195.7243196656927</ele>
        <time>2026-10-02T01:24:34Z</time>
      </trkpt>
      <trkpt lat="36.58481693424652" lon="109.44293179471602">
        <ele>1196.660095284693</ele>
        <time>2026-10-02T01:24:58Z</time>
      </trkpt>
      <trkpt lat="36.58487743725656" lon="109.44292822126931">
        <ele>1197.9307738542557</ele>
        <time>2026-10-02T01:25:04Z</time>
      </trkpt>
      <trkpt lat="36.585058631061834" lon="109.44287899625135">
        <ele>1198.0687104836106</ele>
        <time>2026-10-02T01:25:28Z</time>
      </trkpt>
      <trkpt lat="36.5853157193086" lon="109.44266932823668">
        <ele>1203.1208833763376</ele>
        <time>2026-10-02T01:26:04Z</time>
      </trkpt>
      <trkpt lat="36.585375590564276" lon="109.44262022931356">
        <ele>1205.3380360230803</ele>
        <time>2026-10-02T01:26:20Z</time>
      </trkpt>
      <trkpt lat="36.58541332111214" lon="109.44253695134793">
        <ele>1207.590375916101</ele>
        <time>2026-10-02T01:26:35Z</time>
      </trkpt>
      <trkpt lat="36.58552789328563" lon="109.44243907379239">
        <ele>1208.710903125815</ele>
        <time>2026-10-02T01:26:47Z</time>
      </trkpt>
      <trkpt lat="36.58570539145258" lon="109.44235553635666">
        <ele>1210.3844423508272</ele>
        <time>2026-10-02T01:27:11Z</time>
      </trkpt>
      <trkpt lat="36.58575505312392" lon="109.4424006801628">
        <ele>1209.4123897682875</ele>
        <time>2026-10-02T01:27:26Z</time>
      </trkpt>
      <trkpt lat="36.58593176286378" lon="109.44251668531655">
        <ele>1208.7983961449936</ele>
        <time>2026-10-02T01:27:44Z</time>
      </trkpt>
      <trkpt lat="36.58612266390416" lon="109.44255070153102">
        <ele>1210.0766661493108</ele>
        <time>2026-10-02T01:28:03Z</time>
      </trkpt>
      <trkpt lat="36.58618344424566" lon="109.4425931380689">
        <ele>1209.8252282459289</ele>
        <time>2026-10-02T01:28:12Z</time>
      </trkpt>
      <trkpt lat="36.58625144008872" lon="109.4425968892762">
        <ele>1210.1488251276314</ele>
        <time>2026-10-02T01:28:18Z</time>
      </trkpt>
      <trkpt lat="36.58655237760796" lon="109.44274966336033">
        <ele>1209.226854790002</ele>
        <time>2026-10-02T01:28:48Z</time>
      </trkpt>
      <trkpt lat="36.586788618412335" lon="109.44297877788105">
        <ele>1210.342691170983</ele>
        <time>2026-10-02T01:29:18Z</time>
      </trkpt>
      <trkpt lat="36.58690985916287" lon="109.44309768116777">
        <ele>1213.3524411488324</ele>
        <time>2026-10-02T01:29:33Z</time>
      </trkpt>
      <trkpt lat="36.5870224852431" lon="109.44316222934481">
        <ele>1212.1908970465884</ele>
        <time>2026-10-02T01:29:45Z</time>
      </trkpt>
      <trkpt lat="36.58728214121382" lon="109.44327593175532">
        <ele>1211.751003852114</ele>
        <time>2026-10-02T01:30:15Z</time>
      </trkpt>
      <trkpt lat="36.5875556381132" lon="109.4433743621556">
        <ele>1211.715416134335</ele>
        <time>2026-10-02T01:30:39Z</time>
      </trkpt>
      <trkpt lat="36.58760530468709" lon="109.44341262113008">
        <ele>1211.571786787361</ele>
        <time>2026-10-02T01:30:45Z</time>
      </trkpt>
      <trkpt lat="36.58765428807921" lon="109.44341513962158">
        <ele>1211.5366629194468</ele>
        <time>2026-10-02T01:30:51Z</time>
      </trkpt>
      <trkpt lat="36.587719877601906" lon="109.44344834209453">
        <ele>1211.9274160973728</ele>
        <time>2026-10-02T01:30:57Z</time>
      </trkpt>
      <trkpt lat="36.587768406005836" lon="109.44349956172124">
        <ele>1211.1365329958498</ele>
        <time>2026-10-02T01:31:03Z</time>
      </trkpt>
      <trkpt lat="36.58802537640314" lon="109.44361853038471">
        <ele>1212.0888263173401</ele>
        <time>2026-10-02T01:31:27Z</time>
      </trkpt>
      <trkpt lat="36.58828355414252" lon="109.44372600140485">
        <ele>1211.5243831444532</ele>
        <time>2026-10-02T01:31:51Z</time>
      </trkpt>
      <trkpt lat="36.58856604790458" lon="109.44384277115773">
        <ele>1209.1033505098894</ele>
        <time>2026-10-02T01:32:17Z</time>
      </trkpt>
      <trkpt lat="36.58864376664231" lon="109.44385260882962">
        <ele>1208.5847272956744</ele>
        <time>2026-10-02T01:32:30Z</time>
      </trkpt>
      <trkpt lat="36.58871117125345" lon="109.44389416108919">
        <ele>1208.3608622606844</ele>
        <time>2026-10-02T01:32:36Z</time>
      </trkpt>
      <trkpt lat="36.588764381164076" lon="109.44404251275692">
        <ele>1208.730220258236</ele>
        <time>2026-10-02T01:33:03Z</time>
      </trkpt>
      <trkpt lat="36.58876744409811" lon="109.4441294702612">
        <ele>1208.2976173320785</ele>
        <time>2026-10-02T01:33:09Z</time>
      </trkpt>
      <trkpt lat="36.588712116928825" lon="109.44429067023673">
        <ele>1206.5931777497754</ele>
        <time>2026-10-02T01:33:21Z</time>
      </trkpt>
      <trkpt lat="36.58865007230538" lon="109.44434243208599">
        <ele>1206.589788498357</ele>
        <time>2026-10-02T01:33:27Z</time>
      </trkpt>
      <trkpt lat="36.58849174418122" lon="109.44462308626895">
        <ele>1203.1987031307071</ele>
        <time>2026-10-02T01:34:12Z</time>
      </trkpt>
      <trkpt lat="36.588322742813695" lon="109.44488570609587">
        <ele>1199.721694954671</ele>
        <time>2026-10-02T01:34:39Z</time>
      </trkpt>
      <trkpt lat="36.58827771276455" lon="109.44490730571107">
        <ele>1200.0744959842414</ele>
        <time>2026-10-02T01:35:24Z</time>
      </trkpt>
      <trkpt lat="36.58824520500118" lon="109.44503040789739">
        <ele>1198.0013828231022</ele>
        <time>2026-10-02T01:35:45Z</time>
      </trkpt>
      <trkpt lat="36.588288457501925" lon="109.44538054315602">
        <ele>1192.1344410544261</ele>
        <time>2026-10-02T01:36:15Z</time>
      </trkpt>
      <trkpt lat="36.588328204926604" lon="109.44560270899501">
        <ele>1191.5136499330401</ele>
        <time>2026-10-02T01:36:29Z</time>
      </trkpt>
      <trkpt lat="36.58835424979853" lon="109.44565133113821">
        <ele>1193.039628246799</ele>
        <time>2026-10-02T01:36:33Z</time>
      </trkpt>
      <trkpt lat="36.588351989320614" lon="109.44572932351998">
        <ele>1194.0204040324315</ele>
        <time>2026-10-02T01:36:40Z</time>
      </trkpt>
      <trkpt lat="36.588428522982205" lon="109.44584146773832">
        <ele>1196.322069044225</ele>
        <time>2026-10-02T01:37:01Z</time>
      </trkpt>
      <trkpt lat="36.58857788053163" lon="109.44595412475331">
        <ele>1197.3880392797291</ele>
        <time>2026-10-02T01:37:19Z</time>
      </trkpt>
      <trkpt lat="36.58860300376552" lon="109.44602132540253">
        <ele>1197.7407051073387</ele>
        <time>2026-10-02T01:37:28Z</time>
      </trkpt>
      <trkpt lat="36.58855790211767" lon="109.44607781974797">
        <ele>1199.3303259937093</ele>
        <time>2026-10-02T01:37:34Z</time>
      </trkpt>
      <trkpt lat="36.58840016290991" lon="109.44613917647338">
        <ele>1201.7438999991864</ele>
        <time>2026-10-02T01:37:52Z</time>
      </trkpt>
      <trkpt lat="36.58836709335701" lon="109.4461950826442">
        <ele>1202.354570178315</ele>
        <time>2026-10-02T01:37:58Z</time>
      </trkpt>
      <trkpt lat="36.58838363480303" lon="109.44624748025961">
        <ele>1203.1242227703333</ele>
        <time>2026-10-02T01:38:13Z</time>
      </trkpt>
      <trkpt lat="36.58831961085063" lon="109.44639624746965">
        <ele>1203.4484523190185</ele>
        <time>2026-10-02T01:38:28Z</time>
      </trkpt>
      <trkpt lat="36.588318975514234" lon="109.44647641347852">
        <ele>1203.5590864615515</ele>
        <time>2026-10-02T01:38:35Z</time>
      </trkpt>
      <trkpt lat="36.5883606350413" lon="109.44652232488932">
        <ele>1201.9780489746481</ele>
        <time>2026-10-02T01:38:50Z</time>
      </trkpt>
      <trkpt lat="36.5884031936479" lon="109.44649018677976">
        <ele>1204.2667777752504</ele>
        <time>2026-10-02T01:38:56Z</time>
      </trkpt>
      <trkpt lat="36.58843301690901" lon="109.4464413910302">
        <ele>1206.9678699541837</ele>
        <time>2026-10-02T01:39:02Z</time>
      </trkpt>
      <trkpt lat="36.588480946810726" lon="109.44641014027899">
        <ele>1206.5974010936916</ele>
        <time>2026-10-02T01:39:08Z</time>
      </trkpt>
      <trkpt lat="36.58864278873028" lon="109.44639709230479">
        <ele>1209.1410047085956</ele>
        <time>2026-10-02T01:39:32Z</time>
      </trkpt>
      <trkpt lat="36.58881106170677" lon="109.44647737776278">
        <ele>1209.6715439613909</ele>
        <time>2026-10-02T01:39:53Z</time>
      </trkpt>
      <trkpt lat="36.58890882142937" lon="109.44657536679587">
        <ele>1210.900010352023</ele>
        <time>2026-10-02T01:40:11Z</time>
      </trkpt>
      <trkpt lat="36.58890295388254" lon="109.44664839385139">
        <ele>1213.1090265950188</ele>
        <time>2026-10-02T01:40:17Z</time>
      </trkpt>
      <trkpt lat="36.58886024250746" lon="109.44668108686363">
        <ele>1214.5025658439845</ele>
        <time>2026-10-02T01:40:23Z</time>
      </trkpt>
      <trkpt lat="36.588835710341996" lon="109.44676589039969">
        <ele>1213.583075409755</ele>
        <time>2026-10-02T01:40:29Z</time>
      </trkpt>
      <trkpt lat="36.588861899800634" lon="109.4468123528992">
        <ele>1215.5806259736419</ele>
        <time>2026-10-02T01:40:32Z</time>
      </trkpt>
      <trkpt lat="36.5888959601965" lon="109.44689046879263">
        <ele>1213.7928497921675</ele>
        <time>2026-10-02T01:40:48Z</time>
      </trkpt>
      <trkpt lat="36.5890437340715" lon="109.44706927194167">
        <ele>1215.878288332373</ele>
        <time>2026-10-02T01:41:06Z</time>
      </trkpt>
      <trkpt lat="36.58911726876269" lon="109.44720843626381">
        <ele>1217.2193562295288</ele>
        <time>2026-10-02T01:41:18Z</time>
      </trkpt>
      <trkpt lat="36.589134653208056" lon="109.44736902710991">
        <ele>1218.142311652191</ele>
        <time>2026-10-02T01:41:33Z</time>
      </trkpt>
      <trkpt lat="36.58909792024127" lon="109.4475365933822">
        <ele>1214.8985540438443</ele>
        <time>2026-10-02T01:41:45Z</time>
      </trkpt>
      <trkpt lat="36.589021674010716" lon="109.44771651629101">
        <ele>1210.9108071625233</ele>
        <time>2026-10-02T01:42:00Z</time>
      </trkpt>
      <trkpt lat="36.588949704735455" lon="109.44776289356214">
        <ele>1208.724039341323</ele>
        <time>2026-10-02T01:42:06Z</time>
      </trkpt>
      <trkpt lat="36.58891862567784" lon="109.4478346066587">
        <ele>1207.197233075276</ele>
        <time>2026-10-02T01:42:12Z</time>
      </trkpt>
      <trkpt lat="36.58882080630706" lon="109.44794242996474">
        <ele>1205.319443305023</ele>
        <time>2026-10-02T01:42:24Z</time>
      </trkpt>
      <trkpt lat="36.588828129426474" lon="109.44803124686017">
        <ele>1203.4718949729577</ele>
        <time>2026-10-02T01:42:30Z</time>
      </trkpt>
      <trkpt lat="36.58887163560224" lon="109.4480994122967">
        <ele>1207.3360995398834</ele>
        <time>2026-10-02T01:42:36Z</time>
      </trkpt>
      <trkpt lat="36.58887122375994" lon="109.44821820705876">
        <ele>1205.4433413641527</ele>
        <time>2026-10-02T01:42:43Z</time>
      </trkpt>
      <trkpt lat="36.58881876023095" lon="109.44826268274961">
        <ele>1202.9507753318176</ele>
        <time>2026-10-02T01:42:47Z</time>
      </trkpt>
      <trkpt lat="36.588768095402735" lon="109.44827825776748">
        <ele>1200.6529027353972</ele>
        <time>2026-10-02T01:42:53Z</time>
      </trkpt>
      <trkpt lat="36.58863403976265" lon="109.44822643734184">
        <ele>1196.5454085879028</ele>
        <time>2026-10-02T01:43:05Z</time>
      </trkpt>
      <trkpt lat="36.588441212053134" lon="109.44823806631538">
        <ele>1193.3150082835928</ele>
        <time>2026-10-02T01:43:26Z</time>
      </trkpt>
      <trkpt lat="36.58837718074968" lon="109.44828699940126">
        <ele>1190.997141893953</ele>
        <time>2026-10-02T01:43:32Z</time>
      </trkpt>
      <trkpt lat="36.58834567896038" lon="109.44833772746153">
        <ele>1191.827159983106</ele>
        <time>2026-10-02T01:43:38Z</time>
      </trkpt>
      <trkpt lat="36.588232877097425" lon="109.44843382911358">
        <ele>1188.5933732129633</ele>
        <time>2026-10-02T01:43:50Z</time>
      </trkpt>
      <trkpt lat="36.58806109520788" lon="109.4484952378313">
        <ele>1184.255342779681</ele>
        <time>2026-10-02T01:44:08Z</time>
      </trkpt>
      <trkpt lat="36.58794764352124" lon="109.44872985428782">
        <ele>1181.4380881953984</ele>
        <time>2026-10-02T01:44:26Z</time>
      </trkpt>
      <trkpt lat="36.58787864508659" lon="109.4488090487675">
        <ele>1182.21816539485</ele>
        <time>2026-10-02T01:44:32Z</time>
      </trkpt>
      <trkpt lat="36.58781850059345" lon="109.44898348105644">
        <ele>1179.574327676557</ele>
        <time>2026-10-02T01:44:44Z</time>
      </trkpt>
      <trkpt lat="36.58783535376624" lon="109.4490393692194">
        <ele>1180.4602176761255</ele>
        <time>2026-10-02T01:44:54Z</time>
      </trkpt>
      <trkpt lat="36.58778641941482" lon="109.44910452131738">
        <ele>1181.3447636961937</ele>
        <time>2026-10-02T01:46:05Z</time>
      </trkpt>
      <trkpt lat="36.58774891812094" lon="109.44924117080697">
        <ele>1180.2926883818582</ele>
        <time>2026-10-02T01:46:23Z</time>
      </trkpt>
      <trkpt lat="36.58763595980189" lon="109.44940582962388">
        <ele>1178.054036515765</ele>
        <time>2026-10-02T01:47:03Z</time>
      </trkpt>
      <trkpt lat="36.587466824490406" lon="109.44953280228061">
        <ele>1177.2745591960847</ele>
        <time>2026-10-02T01:47:21Z</time>
      </trkpt>
      <trkpt lat="36.58739989580018" lon="109.44955653246983">
        <ele>1176.832455335185</ele>
        <time>2026-10-02T01:47:27Z</time>
      </trkpt>
      <trkpt lat="36.58718099146839" lon="109.4497977375418">
        <ele>1176.3815553365275</ele>
        <time>2026-10-02T01:48:00Z</time>
      </trkpt>
      <trkpt lat="36.58713550749725" lon="109.44986393031812">
        <ele>1177.0799152133986</ele>
        <time>2026-10-02T01:48:06Z</time>
      </trkpt>
      <trkpt lat="36.58709177724915" lon="109.44989582516716">
        <ele>1176.4978751409799</ele>
        <time>2026-10-02T01:48:12Z</time>
      </trkpt>
      <trkpt lat="36.58701244587808" lon="109.45006445465854">
        <ele>1176.647209668532</ele>
        <time>2026-10-02T01:48:42Z</time>
      </trkpt>
      <trkpt lat="36.58685212714392" lon="109.45026669749763">
        <ele>1173.7697230353951</ele>
        <time>2026-10-02T01:49:04Z</time>
      </trkpt>
      <trkpt lat="36.586732957059645" lon="109.45064149593425">
        <ele>1170.8588368967175</ele>
        <time>2026-10-02T01:49:31Z</time>
      </trkpt>
      <trkpt lat="36.5867101431777" lon="109.45068974939828">
        <ele>1170.6297798156738</ele>
        <time>2026-10-02T01:49:37Z</time>
      </trkpt>
      <trkpt lat="36.58672075267418" lon="109.4507678559605">
        <ele>1169.4640690796077</ele>
        <time>2026-10-02T01:49:58Z</time>
      </trkpt>
      <trkpt lat="36.58664236419907" lon="109.45104287797668">
        <ele>1163.8374380916357</ele>
        <time>2026-10-02T01:50:22Z</time>
      </trkpt>
      <trkpt lat="36.58659177783651" lon="109.45111428400922">
        <ele>1161.4187092427164</ele>
        <time>2026-10-02T01:50:28Z</time>
      </trkpt>
      <trkpt lat="36.58650221259425" lon="109.45137015206545">
        <ele>1155.3385308971629</ele>
        <time>2026-10-02T01:50:46Z</time>
      </trkpt>
      <trkpt lat="36.58640667469117" lon="109.45152419327664">
        <ele>1155.8715613242239</ele>
        <time>2026-10-02T01:50:58Z</time>
      </trkpt>
      <trkpt lat="36.58622695142351" lon="109.45178631841956">
        <ele>1151.6604516478255</ele>
        <time>2026-10-02T01:51:20Z</time>
      </trkpt>
      <trkpt lat="36.58599306788849" lon="109.45199497769524">
        <ele>1152.0340371597558</ele>
        <time>2026-10-02T01:51:44Z</time>
      </trkpt>
      <trkpt lat="36.58579813822864" lon="109.45208911944918">
        <ele>1151.3718970278278</ele>
        <time>2026-10-02T01:52:02Z</time>
      </trkpt>
      <trkpt lat="36.585778977821704" lon="109.45218101377239">
        <ele>1150.7348316395655</ele>
        <time>2026-10-02T01:52:08Z</time>
      </trkpt>
      <trkpt lat="36.58579621286244" lon="109.45225704439571">
        <ele>1149.9806648157537</ele>
        <time>2026-10-02T01:52:14Z</time>
      </trkpt>
      <trkpt lat="36.585874124108926" lon="109.45229463703362">
        <ele>1150.6059428276494</ele>
        <time>2026-10-02T01:52:20Z</time>
      </trkpt>
      <trkpt lat="36.58589353687211" lon="109.45234562488814">
        <ele>1151.0715109473094</ele>
        <time>2026-10-02T01:52:23Z</time>
      </trkpt>
      <trkpt lat="36.58589125951837" lon="109.45244626868838">
        <ele>1150.003475151956</ele>
        <time>2026-10-02T01:52:29Z</time>
      </trkpt>
      <trkpt lat="36.58579101223846" lon="109.4525903169656">
        <ele>1150.4213365241885</ele>
        <time>2026-10-02T01:52:47Z</time>
      </trkpt>
      <trkpt lat="36.58573833582848" lon="109.45273120552378">
        <ele>1149.336311836727</ele>
        <time>2026-10-02T01:52:59Z</time>
      </trkpt>
      <trkpt lat="36.58568979902477" lon="109.4527991442819">
        <ele>1150.1457966873422</ele>
        <time>2026-10-02T01:53:05Z</time>
      </trkpt>
      <trkpt lat="36.585572924353585" lon="109.45288903069641">
        <ele>1152.6208327272907</ele>
        <time>2026-10-02T01:53:21Z</time>
      </trkpt>
      <trkpt lat="36.58556876555875" lon="109.45298640047456">
        <ele>1152.839811722748</ele>
        <time>2026-10-02T01:53:27Z</time>
      </trkpt>
      <trkpt lat="36.58559618424707" lon="109.45306296448">
        <ele>1153.0587167153135</ele>
        <time>2026-10-02T01:53:33Z</time>
      </trkpt>
      <trkpt lat="36.5855849322805" lon="109.45315072634997">
        <ele>1154.1727994671091</ele>
        <time>2026-10-02T01:53:42Z</time>
      </trkpt>
      <trkpt lat="36.58554879752938" lon="109.45323105443504">
        <ele>1153.8822196209803</ele>
        <time>2026-10-02T01:53:48Z</time>
      </trkpt>
      <trkpt lat="36.585504536950495" lon="109.4534900541155">
        <ele>1156.3471779376268</ele>
        <time>2026-10-02T01:54:06Z</time>
      </trkpt>
      <trkpt lat="36.58542776635005" lon="109.4537637909728">
        <ele>1155.6011841809377</ele>
        <time>2026-10-02T01:54:33Z</time>
      </trkpt>
      <trkpt lat="36.58540861695693" lon="109.45415832097639">
        <ele>1159.005957685411</ele>
        <time>2026-10-02T01:55:03Z</time>
      </trkpt>
      <trkpt lat="36.58533888132357" lon="109.45454485707997">
        <ele>1161.7827264321968</ele>
        <time>2026-10-02T01:55:35Z</time>
      </trkpt>
      <trkpt lat="36.585196718692366" lon="109.45489934466778">
        <ele>1165.1251481957734</ele>
        <time>2026-10-02T01:56:05Z</time>
      </trkpt>
      <trkpt lat="36.58512488425028" lon="109.45507415991271">
        <ele>1166.4178744833916</ele>
        <time>2026-10-02T01:56:20Z</time>
      </trkpt>
      <trkpt lat="36.584948608431155" lon="109.45539879540149">
        <ele>1170.2735436763614</ele>
        <time>2026-10-02T01:56:50Z</time>
      </trkpt>
      <trkpt lat="36.58475762308773" lon="109.45561608806425">
        <ele>1169.6798605136573</ele>
        <time>2026-10-02T01:57:14Z</time>
      </trkpt>
      <trkpt lat="36.58470539521034" lon="109.4556251429244">
        <ele>1169.262347358279</ele>
        <time>2026-10-02T01:57:20Z</time>
      </trkpt>
      <trkpt lat="36.58458090121836" lon="109.45571614762285">
        <ele>1167.9173842910677</ele>
        <time>2026-10-02T01:57:36Z</time>
      </trkpt>
      <trkpt lat="36.58445909220188" lon="109.45572514653587">
        <ele>1166.2535587530583</ele>
        <time>2026-10-02T01:57:54Z</time>
      </trkpt>
      <trkpt lat="36.5843823304311" lon="109.45579201307403">
        <ele>1169.5390786435455</ele>
        <time>2026-10-02T01:58:09Z</time>
      </trkpt>
      <trkpt lat="36.584328795304835" lon="109.45581176712346">
        <ele>1170.5386184565723</ele>
        <time>2026-10-02T01:58:15Z</time>
      </trkpt>
      <trkpt lat="36.58400652658746" lon="109.4557157290277">
        <ele>1172.58599232696</ele>
        <time>2026-10-02T01:58:54Z</time>
      </trkpt>
      <trkpt lat="36.58389317220321" lon="109.45571373527888">
        <ele>1172.807022612542</ele>
        <time>2026-10-02T01:59:06Z</time>
      </trkpt>
      <trkpt lat="36.58380122301704" lon="109.4557686579094">
        <ele>1174.937293461524</ele>
        <time>2026-10-02T01:59:21Z</time>
      </trkpt>
      <trkpt lat="36.583765665968585" lon="109.45584462598465">
        <ele>1175.579565222375</ele>
        <time>2026-10-02T01:59:27Z</time>
      </trkpt>
      <trkpt lat="36.583706266664635" lon="109.45587712472481">
        <ele>1178.1448632515967</ele>
        <time>2026-10-02T01:59:40Z</time>
      </trkpt>
      <trkpt lat="36.58364489425576" lon="109.45585331357837">
        <ele>1176.6379513759166</ele>
        <time>2026-10-02T01:59:46Z</time>
      </trkpt>
      <trkpt lat="36.58350278654443" lon="109.45587538332357">
        <ele>1176.1982723306865</ele>
        <time>2026-10-02T01:59:58Z</time>
      </trkpt>
      <trkpt lat="36.5834282824078" lon="109.45585358274843">
        <ele>1176.88334210217</ele>
        <time>2026-10-02T02:00:07Z</time>
      </trkpt>
      <trkpt lat="36.58317939183882" lon="109.45589769325075">
        <ele>1176.3375836228952</ele>
        <time>2026-10-02T02:00:31Z</time>
      </trkpt>
      <trkpt lat="36.5831245595734" lon="109.45588931693025">
        <ele>1175.91887195874</ele>
        <time>2026-10-02T02:00:37Z</time>
      </trkpt>
      <trkpt lat="36.583047409888714" lon="109.45584639523261">
        <ele>1172.5514440583065</ele>
        <time>2026-10-02T02:00:46Z</time>
      </trkpt>
      <trkpt lat="36.582973538499814" lon="109.4558549147722">
        <ele>1173.407057103701</ele>
        <time>2026-10-02T02:00:52Z</time>
      </trkpt>
      <trkpt lat="36.582954633753" lon="109.45592760015734">
        <ele>1171.1400828976184</ele>
        <time>2026-10-02T02:00:58Z</time>
      </trkpt>
      <trkpt lat="36.58290787684527" lon="109.4559585250533">
        <ele>1171.239387924783</ele>
        <time>2026-10-02T02:01:04Z</time>
      </trkpt>
      <trkpt lat="36.58280674839679" lon="109.45596321402213">
        <ele>1167.1999151175842</ele>
        <time>2026-10-02T02:01:19Z</time>
      </trkpt>
      <trkpt lat="36.58277618326616" lon="109.45601539578001">
        <ele>1169.2716792421415</ele>
        <time>2026-10-02T02:02:05Z</time>
      </trkpt>
      <trkpt lat="36.582674994995166" lon="109.45601966390507">
        <ele>1166.164314926602</ele>
        <time>2026-10-02T02:02:23Z</time>
      </trkpt>
      <trkpt lat="36.58257804152788" lon="109.45606356396134">
        <ele>1164.371408267878</ele>
        <time>2026-10-02T02:03:02Z</time>
      </trkpt>
      <trkpt lat="36.582402189567695" lon="109.45620254792944">
        <ele>1161.0395718757063</ele>
        <time>2026-10-02T02:03:23Z</time>
      </trkpt>
      <trkpt lat="36.58233018849649" lon="109.45621082580566">
        <ele>1159.7389311147854</ele>
        <time>2026-10-02T02:03:29Z</time>
      </trkpt>
      <trkpt lat="36.582275421067756" lon="109.45624660283487">
        <ele>1156.7762751290575</ele>
        <time>2026-10-02T02:03:51Z</time>
      </trkpt>
      <trkpt lat="36.58217366581119" lon="109.45634964009305">
        <ele>1152.5874883793294</ele>
        <time>2026-10-02T02:04:24Z</time>
      </trkpt>
      <trkpt lat="36.58198841325247" lon="109.45641303837915">
        <ele>1146.7818239666522</ele>
        <time>2026-10-02T02:04:45Z</time>
      </trkpt>
      <trkpt lat="36.5818834109364" lon="109.45659949437083">
        <ele>1143.2616482870653</ele>
        <time>2026-10-02T02:05:03Z</time>
      </trkpt>
      <trkpt lat="36.581842493120384" lon="109.45662879903236">
        <ele>1141.209996408783</ele>
        <time>2026-10-02T02:05:06Z</time>
      </trkpt>
      <trkpt lat="36.58180556749314" lon="109.45666505252032">
        <ele>1142.0731274187565</ele>
        <time>2026-10-02T02:05:24Z</time>
      </trkpt>
      <trkpt lat="36.58176782450263" lon="109.4567042850037">
        <ele>1141.2520056702197</ele>
        <time>2026-10-02T02:05:52Z</time>
      </trkpt>
      <trkpt lat="36.58164645944153" lon="109.45673246723807">
        <ele>1141.0089262705296</ele>
        <time>2026-10-02T02:06:13Z</time>
      </trkpt>
      <trkpt lat="36.58160761826758" lon="109.45676735264385">
        <ele>1141.2057718830183</ele>
        <time>2026-10-02T02:06:22Z</time>
      </trkpt>
      <trkpt lat="36.581535014925684" lon="109.45689866241624">
        <ele>1135.9328333241865</ele>
        <time>2026-10-02T02:06:40Z</time>
      </trkpt>
      <trkpt lat="36.58148720504293" lon="109.45692237743361">
        <ele>1135.227176883258</ele>
        <time>2026-10-02T02:06:49Z</time>
      </trkpt>
      <trkpt lat="36.58143475661433" lon="109.45700476919737">
        <ele>1133.0495572164655</ele>
        <time>2026-10-02T02:06:55Z</time>
      </trkpt>
      <trkpt lat="36.58127864996762" lon="109.457188418921">
        <ele>1127.4171700021252</ele>
        <time>2026-10-02T02:07:13Z</time>
      </trkpt>
      <trkpt lat="36.5811544181955" lon="109.45712748894252">
        <ele>1120.29622541368</ele>
        <time>2026-10-02T02:07:31Z</time>
      </trkpt>
      <trkpt lat="36.581119934746695" lon="109.45708562922381">
        <ele>1120.234235513024</ele>
        <time>2026-10-02T02:07:43Z</time>
      </trkpt>
      <trkpt lat="36.581109105089105" lon="109.45701911557367">
        <ele>1120.6352576967329</ele>
        <time>2026-10-02T02:07:49Z</time>
      </trkpt>
      <trkpt lat="36.58108189453837" lon="109.45696273383174">
        <ele>1120.9407165488228</ele>
        <time>2026-10-02T02:07:52Z</time>
      </trkpt>
      <trkpt lat="36.58107907198981" lon="109.45713812947463">
        <ele>1118.3853907780722</ele>
        <time>2026-10-02T02:08:17Z</time>
      </trkpt>
      <trkpt lat="36.58096738562865" lon="109.4573453589155">
        <ele>1113.64241099637</ele>
        <time>2026-10-02T02:08:38Z</time>
      </trkpt>
      <trkpt lat="36.58091013051481" lon="109.4574029758253">
        <ele>1113.119002873078</ele>
        <time>2026-10-02T02:08:44Z</time>
      </trkpt>
      <trkpt lat="36.58093745681034" lon="109.45735623156361">
        <ele>1113.2592605631799</ele>
        <time>2026-10-02T02:08:59Z</time>
      </trkpt>
      <trkpt lat="36.58085859776928" lon="109.45746009654897">
        <ele>1112.0684197144583</ele>
        <time>2026-10-02T02:09:23Z</time>
      </trkpt>
      <trkpt lat="36.58084724544436" lon="109.457530212936">
        <ele>1110.2661919975653</ele>
        <time>2026-10-02T02:09:32Z</time>
      </trkpt>
      <trkpt lat="36.58086555098102" lon="109.45760298910402">
        <ele>1108.4614243237302</ele>
        <time>2026-10-02T02:09:38Z</time>
      </trkpt>
      <trkpt lat="36.580812599066306" lon="109.4576317597605">
        <ele>1106.9898565514013</ele>
        <time>2026-10-02T02:09:47Z</time>
      </trkpt>
      <trkpt lat="36.580762377006145" lon="109.45755968387397">
        <ele>1107.1004751175642</ele>
        <time>2026-10-02T02:10:08Z</time>
      </trkpt>
      <trkpt lat="36.58066341843529" lon="109.45747936686878">
        <ele>1106.3582166433334</ele>
        <time>2026-10-02T02:10:25Z</time>
      </trkpt>
      <trkpt lat="36.58065653782186" lon="109.45732487165232">
        <ele>1106.770128434524</ele>
        <time>2026-10-02T02:10:37Z</time>
      </trkpt>
      <trkpt lat="36.580685857570764" lon="109.45727469750639">
        <ele>1107.283998480998</ele>
        <time>2026-10-02T02:10:43Z</time>
      </trkpt>
      <trkpt lat="36.58066043689305" lon="109.45720493183">
        <ele>1105.9068281156942</ele>
        <time>2026-10-02T02:10:49Z</time>
      </trkpt>
      <trkpt lat="36.58066185671432" lon="109.45714532367231">
        <ele>1105.327196185477</ele>
        <time>2026-10-02T02:10:55Z</time>
      </trkpt>
      <trkpt lat="36.58075961240939" lon="109.45691223040303">
        <ele>1107.7111127870157</ele>
        <time>2026-10-02T02:11:13Z</time>
      </trkpt>
      <trkpt lat="36.580774160119" lon="109.45683735277541">
        <ele>1108.4447819031775</ele>
        <time>2026-10-02T02:11:19Z</time>
      </trkpt>
      <trkpt lat="36.58075955935522" lon="109.45674594930517">
        <ele>1106.8172530457377</ele>
        <time>2026-10-02T02:11:25Z</time>
      </trkpt>
      <trkpt lat="36.58076704862535" lon="109.45665087407872">
        <ele>1105.7607240397483</ele>
        <time>2026-10-02T02:11:31Z</time>
      </trkpt>
      <trkpt lat="36.58074854959933" lon="109.45656245470289">
        <ele>1106.2840416589752</ele>
        <time>2026-10-02T02:11:37Z</time>
      </trkpt>
      <trkpt lat="36.58075990040769" lon="109.45647943086142">
        <ele>1104.7026237426326</ele>
        <time>2026-10-02T02:11:46Z</time>
      </trkpt>
      <trkpt lat="36.58073467855758" lon="109.45628779354962">
        <ele>1105.3221459211782</ele>
        <time>2026-10-02T02:11:58Z</time>
      </trkpt>
      <trkpt lat="36.58060651429333" lon="109.45613640757477">
        <ele>1097.7478646999225</ele>
        <time>2026-10-02T02:12:20Z</time>
      </trkpt>
      <trkpt lat="36.58054878884043" lon="109.45624527910277">
        <ele>1092.29066700954</ele>
        <time>2026-10-02T02:12:39Z</time>
      </trkpt>
      <trkpt lat="36.580540445602196" lon="109.45630647461957">
        <ele>1089.4584122560918</ele>
        <time>2026-10-02T02:12:51Z</time>
      </trkpt>
      <trkpt lat="36.58050302123234" lon="109.4563736918195">
        <ele>1089.5054963333532</ele>
        <time>2026-10-02T02:13:12Z</time>
      </trkpt>
      <trkpt lat="36.58046314946178" lon="109.45661935335947">
        <ele>1088.309095860459</ele>
        <time>2026-10-02T02:13:30Z</time>
      </trkpt>
      <trkpt lat="36.58032783242518" lon="109.45683496578407">
        <ele>1087.8144412469119</ele>
        <time>2026-10-02T02:13:48Z</time>
      </trkpt>
      <trkpt lat="36.58028427066984" lon="109.45686502309434">
        <ele>1086.5176669247448</ele>
        <time>2026-10-02T02:13:54Z</time>
      </trkpt>
      <trkpt lat="36.58014915367291" lon="109.45704423599332">
        <ele>1083.5938525311649</ele>
        <time>2026-10-02T02:14:25Z</time>
      </trkpt>
      <trkpt lat="36.58006977758532" lon="109.45722090499376">
        <ele>1080.0689126932994</ele>
        <time>2026-10-02T02:14:37Z</time>
      </trkpt>
      <trkpt lat="36.58004881183541" lon="109.4573153785712">
        <ele>1079.5574161121622</ele>
        <time>2026-10-02T02:14:43Z</time>
      </trkpt>
      <trkpt lat="36.58006711025499" lon="109.4575082038409">
        <ele>1080.1944609982893</ele>
        <time>2026-10-02T02:14:55Z</time>
      </trkpt>
      <trkpt lat="36.58012813342683" lon="109.45765331406338">
        <ele>1077.9431697661057</ele>
        <time>2026-10-02T02:15:07Z</time>
      </trkpt>
      <trkpt lat="36.580373620309814" lon="109.45786509927507">
        <ele>1084.160799256526</ele>
        <time>2026-10-02T02:15:31Z</time>
      </trkpt>
      <trkpt lat="36.58047547137229" lon="109.45784106749731">
        <ele>1087.0536605687812</ele>
        <time>2026-10-02T02:15:40Z</time>
      </trkpt>
      <trkpt lat="36.580508795420286" lon="109.45796037204225">
        <ele>1088.532547403127</ele>
        <time>2026-10-02T02:15:46Z</time>
      </trkpt>
      <trkpt lat="36.58055736230934" lon="109.45803296043283">
        <ele>1086.883680849336</ele>
        <time>2026-10-02T02:15:52Z</time>
      </trkpt>
      <trkpt lat="36.58062841146198" lon="109.45807148302863">
        <ele>1086.2237256411463</ele>
        <time>2026-10-02T02:15:58Z</time>
      </trkpt>
      <trkpt lat="36.58066813435313" lon="109.45813556263417">
        <ele>1085.1896048309281</ele>
        <time>2026-10-02T02:16:04Z</time>
      </trkpt>
      <trkpt lat="36.580673834999736" lon="109.4582073390527">
        <ele>1082.46365724504</ele>
        <time>2026-10-02T02:16:10Z</time>
      </trkpt>
      <trkpt lat="36.58063732911694" lon="109.45824988336881">
        <ele>1080.6893654121086</ele>
        <time>2026-10-02T02:16:20Z</time>
      </trkpt>
      <trkpt lat="36.58051239059513" lon="109.45826044652941">
        <ele>1078.1718314429745</ele>
        <time>2026-10-02T02:16:29Z</time>
      </trkpt>
      <trkpt lat="36.5802424578932" lon="109.45834447835973">
        <ele>1069.7520005097613</ele>
        <time>2026-10-02T02:16:53Z</time>
      </trkpt>
      <trkpt lat="36.57992809088062" lon="109.45840843868044">
        <ele>1065.7128921905532</ele>
        <time>2026-10-02T02:17:17Z</time>
      </trkpt>
      <trkpt lat="36.579732110819215" lon="109.45851415575838">
        <ele>1065.440196058713</ele>
        <time>2026-10-02T02:17:35Z</time>
      </trkpt>
      <trkpt lat="36.5794521167053" lon="109.45857376413827">
        <ele>1064.1178611610085</ele>
        <time>2026-10-02T02:17:59Z</time>
      </trkpt>
      <trkpt lat="36.57924398190827" lon="109.45858228578794">
        <ele>1060.9672472588718</ele>
        <time>2026-10-02T02:18:17Z</time>
      </trkpt>
      <trkpt lat="36.57916710011869" lon="109.45856817748131">
        <ele>1059.7463546292856</ele>
        <time>2026-10-02T02:18:24Z</time>
      </trkpt>
      <trkpt lat="36.57912782122093" lon="109.45862506153836">
        <ele>1060.2408889308572</ele>
        <time>2026-10-02T02:18:28Z</time>
      </trkpt>
      <trkpt lat="36.5788850670889" lon="109.45868198974703">
        <ele>1052.410653879866</ele>
        <time>2026-10-02T02:18:53Z</time>
      </trkpt>
      <trkpt lat="36.57867560022193" lon="109.45867616659575">
        <ele>1048.6313236821443</ele>
        <time>2026-10-02T02:19:11Z</time>
      </trkpt>
      <trkpt lat="36.57847079365146" lon="109.4587523636071">
        <ele>1051.2528941761702</ele>
        <time>2026-10-02T02:19:29Z</time>
      </trkpt>
      <trkpt lat="36.57841634804058" lon="109.45868499264812">
        <ele>1047.2519779289141</ele>
        <time>2026-10-02T02:19:38Z</time>
      </trkpt>
      <trkpt lat="36.57831471316169" lon="109.45870086625891">
        <ele>1044.5881428616121</ele>
        <time>2026-10-02T02:19:50Z</time>
      </trkpt>
      <trkpt lat="36.57824887218606" lon="109.45870041285501">
        <ele>1045.0891108782962</ele>
        <time>2026-10-02T02:20:11Z</time>
      </trkpt>
      <trkpt lat="36.57814222888665" lon="109.45861869124728">
        <ele>1043.5046892687678</ele>
        <time>2026-10-02T02:20:20Z</time>
      </trkpt>
      <trkpt lat="36.578143904870146" lon="109.45848056923066">
        <ele>1044.7586077097803</ele>
        <time>2026-10-02T02:20:30Z</time>
      </trkpt>
      <trkpt lat="36.57809351489215" lon="109.45813702640507">
        <ele>1045.7884110445157</ele>
        <time>2026-10-02T02:20:53Z</time>
      </trkpt>
      <trkpt lat="36.57806918464309" lon="109.45808558821403">
        <ele>1046.2985569247976</ele>
        <time>2026-10-02T02:20:56Z</time>
      </trkpt>
      <trkpt lat="36.57806168240659" lon="109.45784395825723">
        <ele>1044.514848029241</ele>
        <time>2026-10-02T02:21:14Z</time>
      </trkpt>
      <trkpt lat="36.57802575334881" lon="109.457658316517">
        <ele>1044.718583968468</ele>
        <time>2026-10-02T02:21:26Z</time>
      </trkpt>
      <trkpt lat="36.57797412419162" lon="109.45765288430219">
        <ele>1039.1336630349979</ele>
        <time>2026-10-02T02:21:32Z</time>
      </trkpt>
      <trkpt lat="36.57792113283429" lon="109.45769131360395">
        <ele>1039.4068105593324</ele>
        <time>2026-10-02T02:21:35Z</time>
      </trkpt>
      <trkpt lat="36.577873114207975" lon="109.45770274765454">
        <ele>1039.7770978352055</ele>
        <time>2026-10-02T02:21:38Z</time>
      </trkpt>
      <trkpt lat="36.577832088083674" lon="109.45773575686616">
        <ele>1038.7226976500824</ele>
        <time>2026-10-02T02:21:41Z</time>
      </trkpt>
      <trkpt lat="36.57774797851425" lon="109.45773865958154">
        <ele>1037.006405197084</ele>
        <time>2026-10-02T02:21:47Z</time>
      </trkpt>
      <trkpt lat="36.57767757876098" lon="109.45771320351764">
        <ele>1035.3912223093212</ele>
        <time>2026-10-02T02:21:53Z</time>
      </trkpt>
      <trkpt lat="36.57761299000933" lon="109.4577410891333">
        <ele>1032.841778324917</ele>
        <time>2026-10-02T02:22:20Z</time>
      </trkpt>
      <trkpt lat="36.57746113162071" lon="109.45770735933073">
        <ele>1030.4277404136956</ele>
        <time>2026-10-02T02:22:32Z</time>
      </trkpt>
      <trkpt lat="36.57741813128723" lon="109.45767962823757">
        <ele>1031.4735233047977</ele>
        <time>2026-10-02T02:22:36Z</time>
      </trkpt>
      <trkpt lat="36.577371312191076" lon="109.45757969139594">
        <ele>1029.3765572477132</ele>
        <time>2026-10-02T02:22:44Z</time>
      </trkpt>
      <trkpt lat="36.57737234081348" lon="109.45744553856458">
        <ele>1030.1728656897321</ele>
        <time>2026-10-02T02:22:55Z</time>
      </trkpt>
      <trkpt lat="36.57744090711534" lon="109.45725618614821">
        <ele>1031.1078774239868</ele>
        <time>2026-10-02T02:23:16Z</time>
      </trkpt>
      <trkpt lat="36.57751751873368" lon="109.45691040946207">
        <ele>1032.9863049658015</ele>
        <time>2026-10-02T02:23:40Z</time>
      </trkpt>
      <trkpt lat="36.57756932069839" lon="109.4568446796771">
        <ele>1034.3224325822666</ele>
        <time>2026-10-02T02:23:46Z</time>
      </trkpt>
      <trkpt lat="36.57758762820053" lon="109.45658568347513">
        <ele>1035.3428117251024</ele>
        <time>2026-10-02T02:24:01Z</time>
      </trkpt>
      <trkpt lat="36.577618322591974" lon="109.45654409434209">
        <ele>1034.4872762681916</ele>
        <time>2026-10-02T02:24:07Z</time>
      </trkpt>
      <trkpt lat="36.57762960467475" lon="109.45644043143415">
        <ele>1035.8832062669098</ele>
        <time>2026-10-02T02:24:16Z</time>
      </trkpt>
      <trkpt lat="36.577694118542155" lon="109.45638721913176">
        <ele>1035.8840647898614</ele>
        <time>2026-10-02T02:24:22Z</time>
      </trkpt>
      <trkpt lat="36.577695785616555" lon="109.45628103721386">
        <ele>1036.2974853627384</ele>
        <time>2026-10-02T02:24:28Z</time>
      </trkpt>
      <trkpt lat="36.577750630122786" lon="109.45619487958855">
        <ele>1036.1731897387654</ele>
        <time>2026-10-02T02:24:34Z</time>
      </trkpt>
      <trkpt lat="36.57776718630362" lon="109.45601862845734">
        <ele>1035.951662180014</ele>
        <time>2026-10-02T02:24:44Z</time>
      </trkpt>
      <trkpt lat="36.57784615320906" lon="109.45591418317584">
        <ele>1037.4048635875806</ele>
        <time>2026-10-02T02:24:52Z</time>
      </trkpt>
      <trkpt lat="36.577842199818576" lon="109.45580062687402">
        <ele>1036.5353681305423</ele>
        <time>2026-10-02T02:24:59Z</time>
      </trkpt>
      <trkpt lat="36.57785932764226" lon="109.45573261942621">
        <ele>1036.8515896489844</ele>
        <time>2026-10-02T02:25:02Z</time>
      </trkpt>
      <trkpt lat="36.57785669223985" lon="109.45563401885289">
        <ele>1037.2777249561623</ele>
        <time>2026-10-02T02:25:08Z</time>
      </trkpt>
      <trkpt lat="36.57791109669272" lon="109.45550316882677">
        <ele>1037.5760884489864</ele>
        <time>2026-10-02T02:25:20Z</time>
      </trkpt>
      <trkpt lat="36.577921269602804" lon="109.45542301890781">
        <ele>1037.7078413199633</ele>
        <time>2026-10-02T02:25:32Z</time>
      </trkpt>
      <trkpt lat="36.57799502301185" lon="109.45518176902357">
        <ele>1038.3396736439317</ele>
        <time>2026-10-02T02:25:56Z</time>
      </trkpt>
      <trkpt lat="36.57800332437574" lon="109.45496022511753">
        <ele>1038.8473682813346</ele>
        <time>2026-10-02T02:26:08Z</time>
      </trkpt>
      <trkpt lat="36.57799209582245" lon="109.45486240557283">
        <ele>1039.1459281370044</ele>
        <time>2026-10-02T02:26:14Z</time>
      </trkpt>
      <trkpt lat="36.57801569808432" lon="109.45476542106803">
        <ele>1039.038688827306</ele>
        <time>2026-10-02T02:26:20Z</time>
      </trkpt>
      <trkpt lat="36.578090896459166" lon="109.45466256367652">
        <ele>1039.1551629109308</ele>
        <time>2026-10-02T02:26:35Z</time>
      </trkpt>
      <trkpt lat="36.57827782858922" lon="109.45447904962681">
        <ele>1042.2608164977282</ele>
        <time>2026-10-02T02:26:54Z</time>
      </trkpt>
      <trkpt lat="36.57837798675773" lon="109.45431049544887">
        <ele>1042.6810266654938</ele>
        <time>2026-10-02T02:27:06Z</time>
      </trkpt>
      <trkpt lat="36.57855071510075" lon="109.45418338570994">
        <ele>1042.8125810287893</ele>
        <time>2026-10-02T02:27:30Z</time>
      </trkpt>
      <trkpt lat="36.578681900136964" lon="109.45401464501047">
        <ele>1044.5354146771133</ele>
        <time>2026-10-02T02:27:48Z</time>
      </trkpt>
      <trkpt lat="36.578746096415294" lon="109.4539731336744">
        <ele>1044.999652580358</ele>
        <time>2026-10-02T02:27:54Z</time>
      </trkpt>
      <trkpt lat="36.57891481557679" lon="109.45378507133252">
        <ele>1046.2233823137358</ele>
        <time>2026-10-02T02:28:12Z</time>
      </trkpt>
      <trkpt lat="36.57892487094105" lon="109.45372612823671">
        <ele>1048.0363674359396</ele>
        <time>2026-10-02T02:28:15Z</time>
      </trkpt>
      <trkpt lat="36.57908583851673" lon="109.45356434834476">
        <ele>1047.6591748911887</ele>
        <time>2026-10-02T02:28:39Z</time>
      </trkpt>
      <trkpt lat="36.57914774826739" lon="109.45354121144103">
        <ele>1047.9982750182971</ele>
        <time>2026-10-02T02:28:48Z</time>
      </trkpt>
      <trkpt lat="36.57916873598734" lon="109.45343622917987">
        <ele>1048.4166297363117</ele>
        <time>2026-10-02T02:28:55Z</time>
      </trkpt>
      <trkpt lat="36.579380786280126" lon="109.45320575924036">
        <ele>1050.5914818421006</ele>
        <time>2026-10-02T02:29:22Z</time>
      </trkpt>
      <trkpt lat="36.57946771104913" lon="109.45306502401132">
        <ele>1051.3140068966895</ele>
        <time>2026-10-02T02:29:34Z</time>
      </trkpt>
      <trkpt lat="36.579584712745216" lon="109.45298713515497">
        <ele>1051.9862905144691</ele>
        <time>2026-10-02T02:29:46Z</time>
      </trkpt>
      <trkpt lat="36.579770367623006" lon="109.4527390852649">
        <ele>1053.064467985183</ele>
        <time>2026-10-02T02:30:10Z</time>
      </trkpt>
      <trkpt lat="36.58000571518955" lon="109.45258936838498">
        <ele>1053.838480773382</ele>
        <time>2026-10-02T02:30:34Z</time>
      </trkpt>
      <trkpt lat="36.58005051743172" lon="109.45250902666528">
        <ele>1054.1776009444147</ele>
        <time>2026-10-02T02:30:40Z</time>
      </trkpt>
      <trkpt lat="36.580293010999" lon="109.45222856996739">
        <ele>1056.0974302738905</ele>
        <time>2026-10-02T02:31:08Z</time>
      </trkpt>
      <trkpt lat="36.580334848755335" lon="109.45206056374688">
        <ele>1057.881541825831</ele>
        <time>2026-10-02T02:31:17Z</time>
      </trkpt>
      <trkpt lat="36.58037330700177" lon="109.45201151404686">
        <ele>1056.6976106008515</ele>
        <time>2026-10-02T02:31:23Z</time>
      </trkpt>
      <trkpt lat="36.58060546222475" lon="109.45189742801882">
        <ele>1060.2887617638335</ele>
        <time>2026-10-02T02:31:38Z</time>
      </trkpt>
      <trkpt lat="36.58061633262354" lon="109.45183504175527">
        <ele>1058.1626876322553</ele>
        <time>2026-10-02T02:31:44Z</time>
      </trkpt>
      <trkpt lat="36.58059971304187" lon="109.45176423316529">
        <ele>1057.5208703661337</ele>
        <time>2026-10-02T02:31:47Z</time>
      </trkpt>
      <trkpt lat="36.58056133375076" lon="109.45171527865024">
        <ele>1057.1100449403748</ele>
        <time>2026-10-02T02:31:50Z</time>
      </trkpt>
      <trkpt lat="36.580551172091745" lon="109.45164193922234">
        <ele>1057.5421436754987</ele>
        <time>2026-10-02T02:31:59Z</time>
      </trkpt>
      <trkpt lat="36.58051070961658" lon="109.45156998248163">
        <ele>1056.1767779691145</ele>
        <time>2026-10-02T02:32:05Z</time>
      </trkpt>
      <trkpt lat="36.580494298582714" lon="109.45150493953072">
        <ele>1056.3721964759752</ele>
        <time>2026-10-02T02:32:11Z</time>
      </trkpt>
      <trkpt lat="36.580544548612984" lon="109.45147002955551">
        <ele>1056.597546318546</ele>
        <time>2026-10-02T02:32:14Z</time>
      </trkpt>
      <trkpt lat="36.58055020705032" lon="109.45137554575531">
        <ele>1055.6905696121976</ele>
        <time>2026-10-02T02:32:20Z</time>
      </trkpt>
      <trkpt lat="36.580483748572625" lon="109.45134128229458">
        <ele>1055.8599104741588</ele>
        <time>2026-10-02T02:32:26Z</time>
      </trkpt>
      <trkpt lat="36.5803968672653" lon="109.45116825951773">
        <ele>1054.5885061044246</ele>
        <time>2026-10-02T02:32:38Z</time>
      </trkpt>
      <trkpt lat="36.580367280899885" lon="109.45105933470423">
        <ele>1053.9885208494961</ele>
        <time>2026-10-02T02:32:44Z</time>
      </trkpt>
      <trkpt lat="36.58032497148658" lon="109.45102655357509">
        <ele>1054.313695515506</ele>
        <time>2026-10-02T02:32:47Z</time>
      </trkpt>
      <trkpt lat="36.58028685225849" lon="109.45096303384366">
        <ele>1055.0186631372198</ele>
        <time>2026-10-02T02:32:53Z</time>
      </trkpt>
      <trkpt lat="36.580282386489436" lon="109.45088999037678">
        <ele>1054.113177956082</ele>
        <time>2026-10-02T02:33:06Z</time>
      </trkpt>
      <trkpt lat="36.58031934386839" lon="109.45084610230408">
        <ele>1056.2856210544705</ele>
        <time>2026-10-02T02:33:10Z</time>
      </trkpt>
      <trkpt lat="36.580613913470046" lon="109.45072148450069">
        <ele>1059.0351953124627</ele>
        <time>2026-10-02T02:33:39Z</time>
      </trkpt>
      <trkpt lat="36.58087801767924" lon="109.45060688395">
        <ele>1059.7087225057185</ele>
        <time>2026-10-02T02:34:00Z</time>
      </trkpt>
      <trkpt lat="36.58102129534306" lon="109.45056834438013">
        <ele>1058.99898332078</ele>
        <time>2026-10-02T02:34:09Z</time>
      </trkpt>
      <trkpt lat="36.58106653741137" lon="109.45052417670739">
        <ele>1058.8704204978421</ele>
        <time>2026-10-02T02:34:18Z</time>
      </trkpt>
      <trkpt lat="36.581119203679506" lon="109.45054714839772">
        <ele>1059.877094719559</ele>
        <time>2026-10-02T02:34:24Z</time>
      </trkpt>
      <trkpt lat="36.581150112055916" lon="109.45050044655514">
        <ele>1060.8630621405318</ele>
        <time>2026-10-02T02:34:27Z</time>
      </trkpt>
      <trkpt lat="36.58142114198174" lon="109.45044086569327">
        <ele>1059.380389704369</ele>
        <time>2026-10-02T02:34:45Z</time>
      </trkpt>
      <trkpt lat="36.58172550405239" lon="109.45034905044078">
        <ele>1059.5964767104015</ele>
        <time>2026-10-02T02:35:06Z</time>
      </trkpt>
      <trkpt lat="36.58178324701695" lon="109.45032186206322">
        <ele>1059.212159843184</ele>
        <time>2026-10-02T02:35:13Z</time>
      </trkpt>
      <trkpt lat="36.58184807376257" lon="109.4502471388515">
        <ele>1058.1765335649252</ele>
        <time>2026-10-02T02:35:21Z</time>
      </trkpt>
      <trkpt lat="36.58191428038688" lon="109.45023137608483">
        <ele>1057.8664413690567</ele>
        <time>2026-10-02T02:35:34Z</time>
      </trkpt>
      <trkpt lat="36.5819464424333" lon="109.45017712499384">
        <ele>1058.6791400332004</ele>
        <time>2026-10-02T02:35:43Z</time>
      </trkpt>
      <trkpt lat="36.58218379317938" lon="109.45001872165099">
        <ele>1060.7385416822508</ele>
        <time>2026-10-02T02:36:04Z</time>
      </trkpt>
      <trkpt lat="36.58229807598069" lon="109.4498861317633">
        <ele>1060.6880702022463</ele>
        <time>2026-10-02T02:36:16Z</time>
      </trkpt>
      <trkpt lat="36.58235031166394" lon="109.44979947152204">
        <ele>1062.1046512247995</ele>
        <time>2026-10-02T02:36:22Z</time>
      </trkpt>
      <trkpt lat="36.58250972891655" lon="109.4497123663187">
        <ele>1062.4360641650856</ele>
        <time>2026-10-02T02:36:37Z</time>
      </trkpt>
      <trkpt lat="36.58262327564193" lon="109.44958187671324">
        <ele>1061.6677395226434</ele>
        <time>2026-10-02T02:36:50Z</time>
      </trkpt>
      <trkpt lat="36.58265489752715" lon="109.44944268325249">
        <ele>1063.6427389802411</ele>
        <time>2026-10-02T02:37:05Z</time>
      </trkpt>
      <trkpt lat="36.582632000912334" lon="109.44934867673842">
        <ele>1064.8313399534672</ele>
        <time>2026-10-02T02:37:14Z</time>
      </trkpt>
      <trkpt lat="36.58263943848292" lon="109.44926813872654">
        <ele>1064.8243281496689</ele>
        <time>2026-10-02T02:37:18Z</time>
      </trkpt>
      <trkpt lat="36.58288472528256" lon="109.44903022435501">
        <ele>1067.7743339780718</ele>
        <time>2026-10-02T02:37:48Z</time>
      </trkpt>
      <trkpt lat="36.582979283713016" lon="109.44894792077316">
        <ele>1069.036810817197</ele>
        <time>2026-10-02T02:38:00Z</time>
      </trkpt>
      <trkpt lat="36.583251079785256" lon="109.44882125692847">
        <ele>1070.672641201876</ele>
        <time>2026-10-02T02:38:30Z</time>
      </trkpt>
      <trkpt lat="36.583426215855724" lon="109.44872695688692">
        <ele>1069.2004475612193</ele>
        <time>2026-10-02T02:38:48Z</time>
      </trkpt>
      <trkpt lat="36.58346804811812" lon="109.44866966265495">
        <ele>1069.7505377428606</ele>
        <time>2026-10-02T02:38:54Z</time>
      </trkpt>
      <trkpt lat="36.583563265461166" lon="109.44859966568968">
        <ele>1072.6232368387282</ele>
        <time>2026-10-02T02:39:12Z</time>
      </trkpt>
      <trkpt lat="36.58360831099144" lon="109.44859548882297">
        <ele>1072.4918457046151</ele>
        <time>2026-10-02T02:39:21Z</time>
      </trkpt>
      <trkpt lat="36.5836965399558" lon="109.44848801224144">
        <ele>1074.1958361594006</ele>
        <time>2026-10-02T02:39:34Z</time>
      </trkpt>
      <trkpt lat="36.58385569510078" lon="109.44843766390595">
        <ele>1073.8640818903223</ele>
        <time>2026-10-02T02:39:46Z</time>
      </trkpt>
      <trkpt lat="36.58396603973649" lon="109.44846790766366">
        <ele>1077.0138822263107</ele>
        <time>2026-10-02T02:39:55Z</time>
      </trkpt>
      <trkpt lat="36.58418262499561" lon="109.44850835237573">
        <ele>1077.0476537169889</ele>
        <time>2026-10-02T02:40:19Z</time>
      </trkpt>
      <trkpt lat="36.58416989807106" lon="109.44858554997289">
        <ele>1076.8269860111177</ele>
        <time>2026-10-02T02:40:25Z</time>
      </trkpt>
      <trkpt lat="36.58423097874472" lon="109.44883258529705">
        <ele>1076.8780086692423</ele>
        <time>2026-10-02T02:40:43Z</time>
      </trkpt>
      <trkpt lat="36.58422108889606" lon="109.44899479940456">
        <ele>1076.2454525660723</ele>
        <time>2026-10-02T02:40:55Z</time>
      </trkpt>
      <trkpt lat="36.58419585606892" lon="109.44907430514834">
        <ele>1075.5804432649165</ele>
        <time>2026-10-02T02:41:04Z</time>
      </trkpt>
      <trkpt lat="36.584194331498594" lon="109.44916504113714">
        <ele>1075.2474459670484</ele>
        <time>2026-10-02T02:41:13Z</time>
      </trkpt>
      <trkpt lat="36.5840867515388" lon="109.44939664275387">
        <ele>1074.6198420962319</ele>
        <time>2026-10-02T02:41:32Z</time>
      </trkpt>
      <trkpt lat="36.58405288085198" lon="109.44952194188228">
        <ele>1073.5776737593114</ele>
        <time>2026-10-02T02:41:42Z</time>
      </trkpt>
      <trkpt lat="36.58405288085198" lon="109.44952194188228">
        <ele>1073.5776737593114</ele>
        <time>2026-10-02T02:41:52Z</time>
      </trkpt>
    </trkseg>
  </trk>
</gpx>