<?xml version="1.0" encoding="UTF-8"?>
<gpx xmlns="http://www.topografix.com/GPX/1/1" xmlns:gpxtpx="http://www.garmin.com/xmlschemas/TrackPointExtension/v1" xmlns:xsi="http://www.w3.org/2001/XMLSchema-instance" xsi:schemaLocation="http://www.topografix.com/GPX/1/1 http://www.topografix.com/GPX/1/1/gpx.xsd" version="1.1" creator="gpx.py -- https://github.com/tkrajina/gpxpy">
  <trk>
    <name>gpx from keep</name>
    <type>Ride</type>
    <trkseg>
      <trkpt lat="34.306504748683494" lon="109.03584776385456">
        <ele>392.05109276622534</ele>
        <time>2022-03-08T10:57:28Z</time>
      </trkpt>
      <trkpt lat="34.306577888811105" lon="109.03581212585564">
        <ele>391.6454917555675</ele>
        <time>2022-03-08T11:00:53Z</time>
      </trkpt>
      <trkpt lat="34.30644176574873" lon="109.03569881456211">
        <ele>392.94603473413736</ele>
        <time>2022-03-08T11:01:59Z</time>
      </trkpt>
      <trkpt lat="34.30645184072015" lon="109.03554762414015">
        <ele>392.746087981388</ele>
        <time>2022-03-08T11:02:03Z</time>
      </trkpt>
      <trkpt lat="34.30639395009158" lon="109.03528831234178">
        <ele>392.3683693287894</ele>
        <time>2022-03-08T11:02:09Z</time>
      </trkpt>
      <trkpt lat="34.30639717069205" lon="109.03513269476784">
        <ele>391.8231001403183</ele>
        <time>2022-03-08T11:02:13Z</time>
      </trkpt>
      <trkpt lat="34.30641760209483" lon="109.03499512665577">
        <ele>392.2852939767763</ele>
        <time>2022-03-08T11:02:17Z</time>
      </trkpt>
      <trkpt lat="34.30639002321827" lon="109.03490863460327">
        <ele>392.39098866749555</ele>
        <time>2022-03-08T11:02:21Z</time>
      </trkpt>
      <trkpt lat="34.30648538236701" lon="109.03485348235431">
        <ele>392.7790395915508</ele>
        <time>2022-03-08T11:02:27Z</time>
      </trkpt>
      <trkpt lat="34.30651174921131" lon="109.03476384922901">
        <ele>392.8228869205341</ele>
        <time>2022-03-08T11:02:29Z</time>
      </trkpt>
      <trkpt lat="34.30651609316667" lon="109.03467153158766">
        <ele>392.8493300648406</ele>
        <time>2022-03-08T11:02:31Z</time>
      </trkpt>
      <trkpt lat="34.30644457911115" lon="109.03439288176433">
        <ele>392.6120034754276</ele>
        <time>2022-03-08T11:02:37Z</time>
      </trkpt>
      <trkpt lat="34.30643113578209" lon="109.03407484505178">
        <ele>392.35629069432616</ele>
        <time>2022-03-08T11:02:45Z</time>
      </trkpt>
      <trkpt lat="34.30634183145861" lon="109.0338435226027">
        <ele>392.9610156584531</ele>
        <time>2022-03-08T11:02:51Z</time>
      </trkpt>
      <trkpt lat="34.30631224227399" lon="109.03363505538317">
        <ele>392.0623197313398</ele>
        <time>2022-03-08T11:02:57Z</time>
      </trkpt>
      <trkpt lat="34.306319240773405" lon="109.03348612148521">
        <ele>393.6575712142512</ele>
        <time>2022-03-08T11:03:01Z</time>
      </trkpt>
      <trkpt lat="34.306426529948354" lon="109.03320807678998">
        <ele>394.5845164367929</ele>
        <time>2022-03-08T11:03:09Z</time>
      </trkpt>
      <trkpt lat="34.3063735398807" lon="109.03264394802554">
        <ele>392.48079240322113</ele>
        <time>2022-03-08T11:03:21Z</time>
      </trkpt>
      <trkpt lat="34.30640518304733" lon="109.03249514257553">
        <ele>393.10428693145514</ele>
        <time>2022-03-08T11:03:25Z</time>
      </trkpt>
      <trkpt lat="34.306413765468136" lon="109.03232515179258">
        <ele>393.2754578916356</ele>
        <time>2022-03-08T11:03:29Z</time>
      </trkpt>
      <trkpt lat="34.30635537064603" lon="109.03171328960079">
        <ele>391.99197091534734</ele>
        <time>2022-03-08T11:03:40Z</time>
      </trkpt>
      <trkpt lat="34.306336797989864" lon="109.03141216417826">
        <ele>391.4578148908913</ele>
        <time>2022-03-08T11:03:47Z</time>
      </trkpt>
      <trkpt lat="34.306376762626925" lon="109.0313330007793">
        <ele>391.28645542357117</ele>
        <time>2022-03-08T11:03:49Z</time>
      </trkpt>
      <trkpt lat="34.30646156074995" lon="109.03123982597707">
        <ele>391.38838469516486</ele>
        <time>2022-03-08T11:03:53Z</time>
      </trkpt>
      <trkpt lat="34.30695741396934" lon="109.03102886142435">
        <ele>390.80941729526967</ele>
        <time>2022-03-08T11:04:07Z</time>
      </trkpt>
      <trkpt lat="34.30739774444516" lon="109.03090962749235">
        <ele>392.1772365020588</ele>
        <time>2022-03-08T11:04:15Z</time>
      </trkpt>
      <trkpt lat="34.307840981705155" lon="109.03084062670281">
        <ele>392.60986443050206</ele>
        <time>2022-03-08T11:04:23Z</time>
      </trkpt>
      <trkpt lat="34.30794458988929" lon="109.03083162369546">
        <ele>393.03110241517425</ele>
        <time>2022-03-08T11:04:25Z</time>
      </trkpt>
      <trkpt lat="34.30812216128044" lon="109.03077724988734">
        <ele>394.08780801389366</ele>
        <time>2022-03-08T11:04:29Z</time>
      </trkpt>
      <trkpt lat="34.30822349118325" lon="109.03078366310812">
        <ele>395.121708904393</ele>
        <time>2022-03-08T11:04:31Z</time>
      </trkpt>
      <trkpt lat="34.30840378532557" lon="109.03074334106942">
        <ele>394.39499730523676</ele>
        <time>2022-03-08T11:04:35Z</time>
      </trkpt>
      <trkpt lat="34.308847735209156" lon="109.03068486613815">
        <ele>394.4233280364424</ele>
        <time>2022-03-08T11:04:45Z</time>
      </trkpt>
      <trkpt lat="34.308928377362975" lon="109.03064099151965">
        <ele>393.4524228274822</ele>
        <time>2022-03-08T11:04:47Z</time>
      </trkpt>
      <trkpt lat="34.309376695912235" lon="109.0304983642568">
        <ele>393.45719766709954</ele>
        <time>2022-03-08T11:04:57Z</time>
      </trkpt>
      <trkpt lat="34.30955527556004" lon="109.03038270000484">
        <ele>392.5914865061641</ele>
        <time>2022-03-08T11:05:01Z</time>
      </trkpt>
      <trkpt lat="34.30996060401627" lon="109.03006460025229">
        <ele>393.46012149658054</ele>
        <time>2022-03-08T11:05:11Z</time>
      </trkpt>
      <trkpt lat="34.31035752591581" lon="109.02969282444276">
        <ele>391.97469083126634</ele>
        <time>2022-03-08T11:05:21Z</time>
      </trkpt>
      <trkpt lat="34.31044209499075" lon="109.02962484423986">
        <ele>391.1534547973424</ele>
        <time>2022-03-08T11:05:23Z</time>
      </trkpt>
      <trkpt lat="34.310822119707545" lon="109.02924404534286">
        <ele>392.9128056243062</ele>
        <time>2022-03-08T11:05:33Z</time>
      </trkpt>
      <trkpt lat="34.31105253495118" lon="109.02901805297644">
        <ele>391.00811519287527</ele>
        <time>2022-03-08T11:05:39Z</time>
      </trkpt>
      <trkpt lat="34.31118220074589" lon="109.02884852314361">
        <ele>390.2646957542747</ele>
        <time>2022-03-08T11:05:43Z</time>
      </trkpt>
      <trkpt lat="34.31135817603459" lon="109.02845215108627">
        <ele>392.1445622276515</ele>
        <time>2022-03-08T11:05:51Z</time>
      </trkpt>
      <trkpt lat="34.31147075415048" lon="109.02792183866481">
        <ele>392.2742472924292</ele>
        <time>2022-03-08T11:06:01Z</time>
      </trkpt>
      <trkpt lat="34.311495927132086" lon="109.02746577517111">
        <ele>392.63103032670915</ele>
        <time>2022-03-08T11:06:09Z</time>
      </trkpt>
      <trkpt lat="34.311574277256405" lon="109.02712413646576">
        <ele>392.659417825751</ele>
        <time>2022-03-08T11:06:15Z</time>
      </trkpt>
      <trkpt lat="34.311724815934895" lon="109.02681112387805">
        <ele>392.07852797489613</ele>
        <time>2022-03-08T11:06:21Z</time>
      </trkpt>
      <trkpt lat="34.311853235125525" lon="109.02663090987811">
        <ele>391.30003387480974</ele>
        <time>2022-03-08T11:06:25Z</time>
      </trkpt>
      <trkpt lat="34.31215432192423" lon="109.02632541947605">
        <ele>392.5428128708154</ele>
        <time>2022-03-08T11:06:33Z</time>
      </trkpt>
      <trkpt lat="34.31225103348582" lon="109.02628857409948">
        <ele>393.65538448188454</ele>
        <time>2022-03-08T11:06:35Z</time>
      </trkpt>
      <trkpt lat="34.312462727235726" lon="109.02606172325595">
        <ele>392.5760777592659</ele>
        <time>2022-03-08T11:06:41Z</time>
      </trkpt>
      <trkpt lat="34.312569146559554" lon="109.02601589110363">
        <ele>392.49004351440817</ele>
        <time>2022-03-08T11:06:43Z</time>
      </trkpt>
      <trkpt lat="34.31284673742093" lon="109.02582239823626">
        <ele>393.1950567374006</ele>
        <time>2022-03-08T11:06:49Z</time>
      </trkpt>
      <trkpt lat="34.312946948913996" lon="109.02579660301384">
        <ele>392.4064119113609</ele>
        <time>2022-03-08T11:06:51Z</time>
      </trkpt>
      <trkpt lat="34.313302146180376" lon="109.02563704290976">
        <ele>392.074239930138</ele>
        <time>2022-03-08T11:06:59Z</time>
      </trkpt>
      <trkpt lat="34.3135821042712" lon="109.02553539963853">
        <ele>391.23190030641854</ele>
        <time>2022-03-08T11:07:05Z</time>
      </trkpt>
      <trkpt lat="34.31385961155045" lon="109.02546330507353">
        <ele>390.6328293848783</ele>
        <time>2022-03-08T11:07:11Z</time>
      </trkpt>
      <trkpt lat="34.3142149284339" lon="109.02530076596624">
        <ele>391.0849607726559</ele>
        <time>2022-03-08T11:07:19Z</time>
      </trkpt>
      <trkpt lat="34.31453461448274" lon="109.02506200063726">
        <ele>389.31877374928445</ele>
        <time>2022-03-08T11:07:27Z</time>
      </trkpt>
      <trkpt lat="34.314712200719114" lon="109.02496805273526">
        <ele>389.0416148323566</ele>
        <time>2022-03-08T11:07:31Z</time>
      </trkpt>
      <trkpt lat="34.315147314292375" lon="109.02464652433187">
        <ele>389.66868913546205</ele>
        <time>2022-03-08T11:07:41Z</time>
      </trkpt>
      <trkpt lat="34.31560343520294" lon="109.02433251726454">
        <ele>390.6335810609162</ele>
        <time>2022-03-08T11:07:51Z</time>
      </trkpt>
      <trkpt lat="34.31599144814661" lon="109.024120601024">
        <ele>389.86912436038256</ele>
        <time>2022-03-08T11:07:59Z</time>
      </trkpt>
      <trkpt lat="34.316461839262296" lon="109.02395718684602">
        <ele>389.8552605500445</ele>
        <time>2022-03-08T11:08:09Z</time>
      </trkpt>
      <trkpt lat="34.31654116768468" lon="109.02387831846642">
        <ele>389.7861424917355</ele>
        <time>2022-03-08T11:08:13Z</time>
      </trkpt>
      <trkpt lat="34.31653373038019" lon="109.02387078775311">
        <ele>389.3865990303457</ele>
        <time>2022-03-08T11:08:21Z</time>
      </trkpt>
      <trkpt lat="34.31643887258956" lon="109.02373782373066">
        <ele>390.41545601189137</ele>
        <time>2022-03-08T11:09:08Z</time>
      </trkpt>
      <trkpt lat="34.316382064389686" lon="109.0236705438492">
        <ele>390.6191298160702</ele>
        <time>2022-03-08T11:09:10Z</time>
      </trkpt>
      <trkpt lat="34.3161762884066" lon="109.02323573667724">
        <ele>389.3310410454869</ele>
        <time>2022-03-08T11:09:20Z</time>
      </trkpt>
      <trkpt lat="34.316116058500754" lon="109.02303468866856">
        <ele>388.8262827899307</ele>
        <time>2022-03-08T11:09:24Z</time>
      </trkpt>
      <trkpt lat="34.315916626365485" lon="109.02256116313511">
        <ele>388.6441565323621</ele>
        <time>2022-03-08T11:09:34Z</time>
      </trkpt>
      <trkpt lat="34.31583347508111" lon="109.02237368186414">
        <ele>389.9614475350827</ele>
        <time>2022-03-08T11:09:38Z</time>
      </trkpt>
      <trkpt lat="34.31580886916823" lon="109.02204859599621">
        <ele>391.6154756350443</ele>
        <time>2022-03-08T11:09:44Z</time>
      </trkpt>
      <trkpt lat="34.31581281868739" lon="109.02193635022032">
        <ele>392.2751327948645</ele>
        <time>2022-03-08T11:09:46Z</time>
      </trkpt>
      <trkpt lat="34.315938309755936" lon="109.02161780856197">
        <ele>392.486588508822</ele>
        <time>2022-03-08T11:09:53Z</time>
      </trkpt>
      <trkpt lat="34.3159183090156" lon="109.02109538593442">
        <ele>395.2826911890879</ele>
        <time>2022-03-08T11:10:05Z</time>
      </trkpt>
      <trkpt lat="34.31591683752653" lon="109.02076126109912">
        <ele>396.9433988695964</ele>
        <time>2022-03-08T11:10:13Z</time>
      </trkpt>
      <trkpt lat="34.31590214657092" lon="109.02067395502345">
        <ele>397.17455714568496</ele>
        <time>2022-03-08T11:10:15Z</time>
      </trkpt>
      <trkpt lat="34.31590099344026" lon="109.0201075596801">
        <ele>398.093032293953</ele>
        <time>2022-03-08T11:10:27Z</time>
      </trkpt>
      <trkpt lat="34.31589607023713" lon="109.01993008633632">
        <ele>398.9023434771225</ele>
        <time>2022-03-08T11:10:31Z</time>
      </trkpt>
      <trkpt lat="34.31591334221076" lon="109.0198335329781">
        <ele>398.3095097299665</ele>
        <time>2022-03-08T11:10:33Z</time>
      </trkpt>
      <trkpt lat="34.31591245196797" lon="109.019159321026">
        <ele>400.84324136190116</ele>
        <time>2022-03-08T11:10:49Z</time>
      </trkpt>
      <trkpt lat="34.31591958007065" lon="109.01862778124675">
        <ele>401.6875339988619</ele>
        <time>2022-03-08T11:11:01Z</time>
      </trkpt>
      <trkpt lat="34.31592843769503" lon="109.0181050604122">
        <ele>405.01589434966445</ele>
        <time>2022-03-08T11:11:13Z</time>
      </trkpt>
      <trkpt lat="34.31589613564429" lon="109.01762104105144">
        <ele>405.4902792740613</ele>
        <time>2022-03-08T11:11:25Z</time>
      </trkpt>
      <trkpt lat="34.315854143397864" lon="109.01698438272525">
        <ele>406.3492179689929</ele>
        <time>2022-03-08T11:11:39Z</time>
      </trkpt>
      <trkpt lat="34.315839085970595" lon="109.01642773011909">
        <ele>408.6568096317351</ele>
        <time>2022-03-08T11:11:51Z</time>
      </trkpt>
      <trkpt lat="34.31586132181038" lon="109.01589118735178">
        <ele>408.7450755080208</ele>
        <time>2022-03-08T11:12:01Z</time>
      </trkpt>
      <trkpt lat="34.31587257131253" lon="109.01554154752048">
        <ele>408.68260235805064</ele>
        <time>2022-03-08T11:12:07Z</time>
      </trkpt>
      <trkpt lat="34.315894748627336" lon="109.0153192046921">
        <ele>408.2817301414907</ele>
        <time>2022-03-08T11:12:11Z</time>
      </trkpt>
      <trkpt lat="34.31590104637762" lon="109.01487235179418">
        <ele>408.0557879973203</ele>
        <time>2022-03-08T11:12:19Z</time>
      </trkpt>
      <trkpt lat="34.315862624909315" lon="109.01433111860206">
        <ele>410.22973765432835</ele>
        <time>2022-03-08T11:12:29Z</time>
      </trkpt>
      <trkpt lat="34.31585289489124" lon="109.01391336725055">
        <ele>409.54294804111123</ele>
        <time>2022-03-08T11:12:37Z</time>
      </trkpt>
      <trkpt lat="34.31588844760063" lon="109.01344167112782">
        <ele>408.95052558369935</ele>
        <time>2022-03-08T11:12:45Z</time>
      </trkpt>
      <trkpt lat="34.3158768232521" lon="109.01288728526752">
        <ele>409.28314088098705</ele>
        <time>2022-03-08T11:12:55Z</time>
      </trkpt>
      <trkpt lat="34.31590192007221" lon="109.01240102888679">
        <ele>409.9599316017702</ele>
        <time>2022-03-08T11:13:03Z</time>
      </trkpt>
      <trkpt lat="34.315876609187335" lon="109.01178246483403">
        <ele>409.59440594911575</ele>
        <time>2022-03-08T11:13:13Z</time>
      </trkpt>
      <trkpt lat="34.31587569438162" lon="109.01152772050219">
        <ele>409.58186556492</ele>
        <time>2022-03-08T11:13:17Z</time>
      </trkpt>
      <trkpt lat="34.31585790076473" lon="109.0114273988746">
        <ele>409.3978595761582</ele>
        <time>2022-03-08T11:13:19Z</time>
      </trkpt>
      <trkpt lat="34.315891807517495" lon="109.01079293008092">
        <ele>408.931947754696</ele>
        <time>2022-03-08T11:13:29Z</time>
      </trkpt>
      <trkpt lat="34.315875462473095" lon="109.01018667540305">
        <ele>408.6940822964534</ele>
        <time>2022-03-08T11:13:39Z</time>
      </trkpt>
      <trkpt lat="34.31589394227884" lon="109.00993142710266">
        <ele>408.8166619678959</ele>
        <time>2022-03-08T11:13:43Z</time>
      </trkpt>
      <trkpt lat="34.31594418100702" lon="109.00981117007217">
        <ele>407.58256066963077</ele>
        <time>2022-03-08T11:13:45Z</time>
      </trkpt>
      <trkpt lat="34.31604161338237" lon="109.00973838530236">
        <ele>407.1938559152186</ele>
        <time>2022-03-08T11:13:47Z</time>
      </trkpt>
      <trkpt lat="34.316148256357906" lon="109.0097222929503">
        <ele>407.58177539519966</ele>
        <time>2022-03-08T11:13:49Z</time>
      </trkpt>
      <trkpt lat="34.3162290420133" lon="109.00974480743079">
        <ele>408.64808740187436</ele>
        <time>2022-03-08T11:13:51Z</time>
      </trkpt>
      <trkpt lat="34.316710300496716" lon="109.00972780680048">
        <ele>408.73977762274444</ele>
        <time>2022-03-08T11:14:01Z</time>
      </trkpt>
      <trkpt lat="34.316919902862054" lon="109.00970068220282">
        <ele>408.6203012438491</ele>
        <time>2022-03-08T11:14:05Z</time>
      </trkpt>
      <trkpt lat="34.31710118872245" lon="109.00966144212217">
        <ele>409.59383165929466</ele>
        <time>2022-03-08T11:14:09Z</time>
      </trkpt>
      <trkpt lat="34.31738401455058" lon="109.00964591302255">
        <ele>409.33371481113136</ele>
        <time>2022-03-08T11:14:15Z</time>
      </trkpt>
      <trkpt lat="34.31785443650206" lon="109.00962926064614">
        <ele>410.3809188110754</ele>
        <time>2022-03-08T11:14:25Z</time>
      </trkpt>
      <trkpt lat="34.318044944844644" lon="109.0096231612944">
        <ele>409.85890680179</ele>
        <time>2022-03-08T11:14:29Z</time>
      </trkpt>
      <trkpt lat="34.31834951438548" lon="109.00955606883353">
        <ele>409.11007649078965</ele>
        <time>2022-03-08T11:14:35Z</time>
      </trkpt>
      <trkpt lat="34.3186813346918" lon="109.00954523101318">
        <ele>408.2434494784102</ele>
        <time>2022-03-08T11:14:41Z</time>
      </trkpt>
      <trkpt lat="34.31915107890416" lon="109.00959078745367">
        <ele>408.0139209162444</ele>
        <time>2022-03-08T11:14:49Z</time>
      </trkpt>
      <trkpt lat="34.319662977184315" lon="109.00961938376076">
        <ele>406.6101760221645</ele>
        <time>2022-03-08T11:14:57Z</time>
      </trkpt>
      <trkpt lat="34.32016442781274" lon="109.00961555690631">
        <ele>405.81476648990065</ele>
        <time>2022-03-08T11:15:05Z</time>
      </trkpt>
      <trkpt lat="34.32053799529608" lon="109.0095744931309">
        <ele>404.7025129683316</ele>
        <time>2022-03-08T11:15:11Z</time>
      </trkpt>
      <trkpt lat="34.320799629602426" lon="109.00960385218883">
        <ele>403.4606211250648</ele>
        <time>2022-03-08T11:15:15Z</time>
      </trkpt>
      <trkpt lat="34.32131162841942" lon="109.00958199078094">
        <ele>402.58524091541767</ele>
        <time>2022-03-08T11:15:23Z</time>
      </trkpt>
      <trkpt lat="34.32170732961327" lon="109.00956411037458">
        <ele>401.76085156947374</ele>
        <time>2022-03-08T11:15:29Z</time>
      </trkpt>
      <trkpt lat="34.3219826812695" lon="109.00957774147388">
        <ele>400.5797372991219</ele>
        <time>2022-03-08T11:15:33Z</time>
      </trkpt>
      <trkpt lat="34.322518002203104" lon="109.00953844754665">
        <ele>400.28009062446654</ele>
        <time>2022-03-08T11:15:41Z</time>
      </trkpt>
      <trkpt lat="34.3230614615069" lon="109.00950036510717">
        <ele>399.29467991832644</ele>
        <time>2022-03-08T11:15:49Z</time>
      </trkpt>
      <trkpt lat="34.323583281395265" lon="109.00943397671293">
        <ele>397.33043994475156</ele>
        <time>2022-03-08T11:15:57Z</time>
      </trkpt>
      <trkpt lat="34.32382916632914" lon="109.00939855282519">
        <ele>395.6791039761156</ele>
        <time>2022-03-08T11:16:01Z</time>
      </trkpt>
      <trkpt lat="34.324284627990686" lon="109.00924164295152">
        <ele>396.2716704364866</ele>
        <time>2022-03-08T11:16:09Z</time>
      </trkpt>
      <trkpt lat="34.324699473140114" lon="109.00907506574248">
        <ele>396.24119734112173</ele>
        <time>2022-03-08T11:16:17Z</time>
      </trkpt>
      <trkpt lat="34.32518378751973" lon="109.00883230177475">
        <ele>395.9081778526306</ele>
        <time>2022-03-08T11:16:27Z</time>
      </trkpt>
      <trkpt lat="34.32565226691849" lon="109.00856126776021">
        <ele>396.17397624161094</ele>
        <time>2022-03-08T11:16:37Z</time>
      </trkpt>
      <trkpt lat="34.32613559329523" lon="109.00828843866744">
        <ele>395.8996649514884</ele>
        <time>2022-03-08T11:16:47Z</time>
      </trkpt>
      <trkpt lat="34.32660345053088" lon="109.00797882188647">
        <ele>395.97217758744955</ele>
        <time>2022-03-08T11:16:57Z</time>
      </trkpt>
      <trkpt lat="34.327068452104186" lon="109.00767646183762">
        <ele>395.359802656807</ele>
        <time>2022-03-08T11:17:07Z</time>
      </trkpt>
      <trkpt lat="34.32731860766874" lon="109.00746866423833">
        <ele>395.8990289932117</ele>
        <time>2022-03-08T11:17:13Z</time>
      </trkpt>
      <trkpt lat="34.32758421671623" lon="109.00732021379359">
        <ele>394.7449336219579</ele>
        <time>2022-03-08T11:17:19Z</time>
      </trkpt>
      <trkpt lat="34.32765206854848" lon="109.0072592534983">
        <ele>394.969937665388</ele>
        <time>2022-03-08T11:17:21Z</time>
      </trkpt>
      <trkpt lat="34.327679526140855" lon="109.00717879109297">
        <ele>394.9922923501581</ele>
        <time>2022-03-08T11:17:23Z</time>
      </trkpt>
      <trkpt lat="34.32770623288507" lon="109.0068843624431">
        <ele>395.0991352563724</ele>
        <time>2022-03-08T11:17:31Z</time>
      </trkpt>
      <trkpt lat="34.32779148412834" lon="109.00678219390045">
        <ele>395.11790845077485</ele>
        <time>2022-03-08T11:17:35Z</time>
      </trkpt>
      <trkpt lat="34.32784621539048" lon="109.00666265571375">
        <ele>394.24365534540266</ele>
        <time>2022-03-08T11:17:47Z</time>
      </trkpt>
      <trkpt lat="34.32796160106064" lon="109.00649959456231">
        <ele>397.5275813341141</ele>
        <time>2022-03-08T11:18:06Z</time>
      </trkpt>
      <trkpt lat="34.32797336540327" lon="109.00589405110985">
        <ele>395.75950722489506</ele>
        <time>2022-03-08T11:18:19Z</time>
      </trkpt>
      <trkpt lat="34.3279134757554" lon="109.00529885919083">
        <ele>394.7572189886123</ele>
        <time>2022-03-08T11:18:29Z</time>
      </trkpt>
      <trkpt lat="34.32784519956696" lon="109.0047744635913">
        <ele>392.7937313839793</ele>
        <time>2022-03-08T11:18:37Z</time>
      </trkpt>
      <trkpt lat="34.327873444544245" lon="109.00426035547962">
        <ele>393.2013593595475</ele>
        <time>2022-03-08T11:18:45Z</time>
      </trkpt>
      <trkpt lat="34.32795037681676" lon="109.00379234946413">
        <ele>393.26910770870745</ele>
        <time>2022-03-08T11:18:53Z</time>
      </trkpt>
      <trkpt lat="34.32798116164784" lon="109.0032081803478">
        <ele>393.21623707562685</ele>
        <time>2022-03-08T11:19:03Z</time>
      </trkpt>
      <trkpt lat="34.32799541906119" lon="109.00300907446899">
        <ele>394.40214565582573</ele>
        <time>2022-03-08T11:19:07Z</time>
      </trkpt>
      <trkpt lat="34.3279642533198" lon="109.0027804248065">
        <ele>393.70062472485006</ele>
        <time>2022-03-08T11:19:11Z</time>
      </trkpt>
      <trkpt lat="34.3279565811688" lon="109.00235809413464">
        <ele>393.29557895008475</ele>
        <time>2022-03-08T11:19:19Z</time>
      </trkpt>
      <trkpt lat="34.327943375426194" lon="109.00226568176676">
        <ele>392.841206795536</ele>
        <time>2022-03-08T11:19:21Z</time>
      </trkpt>
      <trkpt lat="34.32795066413747" lon="109.00173853850451">
        <ele>393.43759755790234</ele>
        <time>2022-03-08T11:19:33Z</time>
      </trkpt>
      <trkpt lat="34.327949898802466" lon="109.0011985805534">
        <ele>394.18854465242475</ele>
        <time>2022-03-08T11:19:45Z</time>
      </trkpt>
      <trkpt lat="34.327954734616135" lon="109.00063336592206">
        <ele>395.7315727099776</ele>
        <time>2022-03-08T11:19:57Z</time>
      </trkpt>
      <trkpt lat="34.32793491399669" lon="109.00032134732676">
        <ele>394.7660292079672</ele>
        <time>2022-03-08T11:20:03Z</time>
      </trkpt>
      <trkpt lat="34.32794025622153" lon="109.00001959004604">
        <ele>393.66994506306946</ele>
        <time>2022-03-08T11:20:09Z</time>
      </trkpt>
      <trkpt lat="34.327923921767265" lon="108.99977722594062">
        <ele>392.209303336218</ele>
        <time>2022-03-08T11:20:13Z</time>
      </trkpt>
      <trkpt lat="34.32793286122359" lon="108.99966305545243">
        <ele>393.0312767988071</ele>
        <time>2022-03-08T11:20:15Z</time>
      </trkpt>
      <trkpt lat="34.32791057384477" lon="108.99908100460534">
        <ele>393.07938031852245</ele>
        <time>2022-03-08T11:20:25Z</time>
      </trkpt>
      <trkpt lat="34.3278748162673" lon="108.99846772937842">
        <ele>393.3322587283328</ele>
        <time>2022-03-08T11:20:35Z</time>
      </trkpt>
      <trkpt lat="34.327858196741374" lon="108.99835237118121">
        <ele>393.4181377645582</ele>
        <time>2022-03-08T11:20:37Z</time>
      </trkpt>
      <trkpt lat="34.32787202837381" lon="108.99822635937709">
        <ele>394.29483854211867</ele>
        <time>2022-03-08T11:20:39Z</time>
      </trkpt>
      <trkpt lat="34.327998196252516" lon="108.99785544472311">
        <ele>394.2566503454</ele>
        <time>2022-03-08T11:20:45Z</time>
      </trkpt>
      <trkpt lat="34.328031525741615" lon="108.9973048165132">
        <ele>394.85901808645576</ele>
        <time>2022-03-08T11:20:55Z</time>
      </trkpt>
      <trkpt lat="34.32799840668696" lon="108.9967247165785">
        <ele>394.35916876327246</ele>
        <time>2022-03-08T11:21:05Z</time>
      </trkpt>
      <trkpt lat="34.32800532374958" lon="108.99626038627812">
        <ele>394.81123810168356</ele>
        <time>2022-03-08T11:21:13Z</time>
      </trkpt>
      <trkpt lat="34.32799535270336" lon="108.9961652467417">
        <ele>394.9687277348712</ele>
        <time>2022-03-08T11:21:15Z</time>
      </trkpt>
      <trkpt lat="34.32800723887791" lon="108.99607391621915">
        <ele>394.22516113705933</ele>
        <time>2022-03-08T11:21:17Z</time>
      </trkpt>
      <trkpt lat="34.32797555941346" lon="108.99590133271039">
        <ele>394.64274864830077</ele>
        <time>2022-03-08T11:21:21Z</time>
      </trkpt>
      <trkpt lat="34.327996519930124" lon="108.99578022837656">
        <ele>394.82166681531817</ele>
        <time>2022-03-08T11:21:23Z</time>
      </trkpt>
      <trkpt lat="34.32798171788514" lon="108.99516845784474">
        <ele>394.8495041280985</ele>
        <time>2022-03-08T11:21:33Z</time>
      </trkpt>
      <trkpt lat="34.32797073967681" lon="108.99481847889582">
        <ele>394.64713980350643</ele>
        <time>2022-03-08T11:21:39Z</time>
      </trkpt>
      <trkpt lat="34.32799720193105" lon="108.99421264268858">
        <ele>394.46055768989027</ele>
        <time>2022-03-08T11:21:49Z</time>
      </trkpt>
      <trkpt lat="34.32801262926456" lon="108.99360637784511">
        <ele>394.0732428301126</ele>
        <time>2022-03-08T11:21:59Z</time>
      </trkpt>
      <trkpt lat="34.32800888075573" lon="108.99311499225932">
        <ele>393.7001536488533</ele>
        <time>2022-03-08T11:22:07Z</time>
      </trkpt>
      <trkpt lat="34.32798807684136" lon="108.99299060905786">
        <ele>393.34753068815917</ele>
        <time>2022-03-08T11:22:09Z</time>
      </trkpt>
      <trkpt lat="34.32799322039341" lon="108.99238542934394">
        <ele>394.2610665699467</ele>
        <time>2022-03-08T11:22:19Z</time>
      </trkpt>
      <trkpt lat="34.32800404500355" lon="108.99186299480824">
        <ele>393.03454799298197</ele>
        <time>2022-03-08T11:22:27Z</time>
      </trkpt>
      <trkpt lat="34.328040254717635" lon="108.99123856585193">
        <ele>392.26773171685636</ele>
        <time>2022-03-08T11:22:37Z</time>
      </trkpt>
      <trkpt lat="34.32805482093929" lon="108.99062937933441">
        <ele>391.4044296219945</ele>
        <time>2022-03-08T11:22:47Z</time>
      </trkpt>
      <trkpt lat="34.32804294348435" lon="108.98998746762312">
        <ele>391.0211125621572</ele>
        <time>2022-03-08T11:22:57Z</time>
      </trkpt>
      <trkpt lat="34.32801801012951" lon="108.98937480213415">
        <ele>390.48014105297625</ele>
        <time>2022-03-08T11:23:07Z</time>
      </trkpt>
      <trkpt lat="34.32797840124018" lon="108.98912654136264">
        <ele>391.25028477516025</ele>
        <time>2022-03-08T11:23:11Z</time>
      </trkpt>
      <trkpt lat="34.32797095751572" lon="108.988883334315">
        <ele>391.91950837429613</ele>
        <time>2022-03-08T11:23:15Z</time>
      </trkpt>
      <trkpt lat="34.32791120225532" lon="108.98863082088721">
        <ele>391.86368279810995</ele>
        <time>2022-03-08T11:23:19Z</time>
      </trkpt>
      <trkpt lat="34.327866449274524" lon="108.98811221295463">
        <ele>392.364195776172</ele>
        <time>2022-03-08T11:23:27Z</time>
      </trkpt>
      <trkpt lat="34.32788199736263" lon="108.98774820291514">
        <ele>392.5894977413118</ele>
        <time>2022-03-08T11:23:33Z</time>
      </trkpt>
      <trkpt lat="34.32784361475337" lon="108.98714103595924">
        <ele>394.5444726208225</ele>
        <time>2022-03-08T11:23:43Z</time>
      </trkpt>
      <trkpt lat="34.32784626947908" lon="108.98659631117687">
        <ele>393.6050984393805</ele>
        <time>2022-03-08T11:23:51Z</time>
      </trkpt>
      <trkpt lat="34.32784548730494" lon="108.98604882581958">
        <ele>393.0861198408529</ele>
        <time>2022-03-08T11:23:59Z</time>
      </trkpt>
      <trkpt lat="34.32785836998779" lon="108.98592946300003">
        <ele>391.5229032719508</ele>
        <time>2022-03-08T11:24:01Z</time>
      </trkpt>
      <trkpt lat="34.327778368158924" lon="108.98556939415023">
        <ele>391.9852296654135</ele>
        <time>2022-03-08T11:24:07Z</time>
      </trkpt>
      <trkpt lat="34.327856667397796" lon="108.98494264993249">
        <ele>392.6385745033622</ele>
        <time>2022-03-08T11:24:17Z</time>
      </trkpt>
      <trkpt lat="34.327854635769405" lon="108.98459641779014">
        <ele>392.62698303628713</ele>
        <time>2022-03-08T11:24:23Z</time>
      </trkpt>
      <trkpt lat="34.32786793274181" lon="108.98450376712128">
        <ele>392.7293899944052</ele>
        <time>2022-03-08T11:24:25Z</time>
      </trkpt>
      <trkpt lat="34.327928705351034" lon="108.98437436944435">
        <ele>392.37000438570976</ele>
        <time>2022-03-08T11:24:29Z</time>
      </trkpt>
      <trkpt lat="34.327932177701555" lon="108.98431730937872">
        <ele>392.74701219052076</ele>
        <time>2022-03-08T11:24:39Z</time>
      </trkpt>
      <trkpt lat="34.328075783140484" lon="108.98421647044191">
        <ele>393.25323015637696</ele>
        <time>2022-03-08T11:25:58Z</time>
      </trkpt>
      <trkpt lat="34.32806487428313" lon="108.9836006959196">
        <ele>392.8171924697235</ele>
        <time>2022-03-08T11:26:12Z</time>
      </trkpt>
      <trkpt lat="34.32809471287791" lon="108.98305260869064">
        <ele>393.7614884180948</ele>
        <time>2022-03-08T11:26:22Z</time>
      </trkpt>
      <trkpt lat="34.32808471790093" lon="108.98285133150176">
        <ele>393.591623368673</ele>
        <time>2022-03-08T11:26:26Z</time>
      </trkpt>
      <trkpt lat="34.32811119297165" lon="108.98267369494435">
        <ele>394.331150341779</ele>
        <time>2022-03-08T11:26:30Z</time>
      </trkpt>
      <trkpt lat="34.32807185146901" lon="108.98214004307637">
        <ele>395.0214024372399</ele>
        <time>2022-03-08T11:26:41Z</time>
      </trkpt>
      <trkpt lat="34.328070271445796" lon="108.98193181636441">
        <ele>394.6964452015236</ele>
        <time>2022-03-08T11:26:45Z</time>
      </trkpt>
      <trkpt lat="34.32803304459972" lon="108.98174684498237">
        <ele>394.47700859140605</ele>
        <time>2022-03-08T11:26:49Z</time>
      </trkpt>
      <trkpt lat="34.32802919690212" lon="108.98150118041353">
        <ele>394.6617634743452</ele>
        <time>2022-03-08T11:26:55Z</time>
      </trkpt>
      <trkpt lat="34.32809105748925" lon="108.9812772167128">
        <ele>395.2895165802911</ele>
        <time>2022-03-08T11:27:03Z</time>
      </trkpt>
      <trkpt lat="34.3280645848486" lon="108.98109593882344">
        <ele>394.9132031099871</ele>
        <time>2022-03-08T11:27:15Z</time>
      </trkpt>
      <trkpt lat="34.3281298650013" lon="108.98104398500453">
        <ele>394.6261549210176</ele>
        <time>2022-03-08T11:27:29Z</time>
      </trkpt>
      <trkpt lat="34.32817297168412" lon="108.98093298732815">
        <ele>394.47247731219977</ele>
        <time>2022-03-08T11:27:41Z</time>
      </trkpt>
      <trkpt lat="34.32802234506771" lon="108.98073970718796">
        <ele>395.6708965813741</ele>
        <time>2022-03-08T11:29:08Z</time>
      </trkpt>
      <trkpt lat="34.32801320731159" lon="108.9807329179471">
        <ele>395.3786194771528</ele>
        <time>2022-03-08T11:29:16Z</time>
      </trkpt>
      <trkpt lat="34.32819947308334" lon="108.980764346157">
        <ele>394.714596638456</ele>
        <time>2022-03-08T11:29:58Z</time>
      </trkpt>
      <trkpt lat="34.328282535952575" lon="108.98073359069548">
        <ele>395.29339985270053</ele>
        <time>2022-03-08T11:30:14Z</time>
      </trkpt>
      <trkpt lat="34.328440069382594" lon="108.98082933628744">
        <ele>394.402831627056</ele>
        <time>2022-03-08T11:30:33Z</time>
      </trkpt>
      <trkpt lat="34.32851492755508" lon="108.9807957098226">
        <ele>394.21146233938634</ele>
        <time>2022-03-08T11:30:39Z</time>
      </trkpt>
      <trkpt lat="34.32863293934563" lon="108.98091456342925">
        <ele>394.85071306861937</ele>
        <time>2022-03-08T11:30:47Z</time>
      </trkpt>
      <trkpt lat="34.32865853992782" lon="108.9810075910134">
        <ele>395.15850096940994</ele>
        <time>2022-03-08T11:30:55Z</time>
      </trkpt>
      <trkpt lat="34.32861280120023" lon="108.98105890522108">
        <ele>395.04452309850603</ele>
        <time>2022-03-08T11:31:15Z</time>
      </trkpt>
      <trkpt lat="34.32860901891803" lon="108.9809520476947">
        <ele>395.3234296804294</ele>
        <time>2022-03-08T11:32:41Z</time>
      </trkpt>
      <trkpt lat="34.32861008442856" lon="108.98072774426583">
        <ele>395.6211611870676</ele>
        <time>2022-03-08T11:32:57Z</time>
      </trkpt>
    </trkseg>
  </trk>
</gpx>