<?xml version="1.0" encoding="UTF-8"?>
<gpx xmlns="http://www.topografix.com/GPX/1/1" xmlns:gpxtpx="http://www.garmin.com/xmlschemas/TrackPointExtension/v1" xmlns:xsi="http://www.w3.org/2001/XMLSchema-instance" xsi:schemaLocation="http://www.topografix.com/GPX/1/1 http://www.topografix.com/GPX/1/1/gpx.xsd" version="1.1" creator="gpx.py -- https://github.com/tkrajina/gpxpy">
  <trk>
    <name>gpx from keep</name>
    <type>Ride</type>
    <trkseg>
      <trkpt lat="34.32824960121944" lon="108.98034687066867">
        <ele>481.6986083984375</ele>
        <time>2022-03-03T23:19:04Z</time>
      </trkpt>
      <trkpt lat="34.32854269413341" lon="108.98027182806004">
        <ele>479.039794921875</ele>
        <time>2022-03-03T23:19:30Z</time>
      </trkpt>
      <trkpt lat="34.32835942675411" lon="108.98028202787108">
        <ele>468.12664794921875</ele>
        <time>2022-03-03T23:19:36Z</time>
      </trkpt>
      <trkpt lat="34.32818935564744" lon="108.98043208625991">
        <ele>458.2672119140625</ele>
        <time>2022-03-03T23:19:42Z</time>
      </trkpt>
      <trkpt lat="34.32820358438693" lon="108.9805277076684">
        <ele>416.62457275390625</ele>
        <time>2022-03-03T23:20:04Z</time>
      </trkpt>
      <trkpt lat="34.328710417056804" lon="108.98039309716641">
        <ele>398.9925231933594</ele>
        <time>2022-03-03T23:20:28Z</time>
      </trkpt>
      <trkpt lat="34.328505000337195" lon="108.98039560346292">
        <ele>393.14678955078125</ele>
        <time>2022-03-03T23:20:34Z</time>
      </trkpt>
      <trkpt lat="34.32860627903957" lon="108.98041794000612">
        <ele>393.00213623046875</ele>
        <time>2022-03-03T23:20:40Z</time>
      </trkpt>
      <trkpt lat="34.328575113727396" lon="108.98032533830283">
        <ele>392.9986877441406</ele>
        <time>2022-03-03T23:20:46Z</time>
      </trkpt>
      <trkpt lat="34.32860837610602" lon="108.9804532965269">
        <ele>393.0970647339808</ele>
        <time>2022-03-03T23:20:48Z</time>
      </trkpt>
      <trkpt lat="34.32870046304209" lon="108.98066478615166">
        <ele>395.84821809819766</ele>
        <time>2022-03-03T23:20:50Z</time>
      </trkpt>
      <trkpt lat="34.328802262238874" lon="108.98075234707588">
        <ele>395.8076885059353</ele>
        <time>2022-03-03T23:20:52Z</time>
      </trkpt>
      <trkpt lat="34.32881301573869" lon="108.98085390259396">
        <ele>395.8983979632876</ele>
        <time>2022-03-03T23:20:56Z</time>
      </trkpt>
      <trkpt lat="34.32871492992247" lon="108.98088447465828">
        <ele>395.62602074816823</ele>
        <time>2022-03-03T23:21:04Z</time>
      </trkpt>
      <trkpt lat="34.32864576072265" lon="108.98084978247974">
        <ele>395.72289057821035</ele>
        <time>2022-03-03T23:21:08Z</time>
      </trkpt>
      <trkpt lat="34.32856306384913" lon="108.98088615016992">
        <ele>395.784231742844</ele>
        <time>2022-03-03T23:21:17Z</time>
      </trkpt>
      <trkpt lat="34.328497667708696" lon="108.98081291665966">
        <ele>395.1759338695556</ele>
        <time>2022-03-03T23:21:23Z</time>
      </trkpt>
      <trkpt lat="34.32839537675838" lon="108.98083069436821">
        <ele>394.79867217410356</ele>
        <time>2022-03-03T23:21:29Z</time>
      </trkpt>
      <trkpt lat="34.328131296574306" lon="108.98078471516186">
        <ele>394.5468587875366</ele>
        <time>2022-03-03T23:21:45Z</time>
      </trkpt>
      <trkpt lat="34.32804966926991" lon="108.98079717253319">
        <ele>394.8009830955416</ele>
        <time>2022-03-03T23:21:53Z</time>
      </trkpt>
      <trkpt lat="34.327901862261754" lon="108.98072008753041">
        <ele>395.2497885450721</ele>
        <time>2022-03-03T23:22:07Z</time>
      </trkpt>
      <trkpt lat="34.327853764055796" lon="108.98061570883692">
        <ele>395.68903212063015</ele>
        <time>2022-03-03T23:22:17Z</time>
      </trkpt>
      <trkpt lat="34.32778635528285" lon="108.98069763420386">
        <ele>395.02629923447967</ele>
        <time>2022-03-03T23:22:29Z</time>
      </trkpt>
      <trkpt lat="34.327790295485485" lon="108.98075002308023">
        <ele>394.9358380017802</ele>
        <time>2022-03-03T23:22:41Z</time>
      </trkpt>
      <trkpt lat="34.327876176081915" lon="108.98094159692391">
        <ele>394.45439447369426</ele>
        <time>2022-03-03T23:24:07Z</time>
      </trkpt>
      <trkpt lat="34.327816101455184" lon="108.9809843001409">
        <ele>394.94127012137324</ele>
        <time>2022-03-03T23:24:23Z</time>
      </trkpt>
      <trkpt lat="34.327865038317235" lon="108.98115931794854">
        <ele>394.5895607508719</ele>
        <time>2022-03-03T23:25:11Z</time>
      </trkpt>
      <trkpt lat="34.32787633062238" lon="108.98151044353195">
        <ele>394.9971464527771</ele>
        <time>2022-03-03T23:25:22Z</time>
      </trkpt>
      <trkpt lat="34.327853413944084" lon="108.98155115595151">
        <ele>395.1979160523042</ele>
        <time>2022-03-03T23:25:30Z</time>
      </trkpt>
      <trkpt lat="34.32785942065537" lon="108.98171110410544">
        <ele>395.10420923680067</ele>
        <time>2022-03-03T23:25:35Z</time>
      </trkpt>
      <trkpt lat="34.327891428913844" lon="108.98201137541514">
        <ele>394.7907006787136</ele>
        <time>2022-03-03T23:25:43Z</time>
      </trkpt>
      <trkpt lat="34.32788174685409" lon="108.98216164788457">
        <ele>394.65414143912494</ele>
        <time>2022-03-03T23:25:47Z</time>
      </trkpt>
      <trkpt lat="34.32790428735376" lon="108.98224548780124">
        <ele>394.0129996370524</ele>
        <time>2022-03-03T23:25:49Z</time>
      </trkpt>
      <trkpt lat="34.32790225785016" lon="108.98262339067581">
        <ele>393.91895233560354</ele>
        <time>2022-03-03T23:25:57Z</time>
      </trkpt>
      <trkpt lat="34.32791940663962" lon="108.9827250825399">
        <ele>394.2224380802363</ele>
        <time>2022-03-03T23:25:59Z</time>
      </trkpt>
      <trkpt lat="34.327897692811376" lon="108.98283160699624">
        <ele>393.88071802444756</ele>
        <time>2022-03-03T23:26:01Z</time>
      </trkpt>
      <trkpt lat="34.327927419345265" lon="108.98331116771233">
        <ele>392.6924277478829</ele>
        <time>2022-03-03T23:26:09Z</time>
      </trkpt>
      <trkpt lat="34.327917200338824" lon="108.98341437939348">
        <ele>392.7431049523875</ele>
        <time>2022-03-03T23:26:11Z</time>
      </trkpt>
      <trkpt lat="34.32793365203248" lon="108.98351136449494">
        <ele>392.66745010763407</ele>
        <time>2022-03-03T23:26:13Z</time>
      </trkpt>
      <trkpt lat="34.32792981949834" lon="108.98362363350581">
        <ele>392.7755743153393</ele>
        <time>2022-03-03T23:26:15Z</time>
      </trkpt>
      <trkpt lat="34.327968714786834" lon="108.98371618073767">
        <ele>392.9659452429041</ele>
        <time>2022-03-03T23:26:17Z</time>
      </trkpt>
      <trkpt lat="34.32792158888035" lon="108.9839569048263">
        <ele>392.0495813023299</ele>
        <time>2022-03-03T23:26:27Z</time>
      </trkpt>
      <trkpt lat="34.32792375367568" lon="108.98408281073203">
        <ele>392.19981451611966</ele>
        <time>2022-03-03T23:26:31Z</time>
      </trkpt>
      <trkpt lat="34.32790353659912" lon="108.98417494067684">
        <ele>392.40600355155766</ele>
        <time>2022-03-03T23:26:33Z</time>
      </trkpt>
      <trkpt lat="34.32788758210147" lon="108.98473228272724">
        <ele>391.77469085808843</ele>
        <time>2022-03-03T23:26:45Z</time>
      </trkpt>
      <trkpt lat="34.327925525486656" lon="108.98514053836901">
        <ele>392.71397464349866</ele>
        <time>2022-03-03T23:26:53Z</time>
      </trkpt>
      <trkpt lat="34.327906360045745" lon="108.9852559335799">
        <ele>391.86514194868505</ele>
        <time>2022-03-03T23:26:55Z</time>
      </trkpt>
      <trkpt lat="34.32792945315404" lon="108.98564804672519">
        <ele>391.7755358396098</ele>
        <time>2022-03-03T23:27:03Z</time>
      </trkpt>
      <trkpt lat="34.32789993152769" lon="108.98621668969653">
        <ele>392.3683803062886</ele>
        <time>2022-03-03T23:27:14Z</time>
      </trkpt>
      <trkpt lat="34.32788584834962" lon="108.98683321364295">
        <ele>393.3581786174327</ele>
        <time>2022-03-03T23:27:26Z</time>
      </trkpt>
      <trkpt lat="34.32790149124155" lon="108.98744958236517">
        <ele>394.90330427885056</ele>
        <time>2022-03-03T23:27:38Z</time>
      </trkpt>
      <trkpt lat="34.32791914067787" lon="108.98778080363255">
        <ele>394.7034299019724</ele>
        <time>2022-03-03T23:27:44Z</time>
      </trkpt>
      <trkpt lat="34.32793780182036" lon="108.98788856939247">
        <ele>394.7900188472122</ele>
        <time>2022-03-03T23:27:46Z</time>
      </trkpt>
      <trkpt lat="34.32792875362593" lon="108.98845634365445">
        <ele>393.0724530890584</ele>
        <time>2022-03-03T23:27:58Z</time>
      </trkpt>
      <trkpt lat="34.327892224319285" lon="108.98877307768966">
        <ele>393.0256996266544</ele>
        <time>2022-03-03T23:28:04Z</time>
      </trkpt>
      <trkpt lat="34.32788128445957" lon="108.98928436745615">
        <ele>392.25938571151346</ele>
        <time>2022-03-03T23:28:14Z</time>
      </trkpt>
      <trkpt lat="34.32790380695374" lon="108.9894982655133">
        <ele>393.57914288342</ele>
        <time>2022-03-03T23:28:18Z</time>
      </trkpt>
      <trkpt lat="34.327947480128294" lon="108.98963499891295">
        <ele>392.3551643034443</ele>
        <time>2022-03-03T23:28:22Z</time>
      </trkpt>
      <trkpt lat="34.32789261134424" lon="108.98998425152377">
        <ele>392.8333546826616</ele>
        <time>2022-03-03T23:28:28Z</time>
      </trkpt>
      <trkpt lat="34.32783950754463" lon="108.99018338124714">
        <ele>392.08212245069444</ele>
        <time>2022-03-03T23:28:32Z</time>
      </trkpt>
      <trkpt lat="34.327846800703945" lon="108.99029474072557">
        <ele>392.37852120026946</ele>
        <time>2022-03-03T23:28:36Z</time>
      </trkpt>
      <trkpt lat="34.32781636198824" lon="108.99033892892238">
        <ele>392.1345903435722</ele>
        <time>2022-03-03T23:28:46Z</time>
      </trkpt>
      <trkpt lat="34.327811949159674" lon="108.99050179767805">
        <ele>392.6528521673754</ele>
        <time>2022-03-03T23:28:59Z</time>
      </trkpt>
      <trkpt lat="34.327831022304274" lon="108.99066825086173">
        <ele>392.01876188162714</ele>
        <time>2022-03-03T23:29:03Z</time>
      </trkpt>
      <trkpt lat="34.327868836919826" lon="108.9907748053811">
        <ele>392.2960916738957</ele>
        <time>2022-03-03T23:29:07Z</time>
      </trkpt>
      <trkpt lat="34.32785199269066" lon="108.99107098752215">
        <ele>392.0655645923689</ele>
        <time>2022-03-03T23:29:11Z</time>
      </trkpt>
      <trkpt lat="34.32789322957557" lon="108.99118065367033">
        <ele>391.66479701548815</ele>
        <time>2022-03-03T23:29:13Z</time>
      </trkpt>
      <trkpt lat="34.327898052518776" lon="108.99143277973853">
        <ele>393.68592378217727</ele>
        <time>2022-03-03T23:29:20Z</time>
      </trkpt>
      <trkpt lat="34.327872888340295" lon="108.99177496788995">
        <ele>393.9517834605649</ele>
        <time>2022-03-03T23:29:30Z</time>
      </trkpt>
      <trkpt lat="34.32797397197648" lon="108.99196958786203">
        <ele>391.3816059464589</ele>
        <time>2022-03-03T23:29:38Z</time>
      </trkpt>
      <trkpt lat="34.3280013942968" lon="108.99205681274368">
        <ele>392.51452643517405</ele>
        <time>2022-03-03T23:29:42Z</time>
      </trkpt>
      <trkpt lat="34.327942324504285" lon="108.99249728908745">
        <ele>395.41068698093295</ele>
        <time>2022-03-03T23:29:56Z</time>
      </trkpt>
      <trkpt lat="34.327911318218234" lon="108.99261708380662">
        <ele>395.3216267907992</ele>
        <time>2022-03-03T23:30:00Z</time>
      </trkpt>
      <trkpt lat="34.32801152076004" lon="108.99299787140171">
        <ele>393.824971457012</ele>
        <time>2022-03-03T23:30:10Z</time>
      </trkpt>
      <trkpt lat="34.328042275579335" lon="108.99350178471697">
        <ele>394.2831915859133</ele>
        <time>2022-03-03T23:30:20Z</time>
      </trkpt>
      <trkpt lat="34.32807965858654" lon="108.99368560104284">
        <ele>394.0975902704522</ele>
        <time>2022-03-03T23:30:24Z</time>
      </trkpt>
      <trkpt lat="34.328090645523865" lon="108.99392675130063">
        <ele>394.4254314266145</ele>
        <time>2022-03-03T23:30:28Z</time>
      </trkpt>
      <trkpt lat="34.32817898234522" lon="108.9944625588527">
        <ele>396.1087692324072</ele>
        <time>2022-03-03T23:30:40Z</time>
      </trkpt>
      <trkpt lat="34.32817102560979" lon="108.99460738892517">
        <ele>395.91756793577224</ele>
        <time>2022-03-03T23:30:44Z</time>
      </trkpt>
      <trkpt lat="34.32821595179503" lon="108.99483216787684">
        <ele>394.63832002319396</ele>
        <time>2022-03-03T23:30:48Z</time>
      </trkpt>
      <trkpt lat="34.3282247761313" lon="108.9950573062145">
        <ele>394.5688789514825</ele>
        <time>2022-03-03T23:30:52Z</time>
      </trkpt>
      <trkpt lat="34.3282877318689" lon="108.99536553833717">
        <ele>393.9269080897793</ele>
        <time>2022-03-03T23:30:58Z</time>
      </trkpt>
      <trkpt lat="34.32827517117434" lon="108.99558897360882">
        <ele>393.1909084394574</ele>
        <time>2022-03-03T23:31:02Z</time>
      </trkpt>
      <trkpt lat="34.32832720645482" lon="108.995732917054">
        <ele>392.90018767956644</ele>
        <time>2022-03-03T23:31:06Z</time>
      </trkpt>
      <trkpt lat="34.32829733681109" lon="108.99582015769205">
        <ele>393.2974456101656</ele>
        <time>2022-03-03T23:31:08Z</time>
      </trkpt>
      <trkpt lat="34.328321760455495" lon="108.9959056305213">
        <ele>392.7693190490827</ele>
        <time>2022-03-03T23:31:10Z</time>
      </trkpt>
      <trkpt lat="34.32831259481129" lon="108.9960506622268">
        <ele>392.8056904952973</ele>
        <time>2022-03-03T23:31:12Z</time>
      </trkpt>
      <trkpt lat="34.32833387723556" lon="108.996311126888">
        <ele>394.008363080211</ele>
        <time>2022-03-03T23:31:16Z</time>
      </trkpt>
      <trkpt lat="34.328365661139806" lon="108.99643524082214">
        <ele>393.9396161958575</ele>
        <time>2022-03-03T23:31:18Z</time>
      </trkpt>
      <trkpt lat="34.32836205023294" lon="108.99657989896377">
        <ele>394.09757213667035</ele>
        <time>2022-03-03T23:31:20Z</time>
      </trkpt>
      <trkpt lat="34.32825432611656" lon="108.99711104762034">
        <ele>394.13457102514803</ele>
        <time>2022-03-03T23:31:26Z</time>
      </trkpt>
      <trkpt lat="34.328196246805476" lon="108.99730070053207">
        <ele>393.72149058431387</ele>
        <time>2022-03-03T23:31:28Z</time>
      </trkpt>
      <trkpt lat="34.32813331469221" lon="108.99750621109172">
        <ele>394.19330040644854</ele>
        <time>2022-03-03T23:31:30Z</time>
      </trkpt>
      <trkpt lat="34.32810847142235" lon="108.9976819144529">
        <ele>394.67449243646115</ele>
        <time>2022-03-03T23:31:32Z</time>
      </trkpt>
      <trkpt lat="34.32803524107558" lon="108.99790664169758">
        <ele>394.83070700708777</ele>
        <time>2022-03-03T23:31:34Z</time>
      </trkpt>
      <trkpt lat="34.32798303611592" lon="108.99824883873616">
        <ele>394.81054326239973</ele>
        <time>2022-03-03T23:31:38Z</time>
      </trkpt>
      <trkpt lat="34.32794070146697" lon="108.99842037784614">
        <ele>394.6596847930923</ele>
        <time>2022-03-03T23:31:40Z</time>
      </trkpt>
      <trkpt lat="34.327896218723616" lon="108.99901828116063">
        <ele>394.2794056525454</ele>
        <time>2022-03-03T23:31:50Z</time>
      </trkpt>
      <trkpt lat="34.327886006455024" lon="108.99946619831395">
        <ele>393.99911549221724</ele>
        <time>2022-03-03T23:31:58Z</time>
      </trkpt>
      <trkpt lat="34.32790125569267" lon="108.9997626750518">
        <ele>392.7152478089556</ele>
        <time>2022-03-03T23:32:05Z</time>
      </trkpt>
      <trkpt lat="34.327827362219175" lon="108.99986173236219">
        <ele>392.70140501949936</ele>
        <time>2022-03-03T23:32:15Z</time>
      </trkpt>
      <trkpt lat="34.32786510151391" lon="109.000019293361">
        <ele>393.7555378507823</ele>
        <time>2022-03-03T23:35:07Z</time>
      </trkpt>
      <trkpt lat="34.32785158134295" lon="109.00030379249624">
        <ele>393.4513824963942</ele>
        <time>2022-03-03T23:35:15Z</time>
      </trkpt>
      <trkpt lat="34.32789540249648" lon="109.0009795954338">
        <ele>394.0258947610855</ele>
        <time>2022-03-03T23:35:30Z</time>
      </trkpt>
      <trkpt lat="34.32789091617898" lon="109.0011229782446">
        <ele>393.84231744520366</ele>
        <time>2022-03-03T23:35:32Z</time>
      </trkpt>
      <trkpt lat="34.32786138717894" lon="109.0012439562435">
        <ele>393.82354397978634</ele>
        <time>2022-03-03T23:35:34Z</time>
      </trkpt>
      <trkpt lat="34.32788185496324" lon="109.0014631509755">
        <ele>393.9943758826703</ele>
        <time>2022-03-03T23:35:38Z</time>
      </trkpt>
      <trkpt lat="34.327846721837986" lon="109.0016962519007">
        <ele>393.48118805512786</ele>
        <time>2022-03-03T23:35:42Z</time>
      </trkpt>
      <trkpt lat="34.32786072043984" lon="109.00213519077963">
        <ele>394.2241578605026</ele>
        <time>2022-03-03T23:35:50Z</time>
      </trkpt>
      <trkpt lat="34.327896095193495" lon="109.00245764648386">
        <ele>394.7373705310747</ele>
        <time>2022-03-03T23:35:56Z</time>
      </trkpt>
      <trkpt lat="34.32790655597104" lon="109.00264646182535">
        <ele>394.891752993688</ele>
        <time>2022-03-03T23:36:00Z</time>
      </trkpt>
      <trkpt lat="34.327884920384335" lon="109.00275212335563">
        <ele>394.8133417926729</ele>
        <time>2022-03-03T23:36:02Z</time>
      </trkpt>
      <trkpt lat="34.327897509426904" lon="109.00285785843742">
        <ele>395.12980495672673</ele>
        <time>2022-03-03T23:36:04Z</time>
      </trkpt>
      <trkpt lat="34.32785338488062" lon="109.00317416678325">
        <ele>395.55515710730106</ele>
        <time>2022-03-03T23:36:10Z</time>
      </trkpt>
      <trkpt lat="34.32782792340397" lon="109.00379025932092">
        <ele>394.3276686798781</ele>
        <time>2022-03-03T23:36:22Z</time>
      </trkpt>
      <trkpt lat="34.32785734743905" lon="109.00409196467395">
        <ele>394.3547020535916</ele>
        <time>2022-03-03T23:36:28Z</time>
      </trkpt>
      <trkpt lat="34.32783639414783" lon="109.00453213988041">
        <ele>394.15805141814053</ele>
        <time>2022-03-03T23:36:36Z</time>
      </trkpt>
      <trkpt lat="34.32781369436002" lon="109.00464211265012">
        <ele>393.7947830092162</ele>
        <time>2022-03-03T23:36:38Z</time>
      </trkpt>
      <trkpt lat="34.327840718660966" lon="109.00523163594174">
        <ele>394.79736426472664</ele>
        <time>2022-03-03T23:36:50Z</time>
      </trkpt>
      <trkpt lat="34.3278470231065" lon="109.00553876628987">
        <ele>394.4950447399169</ele>
        <time>2022-03-03T23:36:56Z</time>
      </trkpt>
      <trkpt lat="34.327827289559856" lon="109.00586532985228">
        <ele>394.3354607783258</ele>
        <time>2022-03-03T23:37:02Z</time>
      </trkpt>
      <trkpt lat="34.32785323343017" lon="109.0062514823158">
        <ele>394.78454010747373</ele>
        <time>2022-03-03T23:37:10Z</time>
      </trkpt>
      <trkpt lat="34.32784333856139" lon="109.00648095407264">
        <ele>394.0952857127413</ele>
        <time>2022-03-03T23:37:14Z</time>
      </trkpt>
      <trkpt lat="34.3278797083867" lon="109.0065719608427">
        <ele>394.35528084170073</ele>
        <time>2022-03-03T23:37:16Z</time>
      </trkpt>
      <trkpt lat="34.32787942063099" lon="109.0068149481186">
        <ele>394.7303949613124</ele>
        <time>2022-03-03T23:37:20Z</time>
      </trkpt>
      <trkpt lat="34.3278931744418" lon="109.00693730138546">
        <ele>394.6486602416262</ele>
        <time>2022-03-03T23:37:22Z</time>
      </trkpt>
      <trkpt lat="34.32787204482879" lon="109.00704929302357">
        <ele>394.24487131182104</ele>
        <time>2022-03-03T23:37:24Z</time>
      </trkpt>
      <trkpt lat="34.32786898139318" lon="109.0072849763459">
        <ele>394.2785425502807</ele>
        <time>2022-03-03T23:37:28Z</time>
      </trkpt>
      <trkpt lat="34.32782780464491" lon="109.00764729883916">
        <ele>392.8163751233369</ele>
        <time>2022-03-03T23:37:34Z</time>
      </trkpt>
      <trkpt lat="34.32783207541432" lon="109.00818062661445">
        <ele>392.8580073742196</ele>
        <time>2022-03-03T23:37:42Z</time>
      </trkpt>
      <trkpt lat="34.327885299961295" lon="109.00831252698772">
        <ele>392.09807968791574</ele>
        <time>2022-03-03T23:37:44Z</time>
      </trkpt>
      <trkpt lat="34.32788575375883" lon="109.0087244109228">
        <ele>391.86543417628855</ele>
        <time>2022-03-03T23:37:50Z</time>
      </trkpt>
      <trkpt lat="34.327886060539555" lon="109.0090009033415">
        <ele>391.48015983309597</ele>
        <time>2022-03-03T23:37:54Z</time>
      </trkpt>
      <trkpt lat="34.32788652775192" lon="109.00941891740628">
        <ele>389.6348693622276</ele>
        <time>2022-03-03T23:38:00Z</time>
      </trkpt>
      <trkpt lat="34.32788155345627" lon="109.00983206922432">
        <ele>386.9851728156209</ele>
        <time>2022-03-03T23:38:06Z</time>
      </trkpt>
      <trkpt lat="34.32789864430491" lon="109.00996393775499">
        <ele>386.2299037752673</ele>
        <time>2022-03-03T23:38:08Z</time>
      </trkpt>
      <trkpt lat="34.327876612467904" lon="109.01054729445691">
        <ele>386.2702071107924</ele>
        <time>2022-03-03T23:38:18Z</time>
      </trkpt>
      <trkpt lat="34.327844028099044" lon="109.01076865571244">
        <ele>386.4623435512185</ele>
        <time>2022-03-03T23:38:22Z</time>
      </trkpt>
      <trkpt lat="34.32783516979656" lon="109.01138630518123">
        <ele>386.98504990246147</ele>
        <time>2022-03-03T23:38:34Z</time>
      </trkpt>
      <trkpt lat="34.32783967892496" lon="109.0119953352885">
        <ele>387.3284854432568</ele>
        <time>2022-03-03T23:38:46Z</time>
      </trkpt>
      <trkpt lat="34.327836462854215" lon="109.01220616216082">
        <ele>387.1242996836081</ele>
        <time>2022-03-03T23:38:50Z</time>
      </trkpt>
      <trkpt lat="34.32780064999157" lon="109.01264190642264">
        <ele>388.56135829538107</ele>
        <time>2022-03-03T23:38:58Z</time>
      </trkpt>
      <trkpt lat="34.32782957465924" lon="109.01283409258939">
        <ele>390.3308222293854</ele>
        <time>2022-03-03T23:39:02Z</time>
      </trkpt>
      <trkpt lat="34.327826533756166" lon="109.01295105023061">
        <ele>389.8953234376386</ele>
        <time>2022-03-03T23:39:04Z</time>
      </trkpt>
      <trkpt lat="34.32786893992025" lon="109.01348640325418">
        <ele>390.71207345370203</ele>
        <time>2022-03-03T23:39:14Z</time>
      </trkpt>
      <trkpt lat="34.32791217990442" lon="109.014047466909">
        <ele>389.9208287782967</ele>
        <time>2022-03-03T23:39:24Z</time>
      </trkpt>
      <trkpt lat="34.32790233529067" lon="109.01459324301422">
        <ele>388.18222853541374</ele>
        <time>2022-03-03T23:39:34Z</time>
      </trkpt>
      <trkpt lat="34.327909376238146" lon="109.01482604396737">
        <ele>387.6743430579081</ele>
        <time>2022-03-03T23:39:38Z</time>
      </trkpt>
      <trkpt lat="34.32788436352766" lon="109.01545756366858">
        <ele>387.56142534594983</ele>
        <time>2022-03-03T23:39:48Z</time>
      </trkpt>
      <trkpt lat="34.32796089334752" lon="109.01586671162549">
        <ele>388.5965926591307</ele>
        <time>2022-03-03T23:39:56Z</time>
      </trkpt>
      <trkpt lat="34.327941166673305" lon="109.01597477299188">
        <ele>388.3728358950466</ele>
        <time>2022-03-03T23:39:58Z</time>
      </trkpt>
      <trkpt lat="34.32795691991391" lon="109.01628715902915">
        <ele>388.57072777766734</ele>
        <time>2022-03-03T23:40:04Z</time>
      </trkpt>
      <trkpt lat="34.327921932861756" lon="109.01639702760772">
        <ele>387.6319224629551</ele>
        <time>2022-03-03T23:40:06Z</time>
      </trkpt>
      <trkpt lat="34.32791177040438" lon="109.01663754684238">
        <ele>388.1744111198932</ele>
        <time>2022-03-03T23:40:10Z</time>
      </trkpt>
      <trkpt lat="34.32774603632366" lon="109.01709658372005">
        <ele>388.2982067903504</ele>
        <time>2022-03-03T23:40:18Z</time>
      </trkpt>
      <trkpt lat="34.327660976191694" lon="109.01741985044845">
        <ele>388.4911432983354</ele>
        <time>2022-03-03T23:40:24Z</time>
      </trkpt>
      <trkpt lat="34.32761374449517" lon="109.01798210328613">
        <ele>389.2037132596597</ele>
        <time>2022-03-03T23:40:34Z</time>
      </trkpt>
      <trkpt lat="34.32762862069248" lon="109.01828432082537">
        <ele>389.14919658750296</ele>
        <time>2022-03-03T23:40:40Z</time>
      </trkpt>
      <trkpt lat="34.327612011231444" lon="109.01838871950447">
        <ele>388.82738925050944</ele>
        <time>2022-03-03T23:40:42Z</time>
      </trkpt>
      <trkpt lat="34.32737545465867" lon="109.01884370727763">
        <ele>389.4712307602167</ele>
        <time>2022-03-03T23:40:52Z</time>
      </trkpt>
      <trkpt lat="34.327092639686164" lon="109.01928647042367">
        <ele>389.4136231355369</ele>
        <time>2022-03-03T23:41:02Z</time>
      </trkpt>
      <trkpt lat="34.32705909028587" lon="109.01937251996547">
        <ele>390.13892371952534</ele>
        <time>2022-03-03T23:41:04Z</time>
      </trkpt>
      <trkpt lat="34.326990934614784" lon="109.01947458025792">
        <ele>389.6012756982818</ele>
        <time>2022-03-03T23:41:06Z</time>
      </trkpt>
      <trkpt lat="34.32690908247314" lon="109.01956258118223">
        <ele>389.30018975399435</ele>
        <time>2022-03-03T23:41:08Z</time>
      </trkpt>
      <trkpt lat="34.3268016146628" lon="109.01974769800283">
        <ele>388.6054610190913</ele>
        <time>2022-03-03T23:41:12Z</time>
      </trkpt>
      <trkpt lat="34.326487980722405" lon="109.0201901077349">
        <ele>388.809596308507</ele>
        <time>2022-03-03T23:41:22Z</time>
      </trkpt>
      <trkpt lat="34.326154202386704" lon="109.02058081618023">
        <ele>388.55397930555046</ele>
        <time>2022-03-03T23:41:32Z</time>
      </trkpt>
      <trkpt lat="34.32579146132648" lon="109.02090006821373">
        <ele>388.64777374640107</ele>
        <time>2022-03-03T23:41:42Z</time>
      </trkpt>
      <trkpt lat="34.32540649022492" lon="109.02116291254279">
        <ele>388.11581576243043</ele>
        <time>2022-03-03T23:41:52Z</time>
      </trkpt>
      <trkpt lat="34.32495918210419" lon="109.02140092321618">
        <ele>388.0960695389658</ele>
        <time>2022-03-03T23:42:02Z</time>
      </trkpt>
      <trkpt lat="34.32449411275504" lon="109.02157768851846">
        <ele>389.4176554456353</ele>
        <time>2022-03-03T23:42:12Z</time>
      </trkpt>
      <trkpt lat="34.324046817505625" lon="109.02169264314273">
        <ele>387.8123932769522</ele>
        <time>2022-03-03T23:42:22Z</time>
      </trkpt>
      <trkpt lat="34.32358692187026" lon="109.02176315133363">
        <ele>389.9558918438852</ele>
        <time>2022-03-03T23:42:32Z</time>
      </trkpt>
      <trkpt lat="34.323125833710684" lon="109.02178717451355">
        <ele>390.1822191160172</ele>
        <time>2022-03-03T23:42:42Z</time>
      </trkpt>
      <trkpt lat="34.32267217012578" lon="109.02180180910858">
        <ele>390.30559742916375</ele>
        <time>2022-03-03T23:42:52Z</time>
      </trkpt>
      <trkpt lat="34.322408507846035" lon="109.02176886782576">
        <ele>390.41875484213233</ele>
        <time>2022-03-03T23:42:58Z</time>
      </trkpt>
      <trkpt lat="34.3222207650215" lon="109.02176207100364">
        <ele>388.9503101129085</ele>
        <time>2022-03-03T23:43:02Z</time>
      </trkpt>
      <trkpt lat="34.32177622555305" lon="109.02171245436799">
        <ele>389.46550307702273</ele>
        <time>2022-03-03T23:43:12Z</time>
      </trkpt>
      <trkpt lat="34.321329138896985" lon="109.02165140146079">
        <ele>389.5902453204617</ele>
        <time>2022-03-03T23:43:22Z</time>
      </trkpt>
      <trkpt lat="34.32085585590981" lon="109.02160548891197">
        <ele>390.74015962705016</ele>
        <time>2022-03-03T23:43:32Z</time>
      </trkpt>
      <trkpt lat="34.32039782196195" lon="109.02152122205597">
        <ele>389.7811304917559</ele>
        <time>2022-03-03T23:43:42Z</time>
      </trkpt>
      <trkpt lat="34.31995051727112" lon="109.02146736179081">
        <ele>390.1947938753292</ele>
        <time>2022-03-03T23:43:52Z</time>
      </trkpt>
      <trkpt lat="34.31968164589429" lon="109.02142645550289">
        <ele>390.9985883580521</ele>
        <time>2022-03-03T23:43:58Z</time>
      </trkpt>
      <trkpt lat="34.31932578262876" lon="109.02141693070675">
        <ele>390.2062828410417</ele>
        <time>2022-03-03T23:44:06Z</time>
      </trkpt>
      <trkpt lat="34.318853464707104" lon="109.0214291733473">
        <ele>390.08844696637243</ele>
        <time>2022-03-03T23:44:16Z</time>
      </trkpt>
      <trkpt lat="34.31858299768034" lon="109.02144319104485">
        <ele>391.17431722488254</ele>
        <time>2022-03-03T23:44:22Z</time>
      </trkpt>
      <trkpt lat="34.31814869088897" lon="109.02152042134352">
        <ele>390.9090840956196</ele>
        <time>2022-03-03T23:44:32Z</time>
      </trkpt>
      <trkpt lat="34.31769821545435" lon="109.02157971939673">
        <ele>391.21905736625195</ele>
        <time>2022-03-03T23:44:42Z</time>
      </trkpt>
      <trkpt lat="34.3172463046628" lon="109.02163074323254">
        <ele>391.25467591453344</ele>
        <time>2022-03-03T23:44:52Z</time>
      </trkpt>
      <trkpt lat="34.31688727981562" lon="109.0216626387333">
        <ele>390.70192756224424</ele>
        <time>2022-03-03T23:45:00Z</time>
      </trkpt>
      <trkpt lat="34.31652697468189" lon="109.02173101210778">
        <ele>390.4993052156642</ele>
        <time>2022-03-03T23:45:08Z</time>
      </trkpt>
      <trkpt lat="34.316131826849805" lon="109.02190851209193">
        <ele>391.98401243425906</ele>
        <time>2022-03-03T23:45:18Z</time>
      </trkpt>
      <trkpt lat="34.31606958324251" lon="109.02200143942358">
        <ele>391.29017189797014</ele>
        <time>2022-03-03T23:45:22Z</time>
      </trkpt>
      <trkpt lat="34.31605538412211" lon="109.02212144117568">
        <ele>391.53621938917786</ele>
        <time>2022-03-03T23:45:26Z</time>
      </trkpt>
      <trkpt lat="34.315909843096904" lon="109.02226669349844">
        <ele>390.86457845009863</ele>
        <time>2022-03-03T23:45:44Z</time>
      </trkpt>
      <trkpt lat="34.31584450052754" lon="109.02243938966537">
        <ele>392.29177557025105</ele>
        <time>2022-03-03T23:46:27Z</time>
      </trkpt>
      <trkpt lat="34.315820691573" lon="109.02263777646048">
        <ele>391.9530380219221</ele>
        <time>2022-03-03T23:46:31Z</time>
      </trkpt>
      <trkpt lat="34.315843197963524" lon="109.02274584521314">
        <ele>390.67492912337184</ele>
        <time>2022-03-03T23:46:33Z</time>
      </trkpt>
      <trkpt lat="34.316013269557914" lon="109.02316628645252">
        <ele>388.88129386585206</ele>
        <time>2022-03-03T23:46:41Z</time>
      </trkpt>
      <trkpt lat="34.31618156896982" lon="109.02367278562058">
        <ele>388.6705413851887</ele>
        <time>2022-03-03T23:46:51Z</time>
      </trkpt>
      <trkpt lat="34.316024584293885" lon="109.02389573349816">
        <ele>391.25807633437216</ele>
        <time>2022-03-03T23:46:59Z</time>
      </trkpt>
      <trkpt lat="34.315950539067195" lon="109.02394473143337">
        <ele>390.7731364676729</ele>
        <time>2022-03-03T23:47:01Z</time>
      </trkpt>
      <trkpt lat="34.315502913676426" lon="109.02416707672626">
        <ele>391.55878247413784</ele>
        <time>2022-03-03T23:47:11Z</time>
      </trkpt>
      <trkpt lat="34.315141867387496" lon="109.02445507157532">
        <ele>391.8520696070045</ele>
        <time>2022-03-03T23:47:21Z</time>
      </trkpt>
      <trkpt lat="34.31492761497448" lon="109.0246060871887">
        <ele>393.0314463460818</ele>
        <time>2022-03-03T23:47:27Z</time>
      </trkpt>
      <trkpt lat="34.31459553265967" lon="109.02478809645034">
        <ele>390.81228053662926</ele>
        <time>2022-03-03T23:47:35Z</time>
      </trkpt>
      <trkpt lat="34.314361662623945" lon="109.02496025845652">
        <ele>392.0301061477512</ele>
        <time>2022-03-03T23:47:41Z</time>
      </trkpt>
      <trkpt lat="34.3142974561608" lon="109.02503043537182">
        <ele>391.1412238338962</ele>
        <time>2022-03-03T23:47:43Z</time>
      </trkpt>
      <trkpt lat="34.31384992014129" lon="109.02525675319337">
        <ele>391.37677402608097</ele>
        <time>2022-03-03T23:47:53Z</time>
      </trkpt>
      <trkpt lat="34.31366506245367" lon="109.02533010613237">
        <ele>391.96492889896035</ele>
        <time>2022-03-03T23:47:57Z</time>
      </trkpt>
      <trkpt lat="34.31358477457128" lon="109.02539964616537">
        <ele>391.7194269243628</ele>
        <time>2022-03-03T23:47:59Z</time>
      </trkpt>
      <trkpt lat="34.313128653663476" lon="109.02563457355295">
        <ele>391.767227021046</ele>
        <time>2022-03-03T23:48:09Z</time>
      </trkpt>
      <trkpt lat="34.313067628440564" lon="109.0257009841444">
        <ele>392.07965952251107</ele>
        <time>2022-03-03T23:48:11Z</time>
      </trkpt>
      <trkpt lat="34.31293475577673" lon="109.02577534061005">
        <ele>392.17457542102784</ele>
        <time>2022-03-03T23:48:14Z</time>
      </trkpt>
      <trkpt lat="34.312862642074315" lon="109.02584271066543">
        <ele>392.3855042262003</ele>
        <time>2022-03-03T23:48:16Z</time>
      </trkpt>
      <trkpt lat="34.31270912772021" lon="109.0259525704171">
        <ele>393.1700360318646</ele>
        <time>2022-03-03T23:48:20Z</time>
      </trkpt>
      <trkpt lat="34.312663121221505" lon="109.02606300822987">
        <ele>393.3239393280819</ele>
        <time>2022-03-03T23:48:24Z</time>
      </trkpt>
      <trkpt lat="34.31273609387599" lon="109.02612637429651">
        <ele>392.31877557653934</ele>
        <time>2022-03-03T23:48:28Z</time>
      </trkpt>
      <trkpt lat="34.31256207744016" lon="109.02633722295866">
        <ele>392.48803303204477</ele>
        <time>2022-03-03T23:48:32Z</time>
      </trkpt>
      <trkpt lat="34.31240896094968" lon="109.02641664975124">
        <ele>393.11867698002607</ele>
        <time>2022-03-03T23:48:34Z</time>
      </trkpt>
      <trkpt lat="34.31235161935233" lon="109.02650441080607">
        <ele>392.98940419591963</ele>
        <time>2022-03-03T23:48:36Z</time>
      </trkpt>
      <trkpt lat="34.312084642369946" lon="109.02656412670788">
        <ele>394.3396185860038</ele>
        <time>2022-03-03T23:48:40Z</time>
      </trkpt>
      <trkpt lat="34.311961580475014" lon="109.02662059731477">
        <ele>393.6541417436674</ele>
        <time>2022-03-03T23:48:42Z</time>
      </trkpt>
      <trkpt lat="34.311880135257994" lon="109.02668954538966">
        <ele>393.9396304516122</ele>
        <time>2022-03-03T23:48:44Z</time>
      </trkpt>
      <trkpt lat="34.31183841173062" lon="109.02676703728031">
        <ele>394.18450461886823</ele>
        <time>2022-03-03T23:48:46Z</time>
      </trkpt>
      <trkpt lat="34.31170761316517" lon="109.02692615904068">
        <ele>394.42633685283363</ele>
        <time>2022-03-03T23:48:50Z</time>
      </trkpt>
      <trkpt lat="34.31168284423579" lon="109.02703021979305">
        <ele>394.4388727163896</ele>
        <time>2022-03-03T23:48:52Z</time>
      </trkpt>
      <trkpt lat="34.31143926243091" lon="109.02731763431947">
        <ele>394.56795075908303</ele>
        <time>2022-03-03T23:49:00Z</time>
      </trkpt>
      <trkpt lat="34.311369822889915" lon="109.02753053459091">
        <ele>392.8318782420829</ele>
        <time>2022-03-03T23:49:04Z</time>
      </trkpt>
      <trkpt lat="34.31133481416565" lon="109.02784914493232">
        <ele>392.5284998342395</ele>
        <time>2022-03-03T23:49:10Z</time>
      </trkpt>
      <trkpt lat="34.31133903007051" lon="109.02795463284664">
        <ele>392.4868872705847</ele>
        <time>2022-03-03T23:49:12Z</time>
      </trkpt>
      <trkpt lat="34.31130336507113" lon="109.02816377256636">
        <ele>392.2154979715124</ele>
        <time>2022-03-03T23:49:16Z</time>
      </trkpt>
      <trkpt lat="34.31130726725645" lon="109.02845641860276">
        <ele>392.4407422496006</ele>
        <time>2022-03-03T23:49:22Z</time>
      </trkpt>
      <trkpt lat="34.311251103314156" lon="109.02867163113156">
        <ele>392.16872791200876</ele>
        <time>2022-03-03T23:49:26Z</time>
      </trkpt>
      <trkpt lat="34.311144396052704" lon="109.02887443783838">
        <ele>392.17532498575747</ele>
        <time>2022-03-03T23:49:30Z</time>
      </trkpt>
      <trkpt lat="34.310984137809456" lon="109.02902111551766">
        <ele>391.45449624583125</ele>
        <time>2022-03-03T23:49:34Z</time>
      </trkpt>
      <trkpt lat="34.31062770439287" lon="109.02940649090108">
        <ele>391.35826480109245</ele>
        <time>2022-03-03T23:49:44Z</time>
      </trkpt>
      <trkpt lat="34.31041742381817" lon="109.02957638401003">
        <ele>392.119378359057</ele>
        <time>2022-03-03T23:49:50Z</time>
      </trkpt>
      <trkpt lat="34.31014657601383" lon="109.02962105958032">
        <ele>392.64781435672194</ele>
        <time>2022-03-03T23:49:56Z</time>
      </trkpt>
      <trkpt lat="34.309803143403" lon="109.02955526916055">
        <ele>392.3587289750576</ele>
        <time>2022-03-03T23:50:02Z</time>
      </trkpt>
      <trkpt lat="34.309618527146604" lon="109.02947363747383">
        <ele>391.8428512727842</ele>
        <time>2022-03-03T23:50:06Z</time>
      </trkpt>
      <trkpt lat="34.309521742505595" lon="109.02941217983596">
        <ele>392.163204241544</ele>
        <time>2022-03-03T23:50:08Z</time>
      </trkpt>
      <trkpt lat="34.30942323218951" lon="109.02931640851882">
        <ele>392.2178515670821</ele>
        <time>2022-03-03T23:50:10Z</time>
      </trkpt>
      <trkpt lat="34.30925872963312" lon="109.0291919378047">
        <ele>392.3204033803195</ele>
        <time>2022-03-03T23:50:14Z</time>
      </trkpt>
      <trkpt lat="34.309114556798484" lon="109.02902941029994">
        <ele>391.8979412568733</ele>
        <time>2022-03-03T23:50:18Z</time>
      </trkpt>
      <trkpt lat="34.30895656439181" lon="109.02893015365018">
        <ele>392.71811688505113</ele>
        <time>2022-03-03T23:50:22Z</time>
      </trkpt>
      <trkpt lat="34.30872603919616" lon="109.02891557716">
        <ele>394.12574130296707</ele>
        <time>2022-03-03T23:50:28Z</time>
      </trkpt>
      <trkpt lat="34.308566160599476" lon="109.02896655670213">
        <ele>394.20772847533226</ele>
        <time>2022-03-03T23:50:32Z</time>
      </trkpt>
      <trkpt lat="34.30837097723533" lon="109.02900095120359">
        <ele>393.6648543160409</ele>
        <time>2022-03-03T23:50:36Z</time>
      </trkpt>
      <trkpt lat="34.308289743297756" lon="109.02903485409965">
        <ele>393.30721266474575</ele>
        <time>2022-03-03T23:50:38Z</time>
      </trkpt>
      <trkpt lat="34.30816254168925" lon="109.02914395954834">
        <ele>393.7229327308014</ele>
        <time>2022-03-03T23:50:42Z</time>
      </trkpt>
      <trkpt lat="34.308068765481416" lon="109.02930833893419">
        <ele>394.14384347200394</ele>
        <time>2022-03-03T23:50:46Z</time>
      </trkpt>
      <trkpt lat="34.30794435100536" lon="109.02945426854521">
        <ele>393.96976861171424</ele>
        <time>2022-03-03T23:50:50Z</time>
      </trkpt>
      <trkpt lat="34.30784935353924" lon="109.02961635627265">
        <ele>394.3546878732741</ele>
        <time>2022-03-03T23:50:54Z</time>
      </trkpt>
      <trkpt lat="34.30777057667888" lon="109.02969191218892">
        <ele>394.55620170757174</ele>
        <time>2022-03-03T23:50:56Z</time>
      </trkpt>
      <trkpt lat="34.30764068332469" lon="109.02994844700447">
        <ele>394.288109684363</ele>
        <time>2022-03-03T23:51:02Z</time>
      </trkpt>
      <trkpt lat="34.307587202777746" lon="109.0300234623096">
        <ele>394.5070922682062</ele>
        <time>2022-03-03T23:51:04Z</time>
      </trkpt>
      <trkpt lat="34.30730491237268" lon="109.03027353673994">
        <ele>395.1226364634931</ele>
        <time>2022-03-03T23:51:12Z</time>
      </trkpt>
      <trkpt lat="34.30702912965624" lon="109.03040666473092">
        <ele>394.94059921521693</ele>
        <time>2022-03-03T23:51:18Z</time>
      </trkpt>
      <trkpt lat="34.306880903126654" lon="109.03052209840527">
        <ele>393.27143277879804</ele>
        <time>2022-03-03T23:51:22Z</time>
      </trkpt>
      <trkpt lat="34.30659984772926" lon="109.03066670129675">
        <ele>392.9144596150145</ele>
        <time>2022-03-03T23:51:30Z</time>
      </trkpt>
      <trkpt lat="34.30641459623624" lon="109.03069739308215">
        <ele>392.6762152435258</ele>
        <time>2022-03-03T23:51:34Z</time>
      </trkpt>
      <trkpt lat="34.306329409974026" lon="109.03073704971425">
        <ele>392.24062828719616</ele>
        <time>2022-03-03T23:51:38Z</time>
      </trkpt>
      <trkpt lat="34.30631242002121" lon="109.03084799417513">
        <ele>390.5189019246027</ele>
        <time>2022-03-03T23:51:44Z</time>
      </trkpt>
      <trkpt lat="34.30632337979828" lon="109.03097778415678">
        <ele>390.4486262500286</ele>
        <time>2022-03-03T23:51:48Z</time>
      </trkpt>
      <trkpt lat="34.306347868370025" lon="109.03106715345146">
        <ele>390.60610908828676</ele>
        <time>2022-03-03T23:51:50Z</time>
      </trkpt>
      <trkpt lat="34.30634823143666" lon="109.03129042764739">
        <ele>390.05139485094696</ele>
        <time>2022-03-03T23:51:54Z</time>
      </trkpt>
      <trkpt lat="34.30636479153442" lon="109.03140095013208">
        <ele>390.31280955765396</ele>
        <time>2022-03-03T23:51:56Z</time>
      </trkpt>
      <trkpt lat="34.30638785894718" lon="109.03200433485993">
        <ele>391.2524001672864</ele>
        <time>2022-03-03T23:52:06Z</time>
      </trkpt>
      <trkpt lat="34.30637611320918" lon="109.03223698742343">
        <ele>391.9492493541911</ele>
        <time>2022-03-03T23:52:10Z</time>
      </trkpt>
      <trkpt lat="34.306413225648434" lon="109.03270827412564">
        <ele>393.2396467048675</ele>
        <time>2022-03-03T23:52:18Z</time>
      </trkpt>
      <trkpt lat="34.30640488297502" lon="109.03284005363635">
        <ele>392.2453731074929</ele>
        <time>2022-03-03T23:52:20Z</time>
      </trkpt>
      <trkpt lat="34.3064226749454" lon="109.03296815744518">
        <ele>392.3767572399229</ele>
        <time>2022-03-03T23:52:22Z</time>
      </trkpt>
      <trkpt lat="34.30642503643536" lon="109.03321907233877">
        <ele>392.0237639565021</ele>
        <time>2022-03-03T23:52:26Z</time>
      </trkpt>
      <trkpt lat="34.30647816361826" lon="109.03357063362638">
        <ele>392.01083408109844</ele>
        <time>2022-03-03T23:52:32Z</time>
      </trkpt>
      <trkpt lat="34.306487708848344" lon="109.03393793508668">
        <ele>392.90783348027617</ele>
        <time>2022-03-03T23:52:38Z</time>
      </trkpt>
      <trkpt lat="34.306528179875265" lon="109.03417703870716">
        <ele>392.39025486446917</ele>
        <time>2022-03-03T23:52:42Z</time>
      </trkpt>
      <trkpt lat="34.306517133146855" lon="109.03430493802145">
        <ele>392.0570000214502</ele>
        <time>2022-03-03T23:52:44Z</time>
      </trkpt>
      <trkpt lat="34.3065661744188" lon="109.03490939933477">
        <ele>392.69099527876824</ele>
        <time>2022-03-03T23:52:54Z</time>
      </trkpt>
      <trkpt lat="34.30655693520337" lon="109.0351607674565">
        <ele>392.27058268524706</ele>
        <time>2022-03-03T23:52:58Z</time>
      </trkpt>
      <trkpt lat="34.306578436157174" lon="109.03534548218043">
        <ele>392.149147589691</ele>
        <time>2022-03-03T23:53:01Z</time>
      </trkpt>
      <trkpt lat="34.30659237736327" lon="109.03594181791759">
        <ele>391.8773780837655</ele>
        <time>2022-03-03T23:53:11Z</time>
      </trkpt>
      <trkpt lat="34.30665387544276" lon="109.03622662267601">
        <ele>392.5909515125677</ele>
        <time>2022-03-03T23:53:17Z</time>
      </trkpt>
      <trkpt lat="34.30665693368147" lon="109.03637827731959">
        <ele>392.0216199401766</ele>
        <time>2022-03-03T23:53:21Z</time>
      </trkpt>
      <trkpt lat="34.30655684057606" lon="109.03644682171127">
        <ele>391.546851105988</ele>
        <time>2022-03-03T23:53:33Z</time>
      </trkpt>
      <trkpt lat="34.30659492324809" lon="109.03659740646108">
        <ele>391.2531532915309</ele>
        <time>2022-03-03T23:53:44Z</time>
      </trkpt>
      <trkpt lat="34.30660161827774" lon="109.03668625116367">
        <ele>392.4146868651733</ele>
        <time>2022-03-03T23:53:52Z</time>
      </trkpt>
      <trkpt lat="34.306562944617355" lon="109.03676315892996">
        <ele>391.77458201814443</ele>
        <time>2022-03-03T23:54:02Z</time>
      </trkpt>
      <trkpt lat="34.30657255149541" lon="109.03678717235272">
        <ele>392.29447418730706</ele>
        <time>2022-03-03T23:54:12Z</time>
      </trkpt>
      <trkpt lat="34.306578811731825" lon="109.03688377825345">
        <ele>392.5065677976236</ele>
        <time>2022-03-03T23:54:19Z</time>
      </trkpt>
      <trkpt lat="34.30642884512968" lon="109.03710642113406">
        <ele>392.0141034414992</ele>
        <time>2022-03-03T23:54:42Z</time>
      </trkpt>
      <trkpt lat="34.30635542154115" lon="109.03711935393994">
        <ele>391.1083231884986</ele>
        <time>2022-03-03T23:54:50Z</time>
      </trkpt>
      <trkpt lat="34.30628963107197" lon="109.03716814660557">
        <ele>390.8969166101888</ele>
        <time>2022-03-03T23:54:58Z</time>
      </trkpt>
      <trkpt lat="34.30621238059215" lon="109.03732693302756">
        <ele>390.8033580230549</ele>
        <time>2022-03-03T23:55:16Z</time>
      </trkpt>
      <trkpt lat="34.30620453268235" lon="109.03737011311075">
        <ele>390.9135048072785</ele>
        <time>2022-03-03T23:55:20Z</time>
      </trkpt>
    </trkseg>
  </trk>
</gpx>