<?xml version="1.0" encoding="UTF-8"?>
<gpx xmlns="http://www.topografix.com/GPX/1/1" xmlns:gpxtpx="http://www.garmin.com/xmlschemas/TrackPointExtension/v1" xmlns:xsi="http://www.w3.org/2001/XMLSchema-instance" xsi:schemaLocation="http://www.topografix.com/GPX/1/1 http://www.topografix.com/GPX/1/1/gpx.xsd" version="1.1" creator="gpx.py -- https://github.com/tkrajina/gpxpy">
  <trk>
    <name>gpx from keep</name>
    <type>Run</type>
    <trkseg>
      <trkpt lat="34.297570990578286" lon="108.71058325670661">
        <ele>387.4446029663086</ele>
        <time>2026-09-16T23:07:35Z</time>
      </trkpt>
      <trkpt lat="34.297740650414596" lon="108.71033243307534">
        <ele>388.0334701538086</ele>
        <time>2026-09-16T23:07:42Z</time>
      </trkpt>
      <trkpt lat="34.297756698348145" lon="108.71022738908299">
        <ele>388.28017462976277</ele>
        <time>2026-09-16T23:07:46Z</time>
      </trkpt>
      <trkpt lat="34.297830790060374" lon="108.71015277782456">
        <ele>389.26619761809707</ele>
        <time>2026-09-16T23:07:50Z</time>
      </trkpt>
      <trkpt lat="34.298021376677255" lon="108.7101614133766">
        <ele>390.1593251414597</ele>
        <time>2026-09-16T23:07:58Z</time>
      </trkpt>
      <trkpt lat="34.298075292530235" lon="108.71037012245128">
        <ele>387.86700848676264</ele>
        <time>2026-09-16T23:08:06Z</time>
      </trkpt>
      <trkpt lat="34.29811203099074" lon="108.71043368753713">
        <ele>389.1061966018751</ele>
        <time>2026-09-16T23:08:10Z</time>
      </trkpt>
      <trkpt lat="34.29810288781684" lon="108.710521168479">
        <ele>389.1103878831491</ele>
        <time>2026-09-16T23:08:14Z</time>
      </trkpt>
      <trkpt lat="34.29812731262594" lon="108.71061829127784">
        <ele>389.0243618302047</ele>
        <time>2026-09-16T23:08:18Z</time>
      </trkpt>
      <trkpt lat="34.29809232042324" lon="108.71071394863651">
        <ele>388.52645603753626</ele>
        <time>2026-09-16T23:08:22Z</time>
      </trkpt>
      <trkpt lat="34.29812888086958" lon="108.71101195038192">
        <ele>389.03763496223837</ele>
        <time>2026-09-16T23:08:35Z</time>
      </trkpt>
      <trkpt lat="34.29815716570064" lon="108.71107926733809">
        <ele>389.8217944884673</ele>
        <time>2026-09-16T23:08:38Z</time>
      </trkpt>
      <trkpt lat="34.298174156174966" lon="108.71134391445096">
        <ele>389.8237390285358</ele>
        <time>2026-09-16T23:08:50Z</time>
      </trkpt>
      <trkpt lat="34.29814022273571" lon="108.71140576187254">
        <ele>388.9029268035665</ele>
        <time>2026-09-16T23:08:53Z</time>
      </trkpt>
      <trkpt lat="34.29784465771103" lon="108.71151494992034">
        <ele>388.3740811422467</ele>
        <time>2026-09-16T23:09:11Z</time>
      </trkpt>
      <trkpt lat="34.29754867026285" lon="108.71164112462417">
        <ele>388.7126587163657</ele>
        <time>2026-09-16T23:09:29Z</time>
      </trkpt>
      <trkpt lat="34.297379599356454" lon="108.71171451468723">
        <ele>388.92963369283825</ele>
        <time>2026-09-16T23:09:38Z</time>
      </trkpt>
      <trkpt lat="34.29732214786313" lon="108.7117127466625">
        <ele>388.35463025886565</ele>
        <time>2026-09-16T23:09:41Z</time>
      </trkpt>
      <trkpt lat="34.29704333741533" lon="108.71184410587377">
        <ele>389.04970129579306</ele>
        <time>2026-09-16T23:09:57Z</time>
      </trkpt>
      <trkpt lat="34.29675875331391" lon="108.71194132909848">
        <ele>390.6405087048188</ele>
        <time>2026-09-16T23:10:15Z</time>
      </trkpt>
      <trkpt lat="34.296514643451815" lon="108.71206317757085">
        <ele>389.6720427740365</ele>
        <time>2026-09-16T23:10:30Z</time>
      </trkpt>
      <trkpt lat="34.296395793691424" lon="108.71208303611947">
        <ele>388.9494314575568</ele>
        <time>2026-09-16T23:10:36Z</time>
      </trkpt>
      <trkpt lat="34.29634733460619" lon="108.7120513380756">
        <ele>388.69740140158683</ele>
        <time>2026-09-16T23:10:39Z</time>
      </trkpt>
      <trkpt lat="34.29629589323525" lon="108.71194088046792">
        <ele>388.19939984567463</ele>
        <time>2026-09-16T23:10:45Z</time>
      </trkpt>
      <trkpt lat="34.29630115617456" lon="108.71181401578997">
        <ele>388.89267283771187</ele>
        <time>2026-09-16T23:10:51Z</time>
      </trkpt>
      <trkpt lat="34.296241320913964" lon="108.7114594822506">
        <ele>389.5115300267935</ele>
        <time>2026-09-16T23:11:09Z</time>
      </trkpt>
      <trkpt lat="34.296228413998314" lon="108.711215359714">
        <ele>390.1393602453172</ele>
        <time>2026-09-16T23:11:21Z</time>
      </trkpt>
      <trkpt lat="34.29617820834317" lon="108.710858991624">
        <ele>390.4313777992502</ele>
        <time>2026-09-16T23:11:39Z</time>
      </trkpt>
      <trkpt lat="34.2961033395886" lon="108.71052616861687">
        <ele>390.7252290137112</ele>
        <time>2026-09-16T23:11:55Z</time>
      </trkpt>
      <trkpt lat="34.296059353538645" lon="108.71015178016798">
        <ele>391.4352026442066</ele>
        <time>2026-09-16T23:12:13Z</time>
      </trkpt>
      <trkpt lat="34.296012150605456" lon="108.70978593202487">
        <ele>391.11459985375404</ele>
        <time>2026-09-16T23:12:31Z</time>
      </trkpt>
      <trkpt lat="34.2959808279626" lon="108.70949346405453">
        <ele>390.70876249019057</ele>
        <time>2026-09-16T23:12:46Z</time>
      </trkpt>
      <trkpt lat="34.295937295692674" lon="108.70942226678353">
        <ele>391.21183301880956</ele>
        <time>2026-09-16T23:12:52Z</time>
      </trkpt>
      <trkpt lat="34.29591918920314" lon="108.70909580908868">
        <ele>391.0237445179373</ele>
        <time>2026-09-16T23:13:10Z</time>
      </trkpt>
      <trkpt lat="34.29591305435759" lon="108.70891609176148">
        <ele>391.4529507532716</ele>
        <time>2026-09-16T23:13:19Z</time>
      </trkpt>
      <trkpt lat="34.29584787330039" lon="108.70852293688348">
        <ele>391.4942627865821</ele>
        <time>2026-09-16T23:13:40Z</time>
      </trkpt>
      <trkpt lat="34.295828253408416" lon="108.70837331091393">
        <ele>391.6688174298033</ele>
        <time>2026-09-16T23:13:49Z</time>
      </trkpt>
      <trkpt lat="34.29584065334859" lon="108.70827011924565">
        <ele>391.08074417710304</ele>
        <time>2026-09-16T23:13:55Z</time>
      </trkpt>
      <trkpt lat="34.29581531297295" lon="108.70790615403415">
        <ele>391.87429427634925</ele>
        <time>2026-09-16T23:14:15Z</time>
      </trkpt>
      <trkpt lat="34.29578973921684" lon="108.7075341272788">
        <ele>390.3304541055113</ele>
        <time>2026-09-16T23:14:36Z</time>
      </trkpt>
      <trkpt lat="34.2957513805013" lon="108.70725200520677">
        <ele>390.29203303623945</ele>
        <time>2026-09-16T23:14:51Z</time>
      </trkpt>
      <trkpt lat="34.295761001771695" lon="108.70719492304241">
        <ele>389.30398545227945</ele>
        <time>2026-09-16T23:14:54Z</time>
      </trkpt>
      <trkpt lat="34.29572663929325" lon="108.70696217276806">
        <ele>390.6712448531762</ele>
        <time>2026-09-16T23:15:09Z</time>
      </trkpt>
      <trkpt lat="34.29573286831625" lon="108.70684727241928">
        <ele>390.8049215832725</ele>
        <time>2026-09-16T23:15:15Z</time>
      </trkpt>
      <trkpt lat="34.295688312169844" lon="108.70671491167194">
        <ele>390.30495559982955</ele>
        <time>2026-09-16T23:15:24Z</time>
      </trkpt>
      <trkpt lat="34.29567065348994" lon="108.70634976076202">
        <ele>390.05198745056987</ele>
        <time>2026-09-16T23:15:45Z</time>
      </trkpt>
      <trkpt lat="34.29575754609891" lon="108.70613360126843">
        <ele>390.3716389518231</ele>
        <time>2026-09-16T23:15:57Z</time>
      </trkpt>
      <trkpt lat="34.295813550005754" lon="108.7060819864129">
        <ele>389.1887491606176</ele>
        <time>2026-09-16T23:16:04Z</time>
      </trkpt>
      <trkpt lat="34.29587820886271" lon="108.70607831646485">
        <ele>390.61735192127526</ele>
        <time>2026-09-16T23:16:08Z</time>
      </trkpt>
      <trkpt lat="34.29615242265341" lon="108.70600439805392">
        <ele>389.9448438268155</ele>
        <time>2026-09-16T23:16:24Z</time>
      </trkpt>
      <trkpt lat="34.296323138650145" lon="108.70595875203969">
        <ele>389.85543883778155</ele>
        <time>2026-09-16T23:16:40Z</time>
      </trkpt>
      <trkpt lat="34.29661619173598" lon="108.70592509653463">
        <ele>389.95070007722825</ele>
        <time>2026-09-16T23:17:01Z</time>
      </trkpt>
      <trkpt lat="34.29689871244673" lon="108.70590342049513">
        <ele>388.6188502619043</ele>
        <time>2026-09-16T23:17:19Z</time>
      </trkpt>
      <trkpt lat="34.2971676661726" lon="108.70585720254047">
        <ele>388.6947273295373</ele>
        <time>2026-09-16T23:17:37Z</time>
      </trkpt>
      <trkpt lat="34.29743379174353" lon="108.70579478122575">
        <ele>389.1659419927746</ele>
        <time>2026-09-16T23:17:55Z</time>
      </trkpt>
      <trkpt lat="34.29767492017687" lon="108.70575188649842">
        <ele>389.91747544612736</ele>
        <time>2026-09-16T23:18:11Z</time>
      </trkpt>
      <trkpt lat="34.29771793652568" lon="108.70572397589785">
        <ele>389.2566559901461</ele>
        <time>2026-09-16T23:18:15Z</time>
      </trkpt>
      <trkpt lat="34.29780887642626" lon="108.7057148378787">
        <ele>390.90823901072145</ele>
        <time>2026-09-16T23:18:23Z</time>
      </trkpt>
      <trkpt lat="34.297854431745414" lon="108.70568359155135">
        <ele>390.7258562743664</ele>
        <time>2026-09-16T23:18:27Z</time>
      </trkpt>
      <trkpt lat="34.298076861681544" lon="108.70564931694102">
        <ele>389.65964477229863</ele>
        <time>2026-09-16T23:18:42Z</time>
      </trkpt>
      <trkpt lat="34.29816985780472" lon="108.70566750091243">
        <ele>389.6456155339256</ele>
        <time>2026-09-16T23:18:48Z</time>
      </trkpt>
      <trkpt lat="34.298466577981216" lon="108.70559431327547">
        <ele>391.61118909344077</ele>
        <time>2026-09-16T23:19:09Z</time>
      </trkpt>
      <trkpt lat="34.29878016401152" lon="108.7055507381519">
        <ele>389.96021731570363</ele>
        <time>2026-09-16T23:19:36Z</time>
      </trkpt>
      <trkpt lat="34.2990694555386" lon="108.70548585101677">
        <ele>390.44864137563854</ele>
        <time>2026-09-16T23:19:54Z</time>
      </trkpt>
      <trkpt lat="34.29913432438269" lon="108.7054794308954">
        <ele>391.01630996353924</ele>
        <time>2026-09-16T23:20:00Z</time>
      </trkpt>
      <trkpt lat="34.29920585834755" lon="108.70544015098237">
        <ele>390.9683771226555</ele>
        <time>2026-09-16T23:20:06Z</time>
      </trkpt>
      <trkpt lat="34.29927132625974" lon="108.70549591074823">
        <ele>391.5359599655494</ele>
        <time>2026-09-16T23:20:12Z</time>
      </trkpt>
      <trkpt lat="34.29931149134308" lon="108.70555392129107">
        <ele>390.9260390223935</ele>
        <time>2026-09-16T23:20:16Z</time>
      </trkpt>
      <trkpt lat="34.299348606031124" lon="108.7057140609961">
        <ele>390.51534116920084</ele>
        <time>2026-09-16T23:20:24Z</time>
      </trkpt>
      <trkpt lat="34.29934879133389" lon="108.70577097593252">
        <ele>390.13316152524203</ele>
        <time>2026-09-16T23:20:28Z</time>
      </trkpt>
      <trkpt lat="34.299391170844174" lon="108.70591074758555">
        <ele>389.65358664561063</ele>
        <time>2026-09-16T23:20:38Z</time>
      </trkpt>
      <trkpt lat="34.2993917961453" lon="108.70599341383907">
        <ele>390.38290641084313</ele>
        <time>2026-09-16T23:20:44Z</time>
      </trkpt>
      <trkpt lat="34.29944162693483" lon="108.70634378932752">
        <ele>390.8755323756486</ele>
        <time>2026-09-16T23:21:05Z</time>
      </trkpt>
      <trkpt lat="34.299469471184274" lon="108.70668329089587">
        <ele>390.27297986950725</ele>
        <time>2026-09-16T23:21:23Z</time>
      </trkpt>
      <trkpt lat="34.29951334138404" lon="108.70683443794465">
        <ele>391.4184030937031</ele>
        <time>2026-09-16T23:21:32Z</time>
      </trkpt>
      <trkpt lat="34.29950209619564" lon="108.7069192772651">
        <ele>390.63427122402936</ele>
        <time>2026-09-16T23:21:38Z</time>
      </trkpt>
      <trkpt lat="34.299534575981085" lon="108.70702403952858">
        <ele>391.45770316477865</ele>
        <time>2026-09-16T23:21:47Z</time>
      </trkpt>
      <trkpt lat="34.299553149725774" lon="108.70717780845374">
        <ele>391.3998145852238</ele>
        <time>2026-09-16T23:21:59Z</time>
      </trkpt>
      <trkpt lat="34.29953443424034" lon="108.70722946432477">
        <ele>391.0979774594307</ele>
        <time>2026-09-16T23:22:02Z</time>
      </trkpt>
      <trkpt lat="34.29951392461724" lon="108.707397046444">
        <ele>389.9300757870078</ele>
        <time>2026-09-16T23:22:11Z</time>
      </trkpt>
      <trkpt lat="34.29954295849975" lon="108.70751325620346">
        <ele>391.1021913494915</ele>
        <time>2026-09-16T23:22:17Z</time>
      </trkpt>
      <trkpt lat="34.29954548866357" lon="108.70774649974342">
        <ele>390.2128521371633</ele>
        <time>2026-09-16T23:22:29Z</time>
      </trkpt>
      <trkpt lat="34.29960469795673" lon="108.70806487325233">
        <ele>391.81467980425805</ele>
        <time>2026-09-16T23:22:48Z</time>
      </trkpt>
      <trkpt lat="34.29959842242739" lon="108.70823046257264">
        <ele>389.9669086933136</ele>
        <time>2026-09-16T23:23:00Z</time>
      </trkpt>
      <trkpt lat="34.299621444674074" lon="108.7083169026394">
        <ele>390.04397023748606</ele>
        <time>2026-09-16T23:23:06Z</time>
      </trkpt>
      <trkpt lat="34.29961790091101" lon="108.70847500789982">
        <ele>389.5169343119487</ele>
        <time>2026-09-16T23:23:18Z</time>
      </trkpt>
      <trkpt lat="34.29964567179195" lon="108.70853854487281">
        <ele>389.42651490401477</ele>
        <time>2026-09-16T23:23:24Z</time>
      </trkpt>
      <trkpt lat="34.299664021386995" lon="108.70864622382877">
        <ele>388.8484670603648</ele>
        <time>2026-09-16T23:23:30Z</time>
      </trkpt>
      <trkpt lat="34.299671909995475" lon="108.70881461546884">
        <ele>389.57463997695595</ele>
        <time>2026-09-16T23:23:39Z</time>
      </trkpt>
      <trkpt lat="34.299706249203446" lon="108.70886135798582">
        <ele>389.6896717539057</ele>
        <time>2026-09-16T23:23:42Z</time>
      </trkpt>
      <trkpt lat="34.299709043957726" lon="108.70901732234476">
        <ele>390.4897456737235</ele>
        <time>2026-09-16T23:23:51Z</time>
      </trkpt>
      <trkpt lat="34.29972896694903" lon="108.70910639587726">
        <ele>390.85320542380214</ele>
        <time>2026-09-16T23:23:57Z</time>
      </trkpt>
      <trkpt lat="34.2997360532084" lon="108.70946889982419">
        <ele>388.90447994787246</ele>
        <time>2026-09-16T23:24:18Z</time>
      </trkpt>
      <trkpt lat="34.299810225548775" lon="108.70956653839433">
        <ele>390.89991159085184</ele>
        <time>2026-09-16T23:24:24Z</time>
      </trkpt>
      <trkpt lat="34.299820397110274" lon="108.70984115881602">
        <ele>389.9161783521995</ele>
        <time>2026-09-16T23:24:37Z</time>
      </trkpt>
      <trkpt lat="34.29987076517287" lon="108.71009719761919">
        <ele>389.0934906946495</ele>
        <time>2026-09-16T23:24:49Z</time>
      </trkpt>
      <trkpt lat="34.29988056458985" lon="108.71026429704119">
        <ele>390.0405466258526</ele>
        <time>2026-09-16T23:24:58Z</time>
      </trkpt>
      <trkpt lat="34.29978296760795" lon="108.71032565946243">
        <ele>388.6788946520537</ele>
        <time>2026-09-16T23:25:04Z</time>
      </trkpt>
      <trkpt lat="34.29971118387271" lon="108.710473600791">
        <ele>390.78365452587605</ele>
        <time>2026-09-16T23:25:16Z</time>
      </trkpt>
      <trkpt lat="34.29959704783376" lon="108.7105633554302">
        <ele>394.2794143287465</ele>
        <time>2026-09-16T23:25:25Z</time>
      </trkpt>
      <trkpt lat="34.299526509500424" lon="108.71058499146139">
        <ele>394.2173545481637</ele>
        <time>2026-09-16T23:25:31Z</time>
      </trkpt>
      <trkpt lat="34.299482988150075" lon="108.71063481762722">
        <ele>395.01285951025784</ele>
        <time>2026-09-16T23:25:37Z</time>
      </trkpt>
      <trkpt lat="34.29949267412083" lon="108.7107111409629">
        <ele>393.4436701480299</ele>
        <time>2026-09-16T23:25:43Z</time>
      </trkpt>
      <trkpt lat="34.29948051934942" lon="108.71076538575514">
        <ele>391.4214848205447</ele>
        <time>2026-09-16T23:25:46Z</time>
      </trkpt>
      <trkpt lat="34.299441107933426" lon="108.71082110823811">
        <ele>390.3871018588543</ele>
        <time>2026-09-16T23:25:52Z</time>
      </trkpt>
      <trkpt lat="34.29939839005325" lon="108.71087197861789">
        <ele>393.01025211717933</ele>
        <time>2026-09-16T23:27:58Z</time>
      </trkpt>
      <trkpt lat="34.299138165397636" lon="108.71097004240326">
        <ele>390.33846094086766</ele>
        <time>2026-09-16T23:28:19Z</time>
      </trkpt>
      <trkpt lat="34.29905987645082" lon="108.71098447217847">
        <ele>388.5979244830087</ele>
        <time>2026-09-16T23:28:25Z</time>
      </trkpt>
      <trkpt lat="34.29877831452847" lon="108.71111929363111">
        <ele>389.02453884575516</ele>
        <time>2026-09-16T23:28:49Z</time>
      </trkpt>
      <trkpt lat="34.29872136842282" lon="108.71112288154985">
        <ele>388.7224990883842</ele>
        <time>2026-09-16T23:28:53Z</time>
      </trkpt>
      <trkpt lat="34.298434675807655" lon="108.71124989777178">
        <ele>388.74286545440555</ele>
        <time>2026-09-16T23:29:17Z</time>
      </trkpt>
      <trkpt lat="34.29829900926372" lon="108.71130710744019">
        <ele>388.88478710129857</ele>
        <time>2026-09-16T23:29:29Z</time>
      </trkpt>
      <trkpt lat="34.29821641649499" lon="108.71129700584893">
        <ele>389.22710590064526</ele>
        <time>2026-09-16T23:29:35Z</time>
      </trkpt>
      <trkpt lat="34.298167549256554" lon="108.71114724870895">
        <ele>389.0909577747807</ele>
        <time>2026-09-16T23:29:44Z</time>
      </trkpt>
      <trkpt lat="34.298167247651826" lon="108.71107157172337">
        <ele>392.01887486036867</ele>
        <time>2026-09-16T23:29:50Z</time>
      </trkpt>
      <trkpt lat="34.29809048208763" lon="108.71093285217373">
        <ele>389.98058179114014</ele>
        <time>2026-09-16T23:29:59Z</time>
      </trkpt>
      <trkpt lat="34.29809414197854" lon="108.71086697346126">
        <ele>390.63400774635375</ele>
        <time>2026-09-16T23:30:02Z</time>
      </trkpt>
      <trkpt lat="34.29804665525962" lon="108.71078736742221">
        <ele>390.6653997208923</ele>
        <time>2026-09-16T23:30:08Z</time>
      </trkpt>
      <trkpt lat="34.298079847145665" lon="108.71068114345914">
        <ele>389.73732126597315</ele>
        <time>2026-09-16T23:30:14Z</time>
      </trkpt>
      <trkpt lat="34.29796854963161" lon="108.71038074072435">
        <ele>388.5885496037081</ele>
        <time>2026-09-16T23:30:32Z</time>
      </trkpt>
      <trkpt lat="34.29793456284306" lon="108.71019903988375">
        <ele>388.5779883544892</ele>
        <time>2026-09-16T23:30:45Z</time>
      </trkpt>
      <trkpt lat="34.29786085545629" lon="108.71017973070732">
        <ele>389.123976867646</ele>
        <time>2026-09-16T23:30:53Z</time>
      </trkpt>
      <trkpt lat="34.29773432913593" lon="108.71020747298616">
        <ele>387.0916082300246</ele>
        <time>2026-09-16T23:31:03Z</time>
      </trkpt>
      <trkpt lat="34.29777825737365" lon="108.71037775410424">
        <ele>387.5188804771751</ele>
        <time>2026-09-16T23:31:15Z</time>
      </trkpt>
      <trkpt lat="34.29781041507258" lon="108.71042924050981">
        <ele>387.86119794938713</ele>
        <time>2026-09-16T23:31:21Z</time>
      </trkpt>
      <trkpt lat="34.29752100152649" lon="108.71051011678279">
        <ele>387.81523366924375</ele>
        <time>2026-09-16T23:31:30Z</time>
      </trkpt>
      <trkpt lat="34.29758657571433" lon="108.71037070338645">
        <ele>387.5103123979643</ele>
        <time>2026-09-16T23:31:33Z</time>
      </trkpt>
      <trkpt lat="34.297762656250654" lon="108.71055627785094">
        <ele>397.2608873033896</ele>
        <time>2026-09-16T23:31:39Z</time>
      </trkpt>
      <trkpt lat="34.297762656250654" lon="108.71055627785094">
        <ele>397.2608873033896</ele>
        <time>2026-09-16T23:31:43Z</time>
      </trkpt>
    </trkseg>
  </trk>
</gpx>