<?xml version="1.0" encoding="UTF-8"?>
<gpx xmlns="http://www.topografix.com/GPX/1/1" xmlns:gpxtpx="http://www.garmin.com/xmlschemas/TrackPointExtension/v1" xmlns:xsi="http://www.w3.org/2001/XMLSchema-instance" xsi:schemaLocation="http://www.topografix.com/GPX/1/1 http://www.topografix.com/GPX/1/1/gpx.xsd" version="1.1" creator="gpx.py -- https://github.com/tkrajina/gpxpy">
  <trk>
    <name>gpx from keep</name>
    <type>Ride</type>
    <trkseg>
      <trkpt lat="34.32814200508677" lon="108.9804566695929">
        <ele>439.6311340332031</ele>
        <time>2022-02-28T23:23:32Z</time>
      </trkpt>
      <trkpt lat="34.328703623937585" lon="108.98038839655007">
        <ele>405.82489013671875</ele>
        <time>2022-02-28T23:23:50Z</time>
      </trkpt>
      <trkpt lat="34.32875121743124" lon="108.980307166134">
        <ele>395.29071044921875</ele>
        <time>2022-02-28T23:24:00Z</time>
      </trkpt>
      <trkpt lat="34.32879735934453" lon="108.98047746468909">
        <ele>395.8626530177856</ele>
        <time>2022-02-28T23:24:11Z</time>
      </trkpt>
      <trkpt lat="34.32891068788219" lon="108.98051136900877">
        <ele>395.85887588354734</ele>
        <time>2022-02-28T23:24:13Z</time>
      </trkpt>
      <trkpt lat="34.3289138701885" lon="108.98062142397512">
        <ele>395.8253766923808</ele>
        <time>2022-02-28T23:24:16Z</time>
      </trkpt>
      <trkpt lat="34.328775928379635" lon="108.98072000927738">
        <ele>395.82936182059484</ele>
        <time>2022-02-28T23:24:18Z</time>
      </trkpt>
      <trkpt lat="34.32865553669766" lon="108.98077806170548">
        <ele>395.83724347000873</ele>
        <time>2022-02-28T23:24:20Z</time>
      </trkpt>
      <trkpt lat="34.32851993674282" lon="108.98091512389578">
        <ele>395.79935575369745</ele>
        <time>2022-02-28T23:24:36Z</time>
      </trkpt>
      <trkpt lat="34.32844785731833" lon="108.9808218069257">
        <ele>394.9167756922543</ele>
        <time>2022-02-28T23:24:42Z</time>
      </trkpt>
      <trkpt lat="34.32834012190736" lon="108.9807878152391">
        <ele>394.80519861727953</ele>
        <time>2022-02-28T23:24:48Z</time>
      </trkpt>
      <trkpt lat="34.32826183064047" lon="108.98078781919428">
        <ele>394.666145844385</ele>
        <time>2022-02-28T23:24:52Z</time>
      </trkpt>
      <trkpt lat="34.328180126944076" lon="108.98082060076503">
        <ele>394.4168041367084</ele>
        <time>2022-02-28T23:24:56Z</time>
      </trkpt>
      <trkpt lat="34.32819488455363" lon="108.98113723932549">
        <ele>395.0077420761809</ele>
        <time>2022-02-28T23:25:18Z</time>
      </trkpt>
      <trkpt lat="34.328203402742474" lon="108.9810862217936">
        <ele>394.35111171286553</ele>
        <time>2022-02-28T23:25:36Z</time>
      </trkpt>
      <trkpt lat="34.328190490442516" lon="108.98133195383777">
        <ele>395.453028508462</ele>
        <time>2022-02-28T23:26:11Z</time>
      </trkpt>
      <trkpt lat="34.32821227161141" lon="108.98158274511624">
        <ele>394.83104029111564</ele>
        <time>2022-02-28T23:26:17Z</time>
      </trkpt>
      <trkpt lat="34.32823623084433" lon="108.98167231954939">
        <ele>394.154698763974</ele>
        <time>2022-02-28T23:26:19Z</time>
      </trkpt>
      <trkpt lat="34.32823962764943" lon="108.98179919830672">
        <ele>393.8826875369996</ele>
        <time>2022-02-28T23:26:24Z</time>
      </trkpt>
      <trkpt lat="34.32819496561741" lon="108.9818726546757">
        <ele>394.0776711627841</ele>
        <time>2022-02-28T23:26:26Z</time>
      </trkpt>
      <trkpt lat="34.32818526549446" lon="108.98198132740728">
        <ele>394.6187748182565</ele>
        <time>2022-02-28T23:26:30Z</time>
      </trkpt>
      <trkpt lat="34.3281225515549" lon="108.98211880539141">
        <ele>394.5133764343336</ele>
        <time>2022-02-28T23:26:34Z</time>
      </trkpt>
      <trkpt lat="34.32812293734261" lon="108.98232313002767">
        <ele>394.2845517359674</ele>
        <time>2022-02-28T23:26:40Z</time>
      </trkpt>
      <trkpt lat="34.328094665277966" lon="108.98246578524301">
        <ele>392.86377832014114</ele>
        <time>2022-02-28T23:26:44Z</time>
      </trkpt>
      <trkpt lat="34.3280971905655" lon="108.9826382442508">
        <ele>393.2283760458231</ele>
        <time>2022-02-28T23:26:46Z</time>
      </trkpt>
      <trkpt lat="34.32807550402693" lon="108.98279145920745">
        <ele>393.9032044056803</ele>
        <time>2022-02-28T23:26:48Z</time>
      </trkpt>
      <trkpt lat="34.32809815172344" lon="108.98316222284512">
        <ele>392.24512464459985</ele>
        <time>2022-02-28T23:26:52Z</time>
      </trkpt>
      <trkpt lat="34.328125494485185" lon="108.98335968241823">
        <ele>392.4346637846902</ele>
        <time>2022-02-28T23:26:54Z</time>
      </trkpt>
      <trkpt lat="34.32824057354919" lon="108.98376712428352">
        <ele>393.3141642138362</ele>
        <time>2022-02-28T23:26:58Z</time>
      </trkpt>
      <trkpt lat="34.32827758584458" lon="108.98401600437502">
        <ele>392.94764970988035</ele>
        <time>2022-02-28T23:27:02Z</time>
      </trkpt>
      <trkpt lat="34.32815349202407" lon="108.98431985666738">
        <ele>392.4076360752806</ele>
        <time>2022-02-28T23:27:10Z</time>
      </trkpt>
      <trkpt lat="34.32810551688818" lon="108.98440043054974">
        <ele>392.38324820809066</ele>
        <time>2022-02-28T23:27:16Z</time>
      </trkpt>
      <trkpt lat="34.32805971362189" lon="108.9845140634158">
        <ele>391.9980582483113</ele>
        <time>2022-02-28T23:27:23Z</time>
      </trkpt>
      <trkpt lat="34.32794580178303" lon="108.98459938468876">
        <ele>391.6505638519302</ele>
        <time>2022-02-28T23:27:27Z</time>
      </trkpt>
      <trkpt lat="34.32791119996551" lon="108.98481197286735">
        <ele>392.80178244039416</ele>
        <time>2022-02-28T23:27:31Z</time>
      </trkpt>
      <trkpt lat="34.327924878319365" lon="108.98515246823018">
        <ele>391.5518643921241</ele>
        <time>2022-02-28T23:27:37Z</time>
      </trkpt>
      <trkpt lat="34.328032462298154" lon="108.98569139135351">
        <ele>391.12939259503037</ele>
        <time>2022-02-28T23:27:47Z</time>
      </trkpt>
      <trkpt lat="34.32803318348156" lon="108.98626587897441">
        <ele>392.04228840675205</ele>
        <time>2022-02-28T23:27:57Z</time>
      </trkpt>
      <trkpt lat="34.32801837173804" lon="108.98649180934349">
        <ele>391.69616883061826</ele>
        <time>2022-02-28T23:28:01Z</time>
      </trkpt>
      <trkpt lat="34.32802973164441" lon="108.98660265416902">
        <ele>392.0798968411982</ele>
        <time>2022-02-28T23:28:03Z</time>
      </trkpt>
      <trkpt lat="34.32799133607995" lon="108.9871848718876">
        <ele>393.0785213531926</ele>
        <time>2022-02-28T23:28:13Z</time>
      </trkpt>
      <trkpt lat="34.32799876248681" lon="108.98774034716799">
        <ele>393.19449357222766</ele>
        <time>2022-02-28T23:28:23Z</time>
      </trkpt>
      <trkpt lat="34.32799825679207" lon="108.98828339929425">
        <ele>393.00318218488246</ele>
        <time>2022-02-28T23:28:32Z</time>
      </trkpt>
      <trkpt lat="34.32799018322857" lon="108.98861745936786">
        <ele>393.2298948345706</ele>
        <time>2022-02-28T23:28:38Z</time>
      </trkpt>
      <trkpt lat="34.32796461477032" lon="108.98884226094883">
        <ele>392.23602647986263</ele>
        <time>2022-02-28T23:28:42Z</time>
      </trkpt>
      <trkpt lat="34.32797928491009" lon="108.989184141407">
        <ele>391.89115560799837</ele>
        <time>2022-02-28T23:28:48Z</time>
      </trkpt>
      <trkpt lat="34.32794173703156" lon="108.98940785935157">
        <ele>392.05511991865933</ele>
        <time>2022-02-28T23:28:52Z</time>
      </trkpt>
      <trkpt lat="34.32792932862008" lon="108.98962218425365">
        <ele>391.97126363776624</ele>
        <time>2022-02-28T23:28:56Z</time>
      </trkpt>
      <trkpt lat="34.32794634331613" lon="108.9897308364982">
        <ele>391.9678633119911</ele>
        <time>2022-02-28T23:28:58Z</time>
      </trkpt>
      <trkpt lat="34.32793421611306" lon="108.98993536815304">
        <ele>391.8682497860864</ele>
        <time>2022-02-28T23:29:02Z</time>
      </trkpt>
      <trkpt lat="34.327999774686354" lon="108.99023141814975">
        <ele>391.57030628062785</ele>
        <time>2022-02-28T23:29:08Z</time>
      </trkpt>
      <trkpt lat="34.327940591571085" lon="108.99043220074918">
        <ele>392.04065444972366</ele>
        <time>2022-02-28T23:29:12Z</time>
      </trkpt>
      <trkpt lat="34.327916774367935" lon="108.99090691202673">
        <ele>391.71249554585665</ele>
        <time>2022-02-28T23:29:20Z</time>
      </trkpt>
      <trkpt lat="34.32798167369471" lon="108.9910040127946">
        <ele>391.8866271050647</ele>
        <time>2022-02-28T23:29:22Z</time>
      </trkpt>
      <trkpt lat="34.3280297110622" lon="108.99111201980645">
        <ele>392.5568283572793</ele>
        <time>2022-02-28T23:29:24Z</time>
      </trkpt>
      <trkpt lat="34.3280311008857" lon="108.99123105922062">
        <ele>392.4391438141465</ele>
        <time>2022-02-28T23:29:26Z</time>
      </trkpt>
      <trkpt lat="34.327986434426634" lon="108.9914255176056">
        <ele>393.6112827230245</ele>
        <time>2022-02-28T23:29:30Z</time>
      </trkpt>
      <trkpt lat="34.327994476638" lon="108.99151766152663">
        <ele>393.656620525755</ele>
        <time>2022-02-28T23:29:32Z</time>
      </trkpt>
      <trkpt lat="34.327965176161875" lon="108.99175953384065">
        <ele>393.0346773741767</ele>
        <time>2022-02-28T23:29:36Z</time>
      </trkpt>
      <trkpt lat="34.327966780417114" lon="108.9921184167538">
        <ele>393.32763186562806</ele>
        <time>2022-02-28T23:29:42Z</time>
      </trkpt>
      <trkpt lat="34.3280018340622" lon="108.9924306203657">
        <ele>394.66357449349016</ele>
        <time>2022-02-28T23:29:48Z</time>
      </trkpt>
      <trkpt lat="34.327982566820836" lon="108.9930242730008">
        <ele>395.84080791287124</ele>
        <time>2022-02-28T23:30:00Z</time>
      </trkpt>
      <trkpt lat="34.327985423485025" lon="108.99363765780177">
        <ele>396.15473685599864</ele>
        <time>2022-02-28T23:30:12Z</time>
      </trkpt>
      <trkpt lat="34.328001027743994" lon="108.99391259042434">
        <ele>396.1135613070801</ele>
        <time>2022-02-28T23:30:18Z</time>
      </trkpt>
      <trkpt lat="34.32807196325095" lon="108.99420182312969">
        <ele>396.8314302880317</ele>
        <time>2022-02-28T23:30:24Z</time>
      </trkpt>
      <trkpt lat="34.32809149682532" lon="108.99479531820622">
        <ele>395.17745952680707</ele>
        <time>2022-02-28T23:30:34Z</time>
      </trkpt>
      <trkpt lat="34.32811971278488" lon="108.99524652241934">
        <ele>395.7443626318127</ele>
        <time>2022-02-28T23:30:42Z</time>
      </trkpt>
      <trkpt lat="34.32807966870033" lon="108.99548548094275">
        <ele>394.99619277752936</ele>
        <time>2022-02-28T23:30:46Z</time>
      </trkpt>
      <trkpt lat="34.32807000098294" lon="108.99602954221886">
        <ele>393.6691586319357</ele>
        <time>2022-02-28T23:30:56Z</time>
      </trkpt>
      <trkpt lat="34.32804347806599" lon="108.99650806753822">
        <ele>394.0860791997984</ele>
        <time>2022-02-28T23:31:04Z</time>
      </trkpt>
      <trkpt lat="34.327978564401704" lon="108.99696731336886">
        <ele>393.47340133599937</ele>
        <time>2022-02-28T23:31:12Z</time>
      </trkpt>
      <trkpt lat="34.327982764689345" lon="108.9973162630403">
        <ele>395.4598084939644</ele>
        <time>2022-02-28T23:31:18Z</time>
      </trkpt>
      <trkpt lat="34.327944881028635" lon="108.99783573139327">
        <ele>394.0973953977227</ele>
        <time>2022-02-28T23:31:28Z</time>
      </trkpt>
      <trkpt lat="34.32794597176764" lon="108.99826476262594">
        <ele>394.5633581811562</ele>
        <time>2022-02-28T23:31:36Z</time>
      </trkpt>
      <trkpt lat="34.327911782547666" lon="108.99873147632327">
        <ele>394.08034153748304</ele>
        <time>2022-02-28T23:31:44Z</time>
      </trkpt>
      <trkpt lat="34.327940732243036" lon="108.99933120521692">
        <ele>394.06734516844153</ele>
        <time>2022-02-28T23:31:56Z</time>
      </trkpt>
      <trkpt lat="34.327975264442195" lon="108.99944257633177">
        <ele>394.8639648053795</ele>
        <time>2022-02-28T23:31:58Z</time>
      </trkpt>
      <trkpt lat="34.32798703312243" lon="108.99954834443648">
        <ele>393.8114382280037</ele>
        <time>2022-02-28T23:32:00Z</time>
      </trkpt>
      <trkpt lat="34.32797735973694" lon="109.0001053132516">
        <ele>393.43604591302574</ele>
        <time>2022-02-28T23:32:10Z</time>
      </trkpt>
      <trkpt lat="34.32796908460196" lon="109.0003196918508">
        <ele>393.92956303525716</ele>
        <time>2022-02-28T23:32:14Z</time>
      </trkpt>
      <trkpt lat="34.327985016130256" lon="109.00043797670162">
        <ele>394.2678909068927</ele>
        <time>2022-02-28T23:32:16Z</time>
      </trkpt>
      <trkpt lat="34.32797083382524" lon="109.00102154972639">
        <ele>394.7066292790696</ele>
        <time>2022-02-28T23:32:26Z</time>
      </trkpt>
      <trkpt lat="34.32797442501284" lon="109.00134985751455">
        <ele>395.0418696170673</ele>
        <time>2022-02-28T23:32:32Z</time>
      </trkpt>
      <trkpt lat="34.32796062270333" lon="109.00145790565512">
        <ele>395.10182128380984</ele>
        <time>2022-02-28T23:32:34Z</time>
      </trkpt>
      <trkpt lat="34.32798703448212" lon="109.0016686185708">
        <ele>394.8936816016212</ele>
        <time>2022-02-28T23:32:38Z</time>
      </trkpt>
      <trkpt lat="34.327985591737566" lon="109.00188812911682">
        <ele>394.6577101489529</ele>
        <time>2022-02-28T23:32:42Z</time>
      </trkpt>
      <trkpt lat="34.32800505721186" lon="109.0024247152264">
        <ele>395.73084153141826</ele>
        <time>2022-02-28T23:32:52Z</time>
      </trkpt>
      <trkpt lat="34.327996769295964" lon="109.00262491174685">
        <ele>395.88303061947227</ele>
        <time>2022-02-28T23:32:56Z</time>
      </trkpt>
      <trkpt lat="34.32796714366112" lon="109.00271742090243">
        <ele>395.9709015721455</ele>
        <time>2022-02-28T23:32:58Z</time>
      </trkpt>
      <trkpt lat="34.32797693210799" lon="109.00298131772539">
        <ele>395.7936227126047</ele>
        <time>2022-02-28T23:33:04Z</time>
      </trkpt>
      <trkpt lat="34.3280075173344" lon="109.00312363456987">
        <ele>396.5422827070579</ele>
        <time>2022-02-28T23:33:08Z</time>
      </trkpt>
      <trkpt lat="34.32797147606339" lon="109.00335631018571">
        <ele>395.9968250123784</ele>
        <time>2022-02-28T23:33:12Z</time>
      </trkpt>
      <trkpt lat="34.327956502883616" lon="109.00380760313692">
        <ele>394.4198475703597</ele>
        <time>2022-02-28T23:33:20Z</time>
      </trkpt>
      <trkpt lat="34.32797906326282" lon="109.00392247455466">
        <ele>394.3757668416947</ele>
        <time>2022-02-28T23:33:22Z</time>
      </trkpt>
      <trkpt lat="34.32795022977708" lon="109.00445179362949">
        <ele>394.022817004472</ele>
        <time>2022-02-28T23:33:30Z</time>
      </trkpt>
      <trkpt lat="34.32795352965983" lon="109.00507418385976">
        <ele>393.82349208090454</ele>
        <time>2022-02-28T23:33:40Z</time>
      </trkpt>
      <trkpt lat="34.327986716313696" lon="109.00562260862215">
        <ele>394.119949311018</ele>
        <time>2022-02-28T23:33:50Z</time>
      </trkpt>
      <trkpt lat="34.32795812838686" lon="109.00592443921732">
        <ele>393.9071614323184</ele>
        <time>2022-02-28T23:33:56Z</time>
      </trkpt>
      <trkpt lat="34.327877446904075" lon="109.00624039807678">
        <ele>392.84138091187924</ele>
        <time>2022-02-28T23:34:02Z</time>
      </trkpt>
      <trkpt lat="34.32787177986652" lon="109.00657936064667">
        <ele>393.24457731377333</ele>
        <time>2022-02-28T23:34:08Z</time>
      </trkpt>
      <trkpt lat="34.3278826875973" lon="109.00669638074883">
        <ele>393.63724913820624</ele>
        <time>2022-02-28T23:34:10Z</time>
      </trkpt>
      <trkpt lat="34.327862879003156" lon="109.0068130257019">
        <ele>393.3328328281641</ele>
        <time>2022-02-28T23:34:12Z</time>
      </trkpt>
      <trkpt lat="34.327884737839234" lon="109.00716948902232">
        <ele>393.71930251829326</ele>
        <time>2022-02-28T23:34:18Z</time>
      </trkpt>
      <trkpt lat="34.327840627389584" lon="109.00770494432572">
        <ele>392.74789817165583</ele>
        <time>2022-02-28T23:34:26Z</time>
      </trkpt>
      <trkpt lat="34.327849758285055" lon="109.00828383463875">
        <ele>391.84882710967213</ele>
        <time>2022-02-28T23:34:34Z</time>
      </trkpt>
      <trkpt lat="34.327914483306365" lon="109.00890065542617">
        <ele>391.87714749667794</ele>
        <time>2022-02-28T23:34:42Z</time>
      </trkpt>
      <trkpt lat="34.32793069053558" lon="109.0095452886092">
        <ele>389.7378711402416</ele>
        <time>2022-02-28T23:34:50Z</time>
      </trkpt>
      <trkpt lat="34.32795075787592" lon="109.00988637535154">
        <ele>387.54491738788784</ele>
        <time>2022-02-28T23:34:54Z</time>
      </trkpt>
      <trkpt lat="34.32793438814192" lon="109.01037886060746">
        <ele>385.53634407557547</ele>
        <time>2022-02-28T23:35:00Z</time>
      </trkpt>
      <trkpt lat="34.32796089768223" lon="109.01053217226682">
        <ele>386.5114083122462</ele>
        <time>2022-02-28T23:35:02Z</time>
      </trkpt>
      <trkpt lat="34.327950330773945" lon="109.01079646619627">
        <ele>385.87604966107756</ele>
        <time>2022-02-28T23:35:06Z</time>
      </trkpt>
      <trkpt lat="34.327960830767346" lon="109.01092606261766">
        <ele>385.6768352808431</ele>
        <time>2022-02-28T23:35:08Z</time>
      </trkpt>
      <trkpt lat="34.32793218220062" lon="109.01156560565003">
        <ele>386.2580407578498</ele>
        <time>2022-02-28T23:35:18Z</time>
      </trkpt>
      <trkpt lat="34.32792633758483" lon="109.01181803560154">
        <ele>386.18642875086516</ele>
        <time>2022-02-28T23:35:22Z</time>
      </trkpt>
      <trkpt lat="34.32787894021918" lon="109.01239647988292">
        <ele>386.6228174427524</ele>
        <time>2022-02-28T23:35:32Z</time>
      </trkpt>
      <trkpt lat="34.327887238809" lon="109.01250965527359">
        <ele>387.12680206727237</ele>
        <time>2022-02-28T23:35:34Z</time>
      </trkpt>
      <trkpt lat="34.327886417561906" lon="109.01304763867697">
        <ele>389.79530736990273</ele>
        <time>2022-02-28T23:35:44Z</time>
      </trkpt>
      <trkpt lat="34.3279023113375" lon="109.01316283957296">
        <ele>390.20333682000637</ele>
        <time>2022-02-28T23:35:46Z</time>
      </trkpt>
      <trkpt lat="34.32788858848366" lon="109.01338919107911">
        <ele>389.856553548947</ele>
        <time>2022-02-28T23:35:50Z</time>
      </trkpt>
      <trkpt lat="34.327926178381574" lon="109.01395601736141">
        <ele>389.5901864944026</ele>
        <time>2022-02-28T23:36:00Z</time>
      </trkpt>
      <trkpt lat="34.327943449273185" lon="109.01448192554044">
        <ele>387.8722617998719</ele>
        <time>2022-02-28T23:36:10Z</time>
      </trkpt>
      <trkpt lat="34.32795649437657" lon="109.01472907184679">
        <ele>387.08146784082055</ele>
        <time>2022-02-28T23:36:14Z</time>
      </trkpt>
      <trkpt lat="34.328027198157876" lon="109.01520540516734">
        <ele>387.09289097134024</ele>
        <time>2022-02-28T23:36:22Z</time>
      </trkpt>
      <trkpt lat="34.32802409722957" lon="109.01544918592458">
        <ele>387.36414046399295</ele>
        <time>2022-02-28T23:36:26Z</time>
      </trkpt>
      <trkpt lat="34.32803600974431" lon="109.01554757738313">
        <ele>387.2409391673282</ele>
        <time>2022-02-28T23:36:28Z</time>
      </trkpt>
      <trkpt lat="34.32811193027299" lon="109.015732368731">
        <ele>387.7775530125946</ele>
        <time>2022-02-28T23:36:32Z</time>
      </trkpt>
      <trkpt lat="34.328111777295916" lon="109.01582027202421">
        <ele>388.19580261968076</ele>
        <time>2022-02-28T23:36:34Z</time>
      </trkpt>
      <trkpt lat="34.3279762436194" lon="109.01634906353877">
        <ele>387.39667227491736</ele>
        <time>2022-02-28T23:36:44Z</time>
      </trkpt>
      <trkpt lat="34.32794491365899" lon="109.01647998162507">
        <ele>387.6761574810371</ele>
        <time>2022-02-28T23:36:46Z</time>
      </trkpt>
      <trkpt lat="34.32793760955455" lon="109.01659122440695">
        <ele>388.1182048358023</ele>
        <time>2022-02-28T23:36:48Z</time>
      </trkpt>
      <trkpt lat="34.327781140865106" lon="109.01716925514206">
        <ele>388.6548684295267</ele>
        <time>2022-02-28T23:36:58Z</time>
      </trkpt>
      <trkpt lat="34.32769835578738" lon="109.01747620036855">
        <ele>388.63951440900564</ele>
        <time>2022-02-28T23:37:04Z</time>
      </trkpt>
      <trkpt lat="34.327669696373405" lon="109.01800900067016">
        <ele>389.57032936811447</ele>
        <time>2022-02-28T23:37:14Z</time>
      </trkpt>
      <trkpt lat="34.32767321648653" lon="109.01832651275033">
        <ele>388.82212283834815</ele>
        <time>2022-02-28T23:37:20Z</time>
      </trkpt>
      <trkpt lat="34.327656993363355" lon="109.01843550900105">
        <ele>388.5726857110858</ele>
        <time>2022-02-28T23:37:22Z</time>
      </trkpt>
      <trkpt lat="34.32761442485867" lon="109.01853221690432">
        <ele>388.7646884191781</ele>
        <time>2022-02-28T23:37:24Z</time>
      </trkpt>
      <trkpt lat="34.32754523015198" lon="109.01861669939004">
        <ele>388.2018595524132</ele>
        <time>2022-02-28T23:37:26Z</time>
      </trkpt>
      <trkpt lat="34.32750783111093" lon="109.01870915841295">
        <ele>388.89146602898836</ele>
        <time>2022-02-28T23:37:28Z</time>
      </trkpt>
      <trkpt lat="34.327445313178615" lon="109.01880650088566">
        <ele>388.8150156708434</ele>
        <time>2022-02-28T23:37:30Z</time>
      </trkpt>
      <trkpt lat="34.32741720306879" lon="109.01889547951919">
        <ele>389.5028612604365</ele>
        <time>2022-02-28T23:37:32Z</time>
      </trkpt>
      <trkpt lat="34.32726416235566" lon="109.01916966723743">
        <ele>389.1734975501895</ele>
        <time>2022-02-28T23:37:38Z</time>
      </trkpt>
      <trkpt lat="34.327127440188704" lon="109.01934702470284">
        <ele>388.8720699781552</ele>
        <time>2022-02-28T23:37:42Z</time>
      </trkpt>
      <trkpt lat="34.32693153370503" lon="109.01970881331205">
        <ele>388.4289864571765</ele>
        <time>2022-02-28T23:37:50Z</time>
      </trkpt>
      <trkpt lat="34.326608364384676" lon="109.0201214551455">
        <ele>389.0446732901037</ele>
        <time>2022-02-28T23:38:00Z</time>
      </trkpt>
      <trkpt lat="34.3264931032215" lon="109.0202831160784">
        <ele>388.8164591388777</ele>
        <time>2022-02-28T23:38:04Z</time>
      </trkpt>
      <trkpt lat="34.32640505573522" lon="109.02035123748736">
        <ele>388.46489900536835</ele>
        <time>2022-02-28T23:38:06Z</time>
      </trkpt>
      <trkpt lat="34.326223075461634" lon="109.02056928974409">
        <ele>388.88734422717243</ele>
        <time>2022-02-28T23:38:12Z</time>
      </trkpt>
      <trkpt lat="34.32590909106016" lon="109.02083943159236">
        <ele>389.06945487391204</ele>
        <time>2022-02-28T23:38:20Z</time>
      </trkpt>
      <trkpt lat="34.325496200340204" lon="109.02111120297573">
        <ele>388.8689873525873</ele>
        <time>2022-02-28T23:38:30Z</time>
      </trkpt>
      <trkpt lat="34.325162345450806" lon="109.02130968436484">
        <ele>388.36764738895</ele>
        <time>2022-02-28T23:38:38Z</time>
      </trkpt>
      <trkpt lat="34.32472197290397" lon="109.02149613867542">
        <ele>388.35600625537336</ele>
        <time>2022-02-28T23:38:48Z</time>
      </trkpt>
      <trkpt lat="34.3242709658618" lon="109.02163287523462">
        <ele>387.9608049253002</ele>
        <time>2022-02-28T23:38:58Z</time>
      </trkpt>
      <trkpt lat="34.32384409226118" lon="109.0217296324739">
        <ele>389.24513706285506</ele>
        <time>2022-02-28T23:39:08Z</time>
      </trkpt>
      <trkpt lat="34.32339315898085" lon="109.02176168196304">
        <ele>389.8099336186424</ele>
        <time>2022-02-28T23:39:18Z</time>
      </trkpt>
      <trkpt lat="34.322930445692364" lon="109.02179232309501">
        <ele>390.3239870350808</ele>
        <time>2022-02-28T23:39:28Z</time>
      </trkpt>
      <trkpt lat="34.322656330373036" lon="109.02180925259894">
        <ele>389.9714489551261</ele>
        <time>2022-02-28T23:39:34Z</time>
      </trkpt>
      <trkpt lat="34.32256805387977" lon="109.02179979959257">
        <ele>389.9687088113278</ele>
        <time>2022-02-28T23:39:36Z</time>
      </trkpt>
      <trkpt lat="34.32210232399092" lon="109.02176194491491">
        <ele>389.36473706550896</ele>
        <time>2022-02-28T23:39:46Z</time>
      </trkpt>
      <trkpt lat="34.32164830395299" lon="109.02170067799523">
        <ele>390.11874458100647</ele>
        <time>2022-02-28T23:39:56Z</time>
      </trkpt>
      <trkpt lat="34.32118409142088" lon="109.0216290158642">
        <ele>390.3363067926839</ele>
        <time>2022-02-28T23:40:06Z</time>
      </trkpt>
      <trkpt lat="34.32099482084308" lon="109.02161848288593">
        <ele>390.3927984768525</ele>
        <time>2022-02-28T23:40:10Z</time>
      </trkpt>
      <trkpt lat="34.32071155986865" lon="109.02153859042828">
        <ele>390.9372336836532</ele>
        <time>2022-02-28T23:40:16Z</time>
      </trkpt>
      <trkpt lat="34.32042678022745" lon="109.02151992661479">
        <ele>390.94250437803566</ele>
        <time>2022-02-28T23:40:22Z</time>
      </trkpt>
      <trkpt lat="34.32034211604885" lon="109.02149889861145">
        <ele>390.9772256743163</ele>
        <time>2022-02-28T23:40:24Z</time>
      </trkpt>
      <trkpt lat="34.32025114732679" lon="109.02150937750835">
        <ele>390.4997965050861</ele>
        <time>2022-02-28T23:40:26Z</time>
      </trkpt>
      <trkpt lat="34.31987298194067" lon="109.02145731738977">
        <ele>390.3050784645602</ele>
        <time>2022-02-28T23:40:34Z</time>
      </trkpt>
      <trkpt lat="34.31977594416006" lon="109.02142799000269">
        <ele>389.7689794031903</ele>
        <time>2022-02-28T23:40:36Z</time>
      </trkpt>
      <trkpt lat="34.31931039996388" lon="109.0214135213844">
        <ele>390.8740956960246</ele>
        <time>2022-02-28T23:40:46Z</time>
      </trkpt>
      <trkpt lat="34.31884521644052" lon="109.02143090297379">
        <ele>391.177356088534</ele>
        <time>2022-02-28T23:40:56Z</time>
      </trkpt>
      <trkpt lat="34.318741393800906" lon="109.02141627131721">
        <ele>391.15399085264653</ele>
        <time>2022-02-28T23:40:58Z</time>
      </trkpt>
      <trkpt lat="34.31855337290812" lon="109.02146181662404">
        <ele>391.25608467310667</ele>
        <time>2022-02-28T23:41:02Z</time>
      </trkpt>
      <trkpt lat="34.31836112740381" lon="109.02147736298272">
        <ele>391.22609061188996</ele>
        <time>2022-02-28T23:41:06Z</time>
      </trkpt>
      <trkpt lat="34.31806746190747" lon="109.0215410474605">
        <ele>391.42416002973914</ele>
        <time>2022-02-28T23:41:12Z</time>
      </trkpt>
      <trkpt lat="34.31796713583298" lon="109.02152149019153">
        <ele>390.8259650245309</ele>
        <time>2022-02-28T23:41:14Z</time>
      </trkpt>
      <trkpt lat="34.31770846164585" lon="109.02158424151031">
        <ele>391.765475387685</ele>
        <time>2022-02-28T23:41:20Z</time>
      </trkpt>
      <trkpt lat="34.31723205382303" lon="109.02161549520436">
        <ele>391.5728674456477</ele>
        <time>2022-02-28T23:41:30Z</time>
      </trkpt>
      <trkpt lat="34.316772641475666" lon="109.02167805769786">
        <ele>391.24837003834546</ele>
        <time>2022-02-28T23:41:40Z</time>
      </trkpt>
      <trkpt lat="34.316609102948284" lon="109.02173423148301">
        <ele>391.53179660998285</ele>
        <time>2022-02-28T23:41:44Z</time>
      </trkpt>
      <trkpt lat="34.31642640881402" lon="109.02194681156166">
        <ele>391.7214850327</ele>
        <time>2022-02-28T23:41:50Z</time>
      </trkpt>
      <trkpt lat="34.316276206656454" lon="109.0220495750563">
        <ele>391.35954858735204</ele>
        <time>2022-02-28T23:41:54Z</time>
      </trkpt>
      <trkpt lat="34.3160258285128" lon="109.02219775465277">
        <ele>390.908691810444</ele>
        <time>2022-02-28T23:42:02Z</time>
      </trkpt>
      <trkpt lat="34.31596555401322" lon="109.02226813359846">
        <ele>390.4200164275244</ele>
        <time>2022-02-28T23:42:08Z</time>
      </trkpt>
      <trkpt lat="34.315949759422054" lon="109.02226781707711">
        <ele>390.26904151774943</ele>
        <time>2022-02-28T23:42:13Z</time>
      </trkpt>
      <trkpt lat="34.315852770092626" lon="109.02240037787887">
        <ele>391.1513295797631</ele>
        <time>2022-02-28T23:42:22Z</time>
      </trkpt>
      <trkpt lat="34.31585985462576" lon="109.02257514934621">
        <ele>390.2666786098853</ele>
        <time>2022-02-28T23:42:26Z</time>
      </trkpt>
      <trkpt lat="34.31602130583425" lon="109.02310322553589">
        <ele>388.7288102339953</ele>
        <time>2022-02-28T23:42:36Z</time>
      </trkpt>
      <trkpt lat="34.31615412600686" lon="109.0234220657381">
        <ele>388.54593086149544</ele>
        <time>2022-02-28T23:42:42Z</time>
      </trkpt>
      <trkpt lat="34.31621699555199" lon="109.02363276928682">
        <ele>388.7633764529601</ele>
        <time>2022-02-28T23:42:46Z</time>
      </trkpt>
      <trkpt lat="34.316013441544975" lon="109.02387442141173">
        <ele>389.81791661679745</ele>
        <time>2022-02-28T23:42:54Z</time>
      </trkpt>
      <trkpt lat="34.315939999024664" lon="109.02392821920527">
        <ele>389.67572937440127</ele>
        <time>2022-02-28T23:42:56Z</time>
      </trkpt>
      <trkpt lat="34.31574973364942" lon="109.02399698405625">
        <ele>389.90941614471376</ele>
        <time>2022-02-28T23:43:00Z</time>
      </trkpt>
      <trkpt lat="34.31559619074166" lon="109.02410526127909">
        <ele>389.6244749156758</ele>
        <time>2022-02-28T23:43:04Z</time>
      </trkpt>
      <trkpt lat="34.31549978918848" lon="109.02414753241202">
        <ele>389.7041732063517</ele>
        <time>2022-02-28T23:43:06Z</time>
      </trkpt>
      <trkpt lat="34.315283420644654" lon="109.02431306163733">
        <ele>390.3158123269677</ele>
        <time>2022-02-28T23:43:12Z</time>
      </trkpt>
      <trkpt lat="34.31522351688124" lon="109.02437843646388">
        <ele>390.5406991383061</ele>
        <time>2022-02-28T23:43:14Z</time>
      </trkpt>
      <trkpt lat="34.31491017649326" lon="109.02460366153622">
        <ele>390.5058080246672</ele>
        <time>2022-02-28T23:43:22Z</time>
      </trkpt>
      <trkpt lat="34.314647834929396" lon="109.02471982165672">
        <ele>390.66978684440255</ele>
        <time>2022-02-28T23:43:28Z</time>
      </trkpt>
      <trkpt lat="34.314536018030026" lon="109.02484055418651">
        <ele>390.8129743523896</ele>
        <time>2022-02-28T23:43:32Z</time>
      </trkpt>
      <trkpt lat="34.31421627581378" lon="109.0250818472329">
        <ele>389.67533271573484</ele>
        <time>2022-02-28T23:43:40Z</time>
      </trkpt>
      <trkpt lat="34.31394405481047" lon="109.02522963820327">
        <ele>390.45672342926264</ele>
        <time>2022-02-28T23:43:46Z</time>
      </trkpt>
      <trkpt lat="34.313650818933894" lon="109.02534141895431">
        <ele>390.89173004217446</ele>
        <time>2022-02-28T23:43:52Z</time>
      </trkpt>
      <trkpt lat="34.313267398912494" lon="109.02552820547447">
        <ele>390.4281864883378</ele>
        <time>2022-02-28T23:44:00Z</time>
      </trkpt>
      <trkpt lat="34.31287079890448" lon="109.02579993666669">
        <ele>391.80720686074346</ele>
        <time>2022-02-28T23:44:10Z</time>
      </trkpt>
      <trkpt lat="34.31272341662285" lon="109.02590981258447">
        <ele>392.0672639105469</ele>
        <time>2022-02-28T23:44:14Z</time>
      </trkpt>
      <trkpt lat="34.312606205662355" lon="109.02602264918191">
        <ele>392.6390303010121</ele>
        <time>2022-02-28T23:44:18Z</time>
      </trkpt>
      <trkpt lat="34.3125255642327" lon="109.02612498344487">
        <ele>392.74804555717856</ele>
        <time>2022-02-28T23:44:22Z</time>
      </trkpt>
      <trkpt lat="34.31233704787004" lon="109.02626257660683">
        <ele>392.6101221544668</ele>
        <time>2022-02-28T23:44:26Z</time>
      </trkpt>
      <trkpt lat="34.31221773458528" lon="109.02629891174963">
        <ele>393.2444675602019</ele>
        <time>2022-02-28T23:44:28Z</time>
      </trkpt>
      <trkpt lat="34.31205245320539" lon="109.02649333603696">
        <ele>393.29210103768855</ele>
        <time>2022-02-28T23:44:32Z</time>
      </trkpt>
      <trkpt lat="34.311970180767204" lon="109.02654498444903">
        <ele>393.30252751521766</ele>
        <time>2022-02-28T23:44:34Z</time>
      </trkpt>
      <trkpt lat="34.31184920399669" lon="109.02687022382274">
        <ele>393.7717627733946</ele>
        <time>2022-02-28T23:44:42Z</time>
      </trkpt>
      <trkpt lat="34.3116546285691" lon="109.0271060000262">
        <ele>393.7164165265858</ele>
        <time>2022-02-28T23:44:48Z</time>
      </trkpt>
      <trkpt lat="34.311475084308846" lon="109.02724985479325">
        <ele>392.2331762071699</ele>
        <time>2022-02-28T23:44:52Z</time>
      </trkpt>
      <trkpt lat="34.311418103630025" lon="109.0273388399575">
        <ele>392.0975746018812</ele>
        <time>2022-02-28T23:44:54Z</time>
      </trkpt>
      <trkpt lat="34.311401387014385" lon="109.02743688896958">
        <ele>392.34589987341315</ele>
        <time>2022-02-28T23:44:56Z</time>
      </trkpt>
      <trkpt lat="34.31136057419859" lon="109.02754451962389">
        <ele>392.3729757675901</ele>
        <time>2022-02-28T23:44:58Z</time>
      </trkpt>
      <trkpt lat="34.311327413474196" lon="109.02774433878994">
        <ele>392.35013694502413</ele>
        <time>2022-02-28T23:45:02Z</time>
      </trkpt>
      <trkpt lat="34.31130263307312" lon="109.02795877191339">
        <ele>392.04306695144624</ele>
        <time>2022-02-28T23:45:06Z</time>
      </trkpt>
      <trkpt lat="34.311316348483636" lon="109.02804589437046">
        <ele>391.41411155089736</ele>
        <time>2022-02-28T23:45:08Z</time>
      </trkpt>
      <trkpt lat="34.31130179153567" lon="109.02814020891921">
        <ele>391.93125310726464</ele>
        <time>2022-02-28T23:45:10Z</time>
      </trkpt>
      <trkpt lat="34.31129549314293" lon="109.02841951913949">
        <ele>392.7464383598417</ele>
        <time>2022-02-28T23:45:16Z</time>
      </trkpt>
      <trkpt lat="34.31121194173691" lon="109.02875066903462">
        <ele>393.0359882833436</ele>
        <time>2022-02-28T23:45:22Z</time>
      </trkpt>
      <trkpt lat="34.310969300156934" lon="109.02911066198912">
        <ele>391.51348617393523</ele>
        <time>2022-02-28T23:45:30Z</time>
      </trkpt>
      <trkpt lat="34.31080066876583" lon="109.02928079591628">
        <ele>391.27808730863035</ele>
        <time>2022-02-28T23:45:34Z</time>
      </trkpt>
      <trkpt lat="34.31052026724881" lon="109.0294601020388">
        <ele>392.1401414331049</ele>
        <time>2022-02-28T23:45:40Z</time>
      </trkpt>
      <trkpt lat="34.310316898489695" lon="109.02952546756727">
        <ele>391.82685022987425</ele>
        <time>2022-02-28T23:45:44Z</time>
      </trkpt>
      <trkpt lat="34.31002590678989" lon="109.02954659279582">
        <ele>391.7394333295524</ele>
        <time>2022-02-28T23:45:50Z</time>
      </trkpt>
      <trkpt lat="34.30965371032847" lon="109.02944048260241">
        <ele>392.2823551306501</ele>
        <time>2022-02-28T23:45:58Z</time>
      </trkpt>
      <trkpt lat="34.30935376978196" lon="109.02924365946399">
        <ele>392.4258183967322</ele>
        <time>2022-02-28T23:46:04Z</time>
      </trkpt>
      <trkpt lat="34.30910494820299" lon="109.02899059195744">
        <ele>392.08360356185585</ele>
        <time>2022-02-28T23:46:10Z</time>
      </trkpt>
      <trkpt lat="34.308939226551125" lon="109.0288885477996">
        <ele>392.2644789321348</ele>
        <time>2022-02-28T23:46:14Z</time>
      </trkpt>
      <trkpt lat="34.30875079629887" lon="109.02885893330513">
        <ele>392.78253899049014</ele>
        <time>2022-02-28T23:46:18Z</time>
      </trkpt>
      <trkpt lat="34.30838661431896" lon="109.02892381882408">
        <ele>392.8027776107192</ele>
        <time>2022-02-28T23:46:26Z</time>
      </trkpt>
      <trkpt lat="34.30813440030104" lon="109.02917989208589">
        <ele>393.25652123242617</ele>
        <time>2022-02-28T23:46:34Z</time>
      </trkpt>
      <trkpt lat="34.30811161874372" lon="109.02927060637955">
        <ele>393.54339797701687</ele>
        <time>2022-02-28T23:46:36Z</time>
      </trkpt>
      <trkpt lat="34.30786198485761" lon="109.02969927839364">
        <ele>394.67765616159886</ele>
        <time>2022-02-28T23:46:46Z</time>
      </trkpt>
      <trkpt lat="34.307803365006116" lon="109.0297752987553">
        <ele>394.348331364803</ele>
        <time>2022-02-28T23:46:48Z</time>
      </trkpt>
      <trkpt lat="34.307695086773585" lon="109.0299971629634">
        <ele>395.7894825162366</ele>
        <time>2022-02-28T23:46:53Z</time>
      </trkpt>
      <trkpt lat="34.30746545129555" lon="109.0301742873017">
        <ele>395.40034712292254</ele>
        <time>2022-02-28T23:46:59Z</time>
      </trkpt>
      <trkpt lat="34.30726581986794" lon="109.0302821028026">
        <ele>395.1102737849578</ele>
        <time>2022-02-28T23:47:03Z</time>
      </trkpt>
      <trkpt lat="34.30717542801038" lon="109.03035268473944">
        <ele>394.06927238591015</ele>
        <time>2022-02-28T23:47:05Z</time>
      </trkpt>
      <trkpt lat="34.30677511557863" lon="109.03053202777588">
        <ele>392.4709589192644</ele>
        <time>2022-02-28T23:47:13Z</time>
      </trkpt>
      <trkpt lat="34.30662788665769" lon="109.0306462672619">
        <ele>391.89863156620413</ele>
        <time>2022-02-28T23:47:17Z</time>
      </trkpt>
      <trkpt lat="34.306351885603085" lon="109.03075226794438">
        <ele>391.8365135472268</ele>
        <time>2022-02-28T23:47:24Z</time>
      </trkpt>
      <trkpt lat="34.30632684132351" lon="109.03086924221225">
        <ele>391.8778430838138</ele>
        <time>2022-02-28T23:47:30Z</time>
      </trkpt>
      <trkpt lat="34.30632310071203" lon="109.03106136298071">
        <ele>390.6800956968218</ele>
        <time>2022-02-28T23:47:34Z</time>
      </trkpt>
      <trkpt lat="34.30639191798184" lon="109.0315823073942">
        <ele>391.7628221688792</ele>
        <time>2022-02-28T23:47:44Z</time>
      </trkpt>
      <trkpt lat="34.30639634461152" lon="109.03188801266987">
        <ele>392.1816319171339</ele>
        <time>2022-02-28T23:47:50Z</time>
      </trkpt>
      <trkpt lat="34.3064429549801" lon="109.03248859238501">
        <ele>392.70253836363554</ele>
        <time>2022-02-28T23:48:00Z</time>
      </trkpt>
      <trkpt lat="34.30649771681949" lon="109.03307143056907">
        <ele>392.38619778770953</ele>
        <time>2022-02-28T23:48:10Z</time>
      </trkpt>
      <trkpt lat="34.30655811843512" lon="109.0336278053724">
        <ele>392.57182228565216</ele>
        <time>2022-02-28T23:48:20Z</time>
      </trkpt>
      <trkpt lat="34.30655388048916" lon="109.03386318164398">
        <ele>392.6278738146648</ele>
        <time>2022-02-28T23:48:24Z</time>
      </trkpt>
      <trkpt lat="34.306597206788425" lon="109.03441777447632">
        <ele>392.4687503259629</ele>
        <time>2022-02-28T23:48:34Z</time>
      </trkpt>
      <trkpt lat="34.306647107414165" lon="109.0347812854477">
        <ele>392.77153559215367</ele>
        <time>2022-02-28T23:48:40Z</time>
      </trkpt>
      <trkpt lat="34.306685521047235" lon="109.03514681448023">
        <ele>393.29341461509466</ele>
        <time>2022-02-28T23:48:46Z</time>
      </trkpt>
      <trkpt lat="34.306708450263" lon="109.03574917155672">
        <ele>394.1811387324706</ele>
        <time>2022-02-28T23:48:56Z</time>
      </trkpt>
      <trkpt lat="34.306717264430695" lon="109.03586695024171">
        <ele>393.38841023202986</ele>
        <time>2022-02-28T23:48:58Z</time>
      </trkpt>
      <trkpt lat="34.30670803070022" lon="109.03598083864195">
        <ele>392.7623977093026</ele>
        <time>2022-02-28T23:49:00Z</time>
      </trkpt>
      <trkpt lat="34.306653848815486" lon="109.0360688280736">
        <ele>392.19274548999965</ele>
        <time>2022-02-28T23:49:06Z</time>
      </trkpt>
      <trkpt lat="34.30658199605579" lon="109.03612497426896">
        <ele>392.44985368289053</ele>
        <time>2022-02-28T23:49:12Z</time>
      </trkpt>
      <trkpt lat="34.306584628175465" lon="109.0363175409932">
        <ele>391.6143821272999</ele>
        <time>2022-02-28T23:49:25Z</time>
      </trkpt>
      <trkpt lat="34.30668682789255" lon="109.03691291395246">
        <ele>392.19944435171783</ele>
        <time>2022-02-28T23:50:04Z</time>
      </trkpt>
      <trkpt lat="34.30659376572424" lon="109.0370189698795">
        <ele>391.9396547880024</ele>
        <time>2022-02-28T23:50:22Z</time>
      </trkpt>
    </trkseg>
  </trk>
</gpx>