<?xml version="1.0" encoding="UTF-8"?>
<gpx xmlns="http://www.topografix.com/GPX/1/1" xmlns:gpxtpx="http://www.garmin.com/xmlschemas/TrackPointExtension/v1" xmlns:xsi="http://www.w3.org/2001/XMLSchema-instance" xsi:schemaLocation="http://www.topografix.com/GPX/1/1 http://www.topografix.com/GPX/1/1/gpx.xsd" version="1.1" creator="gpx.py -- https://github.com/tkrajina/gpxpy">
  <trk>
    <name>gpx from keep</name>
    <type>Ride</type>
    <trkseg>
      <trkpt lat="34.32825249391146" lon="108.98020626905027">
        <ele>399.70849227905273</ele>
        <time>2022-03-19T09:29:12Z</time>
      </trkpt>
      <trkpt lat="34.32822116842849" lon="108.98042389133788">
        <ele>399.0815143585205</ele>
        <time>2022-03-19T09:29:15Z</time>
      </trkpt>
      <trkpt lat="34.3284993509092" lon="108.98029133172248">
        <ele>408.20113372802734</ele>
        <time>2022-03-19T09:30:20Z</time>
      </trkpt>
      <trkpt lat="34.3283670612318" lon="108.98038514591265">
        <ele>406.2040729522705</ele>
        <time>2022-03-19T09:30:24Z</time>
      </trkpt>
      <trkpt lat="34.328460575480904" lon="108.98048945977139">
        <ele>402.5725574493408</ele>
        <time>2022-03-19T09:30:28Z</time>
      </trkpt>
      <trkpt lat="34.32875273818235" lon="108.98036568270278">
        <ele>398.15525817871094</ele>
        <time>2022-03-19T09:31:16Z</time>
      </trkpt>
      <trkpt lat="34.32873513046615" lon="108.98058697063988">
        <ele>397.5670413970947</ele>
        <time>2022-03-19T09:31:22Z</time>
      </trkpt>
      <trkpt lat="34.32874007587527" lon="108.98070985138524">
        <ele>397.420166015625</ele>
        <time>2022-03-19T09:31:28Z</time>
      </trkpt>
      <trkpt lat="34.328694159060916" lon="108.9804110673856">
        <ele>397.125919342041</ele>
        <time>2022-03-19T09:31:40Z</time>
      </trkpt>
      <trkpt lat="34.32872711023396" lon="108.98026178887066">
        <ele>397.11587142944336</ele>
        <time>2022-03-19T09:31:46Z</time>
      </trkpt>
      <trkpt lat="34.328815934037316" lon="108.98056240883473">
        <ele>395.9381271981055</ele>
        <time>2022-03-19T09:31:50Z</time>
      </trkpt>
      <trkpt lat="34.32888492583486" lon="108.98059502501656">
        <ele>395.8149531822665</ele>
        <time>2022-03-19T09:31:52Z</time>
      </trkpt>
      <trkpt lat="34.32876605140741" lon="108.98063928031455">
        <ele>395.69685450103134</ele>
        <time>2022-03-19T09:31:56Z</time>
      </trkpt>
      <trkpt lat="34.32867515155131" lon="108.98077423911029">
        <ele>395.63804419059306</ele>
        <time>2022-03-19T09:31:58Z</time>
      </trkpt>
      <trkpt lat="34.32851167091222" lon="108.980827588622">
        <ele>395.6093459026888</ele>
        <time>2022-03-19T09:32:00Z</time>
      </trkpt>
      <trkpt lat="34.32825389388561" lon="108.98080013097842">
        <ele>395.2038957355544</ele>
        <time>2022-03-19T09:32:08Z</time>
      </trkpt>
      <trkpt lat="34.32814947677409" lon="108.98081788149919">
        <ele>394.96838675811887</ele>
        <time>2022-03-19T09:32:11Z</time>
      </trkpt>
      <trkpt lat="34.328079800571494" lon="108.98089121766125">
        <ele>394.9792604893446</ele>
        <time>2022-03-19T09:32:14Z</time>
      </trkpt>
      <trkpt lat="34.32811143646716" lon="108.9809906179537">
        <ele>394.8004310000688</ele>
        <time>2022-03-19T09:32:16Z</time>
      </trkpt>
      <trkpt lat="34.328123283922366" lon="108.98111417547233">
        <ele>395.43466809019446</ele>
        <time>2022-03-19T09:32:19Z</time>
      </trkpt>
      <trkpt lat="34.328109806387126" lon="108.98120852877948">
        <ele>394.0822562230751</ele>
        <time>2022-03-19T09:32:21Z</time>
      </trkpt>
      <trkpt lat="34.32816666406228" lon="108.98176479987555">
        <ele>395.1129963193089</ele>
        <time>2022-03-19T09:32:34Z</time>
      </trkpt>
      <trkpt lat="34.328166690083" lon="108.98187892845873">
        <ele>394.38125644624233</ele>
        <time>2022-03-19T09:32:37Z</time>
      </trkpt>
      <trkpt lat="34.328144376006655" lon="108.98199514909071">
        <ele>394.40479463525116</ele>
        <time>2022-03-19T09:32:39Z</time>
      </trkpt>
      <trkpt lat="34.32814932430126" lon="108.98222258809741">
        <ele>393.7122681653127</ele>
        <time>2022-03-19T09:32:43Z</time>
      </trkpt>
      <trkpt lat="34.328121709179946" lon="108.9824834597457">
        <ele>392.7533915033564</ele>
        <time>2022-03-19T09:32:47Z</time>
      </trkpt>
      <trkpt lat="34.32813040339349" lon="108.9825933355793">
        <ele>393.99013673327863</ele>
        <time>2022-03-19T09:32:49Z</time>
      </trkpt>
      <trkpt lat="34.328109653478926" lon="108.98301853066454">
        <ele>394.2998453984037</ele>
        <time>2022-03-19T09:32:55Z</time>
      </trkpt>
      <trkpt lat="34.32812683934022" lon="108.98355071220467">
        <ele>394.3554206537083</ele>
        <time>2022-03-19T09:33:03Z</time>
      </trkpt>
      <trkpt lat="34.32815177953832" lon="108.98367836647883">
        <ele>392.3973923884332</ele>
        <time>2022-03-19T09:33:05Z</time>
      </trkpt>
      <trkpt lat="34.32811866590842" lon="108.98396321376903">
        <ele>393.9860758073628</ele>
        <time>2022-03-19T09:33:09Z</time>
      </trkpt>
      <trkpt lat="34.32798862489554" lon="108.98421813964941">
        <ele>391.3561486611143</ele>
        <time>2022-03-19T09:33:13Z</time>
      </trkpt>
      <trkpt lat="34.32791537472177" lon="108.98447718265453">
        <ele>391.7676984164864</ele>
        <time>2022-03-19T09:33:17Z</time>
      </trkpt>
      <trkpt lat="34.327893867449006" lon="108.98478875525778">
        <ele>391.3534929845482</ele>
        <time>2022-03-19T09:33:21Z</time>
      </trkpt>
      <trkpt lat="34.327902787467494" lon="108.98535111942694">
        <ele>390.208842292428</ele>
        <time>2022-03-19T09:33:28Z</time>
      </trkpt>
      <trkpt lat="34.327941246334255" lon="108.98595230789746">
        <ele>391.12539822701365</ele>
        <time>2022-03-19T09:33:35Z</time>
      </trkpt>
      <trkpt lat="34.32792367407227" lon="108.98658464436711">
        <ele>392.36517233774066</ele>
        <time>2022-03-19T09:33:43Z</time>
      </trkpt>
      <trkpt lat="34.32793478106739" lon="108.98716759874415">
        <ele>393.53855313546956</ele>
        <time>2022-03-19T09:33:50Z</time>
      </trkpt>
      <trkpt lat="34.32794128568279" lon="108.98776752012216">
        <ele>393.904952888377</ele>
        <time>2022-03-19T09:33:57Z</time>
      </trkpt>
      <trkpt lat="34.327940020827754" lon="108.98828921403928">
        <ele>393.0524850906804</ele>
        <time>2022-03-19T09:34:03Z</time>
      </trkpt>
      <trkpt lat="34.327941885118264" lon="108.98880138268034">
        <ele>394.1330316280946</ele>
        <time>2022-03-19T09:34:09Z</time>
      </trkpt>
      <trkpt lat="34.327903615035936" lon="108.9893479424523">
        <ele>391.7634671051055</ele>
        <time>2022-03-19T09:34:15Z</time>
      </trkpt>
      <trkpt lat="34.327903031375676" lon="108.9895288362296">
        <ele>391.37873315345496</ele>
        <time>2022-03-19T09:34:17Z</time>
      </trkpt>
      <trkpt lat="34.32785313544965" lon="108.99007759628297">
        <ele>391.7926823813468</ele>
        <time>2022-03-19T09:34:23Z</time>
      </trkpt>
      <trkpt lat="34.32784430608311" lon="108.99044595752211">
        <ele>391.726839851588</ele>
        <time>2022-03-19T09:34:27Z</time>
      </trkpt>
      <trkpt lat="34.32781107071039" lon="108.99060615539102">
        <ele>391.91827822849154</ele>
        <time>2022-03-19T09:34:29Z</time>
      </trkpt>
      <trkpt lat="34.327887538580676" lon="108.99116530880018">
        <ele>392.41632503829896</ele>
        <time>2022-03-19T09:34:37Z</time>
      </trkpt>
      <trkpt lat="34.32791348480023" lon="108.99130977631246">
        <ele>392.3201707592234</ele>
        <time>2022-03-19T09:34:39Z</time>
      </trkpt>
      <trkpt lat="34.32787336649293" lon="108.99157580113132">
        <ele>392.3317873571068</ele>
        <time>2022-03-19T09:34:43Z</time>
      </trkpt>
      <trkpt lat="34.32785603612529" lon="108.99220465373867">
        <ele>392.2722887285054</ele>
        <time>2022-03-19T09:34:56Z</time>
      </trkpt>
      <trkpt lat="34.327877780628825" lon="108.99231033075085">
        <ele>392.57158157322556</ele>
        <time>2022-03-19T09:34:58Z</time>
      </trkpt>
      <trkpt lat="34.32791162553343" lon="108.99290250991086">
        <ele>393.879880127497</ele>
        <time>2022-03-19T09:35:11Z</time>
      </trkpt>
      <trkpt lat="34.32793927699372" lon="108.99310771809145">
        <ele>394.05282539036125</ele>
        <time>2022-03-19T09:35:15Z</time>
      </trkpt>
      <trkpt lat="34.32793445977034" lon="108.993730210509">
        <ele>393.8754751170054</ele>
        <time>2022-03-19T09:35:25Z</time>
      </trkpt>
      <trkpt lat="34.32793938326944" lon="108.99423677827421">
        <ele>393.76561596244574</ele>
        <time>2022-03-19T09:35:31Z</time>
      </trkpt>
      <trkpt lat="34.3279591314253" lon="108.99479586667792">
        <ele>394.9454233283177</ele>
        <time>2022-03-19T09:35:38Z</time>
      </trkpt>
      <trkpt lat="34.327982367897995" lon="108.99540552359527">
        <ele>395.82838901504874</ele>
        <time>2022-03-19T09:35:45Z</time>
      </trkpt>
      <trkpt lat="34.32800133914234" lon="108.99574444689547">
        <ele>395.8483432447538</ele>
        <time>2022-03-19T09:35:49Z</time>
      </trkpt>
      <trkpt lat="34.327963375979316" lon="108.99610580709384">
        <ele>394.3661177912727</ele>
        <time>2022-03-19T09:35:53Z</time>
      </trkpt>
      <trkpt lat="34.327997829015374" lon="108.99668703895406">
        <ele>396.1610430777073</ele>
        <time>2022-03-19T09:36:00Z</time>
      </trkpt>
      <trkpt lat="34.32796513346301" lon="108.9971290724014">
        <ele>395.0479285242036</ele>
        <time>2022-03-19T09:36:05Z</time>
      </trkpt>
      <trkpt lat="34.32796576576198" lon="108.99730070595102">
        <ele>395.69178420864046</ele>
        <time>2022-03-19T09:36:07Z</time>
      </trkpt>
      <trkpt lat="34.32793907439806" lon="108.99748828275276">
        <ele>394.664878051728</ele>
        <time>2022-03-19T09:36:09Z</time>
      </trkpt>
      <trkpt lat="34.3279352960782" lon="108.99794622182227">
        <ele>394.62875709310174</ele>
        <time>2022-03-19T09:36:15Z</time>
      </trkpt>
      <trkpt lat="34.327888658974445" lon="108.99802077154092">
        <ele>394.1311521055177</ele>
        <time>2022-03-19T09:36:19Z</time>
      </trkpt>
      <trkpt lat="34.32784279843289" lon="108.9980441664191">
        <ele>394.2829760517925</ele>
        <time>2022-03-19T09:36:25Z</time>
      </trkpt>
      <trkpt lat="34.32782984270182" lon="108.99827107764602">
        <ele>394.83179542515427</ele>
        <time>2022-03-19T09:36:57Z</time>
      </trkpt>
      <trkpt lat="34.327863572649576" lon="108.99864555072826">
        <ele>393.2085283380002</ele>
        <time>2022-03-19T09:37:04Z</time>
      </trkpt>
      <trkpt lat="34.32785123626716" lon="108.99877278867233">
        <ele>393.24575812369585</ele>
        <time>2022-03-19T09:37:06Z</time>
      </trkpt>
      <trkpt lat="34.3278462588747" lon="108.99920026284134">
        <ele>392.65859033726156</ele>
        <time>2022-03-19T09:37:12Z</time>
      </trkpt>
      <trkpt lat="34.32790867223145" lon="108.9998205339241">
        <ele>394.3195275673643</ele>
        <time>2022-03-19T09:37:20Z</time>
      </trkpt>
      <trkpt lat="34.327902409327955" lon="109.00046152995738">
        <ele>393.5804676581174</ele>
        <time>2022-03-19T09:37:28Z</time>
      </trkpt>
      <trkpt lat="34.32790609244507" lon="109.00091599491812">
        <ele>392.7038177261129</ele>
        <time>2022-03-19T09:37:34Z</time>
      </trkpt>
      <trkpt lat="34.32792437670244" lon="109.00105774303952">
        <ele>392.8020291943103</ele>
        <time>2022-03-19T09:37:36Z</time>
      </trkpt>
      <trkpt lat="34.327902121317365" lon="109.00151791492259">
        <ele>392.7869493365288</ele>
        <time>2022-03-19T09:37:42Z</time>
      </trkpt>
      <trkpt lat="34.32791841551877" lon="109.00211594082666">
        <ele>393.3315036939457</ele>
        <time>2022-03-19T09:37:50Z</time>
      </trkpt>
      <trkpt lat="34.3279138947794" lon="109.00256974961891">
        <ele>394.04337214212865</ele>
        <time>2022-03-19T09:37:56Z</time>
      </trkpt>
      <trkpt lat="34.32786054424873" lon="109.00318834518339">
        <ele>394.04618051927537</ele>
        <time>2022-03-19T09:38:04Z</time>
      </trkpt>
      <trkpt lat="34.32784744529628" lon="109.00334373301149">
        <ele>394.3857479579747</ele>
        <time>2022-03-19T09:38:06Z</time>
      </trkpt>
      <trkpt lat="34.327868891751315" lon="109.00356094057307">
        <ele>394.4407476009801</ele>
        <time>2022-03-19T09:38:09Z</time>
      </trkpt>
      <trkpt lat="34.32786259350911" lon="109.00403627863255">
        <ele>392.76278688106686</ele>
        <time>2022-03-19T09:38:15Z</time>
      </trkpt>
      <trkpt lat="34.32787030025897" lon="109.0043645032291">
        <ele>392.71301553212106</ele>
        <time>2022-03-19T09:38:19Z</time>
      </trkpt>
      <trkpt lat="34.32796024318462" lon="109.00502501326137">
        <ele>393.356590192765</ele>
        <time>2022-03-19T09:38:27Z</time>
      </trkpt>
      <trkpt lat="34.32797743908412" lon="109.00552931706501">
        <ele>394.40100333839655</ele>
        <time>2022-03-19T09:38:33Z</time>
      </trkpt>
      <trkpt lat="34.327936556995915" lon="109.00569997206092">
        <ele>392.20437732245773</ele>
        <time>2022-03-19T09:38:35Z</time>
      </trkpt>
      <trkpt lat="34.3279139294126" lon="109.0063371100468">
        <ele>393.0313791129738</ele>
        <time>2022-03-19T09:38:43Z</time>
      </trkpt>
      <trkpt lat="34.32791501671746" lon="109.0066675902385">
        <ele>392.6476970333606</ele>
        <time>2022-03-19T09:38:47Z</time>
      </trkpt>
      <trkpt lat="34.32789211476117" lon="109.00684192342953">
        <ele>392.2926176600158</ele>
        <time>2022-03-19T09:38:49Z</time>
      </trkpt>
      <trkpt lat="34.327843303395134" lon="109.00701564984053">
        <ele>393.3353672316298</ele>
        <time>2022-03-19T09:38:51Z</time>
      </trkpt>
      <trkpt lat="34.32782584732155" lon="109.00719911765928">
        <ele>392.20368087571114</ele>
        <time>2022-03-19T09:38:53Z</time>
      </trkpt>
      <trkpt lat="34.32784952305402" lon="109.0073743070908">
        <ele>393.2527077887207</ele>
        <time>2022-03-19T09:38:55Z</time>
      </trkpt>
      <trkpt lat="34.3278393689268" lon="109.00771447621825">
        <ele>391.9183775950223</ele>
        <time>2022-03-19T09:38:59Z</time>
      </trkpt>
      <trkpt lat="34.32788482314082" lon="109.00788594967318">
        <ele>391.7729536406696</ele>
        <time>2022-03-19T09:39:01Z</time>
      </trkpt>
      <trkpt lat="34.32788523717071" lon="109.00826005755277">
        <ele>391.25681097619236</ele>
        <time>2022-03-19T09:39:05Z</time>
      </trkpt>
      <trkpt lat="34.32785510523034" lon="109.00844585598804">
        <ele>391.03167609125376</ele>
        <time>2022-03-19T09:39:07Z</time>
      </trkpt>
      <trkpt lat="34.32789247401502" lon="109.00883206177954">
        <ele>390.11291595362127</ele>
        <time>2022-03-19T09:39:11Z</time>
      </trkpt>
      <trkpt lat="34.327902884793744" lon="109.00944198916342">
        <ele>390.8795201908797</ele>
        <time>2022-03-19T09:39:17Z</time>
      </trkpt>
      <trkpt lat="34.32788534502454" lon="109.01006212048486">
        <ele>386.5683303195983</ele>
        <time>2022-03-19T09:39:23Z</time>
      </trkpt>
      <trkpt lat="34.32787138659731" lon="109.01062243901977">
        <ele>386.5188494967297</ele>
        <time>2022-03-19T09:39:29Z</time>
      </trkpt>
      <trkpt lat="34.32785025599219" lon="109.01097606347287">
        <ele>385.68181198462844</ele>
        <time>2022-03-19T09:39:33Z</time>
      </trkpt>
      <trkpt lat="34.3278816746781" lon="109.01130810765785">
        <ele>385.3841713247821</ele>
        <time>2022-03-19T09:39:37Z</time>
      </trkpt>
      <trkpt lat="34.32788061482651" lon="109.01166724121495">
        <ele>387.09764932189137</ele>
        <time>2022-03-19T09:39:41Z</time>
      </trkpt>
      <trkpt lat="34.327864106209965" lon="109.01185797566924">
        <ele>387.33401572238654</ele>
        <time>2022-03-19T09:39:43Z</time>
      </trkpt>
      <trkpt lat="34.32786057566477" lon="109.01242260611949">
        <ele>385.95685567334294</ele>
        <time>2022-03-19T09:39:49Z</time>
      </trkpt>
      <trkpt lat="34.32784964847916" lon="109.01295456797813">
        <ele>387.36843005381525</ele>
        <time>2022-03-19T09:39:55Z</time>
      </trkpt>
      <trkpt lat="34.32786591538158" lon="109.01362881187227">
        <ele>387.853429322131</ele>
        <time>2022-03-19T09:40:03Z</time>
      </trkpt>
      <trkpt lat="34.32790563051411" lon="109.01395177288357">
        <ele>389.4843823928386</ele>
        <time>2022-03-19T09:40:07Z</time>
      </trkpt>
      <trkpt lat="34.32789543270249" lon="109.0141019011123">
        <ele>388.302406122908</ele>
        <time>2022-03-19T09:40:09Z</time>
      </trkpt>
      <trkpt lat="34.3279176180248" lon="109.01457224137502">
        <ele>387.501849969849</ele>
        <time>2022-03-19T09:40:15Z</time>
      </trkpt>
      <trkpt lat="34.32792331385855" lon="109.01506022415523">
        <ele>386.08340144716203</ele>
        <time>2022-03-19T09:40:21Z</time>
      </trkpt>
      <trkpt lat="34.32789817614769" lon="109.01552998060114">
        <ele>387.79326504003257</ele>
        <time>2022-03-19T09:40:27Z</time>
      </trkpt>
      <trkpt lat="34.32791068457505" lon="109.0158287372192">
        <ele>386.75834538508207</ele>
        <time>2022-03-19T09:40:31Z</time>
      </trkpt>
      <trkpt lat="34.327865628133296" lon="109.01644992197213">
        <ele>388.2443495830521</ele>
        <time>2022-03-19T09:40:39Z</time>
      </trkpt>
      <trkpt lat="34.327760292206726" lon="109.01702180548376">
        <ele>388.79399701487273</ele>
        <time>2022-03-19T09:40:47Z</time>
      </trkpt>
      <trkpt lat="34.327653625652914" lon="109.0174718649712">
        <ele>387.2073684586212</ele>
        <time>2022-03-19T09:40:53Z</time>
      </trkpt>
      <trkpt lat="34.32762773403289" lon="109.01796106097903">
        <ele>388.33063170220703</ele>
        <time>2022-03-19T09:40:59Z</time>
      </trkpt>
      <trkpt lat="34.327658269803116" lon="109.01828142341728">
        <ele>389.1117980023846</ele>
        <time>2022-03-19T09:41:03Z</time>
      </trkpt>
      <trkpt lat="34.327642026684096" lon="109.01844473243882">
        <ele>388.4138551922515</ele>
        <time>2022-03-19T09:41:05Z</time>
      </trkpt>
      <trkpt lat="34.327584103012896" lon="109.0185913036574">
        <ele>389.19588282331824</ele>
        <time>2022-03-19T09:41:07Z</time>
      </trkpt>
      <trkpt lat="34.32723052586751" lon="109.01912920638101">
        <ele>388.6900784019381</ele>
        <time>2022-03-19T09:41:15Z</time>
      </trkpt>
      <trkpt lat="34.326988307718125" lon="109.01955474429782">
        <ele>389.4610361997038</ele>
        <time>2022-03-19T09:41:21Z</time>
      </trkpt>
      <trkpt lat="34.32688368272841" lon="109.01969129832297">
        <ele>388.0400638692081</ele>
        <time>2022-03-19T09:41:23Z</time>
      </trkpt>
      <trkpt lat="34.32680430991997" lon="109.01983174164143">
        <ele>388.26663700677454</ele>
        <time>2022-03-19T09:41:25Z</time>
      </trkpt>
      <trkpt lat="34.32648138273814" lon="109.02022848466534">
        <ele>387.9461565455422</ele>
        <time>2022-03-19T09:41:31Z</time>
      </trkpt>
      <trkpt lat="34.326133471000595" lon="109.02059672858076">
        <ele>387.7202949663624</ele>
        <time>2022-03-19T09:41:37Z</time>
      </trkpt>
      <trkpt lat="34.32577181475261" lon="109.020929485335">
        <ele>389.1856591254473</ele>
        <time>2022-03-19T09:41:43Z</time>
      </trkpt>
      <trkpt lat="34.32536736487111" lon="109.02120109461316">
        <ele>389.1798655036837</ele>
        <time>2022-03-19T09:41:49Z</time>
      </trkpt>
      <trkpt lat="34.32494902729356" lon="109.02142057838658">
        <ele>389.16936695948243</ele>
        <time>2022-03-19T09:41:55Z</time>
      </trkpt>
      <trkpt lat="34.324516240829034" lon="109.02160107543773">
        <ele>389.5884721875191</ele>
        <time>2022-03-19T09:42:01Z</time>
      </trkpt>
      <trkpt lat="34.324230715950804" lon="109.02168147951619">
        <ele>389.9453369472176</ele>
        <time>2022-03-19T09:42:05Z</time>
      </trkpt>
      <trkpt lat="34.323760769388485" lon="109.02174643226398">
        <ele>388.8605609126389</ele>
        <time>2022-03-19T09:42:11Z</time>
      </trkpt>
      <trkpt lat="34.32330305284639" lon="109.02179066359967">
        <ele>389.8350044582039</ele>
        <time>2022-03-19T09:42:17Z</time>
      </trkpt>
      <trkpt lat="34.32285333999982" lon="109.02181627600584">
        <ele>390.52645287755877</ele>
        <time>2022-03-19T09:42:23Z</time>
      </trkpt>
      <trkpt lat="34.322396172221026" lon="109.02180437398142">
        <ele>391.3848064392805</ele>
        <time>2022-03-19T09:42:29Z</time>
      </trkpt>
      <trkpt lat="34.32193915170597" lon="109.02174413295585">
        <ele>390.711922429502</ele>
        <time>2022-03-19T09:42:35Z</time>
      </trkpt>
      <trkpt lat="34.321491905215595" lon="109.02168154191281">
        <ele>391.963585476391</ele>
        <time>2022-03-19T09:42:41Z</time>
      </trkpt>
      <trkpt lat="34.3210272286844" lon="109.02163160634498">
        <ele>391.3131417874247</ele>
        <time>2022-03-19T09:42:47Z</time>
      </trkpt>
      <trkpt lat="34.32072723947487" lon="109.0215656416127">
        <ele>391.3158580735326</ele>
        <time>2022-03-19T09:42:51Z</time>
      </trkpt>
      <trkpt lat="34.320578711748645" lon="109.02156683873469">
        <ele>392.2946623712778</ele>
        <time>2022-03-19T09:42:53Z</time>
      </trkpt>
      <trkpt lat="34.32013160104734" lon="109.02149758978074">
        <ele>391.2828911198303</ele>
        <time>2022-03-19T09:42:59Z</time>
      </trkpt>
      <trkpt lat="34.31966097764504" lon="109.021433648577">
        <ele>390.4999254150316</ele>
        <time>2022-03-19T09:43:05Z</time>
      </trkpt>
      <trkpt lat="34.31919620476043" lon="109.021437711598">
        <ele>390.5368243306875</ele>
        <time>2022-03-19T09:43:11Z</time>
      </trkpt>
      <trkpt lat="34.31873292491826" lon="109.02146302276267">
        <ele>391.4525971673429</ele>
        <time>2022-03-19T09:43:17Z</time>
      </trkpt>
      <trkpt lat="34.31826985608253" lon="109.02151753147615">
        <ele>390.9451609570533</ele>
        <time>2022-03-19T09:43:23Z</time>
      </trkpt>
      <trkpt lat="34.31811734332986" lon="109.02152768454872">
        <ele>390.1203204607591</ele>
        <time>2022-03-19T09:43:25Z</time>
      </trkpt>
      <trkpt lat="34.31796300767973" lon="109.02156452717864">
        <ele>391.87990865670145</ele>
        <time>2022-03-19T09:43:27Z</time>
      </trkpt>
      <trkpt lat="34.317489303176444" lon="109.02161362664006">
        <ele>390.6170279569924</ele>
        <time>2022-03-19T09:43:33Z</time>
      </trkpt>
      <trkpt lat="34.31700144719068" lon="109.02166249958917">
        <ele>391.4692750014365</ele>
        <time>2022-03-19T09:43:39Z</time>
      </trkpt>
      <trkpt lat="34.316692575548934" lon="109.02168089325426">
        <ele>390.79147347901016</ele>
        <time>2022-03-19T09:43:43Z</time>
      </trkpt>
      <trkpt lat="34.316299933125244" lon="109.02180440055524">
        <ele>391.0924384808168</ele>
        <time>2022-03-19T09:43:49Z</time>
      </trkpt>
      <trkpt lat="34.31609075739576" lon="109.02191155828886">
        <ele>391.6300377519801</ele>
        <time>2022-03-19T09:43:53Z</time>
      </trkpt>
      <trkpt lat="34.31601455905166" lon="109.02213592355278">
        <ele>391.4956923574209</ele>
        <time>2022-03-19T09:43:57Z</time>
      </trkpt>
      <trkpt lat="34.31585892170445" lon="109.02226723056779">
        <ele>390.191317637451</ele>
        <time>2022-03-19T09:44:11Z</time>
      </trkpt>
      <trkpt lat="34.31575692751277" lon="109.02242158211799">
        <ele>390.56150068715215</ele>
        <time>2022-03-19T09:44:24Z</time>
      </trkpt>
      <trkpt lat="34.31574248273417" lon="109.02258750077216">
        <ele>390.87120692804456</ele>
        <time>2022-03-19T09:44:27Z</time>
      </trkpt>
      <trkpt lat="34.31578413095453" lon="109.02272290475528">
        <ele>389.8203395018354</ele>
        <time>2022-03-19T09:44:29Z</time>
      </trkpt>
      <trkpt lat="34.31585331909743" lon="109.02284894099002">
        <ele>391.2820655107498</ele>
        <time>2022-03-19T09:44:31Z</time>
      </trkpt>
      <trkpt lat="34.31609013221558" lon="109.02342707299205">
        <ele>387.4261955516413</ele>
        <time>2022-03-19T09:44:39Z</time>
      </trkpt>
      <trkpt lat="34.3161689471578" lon="109.02369929707766">
        <ele>387.07262855488807</ele>
        <time>2022-03-19T09:44:43Z</time>
      </trkpt>
      <trkpt lat="34.316052388570476" lon="109.02382352982926">
        <ele>388.6768332468346</ele>
        <time>2022-03-19T09:44:47Z</time>
      </trkpt>
      <trkpt lat="34.31595269136511" lon="109.02389787725228">
        <ele>388.54597523249686</ele>
        <time>2022-03-19T09:44:49Z</time>
      </trkpt>
      <trkpt lat="34.31558485201981" lon="109.02407642104713">
        <ele>389.1014221124351</ele>
        <time>2022-03-19T09:44:55Z</time>
      </trkpt>
      <trkpt lat="34.31519620807049" lon="109.02431440449598">
        <ele>388.8785103801638</ele>
        <time>2022-03-19T09:45:01Z</time>
      </trkpt>
      <trkpt lat="34.3148179936916" lon="109.02460055489915">
        <ele>390.8977158376947</ele>
        <time>2022-03-19T09:45:07Z</time>
      </trkpt>
      <trkpt lat="34.314581716203186" lon="109.02474607474811">
        <ele>390.8452107049525</ele>
        <time>2022-03-19T09:45:11Z</time>
      </trkpt>
      <trkpt lat="34.31448448805854" lon="109.02482989443757">
        <ele>390.60466152988374</ele>
        <time>2022-03-19T09:45:13Z</time>
      </trkpt>
      <trkpt lat="34.31443915001421" lon="109.02492384690171">
        <ele>390.06452324520797</ele>
        <time>2022-03-19T09:45:15Z</time>
      </trkpt>
      <trkpt lat="34.31436882836423" lon="109.02501004994316">
        <ele>390.0997145175934</ele>
        <time>2022-03-19T09:45:17Z</time>
      </trkpt>
      <trkpt lat="34.31411576229077" lon="109.0251471042618">
        <ele>389.7350659100339</ele>
        <time>2022-03-19T09:45:21Z</time>
      </trkpt>
      <trkpt lat="34.313996304677694" lon="109.0252378923946">
        <ele>390.60930323414505</ele>
        <time>2022-03-19T09:45:23Z</time>
      </trkpt>
      <trkpt lat="34.313547376403285" lon="109.0254318534037">
        <ele>390.522696826607</ele>
        <time>2022-03-19T09:45:29Z</time>
      </trkpt>
      <trkpt lat="34.31313352889983" lon="109.0256674178729">
        <ele>392.00684509892017</ele>
        <time>2022-03-19T09:45:35Z</time>
      </trkpt>
      <trkpt lat="34.312997115831315" lon="109.02574131470635">
        <ele>389.4780298890546</ele>
        <time>2022-03-19T09:45:37Z</time>
      </trkpt>
      <trkpt lat="34.31259822467745" lon="109.02602948895768">
        <ele>392.5021494720131</ele>
        <time>2022-03-19T09:45:43Z</time>
      </trkpt>
      <trkpt lat="34.31234710055002" lon="109.02622778131553">
        <ele>390.788198556751</ele>
        <time>2022-03-19T09:45:47Z</time>
      </trkpt>
      <trkpt lat="34.312256351248344" lon="109.02636409755257">
        <ele>391.94134174194187</ele>
        <time>2022-03-19T09:45:49Z</time>
      </trkpt>
      <trkpt lat="34.31212263763845" lon="109.02643833843874">
        <ele>392.2522781593725</ele>
        <time>2022-03-19T09:45:51Z</time>
      </trkpt>
      <trkpt lat="34.311975042008505" lon="109.02655365587167">
        <ele>393.4305531801656</ele>
        <time>2022-03-19T09:45:53Z</time>
      </trkpt>
      <trkpt lat="34.31174614681886" lon="109.02679305904067">
        <ele>391.5281911129132</ele>
        <time>2022-03-19T09:45:57Z</time>
      </trkpt>
      <trkpt lat="34.31166531424347" lon="109.02693502985424">
        <ele>392.4122797995806</ele>
        <time>2022-03-19T09:45:59Z</time>
      </trkpt>
      <trkpt lat="34.31161100423141" lon="109.0270939160398">
        <ele>391.36771980207413</ele>
        <time>2022-03-19T09:46:01Z</time>
      </trkpt>
      <trkpt lat="34.31155785868448" lon="109.0274160411004">
        <ele>391.9377763066441</ele>
        <time>2022-03-19T09:46:05Z</time>
      </trkpt>
      <trkpt lat="34.311519841877846" lon="109.02794355658459">
        <ele>392.5108573315665</ele>
        <time>2022-03-19T09:46:11Z</time>
      </trkpt>
      <trkpt lat="34.311458004229294" lon="109.02840864243198">
        <ele>392.041414716281</ele>
        <time>2022-03-19T09:46:17Z</time>
      </trkpt>
      <trkpt lat="34.311425156995874" lon="109.02854812569086">
        <ele>392.0972341829911</ele>
        <time>2022-03-19T09:46:19Z</time>
      </trkpt>
      <trkpt lat="34.311297326396016" lon="109.02882307326196">
        <ele>392.26215635612607</ele>
        <time>2022-03-19T09:46:23Z</time>
      </trkpt>
      <trkpt lat="34.31106142688833" lon="109.0290688496454">
        <ele>390.83008927851915</ele>
        <time>2022-03-19T09:46:27Z</time>
      </trkpt>
      <trkpt lat="34.310688675071795" lon="109.02940056427555">
        <ele>391.8040818320587</ele>
        <time>2022-03-19T09:46:33Z</time>
      </trkpt>
      <trkpt lat="34.31033323592236" lon="109.02971328845148">
        <ele>392.4419570453465</ele>
        <time>2022-03-19T09:46:39Z</time>
      </trkpt>
      <trkpt lat="34.30997076143651" lon="109.03001146843448">
        <ele>393.33039851579815</ele>
        <time>2022-03-19T09:46:45Z</time>
      </trkpt>
      <trkpt lat="34.30970638045165" lon="109.03018839612702">
        <ele>394.21339374408126</ele>
        <time>2022-03-19T09:46:49Z</time>
      </trkpt>
      <trkpt lat="34.309311336931074" lon="109.03037247290099">
        <ele>394.5514727253467</ele>
        <time>2022-03-19T09:46:55Z</time>
      </trkpt>
      <trkpt lat="34.30875474407979" lon="109.03054583136444">
        <ele>394.23337567970157</ele>
        <time>2022-03-19T09:47:03Z</time>
      </trkpt>
      <trkpt lat="34.30846503499227" lon="109.03060918076422">
        <ele>393.8846168536693</ele>
        <time>2022-03-19T09:47:07Z</time>
      </trkpt>
      <trkpt lat="34.30788650597718" lon="109.03066336997593">
        <ele>393.8731991238892</ele>
        <time>2022-03-19T09:47:15Z</time>
      </trkpt>
      <trkpt lat="34.30733869397865" lon="109.03072900272713">
        <ele>393.3707314534113</ele>
        <time>2022-03-19T09:47:23Z</time>
      </trkpt>
      <trkpt lat="34.30681432993446" lon="109.03078665413096">
        <ele>392.4184122700244</ele>
        <time>2022-03-19T09:47:31Z</time>
      </trkpt>
      <trkpt lat="34.30656707384878" lon="109.03080210944296">
        <ele>391.98579592537135</ele>
        <time>2022-03-19T09:47:35Z</time>
      </trkpt>
      <trkpt lat="34.30634568732042" lon="109.03090223218007">
        <ele>391.2318875277415</ele>
        <time>2022-03-19T09:47:39Z</time>
      </trkpt>
      <trkpt lat="34.306296089509615" lon="109.0310006755137">
        <ele>390.4698648909107</ele>
        <time>2022-03-19T09:47:41Z</time>
      </trkpt>
      <trkpt lat="34.306284604935286" lon="109.03114307192196">
        <ele>390.2603085441515</ele>
        <time>2022-03-19T09:47:43Z</time>
      </trkpt>
      <trkpt lat="34.30635116437965" lon="109.03176524745608">
        <ele>390.34300069790334</ele>
        <time>2022-03-19T09:47:51Z</time>
      </trkpt>
      <trkpt lat="34.30637257422484" lon="109.03193012147926">
        <ele>391.0307976305485</ele>
        <time>2022-03-19T09:47:53Z</time>
      </trkpt>
      <trkpt lat="34.30637234627829" lon="109.03209378806977">
        <ele>390.02709084004164</ele>
        <time>2022-03-19T09:47:55Z</time>
      </trkpt>
      <trkpt lat="34.30642194918893" lon="109.03275133467896">
        <ele>391.12277971673757</ele>
        <time>2022-03-19T09:48:03Z</time>
      </trkpt>
      <trkpt lat="34.30647946332303" lon="109.03336989308492">
        <ele>392.2984690880403</ele>
        <time>2022-03-19T09:48:11Z</time>
      </trkpt>
      <trkpt lat="34.3065116663475" lon="109.03395818848853">
        <ele>392.3097395123914</ele>
        <time>2022-03-19T09:48:19Z</time>
      </trkpt>
      <trkpt lat="34.30655940020889" lon="109.03456094401396">
        <ele>391.4306175885722</ele>
        <time>2022-03-19T09:48:27Z</time>
      </trkpt>
      <trkpt lat="34.30662111171021" lon="109.034983108807">
        <ele>392.82570548262447</ele>
        <time>2022-03-19T09:48:33Z</time>
      </trkpt>
      <trkpt lat="34.30661067703137" lon="109.03514194409033">
        <ele>391.486150784418</ele>
        <time>2022-03-19T09:48:35Z</time>
      </trkpt>
      <trkpt lat="34.30665440672243" lon="109.03577158074867">
        <ele>391.20259002409875</ele>
        <time>2022-03-19T09:48:43Z</time>
      </trkpt>
      <trkpt lat="34.30668531430798" lon="109.03609889302537">
        <ele>391.4374599624425</ele>
        <time>2022-03-19T09:48:47Z</time>
      </trkpt>
      <trkpt lat="34.30667813475596" lon="109.03625340211103">
        <ele>391.72842870652676</ele>
        <time>2022-03-19T09:48:49Z</time>
      </trkpt>
      <trkpt lat="34.30674079911335" lon="109.036808202177">
        <ele>392.50007588695735</ele>
        <time>2022-03-19T09:48:57Z</time>
      </trkpt>
      <trkpt lat="34.30678038462074" lon="109.03736440125354">
        <ele>392.977933421731</ele>
        <time>2022-03-19T09:49:05Z</time>
      </trkpt>
      <trkpt lat="34.30682496182384" lon="109.03796662352691">
        <ele>392.6513834139332</ele>
        <time>2022-03-19T09:49:13Z</time>
      </trkpt>
      <trkpt lat="34.306847130401074" lon="109.03836173390667">
        <ele>393.448321194388</ele>
        <time>2022-03-19T09:49:19Z</time>
      </trkpt>
      <trkpt lat="34.30680870489494" lon="109.03847004092887">
        <ele>392.2099844375625</ele>
        <time>2022-03-19T09:49:21Z</time>
      </trkpt>
      <trkpt lat="34.306741650792986" lon="109.03854378957577">
        <ele>392.8509214874357</ele>
        <time>2022-03-19T09:49:23Z</time>
      </trkpt>
      <trkpt lat="34.30626150349953" lon="109.03852541354492">
        <ele>391.75761755369604</ele>
        <time>2022-03-19T09:49:33Z</time>
      </trkpt>
      <trkpt lat="34.30618109243359" lon="109.03851693307192">
        <ele>391.58510256931186</ele>
        <time>2022-03-19T09:49:35Z</time>
      </trkpt>
      <trkpt lat="34.30610814900037" lon="109.03848738390117">
        <ele>391.89201960805804</ele>
        <time>2022-03-19T09:49:37Z</time>
      </trkpt>
      <trkpt lat="34.305858820329455" lon="109.03848527187503">
        <ele>391.12898305617273</ele>
        <time>2022-03-19T09:49:45Z</time>
      </trkpt>
      <trkpt lat="34.30577581164238" lon="109.03844561891079">
        <ele>391.11021876707673</ele>
        <time>2022-03-19T09:49:55Z</time>
      </trkpt>
      <trkpt lat="34.3057215536593" lon="109.03838896835242">
        <ele>391.814041105099</ele>
        <time>2022-03-19T09:50:09Z</time>
      </trkpt>
      <trkpt lat="34.30557346395821" lon="109.03822339921021">
        <ele>389.9451560061425</ele>
        <time>2022-03-19T09:50:32Z</time>
      </trkpt>
      <trkpt lat="34.30536069564633" lon="109.03826583692918">
        <ele>388.792879098095</ele>
        <time>2022-03-19T09:50:40Z</time>
      </trkpt>
      <trkpt lat="34.30527965168973" lon="109.03830317823034">
        <ele>391.2555780019611</ele>
        <time>2022-03-19T09:50:46Z</time>
      </trkpt>
      <trkpt lat="34.30479024519594" lon="109.03837961100977">
        <ele>396.4236526489258</ele>
        <time>2022-03-19T09:51:17Z</time>
      </trkpt>
      <trkpt lat="34.3046558734498" lon="109.0384005964451">
        <ele>396.4236526489258</ele>
        <time>2022-03-19T09:51:29Z</time>
      </trkpt>
      <trkpt lat="34.30509477394633" lon="109.03748789189214">
        <ele>394.4812431335449</ele>
        <time>2022-03-19T09:52:19Z</time>
      </trkpt>
      <trkpt lat="34.30516821584771" lon="109.03747265237486">
        <ele>394.2491149902344</ele>
        <time>2022-03-19T09:52:36Z</time>
      </trkpt>
      <trkpt lat="34.30525196226162" lon="109.0374018814655">
        <ele>394.0832099914551</ele>
        <time>2022-03-19T09:52:43Z</time>
      </trkpt>
      <trkpt lat="34.30526852664866" lon="109.0373026227607">
        <ele>393.8970642089844</ele>
        <time>2022-03-19T09:52:51Z</time>
      </trkpt>
      <trkpt lat="34.305349132650804" lon="109.037200817126">
        <ele>394.18833923339844</ele>
        <time>2022-03-19T09:53:05Z</time>
      </trkpt>
      <trkpt lat="34.305494648649734" lon="109.03736843500987">
        <ele>394.3604545593262</ele>
        <time>2022-03-19T09:53:13Z</time>
      </trkpt>
      <trkpt lat="34.30544898862873" lon="109.03729556222571">
        <ele>394.3850898742676</ele>
        <time>2022-03-19T09:53:22Z</time>
      </trkpt>
      <trkpt lat="34.30610935206955" lon="109.03758526109665">
        <ele>394.3414993286133</ele>
        <time>2022-03-19T09:53:29Z</time>
      </trkpt>
      <trkpt lat="34.3064154069905" lon="109.0373896647106">
        <ele>394.2357597351074</ele>
        <time>2022-03-19T09:53:36Z</time>
      </trkpt>
      <trkpt lat="34.3063361938249" lon="109.0376464595633">
        <ele>394.1692085266113</ele>
        <time>2022-03-19T09:53:42Z</time>
      </trkpt>
      <trkpt lat="34.306108495187466" lon="109.0378977921708">
        <ele>394.27427864074707</ele>
        <time>2022-03-19T09:54:01Z</time>
      </trkpt>
      <trkpt lat="34.30607270650811" lon="109.03789465578515">
        <ele>410.3486749660224</ele>
        <time>2022-03-19T09:55:53Z</time>
      </trkpt>
      <trkpt lat="34.30580129123438" lon="109.0382919981531">
        <ele>391.2947262665257</ele>
        <time>2022-03-19T10:05:29Z</time>
      </trkpt>
      <trkpt lat="34.30572959929594" lon="109.03840207694114">
        <ele>390.8779863733798</ele>
        <time>2022-03-19T10:05:34Z</time>
      </trkpt>
      <trkpt lat="34.305777708678676" lon="109.03847956299818">
        <ele>392.0301926061511</ele>
        <time>2022-03-19T10:05:38Z</time>
      </trkpt>
      <trkpt lat="34.305871500564955" lon="109.03842241421611">
        <ele>390.8826236044988</ele>
        <time>2022-03-19T10:05:44Z</time>
      </trkpt>
      <trkpt lat="34.30608478897573" lon="109.03838558110905">
        <ele>392.3697546971962</ele>
        <time>2022-03-19T10:05:50Z</time>
      </trkpt>
      <trkpt lat="34.306547946960116" lon="109.03842594222336">
        <ele>392.3444927567616</ele>
        <time>2022-03-19T10:06:04Z</time>
      </trkpt>
      <trkpt lat="34.30663526866139" lon="109.0381637515711">
        <ele>391.731294548139</ele>
        <time>2022-03-19T10:06:12Z</time>
      </trkpt>
      <trkpt lat="34.306636281034486" lon="109.03796585629362">
        <ele>392.64168301131576</ele>
        <time>2022-03-19T10:06:16Z</time>
      </trkpt>
      <trkpt lat="34.30666469008291" lon="109.03781190398082">
        <ele>392.3417192529887</ele>
        <time>2022-03-19T10:06:18Z</time>
      </trkpt>
      <trkpt lat="34.306668548213494" lon="109.03766137068646">
        <ele>393.2661702623591</ele>
        <time>2022-03-19T10:06:20Z</time>
      </trkpt>
      <trkpt lat="34.30663799066804" lon="109.03700176377939">
        <ele>391.4689570851624</ele>
        <time>2022-03-19T10:06:28Z</time>
      </trkpt>
      <trkpt lat="34.306585857466686" lon="109.03631849024597">
        <ele>391.87983254529536</ele>
        <time>2022-03-19T10:06:36Z</time>
      </trkpt>
      <trkpt lat="34.30660038680677" lon="109.03617604823123">
        <ele>391.4744843747467</ele>
        <time>2022-03-19T10:06:38Z</time>
      </trkpt>
      <trkpt lat="34.30655348578888" lon="109.03563209612345">
        <ele>392.2930183419958</ele>
        <time>2022-03-19T10:06:44Z</time>
      </trkpt>
      <trkpt lat="34.30651324690338" lon="109.0351401178755">
        <ele>392.5502159604803</ele>
        <time>2022-03-19T10:06:50Z</time>
      </trkpt>
      <trkpt lat="34.30647046307292" lon="109.03482092663323">
        <ele>392.66801998671144</ele>
        <time>2022-03-19T10:06:54Z</time>
      </trkpt>
      <trkpt lat="34.30645680057299" lon="109.03446849547328">
        <ele>392.9285778654739</ele>
        <time>2022-03-19T10:06:58Z</time>
      </trkpt>
      <trkpt lat="34.30643248158537" lon="109.03428137385764">
        <ele>392.90870233718306</ele>
        <time>2022-03-19T10:07:00Z</time>
      </trkpt>
      <trkpt lat="34.30641756435503" lon="109.03393824616177">
        <ele>392.95436894427985</ele>
        <time>2022-03-19T10:07:04Z</time>
      </trkpt>
      <trkpt lat="34.30634135633492" lon="109.03361292480164">
        <ele>393.6199790807441</ele>
        <time>2022-03-19T10:07:08Z</time>
      </trkpt>
      <trkpt lat="34.306324778243194" lon="109.03342114928817">
        <ele>392.51911697536707</ele>
        <time>2022-03-19T10:07:10Z</time>
      </trkpt>
      <trkpt lat="34.306360412680206" lon="109.03303845320039">
        <ele>391.9319930113852</ele>
        <time>2022-03-19T10:07:14Z</time>
      </trkpt>
      <trkpt lat="34.30635761921399" lon="109.03272986001514">
        <ele>392.3779823081568</ele>
        <time>2022-03-19T10:07:18Z</time>
      </trkpt>
      <trkpt lat="34.30631066005895" lon="109.03214394095914">
        <ele>391.93790839985013</ele>
        <time>2022-03-19T10:07:26Z</time>
      </trkpt>
      <trkpt lat="34.306279106686624" lon="109.0319977124928">
        <ele>392.8893428891897</ele>
        <time>2022-03-19T10:07:28Z</time>
      </trkpt>
      <trkpt lat="34.306248881428765" lon="109.03169624673231">
        <ele>393.0356067745015</ele>
        <time>2022-03-19T10:07:32Z</time>
      </trkpt>
      <trkpt lat="34.306177773305265" lon="109.03120377371579">
        <ele>391.56776423659176</ele>
        <time>2022-03-19T10:07:39Z</time>
      </trkpt>
      <trkpt lat="34.30624102846191" lon="109.03109196329426">
        <ele>392.0755075868219</ele>
        <time>2022-03-19T10:07:41Z</time>
      </trkpt>
      <trkpt lat="34.3063256841731" lon="109.03102471248036">
        <ele>393.0043647605926</ele>
        <time>2022-03-19T10:07:43Z</time>
      </trkpt>
      <trkpt lat="34.306797542198716" lon="109.03094128360713">
        <ele>392.836985793896</ele>
        <time>2022-03-19T10:07:51Z</time>
      </trkpt>
      <trkpt lat="34.3072776528477" lon="109.03087355143315">
        <ele>392.2187179895118</ele>
        <time>2022-03-19T10:07:58Z</time>
      </trkpt>
      <trkpt lat="34.307727075332096" lon="109.03082942931981">
        <ele>394.7340516233817</ele>
        <time>2022-03-19T10:08:04Z</time>
      </trkpt>
      <trkpt lat="34.308224093851834" lon="109.03076302029325">
        <ele>394.7024803953245</ele>
        <time>2022-03-19T10:08:11Z</time>
      </trkpt>
      <trkpt lat="34.308526045776254" lon="109.03074927989219">
        <ele>394.739756854251</ele>
        <time>2022-03-19T10:08:15Z</time>
      </trkpt>
      <trkpt lat="34.30888479987048" lon="109.03066738123151">
        <ele>395.2780653964728</ele>
        <time>2022-03-19T10:08:20Z</time>
      </trkpt>
      <trkpt lat="34.30932689309993" lon="109.03048762619908">
        <ele>394.4022702649236</ele>
        <time>2022-03-19T10:08:26Z</time>
      </trkpt>
      <trkpt lat="34.30975436295379" lon="109.03021300738868">
        <ele>395.00061268825084</ele>
        <time>2022-03-19T10:08:32Z</time>
      </trkpt>
      <trkpt lat="34.310120532757495" lon="109.02991508201045">
        <ele>393.672958439216</ele>
        <time>2022-03-19T10:08:38Z</time>
      </trkpt>
      <trkpt lat="34.310233084694005" lon="109.02988176082039">
        <ele>394.7955904714763</ele>
        <time>2022-03-19T10:08:40Z</time>
      </trkpt>
      <trkpt lat="34.31053853790539" lon="109.02951539574177">
        <ele>392.914599923417</ele>
        <time>2022-03-19T10:08:48Z</time>
      </trkpt>
      <trkpt lat="34.31097252056339" lon="109.02912076944884">
        <ele>391.4862398831174</ele>
        <time>2022-03-19T10:08:56Z</time>
      </trkpt>
      <trkpt lat="34.31109191621123" lon="109.0290043467014">
        <ele>391.9537671469152</ele>
        <time>2022-03-19T10:08:58Z</time>
      </trkpt>
      <trkpt lat="34.31124187491082" lon="109.02876715186196">
        <ele>390.93178298231214</ele>
        <time>2022-03-19T10:09:02Z</time>
      </trkpt>
      <trkpt lat="34.31127260556414" lon="109.02864604251995">
        <ele>391.8563281232491</ele>
        <time>2022-03-19T10:09:04Z</time>
      </trkpt>
      <trkpt lat="34.31137410322828" lon="109.02840889879549">
        <ele>392.55263908114284</ele>
        <time>2022-03-19T10:09:08Z</time>
      </trkpt>
      <trkpt lat="34.311414347321815" lon="109.02827569143521">
        <ele>392.5536214830354</ele>
        <time>2022-03-19T10:09:10Z</time>
      </trkpt>
      <trkpt lat="34.3114332173542" lon="109.02814462916939">
        <ele>392.2275357861072</ele>
        <time>2022-03-19T10:09:12Z</time>
      </trkpt>
      <trkpt lat="34.31145140796656" lon="109.02784523246235">
        <ele>393.0920631336048</ele>
        <time>2022-03-19T10:09:16Z</time>
      </trkpt>
      <trkpt lat="34.311493159303566" lon="109.02756423949592">
        <ele>393.2484477898106</ele>
        <time>2022-03-19T10:09:20Z</time>
      </trkpt>
      <trkpt lat="34.311624898546846" lon="109.02705062510279">
        <ele>393.4880522182211</ele>
        <time>2022-03-19T10:09:28Z</time>
      </trkpt>
      <trkpt lat="34.311785744248326" lon="109.02677420367637">
        <ele>392.2612886624411</ele>
        <time>2022-03-19T10:09:32Z</time>
      </trkpt>
      <trkpt lat="34.31188761479555" lon="109.02665254346691">
        <ele>392.76841694675386</ele>
        <time>2022-03-19T10:09:34Z</time>
      </trkpt>
      <trkpt lat="34.31225247262082" lon="109.0263402102502">
        <ele>393.6438232632354</ele>
        <time>2022-03-19T10:09:40Z</time>
      </trkpt>
      <trkpt lat="34.31238197902092" lon="109.02623287361587">
        <ele>393.2097602104768</ele>
        <time>2022-03-19T10:09:42Z</time>
      </trkpt>
      <trkpt lat="34.312458638212824" lon="109.026121396441">
        <ele>393.8484534434974</ele>
        <time>2022-03-19T10:09:44Z</time>
      </trkpt>
      <trkpt lat="34.31257014537143" lon="109.02602933512938">
        <ele>392.8865160867572</ele>
        <time>2022-03-19T10:09:46Z</time>
      </trkpt>
      <trkpt lat="34.31277010059145" lon="109.02598535869842">
        <ele>392.96995359193534</ele>
        <time>2022-03-19T10:09:48Z</time>
      </trkpt>
      <trkpt lat="34.31287562701658" lon="109.02588451899202">
        <ele>393.1547349281609</ele>
        <time>2022-03-19T10:09:50Z</time>
      </trkpt>
      <trkpt lat="34.31318541484466" lon="109.02575071148671">
        <ele>391.75594269298017</ele>
        <time>2022-03-19T10:09:58Z</time>
      </trkpt>
      <trkpt lat="34.31328244309575" lon="109.02573320131134">
        <ele>391.1119373543188</ele>
        <time>2022-03-19T10:10:06Z</time>
      </trkpt>
      <trkpt lat="34.31373568860584" lon="109.02554452369134">
        <ele>391.884031848982</ele>
        <time>2022-03-19T10:10:16Z</time>
      </trkpt>
      <trkpt lat="34.31399208591604" lon="109.0254577548229">
        <ele>391.8838325981051</ele>
        <time>2022-03-19T10:10:20Z</time>
      </trkpt>
      <trkpt lat="34.3141117245077" lon="109.0253743692385">
        <ele>392.4688780196011</ele>
        <time>2022-03-19T10:10:22Z</time>
      </trkpt>
      <trkpt lat="34.314240214082936" lon="109.02532350866556">
        <ele>391.46082651242614</ele>
        <time>2022-03-19T10:10:24Z</time>
      </trkpt>
      <trkpt lat="34.31449904056134" lon="109.02516461491726">
        <ele>391.1605869010091</ele>
        <time>2022-03-19T10:10:28Z</time>
      </trkpt>
      <trkpt lat="34.314876281959386" lon="109.02488057660968">
        <ele>391.30844140052795</ele>
        <time>2022-03-19T10:10:34Z</time>
      </trkpt>
      <trkpt lat="34.31500524867035" lon="109.02477127583543">
        <ele>390.7539767883718</ele>
        <time>2022-03-19T10:10:36Z</time>
      </trkpt>
      <trkpt lat="34.3152724894748" lon="109.02458534652969">
        <ele>390.5097639290616</ele>
        <time>2022-03-19T10:10:40Z</time>
      </trkpt>
      <trkpt lat="34.31568928451698" lon="109.02433731540036">
        <ele>390.1165819000453</ele>
        <time>2022-03-19T10:10:46Z</time>
      </trkpt>
      <trkpt lat="34.31598729456765" lon="109.02419136648705">
        <ele>389.93189669027925</ele>
        <time>2022-03-19T10:10:50Z</time>
      </trkpt>
      <trkpt lat="34.31611231699203" lon="109.02411335308811">
        <ele>389.6201264085248</ele>
        <time>2022-03-19T10:10:52Z</time>
      </trkpt>
      <trkpt lat="34.316224433817865" lon="109.02401748427187">
        <ele>389.1271897973493</ele>
        <time>2022-03-19T10:10:54Z</time>
      </trkpt>
      <trkpt lat="34.3162937352298" lon="109.02387427037205">
        <ele>390.29171357676387</ele>
        <time>2022-03-19T10:10:56Z</time>
      </trkpt>
      <trkpt lat="34.31632204881376" lon="109.02373000144624">
        <ele>390.23705086577684</ele>
        <time>2022-03-19T10:10:58Z</time>
      </trkpt>
      <trkpt lat="34.316317599310025" lon="109.02357494856079">
        <ele>390.6581891113892</ele>
        <time>2022-03-19T10:11:00Z</time>
      </trkpt>
      <trkpt lat="34.31627749911407" lon="109.02342947532816">
        <ele>390.59168740175664</ele>
        <time>2022-03-19T10:11:02Z</time>
      </trkpt>
      <trkpt lat="34.316068715435605" lon="109.02292628754783">
        <ele>389.7956005651504</ele>
        <time>2022-03-19T10:11:10Z</time>
      </trkpt>
      <trkpt lat="34.31584292775065" lon="109.0224593990454">
        <ele>390.4920577565208</ele>
        <time>2022-03-19T10:11:18Z</time>
      </trkpt>
      <trkpt lat="34.31581473159531" lon="109.02234080534215">
        <ele>390.555818580091</ele>
        <time>2022-03-19T10:11:20Z</time>
      </trkpt>
      <trkpt lat="34.31581016641429" lon="109.02220966682603">
        <ele>391.3848906038329</ele>
        <time>2022-03-19T10:11:22Z</time>
      </trkpt>
      <trkpt lat="34.315864823509266" lon="109.0218858528537">
        <ele>391.9050136497244</ele>
        <time>2022-03-19T10:11:26Z</time>
      </trkpt>
      <trkpt lat="34.31587045438434" lon="109.02119660987096">
        <ele>393.76223477348685</ele>
        <time>2022-03-19T10:11:34Z</time>
      </trkpt>
      <trkpt lat="34.31585824243488" lon="109.02063132912755">
        <ele>397.27890170551836</ele>
        <time>2022-03-19T10:11:40Z</time>
      </trkpt>
      <trkpt lat="34.31585629479346" lon="109.02004080570985">
        <ele>397.27817162219435</ele>
        <time>2022-03-19T10:11:46Z</time>
      </trkpt>
      <trkpt lat="34.3158516173674" lon="109.01967992950794">
        <ele>400.69026397913694</ele>
        <time>2022-03-19T10:11:50Z</time>
      </trkpt>
      <trkpt lat="34.31585985170031" lon="109.01915849290916">
        <ele>399.72410192433745</ele>
        <time>2022-03-19T10:11:56Z</time>
      </trkpt>
      <trkpt lat="34.315854634841166" lon="109.01846926737242">
        <ele>402.14921197481453</ele>
        <time>2022-03-19T10:12:04Z</time>
      </trkpt>
      <trkpt lat="34.31585584000064" lon="109.01829191545097">
        <ele>403.6097055422142</ele>
        <time>2022-03-19T10:12:06Z</time>
      </trkpt>
      <trkpt lat="34.315927949576256" lon="109.01798665796464">
        <ele>403.9701289013028</ele>
        <time>2022-03-19T10:12:10Z</time>
      </trkpt>
      <trkpt lat="34.31592461873627" lon="109.01741131686816">
        <ele>404.9385040514171</ele>
        <time>2022-03-19T10:12:18Z</time>
      </trkpt>
      <trkpt lat="34.315900047732136" lon="109.01687826330402">
        <ele>407.1404540427029</ele>
        <time>2022-03-19T10:12:26Z</time>
      </trkpt>
      <trkpt lat="34.315886581759415" lon="109.01633768455451">
        <ele>409.26227743085474</ele>
        <time>2022-03-19T10:12:34Z</time>
      </trkpt>
      <trkpt lat="34.31591175485133" lon="109.01606066286665">
        <ele>409.39181417785585</ele>
        <time>2022-03-19T10:12:38Z</time>
      </trkpt>
      <trkpt lat="34.31590078907719" lon="109.01575082904554">
        <ele>409.6703762412071</ele>
        <time>2022-03-19T10:12:42Z</time>
      </trkpt>
      <trkpt lat="34.31591588432459" lon="109.01528780045537">
        <ele>409.3171561509371</ele>
        <time>2022-03-19T10:12:48Z</time>
      </trkpt>
      <trkpt lat="34.31590383437928" lon="109.0151565196338">
        <ele>408.7863749433309</ele>
        <time>2022-03-19T10:12:50Z</time>
      </trkpt>
      <trkpt lat="34.31592855652715" lon="109.01480464537346">
        <ele>409.87138291448355</ele>
        <time>2022-03-19T10:12:54Z</time>
      </trkpt>
      <trkpt lat="34.31591159928052" lon="109.01448421804527">
        <ele>408.9160353485495</ele>
        <time>2022-03-19T10:12:58Z</time>
      </trkpt>
      <trkpt lat="34.31593001703728" lon="109.01378253651323">
        <ele>410.2598003214225</ele>
        <time>2022-03-19T10:13:07Z</time>
      </trkpt>
      <trkpt lat="34.31591617666636" lon="109.01363836782916">
        <ele>410.60412523150444</ele>
        <time>2022-03-19T10:13:09Z</time>
      </trkpt>
      <trkpt lat="34.31590590135872" lon="109.01323559572961">
        <ele>410.6766145816073</ele>
        <time>2022-03-19T10:13:15Z</time>
      </trkpt>
      <trkpt lat="34.31587912537225" lon="109.01305173365138">
        <ele>411.2360004009679</ele>
        <time>2022-03-19T10:13:19Z</time>
      </trkpt>
      <trkpt lat="34.31591154963906" lon="109.01289588725007">
        <ele>409.95863042771816</ele>
        <time>2022-03-19T10:13:23Z</time>
      </trkpt>
      <trkpt lat="34.3158992195622" lon="109.01227513849302">
        <ele>410.62729119695723</ele>
        <time>2022-03-19T10:13:33Z</time>
      </trkpt>
      <trkpt lat="34.31589588953794" lon="109.01164728019508">
        <ele>409.99334679730237</ele>
        <time>2022-03-19T10:13:41Z</time>
      </trkpt>
      <trkpt lat="34.315885400600884" lon="109.01107526289488">
        <ele>410.04864254780114</ele>
        <time>2022-03-19T10:13:48Z</time>
      </trkpt>
      <trkpt lat="34.31589376678939" lon="109.0104014579184">
        <ele>408.4430634425953</ele>
        <time>2022-03-19T10:13:56Z</time>
      </trkpt>
      <trkpt lat="34.315901718842305" lon="109.01004839032214">
        <ele>408.9546781210229</ele>
        <time>2022-03-19T10:14:00Z</time>
      </trkpt>
      <trkpt lat="34.31592889902978" lon="109.0098924264007">
        <ele>408.3569066785276</ele>
        <time>2022-03-19T10:14:02Z</time>
      </trkpt>
      <trkpt lat="34.316035589898775" lon="109.00976839695986">
        <ele>408.37987973727286</ele>
        <time>2022-03-19T10:14:04Z</time>
      </trkpt>
      <trkpt lat="34.31616131569778" lon="109.00977879993695">
        <ele>408.2848502770066</ele>
        <time>2022-03-19T10:14:06Z</time>
      </trkpt>
      <trkpt lat="34.31646927203956" lon="109.0097070287136">
        <ele>409.3467131117359</ele>
        <time>2022-03-19T10:14:12Z</time>
      </trkpt>
      <trkpt lat="34.31695003860656" lon="109.00965348599487">
        <ele>409.29271631967276</ele>
        <time>2022-03-19T10:14:20Z</time>
      </trkpt>
      <trkpt lat="34.31736121732977" lon="109.00964052420433">
        <ele>408.414210697636</ele>
        <time>2022-03-19T10:14:26Z</time>
      </trkpt>
      <trkpt lat="34.317898565879396" lon="109.0096396587443">
        <ele>409.3276784578338</ele>
        <time>2022-03-19T10:14:34Z</time>
      </trkpt>
      <trkpt lat="34.31802887361346" lon="109.0096518353966">
        <ele>409.16526813805103</ele>
        <time>2022-03-19T10:14:36Z</time>
      </trkpt>
      <trkpt lat="34.31828687713194" lon="109.0096125160049">
        <ele>409.8580290414393</ele>
        <time>2022-03-19T10:14:40Z</time>
      </trkpt>
      <trkpt lat="34.31871588253332" lon="109.00959697089557">
        <ele>409.1522747995332</ele>
        <time>2022-03-19T10:14:46Z</time>
      </trkpt>
      <trkpt lat="34.31898118173035" lon="109.0096152899063">
        <ele>407.46590859256685</ele>
        <time>2022-03-19T10:14:50Z</time>
      </trkpt>
      <trkpt lat="34.31922995440956" lon="109.00957430397169">
        <ele>408.44505185540766</ele>
        <time>2022-03-19T10:14:54Z</time>
      </trkpt>
      <trkpt lat="34.31981938632515" lon="109.00958907607472">
        <ele>406.69754075910896</ele>
        <time>2022-03-19T10:15:02Z</time>
      </trkpt>
      <trkpt lat="34.320286962395436" lon="109.00958449972744">
        <ele>405.7809280809015</ele>
        <time>2022-03-19T10:15:08Z</time>
      </trkpt>
      <trkpt lat="34.320769417117646" lon="109.00956830734351">
        <ele>405.04986536316574</ele>
        <time>2022-03-19T10:15:14Z</time>
      </trkpt>
      <trkpt lat="34.32111406188954" lon="109.00959814011952">
        <ele>403.40843769256026</ele>
        <time>2022-03-19T10:15:18Z</time>
      </trkpt>
      <trkpt lat="34.321636804161095" lon="109.00959286212485">
        <ele>402.58661452215165</ele>
        <time>2022-03-19T10:15:24Z</time>
      </trkpt>
      <trkpt lat="34.32215728243405" lon="109.0095548273742">
        <ele>399.88003586791456</ele>
        <time>2022-03-19T10:15:30Z</time>
      </trkpt>
      <trkpt lat="34.32269185660504" lon="109.00953040110235">
        <ele>398.6365512814373</ele>
        <time>2022-03-19T10:15:36Z</time>
      </trkpt>
      <trkpt lat="34.32321435067155" lon="109.00945178066252">
        <ele>400.57347510848194</ele>
        <time>2022-03-19T10:15:42Z</time>
      </trkpt>
      <trkpt lat="34.32358906638139" lon="109.0094088236464">
        <ele>397.7917334642261</ele>
        <time>2022-03-19T10:15:46Z</time>
      </trkpt>
      <trkpt lat="34.32392770859394" lon="109.00934737009224">
        <ele>396.16732029709965</ele>
        <time>2022-03-19T10:15:50Z</time>
      </trkpt>
      <trkpt lat="34.32435438872732" lon="109.00916767519294">
        <ele>396.57582434639335</ele>
        <time>2022-03-19T10:15:56Z</time>
      </trkpt>
      <trkpt lat="34.324793983143564" lon="109.00899990502975">
        <ele>395.73869819846004</ele>
        <time>2022-03-19T10:16:02Z</time>
      </trkpt>
      <trkpt lat="34.32495661933043" lon="109.00894306452604">
        <ele>397.7178952721879</ele>
        <time>2022-03-19T10:16:04Z</time>
      </trkpt>
      <trkpt lat="34.32537443374539" lon="109.0087448856127">
        <ele>395.8019229331985</ele>
        <time>2022-03-19T10:16:10Z</time>
      </trkpt>
      <trkpt lat="34.32588114209108" lon="109.00845888513912">
        <ele>396.66118739545345</ele>
        <time>2022-03-19T10:16:18Z</time>
      </trkpt>
      <trkpt lat="34.326004020758276" lon="109.00838981791465">
        <ele>395.4402365172282</ele>
        <time>2022-03-19T10:16:20Z</time>
      </trkpt>
      <trkpt lat="34.3261350401955" lon="109.00834389056746">
        <ele>395.42438087053597</ele>
        <time>2022-03-19T10:16:22Z</time>
      </trkpt>
      <trkpt lat="34.32662603786532" lon="109.00800793397754">
        <ele>396.1472581299022</ele>
        <time>2022-03-19T10:16:30Z</time>
      </trkpt>
      <trkpt lat="34.326763027909415" lon="109.00792499251246">
        <ele>394.67570366337895</ele>
        <time>2022-03-19T10:16:32Z</time>
      </trkpt>
      <trkpt lat="34.32723341809179" lon="109.00755291807883">
        <ele>395.0258351797238</ele>
        <time>2022-03-19T10:16:40Z</time>
      </trkpt>
      <trkpt lat="34.32746949344309" lon="109.00739350689439">
        <ele>394.81577023956925</ele>
        <time>2022-03-19T10:16:44Z</time>
      </trkpt>
      <trkpt lat="34.327568051198234" lon="109.00729798159337">
        <ele>393.5980233512819</ele>
        <time>2022-03-19T10:16:46Z</time>
      </trkpt>
      <trkpt lat="34.3276951305088" lon="109.00724667844287">
        <ele>393.48252951260656</ele>
        <time>2022-03-19T10:16:48Z</time>
      </trkpt>
      <trkpt lat="34.32783404096594" lon="109.00724951342029">
        <ele>394.79294244851917</ele>
        <time>2022-03-19T10:16:50Z</time>
      </trkpt>
      <trkpt lat="34.3279472615915" lon="109.0072163783807">
        <ele>394.2542232517153</ele>
        <time>2022-03-19T10:16:52Z</time>
      </trkpt>
      <trkpt lat="34.328036048249814" lon="109.00714678845593">
        <ele>394.13070221152157</ele>
        <time>2022-03-19T10:16:54Z</time>
      </trkpt>
      <trkpt lat="34.32813538381617" lon="109.00702280473021">
        <ele>395.00231799669564</ele>
        <time>2022-03-19T10:17:06Z</time>
      </trkpt>
      <trkpt lat="34.32816808671914" lon="109.00682044299292">
        <ele>395.0585732059553</ele>
        <time>2022-03-19T10:17:41Z</time>
      </trkpt>
      <trkpt lat="34.32808433740435" lon="109.00639769575655">
        <ele>394.46654782723635</ele>
        <time>2022-03-19T10:17:49Z</time>
      </trkpt>
      <trkpt lat="34.328018417638006" lon="109.00626775065764">
        <ele>394.6491980012506</ele>
        <time>2022-03-19T10:17:51Z</time>
      </trkpt>
      <trkpt lat="34.328087992788376" lon="109.00614480384247">
        <ele>394.29653413780034</ele>
        <time>2022-03-19T10:17:53Z</time>
      </trkpt>
      <trkpt lat="34.32804148579982" lon="109.0055161893957">
        <ele>394.5956937726587</ele>
        <time>2022-03-19T10:18:02Z</time>
      </trkpt>
      <trkpt lat="34.32799812287753" lon="109.00522030320852">
        <ele>395.404041511938</ele>
        <time>2022-03-19T10:18:06Z</time>
      </trkpt>
      <trkpt lat="34.32798756150735" lon="109.00491901604886">
        <ele>394.03382809553295</ele>
        <time>2022-03-19T10:18:10Z</time>
      </trkpt>
      <trkpt lat="34.3279593267602" lon="109.0047822745123">
        <ele>393.8723139585927</ele>
        <time>2022-03-19T10:18:12Z</time>
      </trkpt>
      <trkpt lat="34.327953281875246" lon="109.00461823772457">
        <ele>394.0716932201758</ele>
        <time>2022-03-19T10:18:14Z</time>
      </trkpt>
      <trkpt lat="34.32793134773569" lon="109.00448431920974">
        <ele>394.6000787084922</ele>
        <time>2022-03-19T10:18:16Z</time>
      </trkpt>
      <trkpt lat="34.3279686959705" lon="109.00395785561652">
        <ele>394.6212513651699</ele>
        <time>2022-03-19T10:18:22Z</time>
      </trkpt>
      <trkpt lat="34.327955653216364" lon="109.00333177461053">
        <ele>396.01709946617484</ele>
        <time>2022-03-19T10:18:30Z</time>
      </trkpt>
      <trkpt lat="34.32795170928589" lon="109.00268348463379">
        <ele>395.2476285267621</ele>
        <time>2022-03-19T10:18:38Z</time>
      </trkpt>
      <trkpt lat="34.32795426627481" lon="109.00213066600898">
        <ele>394.3981349831447</ele>
        <time>2022-03-19T10:18:44Z</time>
      </trkpt>
      <trkpt lat="34.327952823943576" lon="109.00160067941856">
        <ele>395.24739513080567</ele>
        <time>2022-03-19T10:18:50Z</time>
      </trkpt>
      <trkpt lat="34.327938742830575" lon="109.00105159618636">
        <ele>394.41952197346836</ele>
        <time>2022-03-19T10:18:56Z</time>
      </trkpt>
      <trkpt lat="34.32794466108458" lon="109.00067448371898">
        <ele>394.7578257089481</ele>
        <time>2022-03-19T10:19:00Z</time>
      </trkpt>
      <trkpt lat="34.327977175336436" lon="109.00049451598234">
        <ele>394.9989853715524</ele>
        <time>2022-03-19T10:19:02Z</time>
      </trkpt>
      <trkpt lat="34.32794213911227" lon="109.00029709040639">
        <ele>394.406404228881</ele>
        <time>2022-03-19T10:19:04Z</time>
      </trkpt>
      <trkpt lat="34.32795979245878" lon="108.99976938792926">
        <ele>394.5451033115387</ele>
        <time>2022-03-19T10:19:10Z</time>
      </trkpt>
      <trkpt lat="34.32797319792474" lon="108.99939445446557">
        <ele>393.8064590645954</ele>
        <time>2022-03-19T10:19:14Z</time>
      </trkpt>
      <trkpt lat="34.327973028830165" lon="108.99883373047344">
        <ele>393.5517076374963</ele>
        <time>2022-03-19T10:19:20Z</time>
      </trkpt>
      <trkpt lat="34.32797374983981" lon="108.99865567669798">
        <ele>393.3519265996292</ele>
        <time>2022-03-19T10:19:22Z</time>
      </trkpt>
      <trkpt lat="34.327927810010635" lon="108.99832087810474">
        <ele>394.760917882435</ele>
        <time>2022-03-19T10:19:26Z</time>
      </trkpt>
      <trkpt lat="34.327985753100606" lon="108.99812536404265">
        <ele>394.67927748709917</ele>
        <time>2022-03-19T10:19:28Z</time>
      </trkpt>
      <trkpt lat="34.32793908651633" lon="108.99794448347448">
        <ele>394.1628230465576</ele>
        <time>2022-03-19T10:19:30Z</time>
      </trkpt>
      <trkpt lat="34.32795552327701" lon="108.99755295672087">
        <ele>394.64620847348124</ele>
        <time>2022-03-19T10:19:34Z</time>
      </trkpt>
      <trkpt lat="34.32794489085275" lon="108.99718444222601">
        <ele>394.1892160344869</ele>
        <time>2022-03-19T10:19:38Z</time>
      </trkpt>
      <trkpt lat="34.327978319116404" lon="108.99698956602674">
        <ele>394.4258593209088</ele>
        <time>2022-03-19T10:19:40Z</time>
      </trkpt>
      <trkpt lat="34.32795694906282" lon="108.99679414531613">
        <ele>394.76206100173295</ele>
        <time>2022-03-19T10:19:42Z</time>
      </trkpt>
      <trkpt lat="34.327978138940594" lon="108.9963948159603">
        <ele>395.94339391123503</ele>
        <time>2022-03-19T10:19:46Z</time>
      </trkpt>
      <trkpt lat="34.3279541634819" lon="108.9958882976334">
        <ele>394.9793513091281</ele>
        <time>2022-03-19T10:19:52Z</time>
      </trkpt>
      <trkpt lat="34.3279741423278" lon="108.99551844706784">
        <ele>394.1214576624334</ele>
        <time>2022-03-19T10:19:56Z</time>
      </trkpt>
      <trkpt lat="34.32796943354592" lon="108.9953494994688">
        <ele>395.1028650086373</ele>
        <time>2022-03-19T10:19:58Z</time>
      </trkpt>
      <trkpt lat="34.327997322978604" lon="108.99480810780794">
        <ele>394.5563011216</ele>
        <time>2022-03-19T10:20:04Z</time>
      </trkpt>
      <trkpt lat="34.32801201093787" lon="108.99426129510476">
        <ele>394.4838940082118</ele>
        <time>2022-03-19T10:20:10Z</time>
      </trkpt>
      <trkpt lat="34.32797567977435" lon="108.99391587466897">
        <ele>393.1858946196735</ele>
        <time>2022-03-19T10:20:14Z</time>
      </trkpt>
      <trkpt lat="34.32798089349078" lon="108.99374795552274">
        <ele>393.5865887515247</ele>
        <time>2022-03-19T10:20:16Z</time>
      </trkpt>
      <trkpt lat="34.328012446139944" lon="108.99349923778334">
        <ele>393.6131840357557</ele>
        <time>2022-03-19T10:20:20Z</time>
      </trkpt>
      <trkpt lat="34.32801121942922" lon="108.99323728560746">
        <ele>393.9223999045789</ele>
        <time>2022-03-19T10:20:24Z</time>
      </trkpt>
      <trkpt lat="34.328069508805974" lon="108.9930729196767">
        <ele>394.5795300025493</ele>
        <time>2022-03-19T10:20:26Z</time>
      </trkpt>
      <trkpt lat="34.328064005455495" lon="108.99275579519629">
        <ele>394.3287383429706</ele>
        <time>2022-03-19T10:20:30Z</time>
      </trkpt>
      <trkpt lat="34.32803954875658" lon="108.99258510709572">
        <ele>394.1461685663089</ele>
        <time>2022-03-19T10:20:32Z</time>
      </trkpt>
      <trkpt lat="34.328047593160136" lon="108.99205822531253">
        <ele>394.6794847724959</ele>
        <time>2022-03-19T10:20:38Z</time>
      </trkpt>
      <trkpt lat="34.328064385821826" lon="108.99174355674629">
        <ele>393.78558767493814</ele>
        <time>2022-03-19T10:20:42Z</time>
      </trkpt>
      <trkpt lat="34.328099408431314" lon="108.99162300647876">
        <ele>393.6032494790852</ele>
        <time>2022-03-19T10:20:44Z</time>
      </trkpt>
      <trkpt lat="34.32808628581254" lon="108.99149248572529">
        <ele>393.71948790270835</ele>
        <time>2022-03-19T10:20:46Z</time>
      </trkpt>
      <trkpt lat="34.32804316684676" lon="108.99137089266355">
        <ele>393.7780712917447</ele>
        <time>2022-03-19T10:20:48Z</time>
      </trkpt>
      <trkpt lat="34.32804413331949" lon="108.99102948791948">
        <ele>392.8591321222484</ele>
        <time>2022-03-19T10:20:52Z</time>
      </trkpt>
      <trkpt lat="34.32808106410985" lon="108.99070889741564">
        <ele>392.9302736958489</ele>
        <time>2022-03-19T10:20:56Z</time>
      </trkpt>
      <trkpt lat="34.32806719289168" lon="108.99018340541744">
        <ele>393.6324699856341</ele>
        <time>2022-03-19T10:21:02Z</time>
      </trkpt>
      <trkpt lat="34.328050349908196" lon="108.98965260945003">
        <ele>392.8764462945983</ele>
        <time>2022-03-19T10:21:08Z</time>
      </trkpt>
      <trkpt lat="34.32800127034104" lon="108.98911715625526">
        <ele>391.95313910674304</ele>
        <time>2022-03-19T10:21:14Z</time>
      </trkpt>
      <trkpt lat="34.327934826781835" lon="108.98859220096259">
        <ele>392.5038894498721</ele>
        <time>2022-03-19T10:21:20Z</time>
      </trkpt>
      <trkpt lat="34.32790224622664" lon="108.98827168970955">
        <ele>392.2400190588087</ele>
        <time>2022-03-19T10:21:24Z</time>
      </trkpt>
      <trkpt lat="34.32795955333089" lon="108.98794527733158">
        <ele>393.8231680141762</ele>
        <time>2022-03-19T10:21:28Z</time>
      </trkpt>
      <trkpt lat="34.327974387503346" lon="108.98759627703802">
        <ele>394.54138926416636</ele>
        <time>2022-03-19T10:21:32Z</time>
      </trkpt>
      <trkpt lat="34.327944992788865" lon="108.9872615322232">
        <ele>394.0148165933788</ele>
        <time>2022-03-19T10:21:36Z</time>
      </trkpt>
      <trkpt lat="34.32796549902687" lon="108.9867156480178">
        <ele>394.57232823222876</ele>
        <time>2022-03-19T10:21:42Z</time>
      </trkpt>
      <trkpt lat="34.327960549278146" lon="108.98634001333208">
        <ele>393.7279311530292</ele>
        <time>2022-03-19T10:21:46Z</time>
      </trkpt>
      <trkpt lat="34.32798171294327" lon="108.98564341349693">
        <ele>391.92706874012947</ele>
        <time>2022-03-19T10:21:54Z</time>
      </trkpt>
      <trkpt lat="34.32803422219139" lon="108.98506339335843">
        <ele>392.5690026637167</ele>
        <time>2022-03-19T10:22:00Z</time>
      </trkpt>
      <trkpt lat="34.32805608331097" lon="108.98447560128533">
        <ele>391.9757191231474</ele>
        <time>2022-03-19T10:22:08Z</time>
      </trkpt>
      <trkpt lat="34.3281095199932" lon="108.9843791754812">
        <ele>391.3033695751801</ele>
        <time>2022-03-19T10:22:10Z</time>
      </trkpt>
      <trkpt lat="34.328091737205376" lon="108.98434602518418">
        <ele>392.0108504127711</ele>
        <time>2022-03-19T10:22:20Z</time>
      </trkpt>
      <trkpt lat="34.32811975677614" lon="108.98418323040097">
        <ele>392.37083256803453</ele>
        <time>2022-03-19T10:23:07Z</time>
      </trkpt>
      <trkpt lat="34.3280695633383" lon="108.98383444898496">
        <ele>392.57587714865804</ele>
        <time>2022-03-19T10:23:14Z</time>
      </trkpt>
      <trkpt lat="34.32807739256623" lon="108.9836085684392">
        <ele>392.55126516055316</ele>
        <time>2022-03-19T10:23:18Z</time>
      </trkpt>
      <trkpt lat="34.32805437179344" lon="108.98349021342767">
        <ele>393.8197520961985</ele>
        <time>2022-03-19T10:23:20Z</time>
      </trkpt>
      <trkpt lat="34.328054299865435" lon="108.9833756633664">
        <ele>392.9317479971796</ele>
        <time>2022-03-19T10:23:22Z</time>
      </trkpt>
      <trkpt lat="34.3280795248736" lon="108.98323448670396">
        <ele>392.665241394192</ele>
        <time>2022-03-19T10:23:24Z</time>
      </trkpt>
      <trkpt lat="34.3280815662311" lon="108.98281988853762">
        <ele>393.27560127992183</ele>
        <time>2022-03-19T10:23:30Z</time>
      </trkpt>
      <trkpt lat="34.32802639110208" lon="108.98258197143387">
        <ele>394.89473880734295</ele>
        <time>2022-03-19T10:23:34Z</time>
      </trkpt>
      <trkpt lat="34.32801663552169" lon="108.9823330540906">
        <ele>394.3366060508415</ele>
        <time>2022-03-19T10:23:38Z</time>
      </trkpt>
      <trkpt lat="34.32802660754872" lon="108.9822173626246">
        <ele>393.99875967856497</ele>
        <time>2022-03-19T10:23:40Z</time>
      </trkpt>
      <trkpt lat="34.327981190293755" lon="108.981879610178">
        <ele>394.9263484496623</ele>
        <time>2022-03-19T10:23:46Z</time>
      </trkpt>
      <trkpt lat="34.32807364437364" lon="108.98179098984318">
        <ele>396.0033673392609</ele>
        <time>2022-03-19T10:23:50Z</time>
      </trkpt>
      <trkpt lat="34.328170821724875" lon="108.98178587896652">
        <ele>395.4359994539991</ele>
        <time>2022-03-19T10:23:52Z</time>
      </trkpt>
      <trkpt lat="34.328211442868216" lon="108.98175259551844">
        <ele>394.52747973799706</ele>
        <time>2022-03-19T10:24:02Z</time>
      </trkpt>
      <trkpt lat="34.328302443344874" lon="108.9817322768507">
        <ele>392.83140034787357</ele>
        <time>2022-03-19T10:24:09Z</time>
      </trkpt>
      <trkpt lat="34.328227282808754" lon="108.98164543096532">
        <ele>394.89263757131994</ele>
        <time>2022-03-19T10:24:12Z</time>
      </trkpt>
      <trkpt lat="34.32865868742975" lon="108.98035290189974">
        <ele>398.1719169616699</ele>
        <time>2022-03-19T10:25:05Z</time>
      </trkpt>
      <trkpt lat="34.32865868742975" lon="108.98035290189974">
        <ele>398.1719169616699</ele>
        <time>2022-03-19T10:25:38Z</time>
      </trkpt>
    </trkseg>
  </trk>
</gpx>