<?xml version="1.0" encoding="UTF-8"?>
<gpx xmlns="http://www.topografix.com/GPX/1/1" xmlns:gpxtpx="http://www.garmin.com/xmlschemas/TrackPointExtension/v1" xmlns:xsi="http://www.w3.org/2001/XMLSchema-instance" xsi:schemaLocation="http://www.topografix.com/GPX/1/1 http://www.topografix.com/GPX/1/1/gpx.xsd" version="1.1" creator="gpx.py -- https://github.com/tkrajina/gpxpy">
  <trk>
    <name>gpx from keep</name>
    <type>Ride</type>
    <trkseg>
      <trkpt lat="34.328165350988385" lon="108.98033701418932">
        <ele>397.98901748657227</ele>
        <time>2022-03-22T23:23:47Z</time>
      </trkpt>
      <trkpt lat="34.32872166682644" lon="108.98044034062939">
        <ele>397.4020309448242</ele>
        <time>2022-03-22T23:24:26Z</time>
      </trkpt>
      <trkpt lat="34.328648549947594" lon="108.97999675929344">
        <ele>397.07129287719727</ele>
        <time>2022-03-22T23:24:39Z</time>
      </trkpt>
      <trkpt lat="34.32859871229582" lon="108.98012555421863">
        <ele>396.97081756591797</ele>
        <time>2022-03-22T23:24:44Z</time>
      </trkpt>
      <trkpt lat="34.32868187876683" lon="108.98032483636943">
        <ele>395.8563836477697</ele>
        <time>2022-03-22T23:24:48Z</time>
      </trkpt>
      <trkpt lat="34.328621206933505" lon="108.98047671860402">
        <ele>395.8676143530756</ele>
        <time>2022-03-22T23:24:50Z</time>
      </trkpt>
      <trkpt lat="34.32862682623765" lon="108.9807731759573">
        <ele>396.4822000609711</ele>
        <time>2022-03-22T23:25:03Z</time>
      </trkpt>
      <trkpt lat="34.328587591556605" lon="108.9808684798703">
        <ele>395.6954285055399</ele>
        <time>2022-03-22T23:25:07Z</time>
      </trkpt>
      <trkpt lat="34.328401621072736" lon="108.98086269744594">
        <ele>394.8181404257193</ele>
        <time>2022-03-22T23:25:22Z</time>
      </trkpt>
      <trkpt lat="34.32834937138804" lon="108.98086305531294">
        <ele>394.5139981256798</ele>
        <time>2022-03-22T23:25:25Z</time>
      </trkpt>
      <trkpt lat="34.328269716808165" lon="108.98083528822286">
        <ele>394.44002250395715</ele>
        <time>2022-03-22T23:25:30Z</time>
      </trkpt>
      <trkpt lat="34.328194904205745" lon="108.9808321017422">
        <ele>395.3678461741656</ele>
        <time>2022-03-22T23:25:36Z</time>
      </trkpt>
      <trkpt lat="34.32816855130379" lon="108.98091687944901">
        <ele>395.0341882398352</ele>
        <time>2022-03-22T23:25:43Z</time>
      </trkpt>
      <trkpt lat="34.328173806155505" lon="108.98098744720318">
        <ele>394.48729620315135</ele>
        <time>2022-03-22T23:25:58Z</time>
      </trkpt>
      <trkpt lat="34.328200237845714" lon="108.98111664508797">
        <ele>394.3484684061259</ele>
        <time>2022-03-22T23:26:57Z</time>
      </trkpt>
      <trkpt lat="34.32822395231948" lon="108.98139120207055">
        <ele>394.5614189459011</ele>
        <time>2022-03-22T23:27:06Z</time>
      </trkpt>
      <trkpt lat="34.32821225467303" lon="108.98165573019861">
        <ele>394.29104761313647</ele>
        <time>2022-03-22T23:27:12Z</time>
      </trkpt>
      <trkpt lat="34.32817297343091" lon="108.98176753022291">
        <ele>394.09161930158734</ele>
        <time>2022-03-22T23:27:14Z</time>
      </trkpt>
      <trkpt lat="34.32812760034558" lon="108.98231674425249">
        <ele>393.8342650104314</ele>
        <time>2022-03-22T23:27:26Z</time>
      </trkpt>
      <trkpt lat="34.32811404964797" lon="108.98242596280139">
        <ele>393.722552225925</ele>
        <time>2022-03-22T23:27:28Z</time>
      </trkpt>
      <trkpt lat="34.328122275174664" lon="108.98275441284692">
        <ele>393.2472634874284</ele>
        <time>2022-03-22T23:27:34Z</time>
      </trkpt>
      <trkpt lat="34.32811265417583" lon="108.98286097681657">
        <ele>392.70091164205223</ele>
        <time>2022-03-22T23:27:36Z</time>
      </trkpt>
      <trkpt lat="34.32812535334311" lon="108.98327733164928">
        <ele>392.90376515779644</ele>
        <time>2022-03-22T23:27:44Z</time>
      </trkpt>
      <trkpt lat="34.32810848676301" lon="108.98337755426472">
        <ele>392.80953087937087</ele>
        <time>2022-03-22T23:27:46Z</time>
      </trkpt>
      <trkpt lat="34.32815376285731" lon="108.98356868523632">
        <ele>391.95207100361586</ele>
        <time>2022-03-22T23:27:50Z</time>
      </trkpt>
      <trkpt lat="34.32812342591978" lon="108.98377067054751">
        <ele>392.27951605059206</ele>
        <time>2022-03-22T23:27:56Z</time>
      </trkpt>
      <trkpt lat="34.328157464978325" lon="108.98386760515345">
        <ele>392.7688211770728</ele>
        <time>2022-03-22T23:28:00Z</time>
      </trkpt>
      <trkpt lat="34.328133464743374" lon="108.98395254414272">
        <ele>392.2201686911285</ele>
        <time>2022-03-22T23:28:11Z</time>
      </trkpt>
      <trkpt lat="34.32805041785275" lon="108.9841131600086">
        <ele>391.8828926580027</ele>
        <time>2022-03-22T23:28:16Z</time>
      </trkpt>
      <trkpt lat="34.327919518188466" lon="108.98439233265722">
        <ele>392.83366375323385</ele>
        <time>2022-03-22T23:28:23Z</time>
      </trkpt>
      <trkpt lat="34.32784445501408" lon="108.9848425600491">
        <ele>388.9292120737955</ele>
        <time>2022-03-22T23:28:36Z</time>
      </trkpt>
      <trkpt lat="34.32784455856974" lon="108.98532449775968">
        <ele>391.26449504401535</ele>
        <time>2022-03-22T23:28:51Z</time>
      </trkpt>
      <trkpt lat="34.32785690595888" lon="108.98541456859745">
        <ele>392.7392121646553</ele>
        <time>2022-03-22T23:28:54Z</time>
      </trkpt>
      <trkpt lat="34.32791653386502" lon="108.98562711308165">
        <ele>392.64393138326705</ele>
        <time>2022-03-22T23:28:58Z</time>
      </trkpt>
      <trkpt lat="34.327885159398726" lon="108.98596196052075">
        <ele>390.757636314258</ele>
        <time>2022-03-22T23:29:04Z</time>
      </trkpt>
      <trkpt lat="34.32784819933687" lon="108.98606121396692">
        <ele>391.86075445916504</ele>
        <time>2022-03-22T23:29:08Z</time>
      </trkpt>
      <trkpt lat="34.32782653057301" lon="108.98619537887365">
        <ele>393.0996818346903</ele>
        <time>2022-03-22T23:29:12Z</time>
      </trkpt>
      <trkpt lat="34.32788083973799" lon="108.98646219933585">
        <ele>392.58799297269434</ele>
        <time>2022-03-22T23:29:16Z</time>
      </trkpt>
      <trkpt lat="34.327905975853234" lon="108.98696214907804">
        <ele>391.85777849238366</ele>
        <time>2022-03-22T23:29:24Z</time>
      </trkpt>
      <trkpt lat="34.327881588789836" lon="108.9870883590326">
        <ele>391.10618760157377</ele>
        <time>2022-03-22T23:29:26Z</time>
      </trkpt>
      <trkpt lat="34.32787912772332" lon="108.98720638618617">
        <ele>391.08227894455194</ele>
        <time>2022-03-22T23:29:28Z</time>
      </trkpt>
      <trkpt lat="34.327841086188336" lon="108.9873197327959">
        <ele>393.4271463677287</ele>
        <time>2022-03-22T23:29:32Z</time>
      </trkpt>
      <trkpt lat="34.32790063427512" lon="108.98755744365324">
        <ele>392.5598763804883</ele>
        <time>2022-03-22T23:29:36Z</time>
      </trkpt>
      <trkpt lat="34.327934467150925" lon="108.98795316509195">
        <ele>390.9846270978451</ele>
        <time>2022-03-22T23:29:44Z</time>
      </trkpt>
      <trkpt lat="34.32795296586706" lon="108.98850562158344">
        <ele>390.31065596081316</ele>
        <time>2022-03-22T23:29:54Z</time>
      </trkpt>
      <trkpt lat="34.32795306812605" lon="108.98862848724684">
        <ele>389.4350063977763</ele>
        <time>2022-03-22T23:29:58Z</time>
      </trkpt>
      <trkpt lat="34.32792519420731" lon="108.98872387881302">
        <ele>389.88294295221567</ele>
        <time>2022-03-22T23:30:00Z</time>
      </trkpt>
      <trkpt lat="34.32792301066686" lon="108.98890359402591">
        <ele>391.85849519632757</ele>
        <time>2022-03-22T23:30:04Z</time>
      </trkpt>
      <trkpt lat="34.327943627045705" lon="108.98901112498794">
        <ele>389.5748938396573</ele>
        <time>2022-03-22T23:30:08Z</time>
      </trkpt>
      <trkpt lat="34.32786535930299" lon="108.98929884008224">
        <ele>389.205014991574</ele>
        <time>2022-03-22T23:30:14Z</time>
      </trkpt>
      <trkpt lat="34.32785180666745" lon="108.98949635412613">
        <ele>388.8714916901663</ele>
        <time>2022-03-22T23:30:18Z</time>
      </trkpt>
      <trkpt lat="34.327881316770615" lon="108.98982467877259">
        <ele>391.8727128840983</ele>
        <time>2022-03-22T23:30:26Z</time>
      </trkpt>
      <trkpt lat="34.32787477663226" lon="108.98995287328619">
        <ele>391.2198726227507</ele>
        <time>2022-03-22T23:30:41Z</time>
      </trkpt>
      <trkpt lat="34.327820613211735" lon="108.99051198751637">
        <ele>391.3010054426268</ele>
        <time>2022-03-22T23:30:56Z</time>
      </trkpt>
      <trkpt lat="34.32784819588586" lon="108.99072683470386">
        <ele>391.4843168631196</ele>
        <time>2022-03-22T23:31:00Z</time>
      </trkpt>
      <trkpt lat="34.327845613946565" lon="108.99094196798364">
        <ele>391.52644876018167</ele>
        <time>2022-03-22T23:31:04Z</time>
      </trkpt>
      <trkpt lat="34.327857414493735" lon="108.99117174761216">
        <ele>391.6745658367872</ele>
        <time>2022-03-22T23:31:10Z</time>
      </trkpt>
      <trkpt lat="34.327836204290975" lon="108.9917193445269">
        <ele>393.118353350088</ele>
        <time>2022-03-22T23:31:20Z</time>
      </trkpt>
      <trkpt lat="34.3278588796164" lon="108.99227778787412">
        <ele>393.6763578085229</ele>
        <time>2022-03-22T23:31:32Z</time>
      </trkpt>
      <trkpt lat="34.32788643713284" lon="108.99290778653841">
        <ele>393.3143632905558</ele>
        <time>2022-03-22T23:31:46Z</time>
      </trkpt>
      <trkpt lat="34.32789051652977" lon="108.99351802134947">
        <ele>393.33899138495326</ele>
        <time>2022-03-22T23:31:58Z</time>
      </trkpt>
      <trkpt lat="34.327929649332184" lon="108.99414637292455">
        <ele>392.68703965004534</ele>
        <time>2022-03-22T23:32:10Z</time>
      </trkpt>
      <trkpt lat="34.32795190673585" lon="108.99468808570788">
        <ele>389.557226203382</ele>
        <time>2022-03-22T23:32:22Z</time>
      </trkpt>
      <trkpt lat="34.32796503657569" lon="108.99491188698299">
        <ele>389.7759615788236</ele>
        <time>2022-03-22T23:32:26Z</time>
      </trkpt>
      <trkpt lat="34.3279452343097" lon="108.99500969113551">
        <ele>388.987602009438</ele>
        <time>2022-03-22T23:32:28Z</time>
      </trkpt>
      <trkpt lat="34.3279692888385" lon="108.99522161048583">
        <ele>389.1805554907769</ele>
        <time>2022-03-22T23:32:32Z</time>
      </trkpt>
      <trkpt lat="34.327940148659785" lon="108.99542920342111">
        <ele>390.0456237671897</ele>
        <time>2022-03-22T23:32:36Z</time>
      </trkpt>
      <trkpt lat="34.32794742292537" lon="108.99574662223043">
        <ele>393.0988596435636</ele>
        <time>2022-03-22T23:32:42Z</time>
      </trkpt>
      <trkpt lat="34.32788757818917" lon="108.99615501205028">
        <ele>392.8411381561309</ele>
        <time>2022-03-22T23:32:50Z</time>
      </trkpt>
      <trkpt lat="34.327897333313466" lon="108.99624971409706">
        <ele>394.27360640466213</ele>
        <time>2022-03-22T23:32:52Z</time>
      </trkpt>
      <trkpt lat="34.327880372346215" lon="108.99677412921089">
        <ele>393.9401195971295</ele>
        <time>2022-03-22T23:33:02Z</time>
      </trkpt>
      <trkpt lat="34.327868889468355" lon="108.99709494536725">
        <ele>395.0280063217506</ele>
        <time>2022-03-22T23:33:08Z</time>
      </trkpt>
      <trkpt lat="34.32784483594838" lon="108.99720774582275">
        <ele>394.1684002885595</ele>
        <time>2022-03-22T23:33:10Z</time>
      </trkpt>
      <trkpt lat="34.327843561475426" lon="108.99778512805251">
        <ele>395.55794046260417</ele>
        <time>2022-03-22T23:33:20Z</time>
      </trkpt>
      <trkpt lat="34.32785016761022" lon="108.9983409575382">
        <ele>393.5123471422121</ele>
        <time>2022-03-22T23:33:30Z</time>
      </trkpt>
      <trkpt lat="34.327860635198064" lon="108.99856265108711">
        <ele>394.25674629118294</ele>
        <time>2022-03-22T23:33:34Z</time>
      </trkpt>
      <trkpt lat="34.32780610522829" lon="108.9990751808079">
        <ele>391.54781167116016</ele>
        <time>2022-03-22T23:33:44Z</time>
      </trkpt>
      <trkpt lat="34.32777744481701" lon="108.99939463358575">
        <ele>390.59801169950515</ele>
        <time>2022-03-22T23:33:50Z</time>
      </trkpt>
      <trkpt lat="34.32782787579984" lon="108.9997368808122">
        <ele>392.409245101735</ele>
        <time>2022-03-22T23:33:56Z</time>
      </trkpt>
      <trkpt lat="34.327827342516834" lon="109.00005774258163">
        <ele>393.31427543610334</ele>
        <time>2022-03-22T23:34:02Z</time>
      </trkpt>
      <trkpt lat="34.32784492143328" lon="109.00028432757863">
        <ele>393.3663014937192</ele>
        <time>2022-03-22T23:34:06Z</time>
      </trkpt>
      <trkpt lat="34.32783782266198" lon="109.00050842299743">
        <ele>393.1036776602268</ele>
        <time>2022-03-22T23:34:10Z</time>
      </trkpt>
      <trkpt lat="34.32784812407296" lon="109.00062512195639">
        <ele>393.41298398189247</ele>
        <time>2022-03-22T23:34:12Z</time>
      </trkpt>
      <trkpt lat="34.32783507854889" lon="109.00072254303284">
        <ele>393.29874029383063</ele>
        <time>2022-03-22T23:34:14Z</time>
      </trkpt>
      <trkpt lat="34.32787408233016" lon="109.00107117898527">
        <ele>393.20972491428256</ele>
        <time>2022-03-22T23:34:20Z</time>
      </trkpt>
      <trkpt lat="34.32781801858665" lon="109.00158813105745">
        <ele>392.5039712553844</ele>
        <time>2022-03-22T23:34:30Z</time>
      </trkpt>
      <trkpt lat="34.32780721910073" lon="109.00214419762618">
        <ele>393.0926496097818</ele>
        <time>2022-03-22T23:34:40Z</time>
      </trkpt>
      <trkpt lat="34.32778903556947" lon="109.0023570370674">
        <ele>392.29265135899186</ele>
        <time>2022-03-22T23:34:44Z</time>
      </trkpt>
      <trkpt lat="34.32780785381721" lon="109.0024627542334">
        <ele>393.24737452622503</ele>
        <time>2022-03-22T23:34:46Z</time>
      </trkpt>
      <trkpt lat="34.327775822277076" lon="109.003063097179">
        <ele>393.05740567017347</ele>
        <time>2022-03-22T23:34:58Z</time>
      </trkpt>
      <trkpt lat="34.32776142226783" lon="109.00316348153869">
        <ele>392.8199951108545</ele>
        <time>2022-03-22T23:35:00Z</time>
      </trkpt>
      <trkpt lat="34.32776820656898" lon="109.00326805983772">
        <ele>393.71244125440717</ele>
        <time>2022-03-22T23:35:02Z</time>
      </trkpt>
      <trkpt lat="34.32774735422874" lon="109.0033525619234">
        <ele>392.6104836463928</ele>
        <time>2022-03-22T23:35:04Z</time>
      </trkpt>
      <trkpt lat="34.32774540193535" lon="109.00380369541793">
        <ele>392.3773170625791</ele>
        <time>2022-03-22T23:35:14Z</time>
      </trkpt>
      <trkpt lat="34.327824888749525" lon="109.00419717900677">
        <ele>393.87712203525007</ele>
        <time>2022-03-22T23:35:22Z</time>
      </trkpt>
      <trkpt lat="34.32783377899183" lon="109.0043972520207">
        <ele>393.3286160407588</ele>
        <time>2022-03-22T23:35:26Z</time>
      </trkpt>
      <trkpt lat="34.32785493933573" lon="109.00448184011769">
        <ele>393.31467488221824</ele>
        <time>2022-03-22T23:35:28Z</time>
      </trkpt>
      <trkpt lat="34.327816249448865" lon="109.00460507706785">
        <ele>393.0925223492086</ele>
        <time>2022-03-22T23:35:32Z</time>
      </trkpt>
      <trkpt lat="34.327806324259186" lon="109.00486547446775">
        <ele>393.7273814789951</ele>
        <time>2022-03-22T23:35:38Z</time>
      </trkpt>
      <trkpt lat="34.327744988425366" lon="109.00525611046601">
        <ele>393.5938129965216</ele>
        <time>2022-03-22T23:35:50Z</time>
      </trkpt>
      <trkpt lat="34.32776036306687" lon="109.00548558720268">
        <ele>394.0078826760873</ele>
        <time>2022-03-22T23:35:56Z</time>
      </trkpt>
      <trkpt lat="34.327712635562335" lon="109.00588256524189">
        <ele>392.683204039</ele>
        <time>2022-03-22T23:36:04Z</time>
      </trkpt>
      <trkpt lat="34.32771523731598" lon="109.00617055835669">
        <ele>393.47811486478895</ele>
        <time>2022-03-22T23:36:12Z</time>
      </trkpt>
      <trkpt lat="34.32778208823764" lon="109.0064506805004">
        <ele>394.01915750373155</ele>
        <time>2022-03-22T23:36:18Z</time>
      </trkpt>
      <trkpt lat="34.32782593237888" lon="109.00653713302437">
        <ele>393.27981735020876</ele>
        <time>2022-03-22T23:36:28Z</time>
      </trkpt>
      <trkpt lat="34.327840426446194" lon="109.00683860300558">
        <ele>393.13194467127323</ele>
        <time>2022-03-22T23:37:05Z</time>
      </trkpt>
      <trkpt lat="34.32783128023184" lon="109.00722054745042">
        <ele>392.1049997350201</ele>
        <time>2022-03-22T23:37:13Z</time>
      </trkpt>
      <trkpt lat="34.32786344895444" lon="109.00742263996717">
        <ele>393.1530608944595</ele>
        <time>2022-03-22T23:37:17Z</time>
      </trkpt>
      <trkpt lat="34.327842380840856" lon="109.00764753752028">
        <ele>393.01132239867</ele>
        <time>2022-03-22T23:37:21Z</time>
      </trkpt>
      <trkpt lat="34.32783732442477" lon="109.00821269791886">
        <ele>392.9301399355754</ele>
        <time>2022-03-22T23:37:30Z</time>
      </trkpt>
      <trkpt lat="34.327859675228844" lon="109.00876626918595">
        <ele>392.66054213792086</ele>
        <time>2022-03-22T23:37:38Z</time>
      </trkpt>
      <trkpt lat="34.3278487293024" lon="109.00933736650057">
        <ele>391.11015936452895</ele>
        <time>2022-03-22T23:37:46Z</time>
      </trkpt>
      <trkpt lat="34.327846451753906" lon="109.00992799450225">
        <ele>387.50447500124574</ele>
        <time>2022-03-22T23:37:54Z</time>
      </trkpt>
      <trkpt lat="34.327852753366784" lon="109.01048107255963">
        <ele>386.37391716148704</ele>
        <time>2022-03-22T23:38:02Z</time>
      </trkpt>
      <trkpt lat="34.32782180733444" lon="109.01102701328304">
        <ele>383.85871449671686</ele>
        <time>2022-03-22T23:38:12Z</time>
      </trkpt>
      <trkpt lat="34.32782839913284" lon="109.01155514497204">
        <ele>385.34968407358974</ele>
        <time>2022-03-22T23:38:22Z</time>
      </trkpt>
      <trkpt lat="34.32783306915708" lon="109.01207574577872">
        <ele>384.37306443601847</ele>
        <time>2022-03-22T23:38:32Z</time>
      </trkpt>
      <trkpt lat="34.32784252154786" lon="109.01240628689067">
        <ele>385.6500474540517</ele>
        <time>2022-03-22T23:38:38Z</time>
      </trkpt>
      <trkpt lat="34.32783780392636" lon="109.01292802364685">
        <ele>387.2565941289067</ele>
        <time>2022-03-22T23:38:48Z</time>
      </trkpt>
      <trkpt lat="34.32783902947556" lon="109.01346452878694">
        <ele>386.92081138305366</ele>
        <time>2022-03-22T23:38:58Z</time>
      </trkpt>
      <trkpt lat="34.327856258771384" lon="109.01356539885647">
        <ele>388.99399611353874</ele>
        <time>2022-03-22T23:39:00Z</time>
      </trkpt>
      <trkpt lat="34.32786102881388" lon="109.01411952062037">
        <ele>387.3695607287809</ele>
        <time>2022-03-22T23:39:10Z</time>
      </trkpt>
      <trkpt lat="34.327880177699676" lon="109.01466059421172">
        <ele>389.09314373135567</ele>
        <time>2022-03-22T23:39:20Z</time>
      </trkpt>
      <trkpt lat="34.32789755398177" lon="109.01523757286978">
        <ele>387.83583444543183</ele>
        <time>2022-03-22T23:39:30Z</time>
      </trkpt>
      <trkpt lat="34.327865826455394" lon="109.01557371959274">
        <ele>387.0927375499159</ele>
        <time>2022-03-22T23:39:36Z</time>
      </trkpt>
      <trkpt lat="34.327835388122026" lon="109.01616683820316">
        <ele>386.2732307324186</ele>
        <time>2022-03-22T23:39:48Z</time>
      </trkpt>
      <trkpt lat="34.32778170047846" lon="109.01669362618522">
        <ele>385.27408402226865</ele>
        <time>2022-03-22T23:39:58Z</time>
      </trkpt>
      <trkpt lat="34.32777138553734" lon="109.01678751124892">
        <ele>386.61460974346846</ele>
        <time>2022-03-22T23:40:00Z</time>
      </trkpt>
      <trkpt lat="34.32763158677621" lon="109.01726833956498">
        <ele>386.85939587280154</ele>
        <time>2022-03-22T23:40:10Z</time>
      </trkpt>
      <trkpt lat="34.32757847839665" lon="109.0177898668499">
        <ele>389.08918882813305</ele>
        <time>2022-03-22T23:40:20Z</time>
      </trkpt>
      <trkpt lat="34.32761029959278" lon="109.01829337185227">
        <ele>387.7062200801447</ele>
        <time>2022-03-22T23:40:30Z</time>
      </trkpt>
      <trkpt lat="34.32756770275496" lon="109.01848928550322">
        <ele>389.27017853967845</ele>
        <time>2022-03-22T23:40:34Z</time>
      </trkpt>
      <trkpt lat="34.32728060653149" lon="109.01896249750703">
        <ele>388.8658341979608</ele>
        <time>2022-03-22T23:40:46Z</time>
      </trkpt>
      <trkpt lat="34.32699278745032" lon="109.01947341162155">
        <ele>389.84547912236303</ele>
        <time>2022-03-22T23:40:58Z</time>
      </trkpt>
      <trkpt lat="34.32689490433909" lon="109.0196398216872">
        <ele>392.03656054567546</ele>
        <time>2022-03-22T23:41:02Z</time>
      </trkpt>
      <trkpt lat="34.32682935987178" lon="109.01971918163113">
        <ele>388.9761192603037</ele>
        <time>2022-03-22T23:41:04Z</time>
      </trkpt>
      <trkpt lat="34.32666790129771" lon="109.01998306780784">
        <ele>390.905994146131</ele>
        <time>2022-03-22T23:41:10Z</time>
      </trkpt>
      <trkpt lat="34.326326883817444" lon="109.02036056456912">
        <ele>387.9154686583206</ele>
        <time>2022-03-22T23:41:20Z</time>
      </trkpt>
      <trkpt lat="34.32612630561002" lon="109.02056731290249">
        <ele>388.37623699195683</ele>
        <time>2022-03-22T23:41:26Z</time>
      </trkpt>
      <trkpt lat="34.325705488625445" lon="109.02090937531631">
        <ele>387.89109447039664</ele>
        <time>2022-03-22T23:41:38Z</time>
      </trkpt>
      <trkpt lat="34.325251805555936" lon="109.02118524775234">
        <ele>386.7597357695922</ele>
        <time>2022-03-22T23:41:50Z</time>
      </trkpt>
      <trkpt lat="34.32484637087514" lon="109.02138580784751">
        <ele>386.334712699987</ele>
        <time>2022-03-22T23:42:00Z</time>
      </trkpt>
      <trkpt lat="34.32441731363763" lon="109.02154702224777">
        <ele>386.17120776791126</ele>
        <time>2022-03-22T23:42:10Z</time>
      </trkpt>
      <trkpt lat="34.3239877047247" lon="109.02165713960413">
        <ele>386.0300027569756</ele>
        <time>2022-03-22T23:42:20Z</time>
      </trkpt>
      <trkpt lat="34.32355537472694" lon="109.02170428498489">
        <ele>389.8411253578961</ele>
        <time>2022-03-22T23:42:30Z</time>
      </trkpt>
      <trkpt lat="34.323038132403774" lon="109.02172758489743">
        <ele>390.3768563698977</ele>
        <time>2022-03-22T23:42:42Z</time>
      </trkpt>
      <trkpt lat="34.32260216183549" lon="109.02172580072815">
        <ele>389.3793836608529</ele>
        <time>2022-03-22T23:42:52Z</time>
      </trkpt>
      <trkpt lat="34.32217076168951" lon="109.02168931077271">
        <ele>388.00784566719085</ele>
        <time>2022-03-22T23:43:02Z</time>
      </trkpt>
      <trkpt lat="34.32172910582959" lon="109.021631785761">
        <ele>388.2604940701276</ele>
        <time>2022-03-22T23:43:12Z</time>
      </trkpt>
      <trkpt lat="34.32156230418707" lon="109.02161993144489">
        <ele>390.4006605092436</ele>
        <time>2022-03-22T23:43:16Z</time>
      </trkpt>
      <trkpt lat="34.32112064771678" lon="109.02155046024708">
        <ele>388.97171368822455</ele>
        <time>2022-03-22T23:43:26Z</time>
      </trkpt>
      <trkpt lat="34.32067262693241" lon="109.02148544536783">
        <ele>389.5412318026647</ele>
        <time>2022-03-22T23:43:36Z</time>
      </trkpt>
      <trkpt lat="34.32041335257679" lon="109.02147192605062">
        <ele>391.91579352039844</ele>
        <time>2022-03-22T23:43:42Z</time>
      </trkpt>
      <trkpt lat="34.319972307145875" lon="109.02139414132337">
        <ele>389.7595149995759</ele>
        <time>2022-03-22T23:43:52Z</time>
      </trkpt>
      <trkpt lat="34.319703793807896" lon="109.02136259566608">
        <ele>389.31662432756275</ele>
        <time>2022-03-22T23:43:58Z</time>
      </trkpt>
      <trkpt lat="34.3192559930331" lon="109.0213408785451">
        <ele>390.13538098335266</ele>
        <time>2022-03-22T23:44:08Z</time>
      </trkpt>
      <trkpt lat="34.31907510412611" lon="109.02137187696093">
        <ele>389.6509302901104</ele>
        <time>2022-03-22T23:44:12Z</time>
      </trkpt>
      <trkpt lat="34.31881481627645" lon="109.02138077818536">
        <ele>390.9795578997582</ele>
        <time>2022-03-22T23:44:18Z</time>
      </trkpt>
      <trkpt lat="34.31855861470129" lon="109.02137594580232">
        <ele>388.9244456477463</ele>
        <time>2022-03-22T23:44:24Z</time>
      </trkpt>
      <trkpt lat="34.318191920941494" lon="109.02143953697646">
        <ele>390.03096816223115</ele>
        <time>2022-03-22T23:44:32Z</time>
      </trkpt>
      <trkpt lat="34.31783713339772" lon="109.02148281681428">
        <ele>390.04981051478535</ele>
        <time>2022-03-22T23:44:40Z</time>
      </trkpt>
      <trkpt lat="34.3175923967028" lon="109.02148689994542">
        <ele>389.7198290489614</ele>
        <time>2022-03-22T23:44:46Z</time>
      </trkpt>
      <trkpt lat="34.317493428580015" lon="109.02151092698084">
        <ele>389.7817164808512</ele>
        <time>2022-03-22T23:44:48Z</time>
      </trkpt>
      <trkpt lat="34.31715239937166" lon="109.02153315135563">
        <ele>388.52256607543677</ele>
        <time>2022-03-22T23:44:56Z</time>
      </trkpt>
      <trkpt lat="34.31663011673307" lon="109.02163494981833">
        <ele>391.31061315443367</ele>
        <time>2022-03-22T23:45:08Z</time>
      </trkpt>
      <trkpt lat="34.31628323706133" lon="109.02173989416303">
        <ele>391.49106557667255</ele>
        <time>2022-03-22T23:45:16Z</time>
      </trkpt>
      <trkpt lat="34.31605303202056" lon="109.0218566168318">
        <ele>390.5761188212782</ele>
        <time>2022-03-22T23:45:24Z</time>
      </trkpt>
      <trkpt lat="34.31602764406397" lon="109.02199127627411">
        <ele>390.4665974751115</ele>
        <time>2022-03-22T23:45:28Z</time>
      </trkpt>
      <trkpt lat="34.315979578317105" lon="109.02211141557406">
        <ele>390.54467206355184</ele>
        <time>2022-03-22T23:45:32Z</time>
      </trkpt>
      <trkpt lat="34.315885329775" lon="109.02217567605135">
        <ele>389.83677691873163</ele>
        <time>2022-03-22T23:45:36Z</time>
      </trkpt>
      <trkpt lat="34.31585712964938" lon="109.02222072857818">
        <ele>390.0149211669341</ele>
        <time>2022-03-22T23:45:48Z</time>
      </trkpt>
      <trkpt lat="34.31573992736588" lon="109.02250025329924">
        <ele>390.1036777701229</ele>
        <time>2022-03-22T23:46:29Z</time>
      </trkpt>
      <trkpt lat="34.315768630213306" lon="109.02267840310797">
        <ele>388.32422540616244</ele>
        <time>2022-03-22T23:46:33Z</time>
      </trkpt>
      <trkpt lat="34.31605530779738" lon="109.02321764728698">
        <ele>387.5431166989729</ele>
        <time>2022-03-22T23:46:45Z</time>
      </trkpt>
      <trkpt lat="34.31620504500276" lon="109.02358208114023">
        <ele>388.00183328893036</ele>
        <time>2022-03-22T23:46:53Z</time>
      </trkpt>
      <trkpt lat="34.31622179969469" lon="109.02367427634576">
        <ele>387.9558981601149</ele>
        <time>2022-03-22T23:46:55Z</time>
      </trkpt>
      <trkpt lat="34.31594361227581" lon="109.02385629595953">
        <ele>388.9599215881899</ele>
        <time>2022-03-22T23:47:03Z</time>
      </trkpt>
      <trkpt lat="34.315712409778925" lon="109.02394196107777">
        <ele>388.8154982160777</ele>
        <time>2022-03-22T23:47:09Z</time>
      </trkpt>
      <trkpt lat="34.3154459217411" lon="109.02411361072332">
        <ele>389.5558325788006</ele>
        <time>2022-03-22T23:47:17Z</time>
      </trkpt>
      <trkpt lat="34.314969723653036" lon="109.02442910615939">
        <ele>386.980887808837</ele>
        <time>2022-03-22T23:47:31Z</time>
      </trkpt>
      <trkpt lat="34.31451225964579" lon="109.02476546537764">
        <ele>388.64619337115437</ele>
        <time>2022-03-22T23:47:45Z</time>
      </trkpt>
      <trkpt lat="34.314478003580184" lon="109.02485677749293">
        <ele>389.4777980139479</ele>
        <time>2022-03-22T23:47:47Z</time>
      </trkpt>
      <trkpt lat="34.314415032232496" lon="109.0249231598133">
        <ele>389.43015293683857</ele>
        <time>2022-03-22T23:47:49Z</time>
      </trkpt>
      <trkpt lat="34.31396907826619" lon="109.02520374673752">
        <ele>390.18406893406063</ele>
        <time>2022-03-22T23:48:00Z</time>
      </trkpt>
      <trkpt lat="34.313531842048256" lon="109.02540266626873">
        <ele>389.7605493357405</ele>
        <time>2022-03-22T23:48:10Z</time>
      </trkpt>
      <trkpt lat="34.31328033454103" lon="109.02552344583184">
        <ele>388.33232805971056</ele>
        <time>2022-03-22T23:48:16Z</time>
      </trkpt>
      <trkpt lat="34.31320758567233" lon="109.02558236805042">
        <ele>389.3739592973143</ele>
        <time>2022-03-22T23:48:18Z</time>
      </trkpt>
      <trkpt lat="34.31281520948208" lon="109.02582890179225">
        <ele>390.2776095243171</ele>
        <time>2022-03-22T23:48:28Z</time>
      </trkpt>
      <trkpt lat="34.31259030048443" lon="109.02599073673433">
        <ele>390.6093297172338</ele>
        <time>2022-03-22T23:48:34Z</time>
      </trkpt>
      <trkpt lat="34.312510449960655" lon="109.02602323859844">
        <ele>388.4959692610428</ele>
        <time>2022-03-22T23:48:36Z</time>
      </trkpt>
      <trkpt lat="34.31241471084049" lon="109.02610234723066">
        <ele>391.2041057664901</ele>
        <time>2022-03-22T23:48:40Z</time>
      </trkpt>
      <trkpt lat="34.31232460362497" lon="109.02628345695878">
        <ele>389.62440527416766</ele>
        <time>2022-03-22T23:48:44Z</time>
      </trkpt>
      <trkpt lat="34.312187703851066" lon="109.0263430852527">
        <ele>391.72081609163433</ele>
        <time>2022-03-22T23:48:46Z</time>
      </trkpt>
      <trkpt lat="34.3120734092777" lon="109.02642150210026">
        <ele>390.6483520977199</ele>
        <time>2022-03-22T23:48:48Z</time>
      </trkpt>
      <trkpt lat="34.31199780136163" lon="109.0264966969402">
        <ele>390.8096225913614</ele>
        <time>2022-03-22T23:48:50Z</time>
      </trkpt>
      <trkpt lat="34.311825449875855" lon="109.02660970077284">
        <ele>392.9265459086746</ele>
        <time>2022-03-22T23:48:54Z</time>
      </trkpt>
      <trkpt lat="34.31165069829959" lon="109.02682743862476">
        <ele>390.3629952156916</ele>
        <time>2022-03-22T23:49:00Z</time>
      </trkpt>
      <trkpt lat="34.31154263093156" lon="109.02706040853954">
        <ele>390.899971623905</ele>
        <time>2022-03-22T23:49:06Z</time>
      </trkpt>
      <trkpt lat="34.3114882411624" lon="109.02734077485037">
        <ele>392.6687527252361</ele>
        <time>2022-03-22T23:49:12Z</time>
      </trkpt>
      <trkpt lat="34.31147209505798" lon="109.02778059848309">
        <ele>392.29859358724207</ele>
        <time>2022-03-22T23:49:20Z</time>
      </trkpt>
      <trkpt lat="34.3114447018444" lon="109.02799578162818">
        <ele>392.09698138572276</ele>
        <time>2022-03-22T23:49:24Z</time>
      </trkpt>
      <trkpt lat="34.31136976505407" lon="109.0283136938588">
        <ele>392.322847452946</ele>
        <time>2022-03-22T23:49:30Z</time>
      </trkpt>
      <trkpt lat="34.311372327971995" lon="109.02842582186275">
        <ele>392.6668224968016</ele>
        <time>2022-03-22T23:49:32Z</time>
      </trkpt>
      <trkpt lat="34.31124106602189" lon="109.0287120750005">
        <ele>389.9404973080382</ele>
        <time>2022-03-22T23:49:38Z</time>
      </trkpt>
      <trkpt lat="34.31087953984891" lon="109.02911232988335">
        <ele>389.7071194713935</ele>
        <time>2022-03-22T23:49:48Z</time>
      </trkpt>
      <trkpt lat="34.310508443606864" lon="109.02943788061795">
        <ele>391.73710310831666</ele>
        <time>2022-03-22T23:49:58Z</time>
      </trkpt>
      <trkpt lat="34.31029383573395" lon="109.02965880531609">
        <ele>390.8297144304961</ele>
        <time>2022-03-22T23:50:04Z</time>
      </trkpt>
      <trkpt lat="34.31022130171325" lon="109.02970920551564">
        <ele>392.0794553840533</ele>
        <time>2022-03-22T23:50:06Z</time>
      </trkpt>
      <trkpt lat="34.310017572618186" lon="109.02989304208486">
        <ele>391.2981942035258</ele>
        <time>2022-03-22T23:50:12Z</time>
      </trkpt>
      <trkpt lat="34.309726738219695" lon="109.03009953896503">
        <ele>393.9369206940755</ele>
        <time>2022-03-22T23:50:20Z</time>
      </trkpt>
      <trkpt lat="34.30933249412095" lon="109.03029213422865">
        <ele>394.90032022818923</ele>
        <time>2022-03-22T23:50:30Z</time>
      </trkpt>
      <trkpt lat="34.30890180417672" lon="109.03044569481217">
        <ele>393.98974366951734</ele>
        <time>2022-03-22T23:50:40Z</time>
      </trkpt>
      <trkpt lat="34.30843982835612" lon="109.03056430407865">
        <ele>394.55007064156234</ele>
        <time>2022-03-22T23:50:50Z</time>
      </trkpt>
      <trkpt lat="34.30834294409015" lon="109.03057451477632">
        <ele>394.2183266002685</ele>
        <time>2022-03-22T23:50:52Z</time>
      </trkpt>
      <trkpt lat="34.30786394277224" lon="109.03062485223681">
        <ele>393.4043966922909</ele>
        <time>2022-03-22T23:51:02Z</time>
      </trkpt>
      <trkpt lat="34.30748685024547" lon="109.03066101155417">
        <ele>396.2959856763482</ele>
        <time>2022-03-22T23:51:10Z</time>
      </trkpt>
      <trkpt lat="34.307003252113475" lon="109.03073210487659">
        <ele>392.31569860875607</ele>
        <time>2022-03-22T23:51:20Z</time>
      </trkpt>
      <trkpt lat="34.306808467952976" lon="109.03072334416679">
        <ele>391.9314698735252</ele>
        <time>2022-03-22T23:51:24Z</time>
      </trkpt>
      <trkpt lat="34.30637354767783" lon="109.03076136812395">
        <ele>391.3016310967505</ele>
        <time>2022-03-22T23:51:34Z</time>
      </trkpt>
      <trkpt lat="34.3061413314115" lon="109.03079365404643">
        <ele>391.64693321753293</ele>
        <time>2022-03-22T23:51:42Z</time>
      </trkpt>
      <trkpt lat="34.30614037738521" lon="109.03089510190513">
        <ele>390.36455099564046</ele>
        <time>2022-03-22T23:51:46Z</time>
      </trkpt>
      <trkpt lat="34.30625705757964" lon="109.03112046804648">
        <ele>389.5075629185885</ele>
        <time>2022-03-22T23:51:52Z</time>
      </trkpt>
      <trkpt lat="34.30627631444142" lon="109.03120916159071">
        <ele>389.9681450333446</ele>
        <time>2022-03-22T23:51:54Z</time>
      </trkpt>
      <trkpt lat="34.30630539352506" lon="109.03173608626697">
        <ele>389.5055431909859</ele>
        <time>2022-03-22T23:52:04Z</time>
      </trkpt>
      <trkpt lat="34.30633792291288" lon="109.03207993221686">
        <ele>390.92287436965853</ele>
        <time>2022-03-22T23:52:10Z</time>
      </trkpt>
      <trkpt lat="34.30633654362987" lon="109.03229800612614">
        <ele>391.6767296027392</ele>
        <time>2022-03-22T23:52:14Z</time>
      </trkpt>
      <trkpt lat="34.30639458646236" lon="109.03285314400509">
        <ele>391.9816276412457</ele>
        <time>2022-03-22T23:52:24Z</time>
      </trkpt>
      <trkpt lat="34.30647322903673" lon="109.03341754043576">
        <ele>391.88662589900196</ele>
        <time>2022-03-22T23:52:34Z</time>
      </trkpt>
      <trkpt lat="34.306493950232586" lon="109.03395758443135">
        <ele>389.7561981426552</ele>
        <time>2022-03-22T23:52:44Z</time>
      </trkpt>
      <trkpt lat="34.3065411270728" lon="109.03453179358861">
        <ele>390.9964602831751</ele>
        <time>2022-03-22T23:52:54Z</time>
      </trkpt>
      <trkpt lat="34.30656103801002" lon="109.03464491344553">
        <ele>391.52326073125005</ele>
        <time>2022-03-22T23:52:56Z</time>
      </trkpt>
      <trkpt lat="34.3065888136126" lon="109.0352261950727">
        <ele>390.9428853979334</ele>
        <time>2022-03-22T23:53:06Z</time>
      </trkpt>
      <trkpt lat="34.306619839383885" lon="109.03569163825506">
        <ele>391.263310527429</ele>
        <time>2022-03-22T23:53:14Z</time>
      </trkpt>
      <trkpt lat="34.306657766001585" lon="109.03620749085461">
        <ele>391.2347940579057</ele>
        <time>2022-03-22T23:53:24Z</time>
      </trkpt>
      <trkpt lat="34.306638135488576" lon="109.0363451710483">
        <ele>391.30117762461305</ele>
        <time>2022-03-22T23:53:28Z</time>
      </trkpt>
      <trkpt lat="34.30658120162133" lon="109.03642202549935">
        <ele>391.63565460126847</ele>
        <time>2022-03-22T23:53:40Z</time>
      </trkpt>
      <trkpt lat="34.3065990269846" lon="109.03651395834056">
        <ele>391.9328380813822</ele>
        <time>2022-03-22T23:53:48Z</time>
      </trkpt>
      <trkpt lat="34.30659621284493" lon="109.0366195521759">
        <ele>391.42603267449886</ele>
        <time>2022-03-22T23:53:56Z</time>
      </trkpt>
      <trkpt lat="34.30662867900035" lon="109.03682093526155">
        <ele>391.97746752016246</ele>
        <time>2022-03-22T23:54:10Z</time>
      </trkpt>
      <trkpt lat="34.30663192506531" lon="109.03693863279197">
        <ele>392.8086281660944</ele>
        <time>2022-03-22T23:54:20Z</time>
      </trkpt>
      <trkpt lat="34.30656726015371" lon="109.03703736150581">
        <ele>392.0048422832042</ele>
        <time>2022-03-22T23:54:36Z</time>
      </trkpt>
      <trkpt lat="34.306423715722445" lon="109.03710438269617">
        <ele>391.77565966546535</ele>
        <time>2022-03-22T23:54:57Z</time>
      </trkpt>
      <trkpt lat="34.30642192889063" lon="109.0371280123521">
        <ele>391.6253189453855</ele>
        <time>2022-03-22T23:55:11Z</time>
      </trkpt>
    </trkseg>
  </trk>
</gpx>