<?xml version="1.0" encoding="UTF-8"?>
<gpx xmlns="http://www.topografix.com/GPX/1/1" xmlns:gpxtpx="http://www.garmin.com/xmlschemas/TrackPointExtension/v1" xmlns:xsi="http://www.w3.org/2001/XMLSchema-instance" xsi:schemaLocation="http://www.topografix.com/GPX/1/1 http://www.topografix.com/GPX/1/1/gpx.xsd" version="1.1" creator="gpx.py -- https://github.com/tkrajina/gpxpy">
  <trk>
    <name>gpx from keep</name>
    <type>Ride</type>
    <trkseg>
      <trkpt lat="34.27833385611242" lon="108.95985572910502">
        <ele>442.79515834432095</ele>
        <time>2022-04-04T09:07:24Z</time>
      </trkpt>
      <trkpt lat="34.27846883686146" lon="108.95989879435777">
        <ele>413.8801807081327</ele>
        <time>2022-04-04T09:07:31Z</time>
      </trkpt>
      <trkpt lat="34.27845123776806" lon="108.95981041565224">
        <ele>415.3091108677909</ele>
        <time>2022-04-04T09:08:05Z</time>
      </trkpt>
      <trkpt lat="34.27838854146316" lon="108.95986353774936">
        <ele>412.80655655637383</ele>
        <time>2022-04-04T09:08:54Z</time>
      </trkpt>
      <trkpt lat="34.2784294862664" lon="108.96001457398489">
        <ele>412.435552675277</ele>
        <time>2022-04-04T09:08:57Z</time>
      </trkpt>
      <trkpt lat="34.27846103374572" lon="108.96037846620048">
        <ele>410.5985229583457</ele>
        <time>2022-04-04T09:09:03Z</time>
      </trkpt>
      <trkpt lat="34.278398851781496" lon="108.96045350406904">
        <ele>410.2825699010864</ele>
        <time>2022-04-04T09:09:05Z</time>
      </trkpt>
      <trkpt lat="34.27829346785376" lon="108.96045791039167">
        <ele>409.5876531954855</ele>
        <time>2022-04-04T09:09:07Z</time>
      </trkpt>
      <trkpt lat="34.27819645035888" lon="108.96053928133668">
        <ele>407.7666800310835</ele>
        <time>2022-04-04T09:09:09Z</time>
      </trkpt>
      <trkpt lat="34.27813710311818" lon="108.96047140900177">
        <ele>406.90656901709735</ele>
        <time>2022-04-04T09:09:10Z</time>
      </trkpt>
      <trkpt lat="34.277869588252805" lon="108.96046553405817">
        <ele>404.9111881479621</ele>
        <time>2022-04-04T09:09:17Z</time>
      </trkpt>
      <trkpt lat="34.27774979067515" lon="108.96049440510421">
        <ele>404.4921247269958</ele>
        <time>2022-04-04T09:09:21Z</time>
      </trkpt>
      <trkpt lat="34.27758050656302" lon="108.9604858104219">
        <ele>404.1797495596111</ele>
        <time>2022-04-04T09:09:33Z</time>
      </trkpt>
      <trkpt lat="34.27756031123114" lon="108.96046822699584">
        <ele>405.432151183486</ele>
        <time>2022-04-04T09:09:41Z</time>
      </trkpt>
      <trkpt lat="34.277468732803655" lon="108.96054205977462">
        <ele>406.64119189605117</ele>
        <time>2022-04-04T09:10:16Z</time>
      </trkpt>
      <trkpt lat="34.27746902313681" lon="108.96064045790436">
        <ele>405.14878013171256</ele>
        <time>2022-04-04T09:10:23Z</time>
      </trkpt>
      <trkpt lat="34.277547175690536" lon="108.96066901831557">
        <ele>404.4110324671492</ele>
        <time>2022-04-04T09:10:29Z</time>
      </trkpt>
      <trkpt lat="34.27790609042607" lon="108.96067691505478">
        <ele>402.9524255776778</ele>
        <time>2022-04-04T09:10:40Z</time>
      </trkpt>
      <trkpt lat="34.27799088319186" lon="108.9606588665573">
        <ele>401.8051149388775</ele>
        <time>2022-04-04T09:10:42Z</time>
      </trkpt>
      <trkpt lat="34.27808706861092" lon="108.96070401954117">
        <ele>400.4767052978277</ele>
        <time>2022-04-04T09:10:45Z</time>
      </trkpt>
      <trkpt lat="34.27810725844324" lon="108.96130550294886">
        <ele>396.7971501983702</ele>
        <time>2022-04-04T09:10:55Z</time>
      </trkpt>
      <trkpt lat="34.27811667374461" lon="108.96190901637708">
        <ele>394.9787869444117</ele>
        <time>2022-04-04T09:11:03Z</time>
      </trkpt>
      <trkpt lat="34.27811683257834" lon="108.96219650897841">
        <ele>394.3818820826709</ele>
        <time>2022-04-04T09:11:07Z</time>
      </trkpt>
      <trkpt lat="34.278130455926245" lon="108.96232081913796">
        <ele>394.9020187733695</ele>
        <time>2022-04-04T09:11:09Z</time>
      </trkpt>
      <trkpt lat="34.27831171910685" lon="108.96282723489807">
        <ele>394.0145652042702</ele>
        <time>2022-04-04T09:11:16Z</time>
      </trkpt>
      <trkpt lat="34.27836036236962" lon="108.96329370194022">
        <ele>394.52311039622873</ele>
        <time>2022-04-04T09:11:22Z</time>
      </trkpt>
      <trkpt lat="34.27844980834886" lon="108.96382202400085">
        <ele>395.94715593010187</ele>
        <time>2022-04-04T09:11:29Z</time>
      </trkpt>
      <trkpt lat="34.27852196062492" lon="108.96438033639902">
        <ele>396.17247138451785</ele>
        <time>2022-04-04T09:11:37Z</time>
      </trkpt>
      <trkpt lat="34.278587206539996" lon="108.96502985992164">
        <ele>396.06425995379686</ele>
        <time>2022-04-04T09:11:47Z</time>
      </trkpt>
      <trkpt lat="34.27862058012437" lon="108.96542697751592">
        <ele>396.3506339257583</ele>
        <time>2022-04-04T09:11:53Z</time>
      </trkpt>
      <trkpt lat="34.278634613847856" lon="108.96597777065557">
        <ele>396.3238033223897</ele>
        <time>2022-04-04T09:12:01Z</time>
      </trkpt>
      <trkpt lat="34.278651438991055" lon="108.96653779278958">
        <ele>397.3904616367072</ele>
        <time>2022-04-04T09:12:09Z</time>
      </trkpt>
      <trkpt lat="34.278657713285824" lon="108.96690074421635">
        <ele>398.0690824324265</ele>
        <time>2022-04-04T09:12:15Z</time>
      </trkpt>
      <trkpt lat="34.2786823938141" lon="108.9672277578447">
        <ele>399.0697800377384</ele>
        <time>2022-04-04T09:12:21Z</time>
      </trkpt>
      <trkpt lat="34.27866586175398" lon="108.96734215891937">
        <ele>399.3884300291538</ele>
        <time>2022-04-04T09:12:23Z</time>
      </trkpt>
      <trkpt lat="34.27878831788368" lon="108.96814251970092">
        <ele>399.8466849178076</ele>
        <time>2022-04-04T09:12:37Z</time>
      </trkpt>
      <trkpt lat="34.27870424110178" lon="108.96827031911238">
        <ele>399.65959644317627</ele>
        <time>2022-04-04T09:12:39Z</time>
      </trkpt>
      <trkpt lat="34.27870424110178" lon="108.96827031911238">
        <ele>399.65959644317627</ele>
        <time>2022-04-04T09:12:45Z</time>
      </trkpt>
      <trkpt lat="34.278947871386734" lon="108.96818716850095">
        <ele>402.78470049984753</ele>
        <time>2022-04-04T09:13:26Z</time>
      </trkpt>
      <trkpt lat="34.279048615160754" lon="108.96808778867812">
        <ele>403.22325310856104</ele>
        <time>2022-04-04T09:13:30Z</time>
      </trkpt>
      <trkpt lat="34.2790738270868" lon="108.96800337736754">
        <ele>405.14451647829264</ele>
        <time>2022-04-04T09:13:37Z</time>
      </trkpt>
      <trkpt lat="34.279337860146676" lon="108.96792748296609">
        <ele>407.54970662947744</ele>
        <time>2022-04-04T09:13:51Z</time>
      </trkpt>
      <trkpt lat="34.27978612215985" lon="108.96789196812354">
        <ele>409.16508821211755</ele>
        <time>2022-04-04T09:14:01Z</time>
      </trkpt>
      <trkpt lat="34.280102990941735" lon="108.96784723822022">
        <ele>413.62081501819193</ele>
        <time>2022-04-04T09:14:07Z</time>
      </trkpt>
      <trkpt lat="34.28055182922712" lon="108.96784085534965">
        <ele>413.65840993914753</ele>
        <time>2022-04-04T09:14:15Z</time>
      </trkpt>
      <trkpt lat="34.280992196462705" lon="108.96781015323145">
        <ele>414.3472431432456</ele>
        <time>2022-04-04T09:14:23Z</time>
      </trkpt>
      <trkpt lat="34.281236234939136" lon="108.96778835097206">
        <ele>413.58113497216254</ele>
        <time>2022-04-04T09:14:27Z</time>
      </trkpt>
      <trkpt lat="34.281380427664516" lon="108.96779698397856">
        <ele>411.82272809464484</ele>
        <time>2022-04-04T09:14:29Z</time>
      </trkpt>
      <trkpt lat="34.28152658812901" lon="108.96778008258129">
        <ele>412.28335431125015</ele>
        <time>2022-04-04T09:14:31Z</time>
      </trkpt>
      <trkpt lat="34.281689674959544" lon="108.96779543622382">
        <ele>410.4068515896797</ele>
        <time>2022-04-04T09:14:33Z</time>
      </trkpt>
      <trkpt lat="34.28214019386126" lon="108.96769532307512">
        <ele>412.099243061617</ele>
        <time>2022-04-04T09:14:39Z</time>
      </trkpt>
      <trkpt lat="34.28243241560217" lon="108.96760031093356">
        <ele>409.8083996074274</ele>
        <time>2022-04-04T09:14:45Z</time>
      </trkpt>
      <trkpt lat="34.2828040402995" lon="108.9673419583016">
        <ele>405.55749742873013</ele>
        <time>2022-04-04T09:14:53Z</time>
      </trkpt>
      <trkpt lat="34.28300886754564" lon="108.96716275622298">
        <ele>404.6613655500114</ele>
        <time>2022-04-04T09:14:57Z</time>
      </trkpt>
      <trkpt lat="34.2832972920129" lon="108.96704232797802">
        <ele>403.6405793959275</ele>
        <time>2022-04-04T09:15:03Z</time>
      </trkpt>
      <trkpt lat="34.28360438838539" lon="108.96687003995262">
        <ele>403.0134188346565</ele>
        <time>2022-04-04T09:15:09Z</time>
      </trkpt>
      <trkpt lat="34.28373154471138" lon="108.96685921357034">
        <ele>402.5010805130005</ele>
        <time>2022-04-04T09:15:11Z</time>
      </trkpt>
      <trkpt lat="34.283953536993685" lon="108.96677824251147">
        <ele>404.47627982031554</ele>
        <time>2022-04-04T09:15:15Z</time>
      </trkpt>
      <trkpt lat="34.284083860631554" lon="108.96676162306521">
        <ele>404.76813599281013</ele>
        <time>2022-04-04T09:15:17Z</time>
      </trkpt>
      <trkpt lat="34.2846402286423" lon="108.96679955273483">
        <ele>406.40669059287757</ele>
        <time>2022-04-04T09:15:25Z</time>
      </trkpt>
      <trkpt lat="34.28505502898216" lon="108.9667455083027">
        <ele>409.2990035060793</ele>
        <time>2022-04-04T09:15:31Z</time>
      </trkpt>
      <trkpt lat="34.28519439913917" lon="108.96675870614497">
        <ele>409.712158289738</ele>
        <time>2022-04-04T09:15:33Z</time>
      </trkpt>
      <trkpt lat="34.28531079275787" lon="108.96674558011978">
        <ele>409.45593026001006</ele>
        <time>2022-04-04T09:15:35Z</time>
      </trkpt>
      <trkpt lat="34.28558683724694" lon="108.96679418543563">
        <ele>409.5595429074019</ele>
        <time>2022-04-04T09:15:39Z</time>
      </trkpt>
      <trkpt lat="34.28572618308895" lon="108.96684158383151">
        <ele>409.5791992871091</ele>
        <time>2022-04-04T09:15:41Z</time>
      </trkpt>
      <trkpt lat="34.28581797894477" lon="108.96679534437686">
        <ele>410.48553153686225</ele>
        <time>2022-04-04T09:15:43Z</time>
      </trkpt>
      <trkpt lat="34.28594385119666" lon="108.96677097936745">
        <ele>410.05940597783774</ele>
        <time>2022-04-04T09:15:45Z</time>
      </trkpt>
      <trkpt lat="34.28609333707086" lon="108.96678356977665">
        <ele>409.1692516449839</ele>
        <time>2022-04-04T09:15:47Z</time>
      </trkpt>
      <trkpt lat="34.286234426268436" lon="108.96676754835764">
        <ele>408.7153221089393</ele>
        <time>2022-04-04T09:15:49Z</time>
      </trkpt>
      <trkpt lat="34.28671254441478" lon="108.96682566309546">
        <ele>408.3935576416552</ele>
        <time>2022-04-04T09:15:59Z</time>
      </trkpt>
      <trkpt lat="34.287178626116834" lon="108.96685057414066">
        <ele>407.67338164523244</ele>
        <time>2022-04-04T09:16:09Z</time>
      </trkpt>
      <trkpt lat="34.287451497644895" lon="108.9668291028411">
        <ele>408.50066585093737</ele>
        <time>2022-04-04T09:16:15Z</time>
      </trkpt>
      <trkpt lat="34.28756566079586" lon="108.96684761619905">
        <ele>408.2216366501525</ele>
        <time>2022-04-04T09:16:17Z</time>
      </trkpt>
      <trkpt lat="34.28766004782083" lon="108.96683468371175">
        <ele>408.41283561009914</ele>
        <time>2022-04-04T09:16:19Z</time>
      </trkpt>
      <trkpt lat="34.287732677970425" lon="108.96684408152828">
        <ele>408.1204834925011</ele>
        <time>2022-04-04T09:16:21Z</time>
      </trkpt>
      <trkpt lat="34.28782019884422" lon="108.9668866932208">
        <ele>408.1583233354613</ele>
        <time>2022-04-04T09:16:25Z</time>
      </trkpt>
      <trkpt lat="34.287846721033354" lon="108.96697295108001">
        <ele>401.5046334899962</ele>
        <time>2022-04-04T09:16:33Z</time>
      </trkpt>
      <trkpt lat="34.287978095107434" lon="108.96695961817396">
        <ele>398.9517043456435</ele>
        <time>2022-04-04T09:16:48Z</time>
      </trkpt>
      <trkpt lat="34.288053682625105" lon="108.96696780660527">
        <ele>399.11821688711643</ele>
        <time>2022-04-04T09:16:50Z</time>
      </trkpt>
      <trkpt lat="34.28825304007399" lon="108.96690905575451">
        <ele>399.21333627495915</ele>
        <time>2022-04-04T09:16:54Z</time>
      </trkpt>
      <trkpt lat="34.288755795478906" lon="108.96691399860921">
        <ele>401.2172054061666</ele>
        <time>2022-04-04T09:17:02Z</time>
      </trkpt>
      <trkpt lat="34.28891403745162" lon="108.96692539918836">
        <ele>401.48723124247044</ele>
        <time>2022-04-04T09:17:04Z</time>
      </trkpt>
      <trkpt lat="34.2891624574688" lon="108.9668727418636">
        <ele>403.53493213653564</ele>
        <time>2022-04-04T09:17:08Z</time>
      </trkpt>
      <trkpt lat="34.289611503113186" lon="108.9668778825439">
        <ele>403.9976919153705</ele>
        <time>2022-04-04T09:17:14Z</time>
      </trkpt>
      <trkpt lat="34.28992614981601" lon="108.96684521923376">
        <ele>405.81363478675485</ele>
        <time>2022-04-04T09:17:18Z</time>
      </trkpt>
      <trkpt lat="34.290425349858396" lon="108.96685548308572">
        <ele>406.4793343693018</ele>
        <time>2022-04-04T09:17:24Z</time>
      </trkpt>
      <trkpt lat="34.290566686966656" lon="108.9668365204145">
        <ele>405.54647266399115</ele>
        <time>2022-04-04T09:17:26Z</time>
      </trkpt>
      <trkpt lat="34.29111053926007" lon="108.96684793230216">
        <ele>405.6524717863649</ele>
        <time>2022-04-04T09:17:34Z</time>
      </trkpt>
      <trkpt lat="34.29166469707212" lon="108.96686773519762">
        <ele>407.90766520798206</ele>
        <time>2022-04-04T09:17:42Z</time>
      </trkpt>
      <trkpt lat="34.291837999884706" lon="108.96686126938776">
        <ele>408.72675974015146</ele>
        <time>2022-04-04T09:17:45Z</time>
      </trkpt>
      <trkpt lat="34.29196701266444" lon="108.96683008919878">
        <ele>408.88620690908283</ele>
        <time>2022-04-04T09:17:47Z</time>
      </trkpt>
      <trkpt lat="34.29240464116571" lon="108.966819187871">
        <ele>410.0219280961901</ele>
        <time>2022-04-04T09:17:53Z</time>
      </trkpt>
      <trkpt lat="34.29285635634267" lon="108.9668049307216">
        <ele>411.67430886719376</ele>
        <time>2022-04-04T09:17:59Z</time>
      </trkpt>
      <trkpt lat="34.29327722650035" lon="108.96680645371542">
        <ele>413.0727587779984</ele>
        <time>2022-04-04T09:18:05Z</time>
      </trkpt>
      <trkpt lat="34.29339805791824" lon="108.96678983357437">
        <ele>412.6826939666644</ele>
        <time>2022-04-04T09:18:07Z</time>
      </trkpt>
      <trkpt lat="34.29384371639518" lon="108.96680252361267">
        <ele>412.82998097129166</ele>
        <time>2022-04-04T09:18:13Z</time>
      </trkpt>
      <trkpt lat="34.29432349461056" lon="108.96681269964058">
        <ele>412.1180834695697</ele>
        <time>2022-04-04T09:18:19Z</time>
      </trkpt>
      <trkpt lat="34.29477025877749" lon="108.96684032919973">
        <ele>411.01097869314253</ele>
        <time>2022-04-04T09:18:25Z</time>
      </trkpt>
      <trkpt lat="34.295179895530815" lon="108.96683834926606">
        <ele>410.4844932863489</ele>
        <time>2022-04-04T09:18:31Z</time>
      </trkpt>
      <trkpt lat="34.29527504762056" lon="108.9668145668794">
        <ele>410.9397981017828</ele>
        <time>2022-04-04T09:18:33Z</time>
      </trkpt>
      <trkpt lat="34.29559867021974" lon="108.96680836010205">
        <ele>410.1427387762815</ele>
        <time>2022-04-04T09:18:39Z</time>
      </trkpt>
      <trkpt lat="34.29597814921958" lon="108.96676872554059">
        <ele>410.9760540742427</ele>
        <time>2022-04-04T09:18:47Z</time>
      </trkpt>
      <trkpt lat="34.29643848001585" lon="108.96681716166322">
        <ele>409.5058721611276</ele>
        <time>2022-04-04T09:18:53Z</time>
      </trkpt>
      <trkpt lat="34.29675360718922" lon="108.96681177077761">
        <ele>409.4759505512193</ele>
        <time>2022-04-04T09:18:57Z</time>
      </trkpt>
      <trkpt lat="34.29704404249775" lon="108.96683001693248">
        <ele>408.9702862938866</ele>
        <time>2022-04-04T09:19:01Z</time>
      </trkpt>
      <trkpt lat="34.29744131655187" lon="108.9667953549696">
        <ele>406.8516267007217</ele>
        <time>2022-04-04T09:19:07Z</time>
      </trkpt>
      <trkpt lat="34.297974385424375" lon="108.96682821329148">
        <ele>406.09442946780473</ele>
        <time>2022-04-04T09:19:15Z</time>
      </trkpt>
      <trkpt lat="34.29850479792313" lon="108.96685420485584">
        <ele>405.8760535698384</ele>
        <time>2022-04-04T09:19:23Z</time>
      </trkpt>
      <trkpt lat="34.29893700361518" lon="108.96684414170208">
        <ele>405.7958509977907</ele>
        <time>2022-04-04T09:19:29Z</time>
      </trkpt>
      <trkpt lat="34.299249428570214" lon="108.96687757385762">
        <ele>404.3284351909533</ele>
        <time>2022-04-04T09:19:33Z</time>
      </trkpt>
      <trkpt lat="34.29973111070287" lon="108.96685284134433">
        <ele>404.06607976183295</ele>
        <time>2022-04-04T09:19:39Z</time>
      </trkpt>
      <trkpt lat="34.29989141828283" lon="108.96684564919573">
        <ele>404.18768900074065</ele>
        <time>2022-04-04T09:19:41Z</time>
      </trkpt>
      <trkpt lat="34.30006388641845" lon="108.96686521332813">
        <ele>403.6578396614641</ele>
        <time>2022-04-04T09:19:43Z</time>
      </trkpt>
      <trkpt lat="34.300521685045325" lon="108.96686036128786">
        <ele>404.25004416611046</ele>
        <time>2022-04-04T09:19:49Z</time>
      </trkpt>
      <trkpt lat="34.30098890645068" lon="108.96686196258807">
        <ele>403.8045134153217</ele>
        <time>2022-04-04T09:19:55Z</time>
      </trkpt>
      <trkpt lat="34.301454657511556" lon="108.96686311780756">
        <ele>403.28437149338424</ele>
        <time>2022-04-04T09:20:01Z</time>
      </trkpt>
      <trkpt lat="34.30175451488506" lon="108.96682614326382">
        <ele>403.0270880414173</ele>
        <time>2022-04-04T09:20:05Z</time>
      </trkpt>
      <trkpt lat="34.30204229999421" lon="108.96685255462914">
        <ele>403.00950941070914</ele>
        <time>2022-04-04T09:20:09Z</time>
      </trkpt>
      <trkpt lat="34.30216430833927" lon="108.96682196197469">
        <ele>404.6031290804967</ele>
        <time>2022-04-04T09:20:11Z</time>
      </trkpt>
      <trkpt lat="34.30257589944936" lon="108.96680066588459">
        <ele>405.32703642640263</ele>
        <time>2022-04-04T09:20:17Z</time>
      </trkpt>
      <trkpt lat="34.30271091835425" lon="108.96674573897972">
        <ele>405.66275525372475</ele>
        <time>2022-04-04T09:20:19Z</time>
      </trkpt>
      <trkpt lat="34.30295810802575" lon="108.96679919329588">
        <ele>402.79955500364304</ele>
        <time>2022-04-04T09:20:23Z</time>
      </trkpt>
      <trkpt lat="34.30311975731205" lon="108.96683416635726">
        <ele>402.6009550560266</ele>
        <time>2022-04-04T09:20:25Z</time>
      </trkpt>
      <trkpt lat="34.30359929661986" lon="108.96682454436232">
        <ele>401.511150916107</ele>
        <time>2022-04-04T09:20:31Z</time>
      </trkpt>
      <trkpt lat="34.30407977528729" lon="108.96680452515639">
        <ele>403.49553421046585</ele>
        <time>2022-04-04T09:20:37Z</time>
      </trkpt>
      <trkpt lat="34.304617770848445" lon="108.96683794956874">
        <ele>402.84753271751106</ele>
        <time>2022-04-04T09:20:43Z</time>
      </trkpt>
      <trkpt lat="34.30477838540605" lon="108.96684026411302">
        <ele>402.3190760137513</ele>
        <time>2022-04-04T09:20:45Z</time>
      </trkpt>
      <trkpt lat="34.3049219279344" lon="108.96681902776213">
        <ele>401.89296716917306</ele>
        <time>2022-04-04T09:20:47Z</time>
      </trkpt>
      <trkpt lat="34.30522666246989" lon="108.96680614812672">
        <ele>403.0702980775386</ele>
        <time>2022-04-04T09:20:51Z</time>
      </trkpt>
      <trkpt lat="34.305677245602304" lon="108.96682087964896">
        <ele>401.34707333520055</ele>
        <time>2022-04-04T09:20:57Z</time>
      </trkpt>
      <trkpt lat="34.30612392420599" lon="108.96681468280308">
        <ele>399.91389731131494</ele>
        <time>2022-04-04T09:21:03Z</time>
      </trkpt>
      <trkpt lat="34.306586777441716" lon="108.96681959581385">
        <ele>399.4069954501465</ele>
        <time>2022-04-04T09:21:09Z</time>
      </trkpt>
      <trkpt lat="34.30714031098417" lon="108.9668378515675">
        <ele>398.5498588150367</ele>
        <time>2022-04-04T09:21:17Z</time>
      </trkpt>
      <trkpt lat="34.30758351239165" lon="108.96685083776613">
        <ele>397.9097941387445</ele>
        <time>2022-04-04T09:21:23Z</time>
      </trkpt>
      <trkpt lat="34.30803855590114" lon="108.96685007585475">
        <ele>397.590937724337</ele>
        <time>2022-04-04T09:21:29Z</time>
      </trkpt>
      <trkpt lat="34.3085597416909" lon="108.96682495934401">
        <ele>399.2643761597574</ele>
        <time>2022-04-04T09:21:37Z</time>
      </trkpt>
      <trkpt lat="34.309015159687895" lon="108.96681275962206">
        <ele>400.6535905338824</ele>
        <time>2022-04-04T09:21:43Z</time>
      </trkpt>
      <trkpt lat="34.30956545433924" lon="108.96683831627264">
        <ele>401.862436410971</ele>
        <time>2022-04-04T09:21:49Z</time>
      </trkpt>
      <trkpt lat="34.31011398003892" lon="108.96684959676071">
        <ele>401.45684055704623</ele>
        <time>2022-04-04T09:21:55Z</time>
      </trkpt>
      <trkpt lat="34.310600800558326" lon="108.96684182718325">
        <ele>401.5320317354053</ele>
        <time>2022-04-04T09:22:01Z</time>
      </trkpt>
      <trkpt lat="34.311066407542306" lon="108.96684317930168">
        <ele>400.5217667520046</ele>
        <time>2022-04-04T09:22:07Z</time>
      </trkpt>
      <trkpt lat="34.311508627784846" lon="108.96684410951042">
        <ele>399.0408895732835</ele>
        <time>2022-04-04T09:22:13Z</time>
      </trkpt>
      <trkpt lat="34.31163178879817" lon="108.96681640209813">
        <ele>398.7951103504747</ele>
        <time>2022-04-04T09:22:15Z</time>
      </trkpt>
      <trkpt lat="34.3117602789545" lon="108.9668123846741">
        <ele>399.1749212341383</ele>
        <time>2022-04-04T09:22:17Z</time>
      </trkpt>
      <trkpt lat="34.31232218813178" lon="108.96685184351517">
        <ele>397.8738485975191</ele>
        <time>2022-04-04T09:22:23Z</time>
      </trkpt>
      <trkpt lat="34.31281457922261" lon="108.96686120940066">
        <ele>396.98134604934603</ele>
        <time>2022-04-04T09:22:29Z</time>
      </trkpt>
      <trkpt lat="34.31329582559678" lon="108.96684352980935">
        <ele>399.314291652292</ele>
        <time>2022-04-04T09:22:35Z</time>
      </trkpt>
      <trkpt lat="34.31345520131917" lon="108.96683048393558">
        <ele>400.14533764868975</ele>
        <time>2022-04-04T09:22:37Z</time>
      </trkpt>
      <trkpt lat="34.313929496456446" lon="108.96685487887875">
        <ele>400.97801692131907</ele>
        <time>2022-04-04T09:22:43Z</time>
      </trkpt>
      <trkpt lat="34.314239313597575" lon="108.96682692165531">
        <ele>401.92669272236526</ele>
        <time>2022-04-04T09:22:47Z</time>
      </trkpt>
      <trkpt lat="34.314698925405985" lon="108.96687143551708">
        <ele>402.8819606369361</ele>
        <time>2022-04-04T09:22:53Z</time>
      </trkpt>
      <trkpt lat="34.31516831872457" lon="108.96685853428791">
        <ele>401.997535132803</ele>
        <time>2022-04-04T09:23:01Z</time>
      </trkpt>
      <trkpt lat="34.315693616423005" lon="108.96685238403263">
        <ele>402.3945226641372</ele>
        <time>2022-04-04T09:23:11Z</time>
      </trkpt>
      <trkpt lat="34.31616567637188" lon="108.96684416523658">
        <ele>402.08609536942095</ele>
        <time>2022-04-04T09:23:17Z</time>
      </trkpt>
      <trkpt lat="34.31663829359857" lon="108.96685984598324">
        <ele>403.50651521608233</ele>
        <time>2022-04-04T09:23:23Z</time>
      </trkpt>
      <trkpt lat="34.31695089093006" lon="108.96689087492211">
        <ele>401.609448896721</ele>
        <time>2022-04-04T09:23:27Z</time>
      </trkpt>
      <trkpt lat="34.31716262533098" lon="108.96684977848838">
        <ele>403.4347039340064</ele>
        <time>2022-04-04T09:23:30Z</time>
      </trkpt>
      <trkpt lat="34.31732026537114" lon="108.96687489008481">
        <ele>403.49947414081544</ele>
        <time>2022-04-04T09:23:32Z</time>
      </trkpt>
      <trkpt lat="34.31762264977911" lon="108.96684724012044">
        <ele>404.5148430718109</ele>
        <time>2022-04-04T09:23:36Z</time>
      </trkpt>
      <trkpt lat="34.31777636627446" lon="108.9668618888208">
        <ele>404.3318627718836</ele>
        <time>2022-04-04T09:23:38Z</time>
      </trkpt>
      <trkpt lat="34.31789506807833" lon="108.96681995262418">
        <ele>404.02494199201465</ele>
        <time>2022-04-04T09:23:40Z</time>
      </trkpt>
      <trkpt lat="34.31800703095707" lon="108.96685637242916">
        <ele>403.8772057807073</ele>
        <time>2022-04-04T09:23:42Z</time>
      </trkpt>
      <trkpt lat="34.31814105858182" lon="108.96681295782467">
        <ele>403.2098149070516</ele>
        <time>2022-04-04T09:23:44Z</time>
      </trkpt>
      <trkpt lat="34.31830638471937" lon="108.96682465884425">
        <ele>404.67409336566925</ele>
        <time>2022-04-04T09:23:48Z</time>
      </trkpt>
      <trkpt lat="34.31838210371177" lon="108.96685264094606">
        <ele>406.48539015091956</ele>
        <time>2022-04-04T09:23:50Z</time>
      </trkpt>
      <trkpt lat="34.31843171513967" lon="108.96698274225209">
        <ele>408.3732822695747</ele>
        <time>2022-04-04T09:23:54Z</time>
      </trkpt>
      <trkpt lat="34.318498032688346" lon="108.96742216058551">
        <ele>406.3542453199625</ele>
        <time>2022-04-04T09:24:03Z</time>
      </trkpt>
      <trkpt lat="34.318496776842444" lon="108.96754848482537">
        <ele>403.4189229439944</ele>
        <time>2022-04-04T09:24:05Z</time>
      </trkpt>
      <trkpt lat="34.318518807761414" lon="108.96763518600996">
        <ele>403.2684969510883</ele>
        <time>2022-04-04T09:24:07Z</time>
      </trkpt>
      <trkpt lat="34.31849482252635" lon="108.96800770438858">
        <ele>400.00327138323337</ele>
        <time>2022-04-04T09:24:13Z</time>
      </trkpt>
      <trkpt lat="34.318513472250224" lon="108.96810583674079">
        <ele>399.8891878640279</ele>
        <time>2022-04-04T09:24:15Z</time>
      </trkpt>
      <trkpt lat="34.31851608359497" lon="108.96823365163449">
        <ele>400.1187329534441</ele>
        <time>2022-04-04T09:24:17Z</time>
      </trkpt>
      <trkpt lat="34.31849030282718" lon="108.96836984827738">
        <ele>399.64414982590824</ele>
        <time>2022-04-04T09:24:19Z</time>
      </trkpt>
      <trkpt lat="34.31846973797671" lon="108.96866265575369">
        <ele>397.3772522388026</ele>
        <time>2022-04-04T09:24:23Z</time>
      </trkpt>
      <trkpt lat="34.31848576471365" lon="108.96880966783839">
        <ele>396.4676044192165</ele>
        <time>2022-04-04T09:24:25Z</time>
      </trkpt>
      <trkpt lat="34.3184681930285" lon="108.96912570437514">
        <ele>395.4938952419907</ele>
        <time>2022-04-04T09:24:29Z</time>
      </trkpt>
      <trkpt lat="34.31848522372863" lon="108.9694301529377">
        <ele>396.54355698730797</ele>
        <time>2022-04-04T09:24:33Z</time>
      </trkpt>
      <trkpt lat="34.31851074678447" lon="108.96961998065011">
        <ele>396.69625003635883</ele>
        <time>2022-04-04T09:24:35Z</time>
      </trkpt>
      <trkpt lat="34.318513773216345" lon="108.97014493943958">
        <ele>396.1571530736983</ele>
        <time>2022-04-04T09:24:41Z</time>
      </trkpt>
      <trkpt lat="34.31849305075164" lon="108.97073117667657">
        <ele>393.12574301380664</ele>
        <time>2022-04-04T09:24:47Z</time>
      </trkpt>
      <trkpt lat="34.31849246899618" lon="108.9712777337868">
        <ele>391.2223349958658</ele>
        <time>2022-04-04T09:24:53Z</time>
      </trkpt>
      <trkpt lat="34.31851912217156" lon="108.97144232646924">
        <ele>391.73299306537956</ele>
        <time>2022-04-04T09:24:55Z</time>
      </trkpt>
      <trkpt lat="34.318524846454814" lon="108.97163733311298">
        <ele>390.93976036831737</ele>
        <time>2022-04-04T09:24:57Z</time>
      </trkpt>
      <trkpt lat="34.318503365625475" lon="108.97202246135159">
        <ele>391.1401142384857</ele>
        <time>2022-04-04T09:25:01Z</time>
      </trkpt>
      <trkpt lat="34.318530753198644" lon="108.97221926431759">
        <ele>390.37385735008866</ele>
        <time>2022-04-04T09:25:03Z</time>
      </trkpt>
      <trkpt lat="34.31849402944463" lon="108.97281825740934">
        <ele>390.2712667770684</ele>
        <time>2022-04-04T09:25:09Z</time>
      </trkpt>
      <trkpt lat="34.31848532575857" lon="108.97301398209342">
        <ele>390.20600830297917</ele>
        <time>2022-04-04T09:25:11Z</time>
      </trkpt>
      <trkpt lat="34.31849931352098" lon="108.97363458990671">
        <ele>390.0411910014227</ele>
        <time>2022-04-04T09:25:17Z</time>
      </trkpt>
      <trkpt lat="34.31848933048221" lon="108.97426768923435">
        <ele>389.11067605018616</ele>
        <time>2022-04-04T09:25:23Z</time>
      </trkpt>
      <trkpt lat="34.31847861378753" lon="108.9746863713216">
        <ele>388.24308268073946</ele>
        <time>2022-04-04T09:25:27Z</time>
      </trkpt>
      <trkpt lat="34.318494490959885" lon="108.97509339495757">
        <ele>386.6565634747967</ele>
        <time>2022-04-04T09:25:31Z</time>
      </trkpt>
      <trkpt lat="34.318458600575696" lon="108.97566032036177">
        <ele>384.56135346274823</ele>
        <time>2022-04-04T09:25:37Z</time>
      </trkpt>
      <trkpt lat="34.3184409278862" lon="108.97605335594255">
        <ele>384.3666508132592</ele>
        <time>2022-04-04T09:25:41Z</time>
      </trkpt>
      <trkpt lat="34.31846274108764" lon="108.97623841373863">
        <ele>384.10038239043206</ele>
        <time>2022-04-04T09:25:43Z</time>
      </trkpt>
      <trkpt lat="34.31859931981777" lon="108.97657653492033">
        <ele>384.4519948894158</ele>
        <time>2022-04-04T09:25:47Z</time>
      </trkpt>
      <trkpt lat="34.318752656830114" lon="108.97690313949703">
        <ele>385.07097525522113</ele>
        <time>2022-04-04T09:25:51Z</time>
      </trkpt>
      <trkpt lat="34.31877301240011" lon="108.97708973775251">
        <ele>385.75606984924525</ele>
        <time>2022-04-04T09:25:53Z</time>
      </trkpt>
      <trkpt lat="34.318740824185596" lon="108.97769203806362">
        <ele>386.69929043762386</ele>
        <time>2022-04-04T09:25:59Z</time>
      </trkpt>
      <trkpt lat="34.31871903766691" lon="108.97825971027189">
        <ele>386.3942866837606</ele>
        <time>2022-04-04T09:26:05Z</time>
      </trkpt>
      <trkpt lat="34.3187323050204" lon="108.97891187439463">
        <ele>386.33492996916175</ele>
        <time>2022-04-04T09:26:13Z</time>
      </trkpt>
      <trkpt lat="34.31872670870421" lon="108.97901603932758">
        <ele>386.86804058402777</ele>
        <time>2022-04-04T09:26:15Z</time>
      </trkpt>
      <trkpt lat="34.318763602140606" lon="108.97930303551088">
        <ele>387.5259500397369</ele>
        <time>2022-04-04T09:26:21Z</time>
      </trkpt>
      <trkpt lat="34.318904079586915" lon="108.97936130327068">
        <ele>390.48673511948436</ele>
        <time>2022-04-04T09:26:25Z</time>
      </trkpt>
      <trkpt lat="34.31898493056237" lon="108.9794234824075">
        <ele>391.4473127471283</ele>
        <time>2022-04-04T09:26:27Z</time>
      </trkpt>
      <trkpt lat="34.31908560206921" lon="108.97944123713509">
        <ele>391.6913782414049</ele>
        <time>2022-04-04T09:26:29Z</time>
      </trkpt>
      <trkpt lat="34.31952270806091" lon="108.97944601372782">
        <ele>393.7176904659718</ele>
        <time>2022-04-04T09:26:37Z</time>
      </trkpt>
      <trkpt lat="34.32002854887963" lon="108.97938685919446">
        <ele>394.7863991288468</ele>
        <time>2022-04-04T09:26:45Z</time>
      </trkpt>
      <trkpt lat="34.32046122497912" lon="108.97938098338138">
        <ele>394.25143718905747</ele>
        <time>2022-04-04T09:26:51Z</time>
      </trkpt>
      <trkpt lat="34.320622256635886" lon="108.97941318160558">
        <ele>393.8596703428775</ele>
        <time>2022-04-04T09:26:53Z</time>
      </trkpt>
      <trkpt lat="34.32109822672716" lon="108.97941272596273">
        <ele>394.3369118338451</ele>
        <time>2022-04-04T09:26:59Z</time>
      </trkpt>
      <trkpt lat="34.321556929292626" lon="108.97939767178119">
        <ele>392.69343603029847</ele>
        <time>2022-04-04T09:27:05Z</time>
      </trkpt>
      <trkpt lat="34.32205279456566" lon="108.97941491088133">
        <ele>392.8480270123109</ele>
        <time>2022-04-04T09:27:11Z</time>
      </trkpt>
      <trkpt lat="34.32252558065339" lon="108.97943769542539">
        <ele>391.9881877284497</ele>
        <time>2022-04-04T09:27:17Z</time>
      </trkpt>
      <trkpt lat="34.32297020240245" lon="108.9793942732119">
        <ele>391.5361368730664</ele>
        <time>2022-04-04T09:27:23Z</time>
      </trkpt>
      <trkpt lat="34.32340361877978" lon="108.9794638782792">
        <ele>391.74739124346524</ele>
        <time>2022-04-04T09:27:31Z</time>
      </trkpt>
      <trkpt lat="34.323476839556136" lon="108.97950220866389">
        <ele>388.5203183321282</ele>
        <time>2022-04-04T09:27:43Z</time>
      </trkpt>
      <trkpt lat="34.323621409734145" lon="108.97949214785699">
        <ele>389.4768191492185</ele>
        <time>2022-04-04T09:27:48Z</time>
      </trkpt>
      <trkpt lat="34.32391009765967" lon="108.97942726031734">
        <ele>390.92876908462495</ele>
        <time>2022-04-04T09:27:54Z</time>
      </trkpt>
      <trkpt lat="34.32425358026082" lon="108.97942433433269">
        <ele>392.18460941594094</ele>
        <time>2022-04-04T09:28:00Z</time>
      </trkpt>
      <trkpt lat="34.32478031910556" lon="108.97939697151172">
        <ele>396.38486858829856</ele>
        <time>2022-04-04T09:28:08Z</time>
      </trkpt>
      <trkpt lat="34.325235381999974" lon="108.97937549876862">
        <ele>395.38723861053586</ele>
        <time>2022-04-04T09:28:15Z</time>
      </trkpt>
      <trkpt lat="34.3257501828662" lon="108.97940492474932">
        <ele>393.7209050729871</ele>
        <time>2022-04-04T09:28:23Z</time>
      </trkpt>
      <trkpt lat="34.32624036822196" lon="108.9794070072683">
        <ele>395.9084388213232</ele>
        <time>2022-04-04T09:28:31Z</time>
      </trkpt>
      <trkpt lat="34.326369127143884" lon="108.97943870975607">
        <ele>395.169774601236</ele>
        <time>2022-04-04T09:28:33Z</time>
      </trkpt>
      <trkpt lat="34.326636878813055" lon="108.97947359087257">
        <ele>395.6800792729482</ele>
        <time>2022-04-04T09:28:37Z</time>
      </trkpt>
      <trkpt lat="34.32674949936645" lon="108.97945496937483">
        <ele>397.5399950006977</ele>
        <time>2022-04-04T09:28:39Z</time>
      </trkpt>
      <trkpt lat="34.32688828704294" lon="108.97945699435988">
        <ele>398.6183806369081</ele>
        <time>2022-04-04T09:28:41Z</time>
      </trkpt>
      <trkpt lat="34.32698743444333" lon="108.97943139692013">
        <ele>401.0071626296267</ele>
        <time>2022-04-04T09:28:43Z</time>
      </trkpt>
      <trkpt lat="34.327519150174005" lon="108.97945573968988">
        <ele>402.0505105769262</ele>
        <time>2022-04-04T09:28:51Z</time>
      </trkpt>
      <trkpt lat="34.32763054269775" lon="108.97942727130993">
        <ele>403.15507726650685</ele>
        <time>2022-04-04T09:28:53Z</time>
      </trkpt>
      <trkpt lat="34.327744804979936" lon="108.97945001261114">
        <ele>403.3916525738314</ele>
        <time>2022-04-04T09:28:55Z</time>
      </trkpt>
      <trkpt lat="34.32783800262396" lon="108.97950222517503">
        <ele>403.9911478245631</ele>
        <time>2022-04-04T09:28:57Z</time>
      </trkpt>
      <trkpt lat="34.32790900873433" lon="108.97962510500346">
        <ele>405.3854752983898</ele>
        <time>2022-04-04T09:28:59Z</time>
      </trkpt>
      <trkpt lat="34.32796369524172" lon="108.97987390354449">
        <ele>405.6605779742822</ele>
        <time>2022-04-04T09:29:03Z</time>
      </trkpt>
      <trkpt lat="34.32798706520841" lon="108.98044641861759">
        <ele>407.7523825019598</ele>
        <time>2022-04-04T09:29:11Z</time>
      </trkpt>
      <trkpt lat="34.32799779122443" lon="108.98057845091142">
        <ele>407.26511641498655</ele>
        <time>2022-04-04T09:29:13Z</time>
      </trkpt>
      <trkpt lat="34.328048697264535" lon="108.98068073404941">
        <ele>407.5400512488559</ele>
        <time>2022-04-04T09:29:15Z</time>
      </trkpt>
      <trkpt lat="34.328066470137514" lon="108.98077219915507">
        <ele>407.9549061944708</ele>
        <time>2022-04-04T09:29:17Z</time>
      </trkpt>
      <trkpt lat="34.328057308445196" lon="108.98105419657362">
        <ele>407.9120694315061</ele>
        <time>2022-04-04T09:29:21Z</time>
      </trkpt>
      <trkpt lat="34.32807154697711" lon="108.98116986412012">
        <ele>409.08287063241005</ele>
        <time>2022-04-04T09:29:23Z</time>
      </trkpt>
      <trkpt lat="34.32805388050076" lon="108.98127809347585">
        <ele>411.28373564966023</ele>
        <time>2022-04-04T09:29:25Z</time>
      </trkpt>
      <trkpt lat="34.328068848635375" lon="108.98140277585006">
        <ele>409.93356047477573</ele>
        <time>2022-04-04T09:29:27Z</time>
      </trkpt>
      <trkpt lat="34.32824955858081" lon="108.98149421334796">
        <ele>414.84173710271716</ele>
        <time>2022-04-04T09:29:37Z</time>
      </trkpt>
      <trkpt lat="34.328213662624634" lon="108.9815265108126">
        <ele>412.6348342783749</ele>
        <time>2022-04-04T09:29:45Z</time>
      </trkpt>
    </trkseg>
  </trk>
</gpx>