<?xml version="1.0" encoding="UTF-8"?>
<gpx xmlns="http://www.topografix.com/GPX/1/1" xmlns:gpxtpx="http://www.garmin.com/xmlschemas/TrackPointExtension/v1" xmlns:xsi="http://www.w3.org/2001/XMLSchema-instance" xsi:schemaLocation="http://www.topografix.com/GPX/1/1 http://www.topografix.com/GPX/1/1/gpx.xsd" version="1.1" creator="gpx.py -- https://github.com/tkrajina/gpxpy">
  <trk>
    <name>gpx from keep</name>
    <type>Ride</type>
    <trkseg>
      <trkpt lat="34.306108495187466" lon="109.0378977921708">
        <ele>387.6212463378906</ele>
        <time>2022-03-23T10:21:14Z</time>
      </trkpt>
      <trkpt lat="34.30618101750328" lon="109.0371933167492">
        <ele>393.28442001342773</ele>
        <time>2022-03-23T10:21:22Z</time>
      </trkpt>
      <trkpt lat="34.30606601618375" lon="109.03731226166411">
        <ele>393.6640167236328</ele>
        <time>2022-03-23T10:21:35Z</time>
      </trkpt>
      <trkpt lat="34.30620473344384" lon="109.03717884673539">
        <ele>393.98188400268555</ele>
        <time>2022-03-23T10:21:43Z</time>
      </trkpt>
      <trkpt lat="34.30653860028284" lon="109.03709398799059">
        <ele>393.9277648925781</ele>
        <time>2022-03-23T10:22:00Z</time>
      </trkpt>
      <trkpt lat="34.30652313196092" lon="109.03689909438606">
        <ele>391.2935519553721</ele>
        <time>2022-03-23T10:22:03Z</time>
      </trkpt>
      <trkpt lat="34.30646827626714" lon="109.03700732249881">
        <ele>391.6392202489078</ele>
        <time>2022-03-23T10:22:07Z</time>
      </trkpt>
      <trkpt lat="34.306540944687335" lon="109.0370616433903">
        <ele>391.7497432604432</ele>
        <time>2022-03-23T10:22:09Z</time>
      </trkpt>
      <trkpt lat="34.30661875945799" lon="109.03705868363399">
        <ele>391.89921042881906</ele>
        <time>2022-03-23T10:22:13Z</time>
      </trkpt>
      <trkpt lat="34.306535409509614" lon="109.03707331739035">
        <ele>391.4782264716923</ele>
        <time>2022-03-23T10:22:17Z</time>
      </trkpt>
      <trkpt lat="34.306587899394" lon="109.03700681367006">
        <ele>392.2528737895191</ele>
        <time>2022-03-23T10:22:48Z</time>
      </trkpt>
      <trkpt lat="34.30655574352975" lon="109.0366875736858">
        <ele>391.9620029851794</ele>
        <time>2022-03-23T10:23:05Z</time>
      </trkpt>
      <trkpt lat="34.30652805625108" lon="109.03659134851289">
        <ele>391.91375770326704</ele>
        <time>2022-03-23T10:23:11Z</time>
      </trkpt>
      <trkpt lat="34.30654473788597" lon="109.03651941657266">
        <ele>391.4487405847758</ele>
        <time>2022-03-23T10:23:23Z</time>
      </trkpt>
      <trkpt lat="34.306581113246615" lon="109.03630971170324">
        <ele>391.95099328272045</ele>
        <time>2022-03-23T10:24:30Z</time>
      </trkpt>
      <trkpt lat="34.3065019907534" lon="109.03616582344938">
        <ele>391.87638951372355</ele>
        <time>2022-03-23T10:24:34Z</time>
      </trkpt>
      <trkpt lat="34.30639050078808" lon="109.0359038343771">
        <ele>391.99135127291083</ele>
        <time>2022-03-23T10:24:42Z</time>
      </trkpt>
      <trkpt lat="34.30631743641746" lon="109.03546292290643">
        <ele>392.4381026122719</ele>
        <time>2022-03-23T10:24:52Z</time>
      </trkpt>
      <trkpt lat="34.30633118150696" lon="109.03535502982176">
        <ele>393.10153677500784</ele>
        <time>2022-03-23T10:24:56Z</time>
      </trkpt>
      <trkpt lat="34.30629623891336" lon="109.03521774104247">
        <ele>393.148014546372</ele>
        <time>2022-03-23T10:25:00Z</time>
      </trkpt>
      <trkpt lat="34.306332484167925" lon="109.034962789353">
        <ele>392.9319697134197</ele>
        <time>2022-03-23T10:25:08Z</time>
      </trkpt>
      <trkpt lat="34.30632774010817" lon="109.03484502564557">
        <ele>392.7024648403749</ele>
        <time>2022-03-23T10:25:12Z</time>
      </trkpt>
      <trkpt lat="34.30635951704887" lon="109.0347356190626">
        <ele>392.7684214813635</ele>
        <time>2022-03-23T10:25:16Z</time>
      </trkpt>
      <trkpt lat="34.30632384262232" lon="109.03433882231239">
        <ele>393.08229075185955</ele>
        <time>2022-03-23T10:25:26Z</time>
      </trkpt>
      <trkpt lat="34.306272199600016" lon="109.03424350265594">
        <ele>392.8765362082049</ele>
        <time>2022-03-23T10:25:28Z</time>
      </trkpt>
      <trkpt lat="34.3062620169568" lon="109.03407070490421">
        <ele>392.0382313961163</ele>
        <time>2022-03-23T10:25:32Z</time>
      </trkpt>
      <trkpt lat="34.306314885164895" lon="109.03376898255736">
        <ele>392.61638964433223</ele>
        <time>2022-03-23T10:25:38Z</time>
      </trkpt>
      <trkpt lat="34.306297523859286" lon="109.03358498801855">
        <ele>392.81630313023925</ele>
        <time>2022-03-23T10:25:40Z</time>
      </trkpt>
      <trkpt lat="34.30624870722622" lon="109.03343043086929">
        <ele>392.8790570134297</ele>
        <time>2022-03-23T10:25:42Z</time>
      </trkpt>
      <trkpt lat="34.30622791847206" lon="109.03302857879378">
        <ele>393.4848904851824</ele>
        <time>2022-03-23T10:25:50Z</time>
      </trkpt>
      <trkpt lat="34.306240281662156" lon="109.03287005121229">
        <ele>393.51431663986295</ele>
        <time>2022-03-23T10:25:54Z</time>
      </trkpt>
      <trkpt lat="34.306224119196024" lon="109.03278487285816">
        <ele>393.2469391282648</ele>
        <time>2022-03-23T10:25:56Z</time>
      </trkpt>
      <trkpt lat="34.30616233581389" lon="109.03263995725248">
        <ele>393.4082724088803</ele>
        <time>2022-03-23T10:26:00Z</time>
      </trkpt>
      <trkpt lat="34.30613879911797" lon="109.03236754084858">
        <ele>394.2513604806736</ele>
        <time>2022-03-23T10:26:06Z</time>
      </trkpt>
      <trkpt lat="34.30610455917278" lon="109.03219537341366">
        <ele>394.01741744950414</ele>
        <time>2022-03-23T10:26:10Z</time>
      </trkpt>
      <trkpt lat="34.30606101471107" lon="109.03211408948027">
        <ele>394.32572593260556</ele>
        <time>2022-03-23T10:26:12Z</time>
      </trkpt>
      <trkpt lat="34.306082418087385" lon="109.03197395856941">
        <ele>394.4609458623454</ele>
        <time>2022-03-23T10:26:15Z</time>
      </trkpt>
      <trkpt lat="34.306165452977964" lon="109.03188438048328">
        <ele>394.57534800097346</ele>
        <time>2022-03-23T10:26:17Z</time>
      </trkpt>
      <trkpt lat="34.30621628645985" lon="109.03178646089911">
        <ele>394.19875132571906</ele>
        <time>2022-03-23T10:26:19Z</time>
      </trkpt>
      <trkpt lat="34.30653684308356" lon="109.03144585080767">
        <ele>393.1019270932302</ele>
        <time>2022-03-23T10:26:27Z</time>
      </trkpt>
      <trkpt lat="34.306836630693375" lon="109.0310969676556">
        <ele>392.1012269379571</ele>
        <time>2022-03-23T10:26:37Z</time>
      </trkpt>
      <trkpt lat="34.30712626768458" lon="109.03089785300956">
        <ele>391.9315903438255</ele>
        <time>2022-03-23T10:26:45Z</time>
      </trkpt>
      <trkpt lat="34.307614483768816" lon="109.03072018446314">
        <ele>394.0344468690455</ele>
        <time>2022-03-23T10:26:57Z</time>
      </trkpt>
      <trkpt lat="34.308106514152584" lon="109.030587744103">
        <ele>395.61493874993175</ele>
        <time>2022-03-23T10:27:09Z</time>
      </trkpt>
      <trkpt lat="34.308191712234795" lon="109.03056779705582">
        <ele>395.57581704109907</ele>
        <time>2022-03-23T10:27:11Z</time>
      </trkpt>
      <trkpt lat="34.30849142054173" lon="109.03043533767536">
        <ele>395.63087144028395</ele>
        <time>2022-03-23T10:27:21Z</time>
      </trkpt>
      <trkpt lat="34.30870938825318" lon="109.03030732314754">
        <ele>395.7951796716079</ele>
        <time>2022-03-23T10:27:25Z</time>
      </trkpt>
      <trkpt lat="34.30902070390184" lon="109.0300316711554">
        <ele>398.91025827638805</ele>
        <time>2022-03-23T10:27:35Z</time>
      </trkpt>
      <trkpt lat="34.30917259891458" lon="109.02996135105312">
        <ele>397.52198544330895</ele>
        <time>2022-03-23T10:27:37Z</time>
      </trkpt>
      <trkpt lat="34.309405485851556" lon="109.02978031591877">
        <ele>396.9746754998341</ele>
        <time>2022-03-23T10:27:41Z</time>
      </trkpt>
      <trkpt lat="34.30954337435663" lon="109.02971433877755">
        <ele>396.2484437553212</ele>
        <time>2022-03-23T10:27:43Z</time>
      </trkpt>
      <trkpt lat="34.30973484084615" lon="109.02966064953789">
        <ele>395.0601984327659</ele>
        <time>2022-03-23T10:27:45Z</time>
      </trkpt>
      <trkpt lat="34.31013877329009" lon="109.02945686216897">
        <ele>392.98679062817246</ele>
        <time>2022-03-23T10:27:49Z</time>
      </trkpt>
      <trkpt lat="34.31030000131534" lon="109.02935566782187">
        <ele>392.0345605863258</ele>
        <time>2022-03-23T10:27:51Z</time>
      </trkpt>
      <trkpt lat="34.31068622901675" lon="109.02917904323185">
        <ele>390.7975931717083</ele>
        <time>2022-03-23T10:27:55Z</time>
      </trkpt>
      <trkpt lat="34.31095024078018" lon="109.02899249630119">
        <ele>390.88890579901636</ele>
        <time>2022-03-23T10:27:59Z</time>
      </trkpt>
      <trkpt lat="34.31118753980046" lon="109.02873271107994">
        <ele>390.7195709599182</ele>
        <time>2022-03-23T10:28:05Z</time>
      </trkpt>
      <trkpt lat="34.31122704126621" lon="109.0285352275685">
        <ele>391.9357458297163</ele>
        <time>2022-03-23T10:28:09Z</time>
      </trkpt>
      <trkpt lat="34.311305067102026" lon="109.02843053495486">
        <ele>392.55401421617717</ele>
        <time>2022-03-23T10:28:11Z</time>
      </trkpt>
      <trkpt lat="34.31136145129098" lon="109.02832054775992">
        <ele>391.3411582475528</ele>
        <time>2022-03-23T10:28:13Z</time>
      </trkpt>
      <trkpt lat="34.311373120008774" lon="109.02820071071255">
        <ele>391.99758989550173</ele>
        <time>2022-03-23T10:28:15Z</time>
      </trkpt>
      <trkpt lat="34.311413411403706" lon="109.02808272257187">
        <ele>391.03121603280306</ele>
        <time>2022-03-23T10:28:17Z</time>
      </trkpt>
      <trkpt lat="34.31145688914765" lon="109.02783285345818">
        <ele>392.49451159033924</ele>
        <time>2022-03-23T10:28:21Z</time>
      </trkpt>
      <trkpt lat="34.31146536895398" lon="109.02759479371718">
        <ele>392.0444786660373</ele>
        <time>2022-03-23T10:28:25Z</time>
      </trkpt>
      <trkpt lat="34.311514591933914" lon="109.02735200090545">
        <ele>392.10510921292007</ele>
        <time>2022-03-23T10:28:29Z</time>
      </trkpt>
      <trkpt lat="34.31164856096794" lon="109.02698606476042">
        <ele>391.9110864549875</ele>
        <time>2022-03-23T10:28:35Z</time>
      </trkpt>
      <trkpt lat="34.31169550557914" lon="109.0268941937004">
        <ele>392.1046708468348</ele>
        <time>2022-03-23T10:28:37Z</time>
      </trkpt>
      <trkpt lat="34.31194392088314" lon="109.02660806037157">
        <ele>392.50990354828537</ele>
        <time>2022-03-23T10:28:43Z</time>
      </trkpt>
      <trkpt lat="34.312034023411144" lon="109.02653768184413">
        <ele>392.2785533629358</ele>
        <time>2022-03-23T10:28:45Z</time>
      </trkpt>
      <trkpt lat="34.3122122208344" lon="109.02645865959522">
        <ele>393.51707282476127</ele>
        <time>2022-03-23T10:28:49Z</time>
      </trkpt>
      <trkpt lat="34.31228407207372" lon="109.02636818976688">
        <ele>393.683574530296</ele>
        <time>2022-03-23T10:28:51Z</time>
      </trkpt>
      <trkpt lat="34.312694544559115" lon="109.02611116603636">
        <ele>392.6426497101784</ele>
        <time>2022-03-23T10:28:59Z</time>
      </trkpt>
      <trkpt lat="34.312809112973" lon="109.02606084915226">
        <ele>393.32344606146216</ele>
        <time>2022-03-23T10:29:01Z</time>
      </trkpt>
      <trkpt lat="34.31288540202359" lon="109.02586387412394">
        <ele>393.30735113378614</ele>
        <time>2022-03-23T10:29:05Z</time>
      </trkpt>
      <trkpt lat="34.312972560099155" lon="109.02580836201977">
        <ele>393.76566339004785</ele>
        <time>2022-03-23T10:29:07Z</time>
      </trkpt>
      <trkpt lat="34.31316920101216" lon="109.025735556912">
        <ele>393.16933697089553</ele>
        <time>2022-03-23T10:29:11Z</time>
      </trkpt>
      <trkpt lat="34.31351314532575" lon="109.02567111208674">
        <ele>392.2444332204759</ele>
        <time>2022-03-23T10:29:17Z</time>
      </trkpt>
      <trkpt lat="34.31359349176258" lon="109.02562114315545">
        <ele>392.1419778056443</ele>
        <time>2022-03-23T10:29:19Z</time>
      </trkpt>
      <trkpt lat="34.31409688595816" lon="109.02544048124851">
        <ele>391.5508039165288</ele>
        <time>2022-03-23T10:29:29Z</time>
      </trkpt>
      <trkpt lat="34.31435609747194" lon="109.02525799014607">
        <ele>391.11783189326525</ele>
        <time>2022-03-23T10:29:35Z</time>
      </trkpt>
      <trkpt lat="34.31479165739312" lon="109.02496773923673">
        <ele>390.1737122470513</ele>
        <time>2022-03-23T10:29:45Z</time>
      </trkpt>
      <trkpt lat="34.31515523985939" lon="109.02470892331306">
        <ele>389.96118724439293</ele>
        <time>2022-03-23T10:29:53Z</time>
      </trkpt>
      <trkpt lat="34.31535463645318" lon="109.02459878761233">
        <ele>389.86913163773715</ele>
        <time>2022-03-23T10:29:57Z</time>
      </trkpt>
      <trkpt lat="34.315432636384394" lon="109.02451765564517">
        <ele>389.98841078486294</ele>
        <time>2022-03-23T10:29:59Z</time>
      </trkpt>
      <trkpt lat="34.315646419310774" lon="109.0244185690005">
        <ele>389.65973965637386</ele>
        <time>2022-03-23T10:30:03Z</time>
      </trkpt>
      <trkpt lat="34.31585755266865" lon="109.02430238319404">
        <ele>390.440674665384</ele>
        <time>2022-03-23T10:30:07Z</time>
      </trkpt>
      <trkpt lat="34.31605570305922" lon="109.0242178005624">
        <ele>389.6247897911817</ele>
        <time>2022-03-23T10:30:11Z</time>
      </trkpt>
      <trkpt lat="34.31612571215478" lon="109.0241568328216">
        <ele>390.22576993796974</ele>
        <time>2022-03-23T10:30:13Z</time>
      </trkpt>
      <trkpt lat="34.31616489486161" lon="109.0240602583655">
        <ele>390.31181144248694</ele>
        <time>2022-03-23T10:30:15Z</time>
      </trkpt>
      <trkpt lat="34.31613455666481" lon="109.02395454131853">
        <ele>389.866812444292</ele>
        <time>2022-03-23T10:30:17Z</time>
      </trkpt>
      <trkpt lat="34.316302165592326" lon="109.02364217899246">
        <ele>389.416577141732</ele>
        <time>2022-03-23T10:30:27Z</time>
      </trkpt>
      <trkpt lat="34.316294216080585" lon="109.02354215680126">
        <ele>390.31093671917915</ele>
        <time>2022-03-23T10:30:29Z</time>
      </trkpt>
      <trkpt lat="34.31621013445323" lon="109.0233432505238">
        <ele>389.7029732214287</ele>
        <time>2022-03-23T10:30:33Z</time>
      </trkpt>
      <trkpt lat="34.31617748350465" lon="109.02322132729458">
        <ele>389.74073790665716</ele>
        <time>2022-03-23T10:30:35Z</time>
      </trkpt>
      <trkpt lat="34.31595883581934" lon="109.02268871317128">
        <ele>388.53085298184305</ele>
        <time>2022-03-23T10:30:45Z</time>
      </trkpt>
      <trkpt lat="34.31586395361148" lon="109.02249528487467">
        <ele>388.95570356957614</ele>
        <time>2022-03-23T10:30:49Z</time>
      </trkpt>
      <trkpt lat="34.31582245649588" lon="109.02235030461479">
        <ele>389.71530966088176</ele>
        <time>2022-03-23T10:30:53Z</time>
      </trkpt>
      <trkpt lat="34.31588897593203" lon="109.0221178522737">
        <ele>390.7975058723241</ele>
        <time>2022-03-23T10:31:07Z</time>
      </trkpt>
      <trkpt lat="34.31594036531725" lon="109.0216451897878">
        <ele>392.68506854306906</ele>
        <time>2022-03-23T10:31:17Z</time>
      </trkpt>
      <trkpt lat="34.31591244657553" lon="109.02136585730456">
        <ele>393.71607277169824</ele>
        <time>2022-03-23T10:31:23Z</time>
      </trkpt>
      <trkpt lat="34.31591975013079" lon="109.02116661746075">
        <ele>394.01670955866575</ele>
        <time>2022-03-23T10:31:27Z</time>
      </trkpt>
      <trkpt lat="34.31590539611212" lon="109.02106373094614">
        <ele>394.3551538810134</ele>
        <time>2022-03-23T10:31:29Z</time>
      </trkpt>
      <trkpt lat="34.31590586773295" lon="109.02044105060571">
        <ele>395.85734077822417</ele>
        <time>2022-03-23T10:31:41Z</time>
      </trkpt>
      <trkpt lat="34.31589980518137" lon="109.0202399398673">
        <ele>396.72754562366754</ele>
        <time>2022-03-23T10:31:45Z</time>
      </trkpt>
      <trkpt lat="34.31591898125685" lon="109.02012738820484">
        <ele>396.06556862965226</ele>
        <time>2022-03-23T10:31:47Z</time>
      </trkpt>
      <trkpt lat="34.315908820619384" lon="109.01979464434847">
        <ele>398.33531431667507</ele>
        <time>2022-03-23T10:31:53Z</time>
      </trkpt>
      <trkpt lat="34.31591391716457" lon="109.01924262284608">
        <ele>400.3789438614622</ele>
        <time>2022-03-23T10:32:05Z</time>
      </trkpt>
      <trkpt lat="34.31589588477985" lon="109.01877107176249">
        <ele>401.8777979025617</ele>
        <time>2022-03-23T10:32:15Z</time>
      </trkpt>
      <trkpt lat="34.315925714123296" lon="109.01848128536263">
        <ele>402.12678284943104</ele>
        <time>2022-03-23T10:32:21Z</time>
      </trkpt>
      <trkpt lat="34.315901100783776" lon="109.01820239218172">
        <ele>402.9077512221411</ele>
        <time>2022-03-23T10:32:27Z</time>
      </trkpt>
      <trkpt lat="34.31593233240919" lon="109.0179880476355">
        <ele>403.8024432249367</ele>
        <time>2022-03-23T10:32:31Z</time>
      </trkpt>
      <trkpt lat="34.31592891293957" lon="109.01789498174453">
        <ele>403.7498870007694</ele>
        <time>2022-03-23T10:32:33Z</time>
      </trkpt>
      <trkpt lat="34.31589486271601" lon="109.01774992484847">
        <ele>404.8478567991406</ele>
        <time>2022-03-23T10:32:37Z</time>
      </trkpt>
      <trkpt lat="34.31588257572308" lon="109.01756915962294">
        <ele>405.17709422763437</ele>
        <time>2022-03-23T10:32:41Z</time>
      </trkpt>
      <trkpt lat="34.3158935737294" lon="109.01747546982858">
        <ele>404.9368082052097</ele>
        <time>2022-03-23T10:32:43Z</time>
      </trkpt>
      <trkpt lat="34.315854554603405" lon="109.01724125785377">
        <ele>405.8732302803546</ele>
        <time>2022-03-23T10:32:49Z</time>
      </trkpt>
      <trkpt lat="34.31582150790306" lon="109.0167233297739">
        <ele>406.8656165506691</ele>
        <time>2022-03-23T10:33:05Z</time>
      </trkpt>
      <trkpt lat="34.31575413873817" lon="109.01613972375178">
        <ele>408.3781142514199</ele>
        <time>2022-03-23T10:33:19Z</time>
      </trkpt>
      <trkpt lat="34.315742965736476" lon="109.01555643495068">
        <ele>408.41008915100247</ele>
        <time>2022-03-23T10:33:33Z</time>
      </trkpt>
      <trkpt lat="34.31574871461008" lon="109.01497995752783">
        <ele>408.9662133306265</ele>
        <time>2022-03-23T10:33:45Z</time>
      </trkpt>
      <trkpt lat="34.31578316062044" lon="109.01437727790186">
        <ele>410.0024130558595</ele>
        <time>2022-03-23T10:33:57Z</time>
      </trkpt>
      <trkpt lat="34.3157965228758" lon="109.01418425678851">
        <ele>409.08224823791534</ele>
        <time>2022-03-23T10:34:01Z</time>
      </trkpt>
      <trkpt lat="34.315782770686255" lon="109.01407735790846">
        <ele>409.0713700167835</ele>
        <time>2022-03-23T10:34:03Z</time>
      </trkpt>
      <trkpt lat="34.31579278481786" lon="109.01376258816512">
        <ele>409.0856143049896</ele>
        <time>2022-03-23T10:34:09Z</time>
      </trkpt>
      <trkpt lat="34.315774989700486" lon="109.01321566853221">
        <ele>409.45368444081396</ele>
        <time>2022-03-23T10:34:19Z</time>
      </trkpt>
      <trkpt lat="34.31577603358278" lon="109.01299307010827">
        <ele>409.2926794914529</ele>
        <time>2022-03-23T10:34:23Z</time>
      </trkpt>
      <trkpt lat="34.31575609547053" lon="109.01288702234375">
        <ele>409.4034524606541</ele>
        <time>2022-03-23T10:34:25Z</time>
      </trkpt>
      <trkpt lat="34.31577570362844" lon="109.01266765190209">
        <ele>409.309663631022</ele>
        <time>2022-03-23T10:34:29Z</time>
      </trkpt>
      <trkpt lat="34.31575084855236" lon="109.01257334968783">
        <ele>409.5611175233498</ele>
        <time>2022-03-23T10:34:31Z</time>
      </trkpt>
      <trkpt lat="34.3157399068765" lon="109.01232384504368">
        <ele>409.61533179320395</ele>
        <time>2022-03-23T10:34:35Z</time>
      </trkpt>
      <trkpt lat="34.31578646213391" lon="109.01166101630473">
        <ele>409.25272696930915</ele>
        <time>2022-03-23T10:34:41Z</time>
      </trkpt>
      <trkpt lat="34.31580544088816" lon="109.01143163432063">
        <ele>408.98668895848095</ele>
        <time>2022-03-23T10:34:43Z</time>
      </trkpt>
      <trkpt lat="34.31578204020547" lon="109.01121211053065">
        <ele>409.83726803027093</ele>
        <time>2022-03-23T10:34:45Z</time>
      </trkpt>
      <trkpt lat="34.31579247060425" lon="109.01076535532967">
        <ele>409.077278746292</ele>
        <time>2022-03-23T10:34:49Z</time>
      </trkpt>
      <trkpt lat="34.315859586224974" lon="109.01029396099">
        <ele>409.0138564677909</ele>
        <time>2022-03-23T10:34:53Z</time>
      </trkpt>
      <trkpt lat="34.31592421029698" lon="109.01011603010564">
        <ele>408.71684239059687</ele>
        <time>2022-03-23T10:34:55Z</time>
      </trkpt>
      <trkpt lat="34.3160400034055" lon="109.00999412960368">
        <ele>408.1570374947041</ele>
        <time>2022-03-23T10:34:57Z</time>
      </trkpt>
      <trkpt lat="34.316338782574185" lon="109.00982168262875">
        <ele>408.1942882593721</ele>
        <time>2022-03-23T10:35:03Z</time>
      </trkpt>
      <trkpt lat="34.316809541550604" lon="109.00971839143834">
        <ele>408.4998817294836</ele>
        <time>2022-03-23T10:35:13Z</time>
      </trkpt>
      <trkpt lat="34.31688944273745" lon="109.00970114303998">
        <ele>408.5165762649849</ele>
        <time>2022-03-23T10:35:15Z</time>
      </trkpt>
      <trkpt lat="34.31735653764868" lon="109.00967408106847">
        <ele>408.50381752010435</ele>
        <time>2022-03-23T10:35:25Z</time>
      </trkpt>
      <trkpt lat="34.31784141200506" lon="109.00965383563769">
        <ele>409.49712869990617</ele>
        <time>2022-03-23T10:35:35Z</time>
      </trkpt>
      <trkpt lat="34.31813682869461" lon="109.0096357642023">
        <ele>409.66633176617324</ele>
        <time>2022-03-23T10:35:41Z</time>
      </trkpt>
      <trkpt lat="34.31835969487464" lon="109.0096052648435">
        <ele>409.3742744140327</ele>
        <time>2022-03-23T10:35:45Z</time>
      </trkpt>
      <trkpt lat="34.31888256813438" lon="109.00961723585863">
        <ele>408.66800399217755</ele>
        <time>2022-03-23T10:35:53Z</time>
      </trkpt>
      <trkpt lat="34.31920645546553" lon="109.00964559581625">
        <ele>409.1603104295209</ele>
        <time>2022-03-23T10:35:57Z</time>
      </trkpt>
      <trkpt lat="34.3193899825445" lon="109.00963131932706">
        <ele>408.1091158213094</ele>
        <time>2022-03-23T10:35:59Z</time>
      </trkpt>
      <trkpt lat="34.31992166275491" lon="109.00961807581173">
        <ele>406.4388611121103</ele>
        <time>2022-03-23T10:36:05Z</time>
      </trkpt>
      <trkpt lat="34.320083965258135" lon="109.00960440398768">
        <ele>406.40567266661674</ele>
        <time>2022-03-23T10:36:07Z</time>
      </trkpt>
      <trkpt lat="34.32040045904364" lon="109.00965012196572">
        <ele>405.1923761665821</ele>
        <time>2022-03-23T10:36:11Z</time>
      </trkpt>
      <trkpt lat="34.320868758444895" lon="109.00964499822874">
        <ele>404.42270210850984</ele>
        <time>2022-03-23T10:36:17Z</time>
      </trkpt>
      <trkpt lat="34.32101569753809" lon="109.00963018070544">
        <ele>403.648076236248</ele>
        <time>2022-03-23T10:36:19Z</time>
      </trkpt>
      <trkpt lat="34.32117945380954" lon="109.00964217332981">
        <ele>403.68704249337316</ele>
        <time>2022-03-23T10:36:21Z</time>
      </trkpt>
      <trkpt lat="34.32172718791339" lon="109.00962788587906">
        <ele>401.0899462867528</ele>
        <time>2022-03-23T10:36:27Z</time>
      </trkpt>
      <trkpt lat="34.32225702012508" lon="109.00962569549817">
        <ele>399.9758766843006</ele>
        <time>2022-03-23T10:36:33Z</time>
      </trkpt>
      <trkpt lat="34.322779412604305" lon="109.00958903582466">
        <ele>398.53913511149585</ele>
        <time>2022-03-23T10:36:39Z</time>
      </trkpt>
      <trkpt lat="34.32329254092047" lon="109.0095028078296">
        <ele>397.8749480191618</ele>
        <time>2022-03-23T10:36:45Z</time>
      </trkpt>
      <trkpt lat="34.32346165582439" lon="109.0094962664386">
        <ele>397.6679236013442</ele>
        <time>2022-03-23T10:36:47Z</time>
      </trkpt>
      <trkpt lat="34.32363722671695" lon="109.00944637130372">
        <ele>397.28894537035376</ele>
        <time>2022-03-23T10:36:49Z</time>
      </trkpt>
      <trkpt lat="34.324107663875246" lon="109.00934220378231">
        <ele>396.5257837176323</ele>
        <time>2022-03-23T10:36:55Z</time>
      </trkpt>
      <trkpt lat="34.324224026135894" lon="109.00926857490109">
        <ele>396.787456182763</ele>
        <time>2022-03-23T10:36:57Z</time>
      </trkpt>
      <trkpt lat="34.32466337881807" lon="109.00910313506867">
        <ele>395.89142632111907</ele>
        <time>2022-03-23T10:37:05Z</time>
      </trkpt>
      <trkpt lat="34.325082944317955" lon="109.00893663264354">
        <ele>395.46350722480565</ele>
        <time>2022-03-23T10:37:13Z</time>
      </trkpt>
      <trkpt lat="34.32544720118013" lon="109.00875566448744">
        <ele>395.6011610869318</ele>
        <time>2022-03-23T10:37:21Z</time>
      </trkpt>
      <trkpt lat="34.32566433229492" lon="109.00868721452774">
        <ele>395.68784507829696</ele>
        <time>2022-03-23T10:37:25Z</time>
      </trkpt>
      <trkpt lat="34.32584143691991" lon="109.00855808248463">
        <ele>396.2009276179597</ele>
        <time>2022-03-23T10:37:29Z</time>
      </trkpt>
      <trkpt lat="34.326317812663724" lon="109.00828557047176">
        <ele>395.6626190394163</ele>
        <time>2022-03-23T10:37:39Z</time>
      </trkpt>
      <trkpt lat="34.326502931538954" lon="109.00814634024088">
        <ele>395.50273760035634</ele>
        <time>2022-03-23T10:37:43Z</time>
      </trkpt>
      <trkpt lat="34.32688649621632" lon="109.00790588898545">
        <ele>394.8788799373433</ele>
        <time>2022-03-23T10:37:51Z</time>
      </trkpt>
      <trkpt lat="34.32727261108469" lon="109.00758877906064">
        <ele>394.74038902297616</ele>
        <time>2022-03-23T10:38:01Z</time>
      </trkpt>
      <trkpt lat="34.327447797403" lon="109.0074682327007">
        <ele>394.9848842481151</ele>
        <time>2022-03-23T10:38:05Z</time>
      </trkpt>
      <trkpt lat="34.3275639774922" lon="109.00742358203934">
        <ele>394.86123005487025</ele>
        <time>2022-03-23T10:38:07Z</time>
      </trkpt>
      <trkpt lat="34.32773807748407" lon="109.00726154838881">
        <ele>394.91578887216747</ele>
        <time>2022-03-23T10:38:11Z</time>
      </trkpt>
      <trkpt lat="34.328021628253886" lon="109.00712848778677">
        <ele>393.9938717260957</ele>
        <time>2022-03-23T10:38:17Z</time>
      </trkpt>
      <trkpt lat="34.32814604080185" lon="109.00703353224749">
        <ele>393.9331167778</ele>
        <time>2022-03-23T10:38:29Z</time>
      </trkpt>
      <trkpt lat="34.32814389046397" lon="109.00685230124856">
        <ele>393.9370381999761</ele>
        <time>2022-03-23T10:38:34Z</time>
      </trkpt>
      <trkpt lat="34.32807808126032" lon="109.00646956895923">
        <ele>394.1797746773809</ele>
        <time>2022-03-23T10:38:42Z</time>
      </trkpt>
      <trkpt lat="34.328078355108524" lon="109.00627882164113">
        <ele>394.1072916658595</ele>
        <time>2022-03-23T10:38:46Z</time>
      </trkpt>
      <trkpt lat="34.32803139283783" lon="109.0056521631477">
        <ele>394.68461767490953</ele>
        <time>2022-03-23T10:38:59Z</time>
      </trkpt>
      <trkpt lat="34.32796495445447" lon="109.00519445393171">
        <ele>394.73705668002367</ele>
        <time>2022-03-23T10:39:07Z</time>
      </trkpt>
      <trkpt lat="34.327882470859244" lon="109.0047753153412">
        <ele>394.1186878224835</ele>
        <time>2022-03-23T10:39:15Z</time>
      </trkpt>
      <trkpt lat="34.32786336445086" lon="109.00428911209241">
        <ele>394.682974409312</ele>
        <time>2022-03-23T10:39:23Z</time>
      </trkpt>
      <trkpt lat="34.327911361784096" lon="109.00369420119905">
        <ele>394.0597076276317</ele>
        <time>2022-03-23T10:39:33Z</time>
      </trkpt>
      <trkpt lat="34.32792053914275" lon="109.00344581599444">
        <ele>394.7612824626267</ele>
        <time>2022-03-23T10:39:37Z</time>
      </trkpt>
      <trkpt lat="34.32788324441246" lon="109.00318635088797">
        <ele>395.44011839851737</ele>
        <time>2022-03-23T10:39:41Z</time>
      </trkpt>
      <trkpt lat="34.3278355908389" lon="109.00262196445348">
        <ele>394.30619864631444</ele>
        <time>2022-03-23T10:39:49Z</time>
      </trkpt>
      <trkpt lat="34.327812169870256" lon="109.0023235232173">
        <ele>393.64137774985284</ele>
        <time>2022-03-23T10:39:53Z</time>
      </trkpt>
      <trkpt lat="34.32784936594804" lon="109.00192939860571">
        <ele>394.9942712588236</ele>
        <time>2022-03-23T10:39:59Z</time>
      </trkpt>
      <trkpt lat="34.32784073263198" lon="109.00157453157935">
        <ele>394.88003760389984</ele>
        <time>2022-03-23T10:40:05Z</time>
      </trkpt>
      <trkpt lat="34.32779170480599" lon="109.00133689926808">
        <ele>395.2849625181407</ele>
        <time>2022-03-23T10:40:09Z</time>
      </trkpt>
      <trkpt lat="34.32778439056545" lon="109.0008474892818">
        <ele>395.2893231809139</ele>
        <time>2022-03-23T10:40:17Z</time>
      </trkpt>
      <trkpt lat="34.327836837403275" lon="109.0006020750936">
        <ele>394.8132438529283</ele>
        <time>2022-03-23T10:40:21Z</time>
      </trkpt>
      <trkpt lat="34.32783320468964" lon="108.99996161749115">
        <ele>395.2266773292795</ele>
        <time>2022-03-23T10:40:31Z</time>
      </trkpt>
      <trkpt lat="34.327865438203915" lon="108.99970869577173">
        <ele>394.85388819966465</ele>
        <time>2022-03-23T10:40:35Z</time>
      </trkpt>
      <trkpt lat="34.32786016475224" lon="108.9990734440704">
        <ele>394.15199697297066</ele>
        <time>2022-03-23T10:40:45Z</time>
      </trkpt>
      <trkpt lat="34.3278580084212" lon="108.99893380835574">
        <ele>393.91744089871645</ele>
        <time>2022-03-23T10:40:47Z</time>
      </trkpt>
      <trkpt lat="34.327824500259524" lon="108.99883453888494">
        <ele>393.6326507376507</ele>
        <time>2022-03-23T10:40:49Z</time>
      </trkpt>
      <trkpt lat="34.327818807579064" lon="108.99872764729082">
        <ele>393.8002848168835</ele>
        <time>2022-03-23T10:40:51Z</time>
      </trkpt>
      <trkpt lat="34.3278542863818" lon="108.99830803122174">
        <ele>395.72475666645914</ele>
        <time>2022-03-23T10:40:57Z</time>
      </trkpt>
      <trkpt lat="34.32794249922201" lon="108.99791981137214">
        <ele>395.7324578408152</ele>
        <time>2022-03-23T10:41:03Z</time>
      </trkpt>
      <trkpt lat="34.327950414006686" lon="108.99768331158872">
        <ele>396.7864377545193</ele>
        <time>2022-03-23T10:41:07Z</time>
      </trkpt>
      <trkpt lat="34.32797134480945" lon="108.99754532310848">
        <ele>395.65591218695045</ele>
        <time>2022-03-23T10:41:09Z</time>
      </trkpt>
      <trkpt lat="34.327983334532966" lon="108.99717631271035">
        <ele>395.52536822948605</ele>
        <time>2022-03-23T10:41:15Z</time>
      </trkpt>
      <trkpt lat="34.32794812559409" lon="108.99696193665362">
        <ele>395.3337329970673</ele>
        <time>2022-03-23T10:41:19Z</time>
      </trkpt>
      <trkpt lat="34.327977294064354" lon="108.99657085668332">
        <ele>394.75037805270404</ele>
        <time>2022-03-23T10:41:25Z</time>
      </trkpt>
      <trkpt lat="34.32800378180861" lon="108.99595767773792">
        <ele>394.9521809723228</ele>
        <time>2022-03-23T10:41:35Z</time>
      </trkpt>
      <trkpt lat="34.328016497105665" lon="108.99557725318338">
        <ele>395.1316748280078</ele>
        <time>2022-03-23T10:41:41Z</time>
      </trkpt>
      <trkpt lat="34.32794482684098" lon="108.99518068579154">
        <ele>395.5051229763776</ele>
        <time>2022-03-23T10:41:49Z</time>
      </trkpt>
      <trkpt lat="34.32798895473377" lon="108.99503494598014">
        <ele>394.9812171738595</ele>
        <time>2022-03-23T10:41:51Z</time>
      </trkpt>
      <trkpt lat="34.327914225801884" lon="108.99494130327672">
        <ele>394.5221339594573</ele>
        <time>2022-03-23T10:41:55Z</time>
      </trkpt>
      <trkpt lat="34.32800167618888" lon="108.99434022581251">
        <ele>394.3672468625009</ele>
        <time>2022-03-23T10:42:03Z</time>
      </trkpt>
      <trkpt lat="34.328010921701754" lon="108.99398918523983">
        <ele>394.06022345274687</ele>
        <time>2022-03-23T10:42:09Z</time>
      </trkpt>
      <trkpt lat="34.327946563485575" lon="108.99384915727575">
        <ele>394.92649177554995</ele>
        <time>2022-03-23T10:42:15Z</time>
      </trkpt>
      <trkpt lat="34.32798006485265" lon="108.99372224498912">
        <ele>394.8160235248506</ele>
        <time>2022-03-23T10:42:17Z</time>
      </trkpt>
      <trkpt lat="34.327986617719475" lon="108.99362878000342">
        <ele>394.9496078463271</ele>
        <time>2022-03-23T10:42:19Z</time>
      </trkpt>
      <trkpt lat="34.32792756684668" lon="108.99323252093801">
        <ele>395.6945883287117</ele>
        <time>2022-03-23T10:42:27Z</time>
      </trkpt>
      <trkpt lat="34.32791955009136" lon="108.99300294693887">
        <ele>395.1107776379213</ele>
        <time>2022-03-23T10:42:31Z</time>
      </trkpt>
      <trkpt lat="34.32794288571664" lon="108.99274918025938">
        <ele>394.5628522345796</ele>
        <time>2022-03-23T10:42:35Z</time>
      </trkpt>
      <trkpt lat="34.32797229757691" lon="108.9926298249989">
        <ele>394.9793793223798</ele>
        <time>2022-03-23T10:42:37Z</time>
      </trkpt>
      <trkpt lat="34.32794976525135" lon="108.99228025353872">
        <ele>393.70496975351125</ele>
        <time>2022-03-23T10:42:43Z</time>
      </trkpt>
      <trkpt lat="34.327958552238314" lon="108.99214675595138">
        <ele>394.3620725143701</ele>
        <time>2022-03-23T10:42:45Z</time>
      </trkpt>
      <trkpt lat="34.32793464557639" lon="108.99165443858645">
        <ele>393.9240032378584</ele>
        <time>2022-03-23T10:42:53Z</time>
      </trkpt>
      <trkpt lat="34.32797418462884" lon="108.99109160273959">
        <ele>392.8522457610816</ele>
        <time>2022-03-23T10:43:01Z</time>
      </trkpt>
      <trkpt lat="34.327967707667185" lon="108.99094497567269">
        <ele>393.12098907493055</ele>
        <time>2022-03-23T10:43:03Z</time>
      </trkpt>
      <trkpt lat="34.3279844077652" lon="108.99064571032532">
        <ele>391.6180604919791</ele>
        <time>2022-03-23T10:43:07Z</time>
      </trkpt>
      <trkpt lat="34.32800905766728" lon="108.99047502340385">
        <ele>391.59664031490684</ele>
        <time>2022-03-23T10:43:09Z</time>
      </trkpt>
      <trkpt lat="34.32798730123751" lon="108.99035913755822">
        <ele>391.8629632545635</ele>
        <time>2022-03-23T10:43:11Z</time>
      </trkpt>
      <trkpt lat="34.328008235944004" lon="108.99024516520194">
        <ele>391.55611989833415</ele>
        <time>2022-03-23T10:43:13Z</time>
      </trkpt>
      <trkpt lat="34.32800018717583" lon="108.9900360370081">
        <ele>392.3026821920648</ele>
        <time>2022-03-23T10:43:17Z</time>
      </trkpt>
      <trkpt lat="34.32801477590963" lon="108.98989515847748">
        <ele>392.7665130859241</ele>
        <time>2022-03-23T10:43:19Z</time>
      </trkpt>
      <trkpt lat="34.328009137985894" lon="108.98962249236826">
        <ele>392.4299029316753</ele>
        <time>2022-03-23T10:43:23Z</time>
      </trkpt>
      <trkpt lat="34.32796405911043" lon="108.98945752070885">
        <ele>392.2760869525373</ele>
        <time>2022-03-23T10:43:27Z</time>
      </trkpt>
      <trkpt lat="34.327900846065646" lon="108.98881918159196">
        <ele>392.7088442305103</ele>
        <time>2022-03-23T10:43:39Z</time>
      </trkpt>
      <trkpt lat="34.327872259089126" lon="108.98824208701603">
        <ele>393.44638709165156</ele>
        <time>2022-03-23T10:43:47Z</time>
      </trkpt>
      <trkpt lat="34.32788650760818" lon="108.98781756596107">
        <ele>393.8158417865634</ele>
        <time>2022-03-23T10:43:53Z</time>
      </trkpt>
      <trkpt lat="34.327831256597634" lon="108.98733813556595">
        <ele>394.4803352113813</ele>
        <time>2022-03-23T10:44:01Z</time>
      </trkpt>
      <trkpt lat="34.327834055798995" lon="108.98719007584317">
        <ele>394.9096206407994</ele>
        <time>2022-03-23T10:44:03Z</time>
      </trkpt>
      <trkpt lat="34.32788723086651" lon="108.98693678165249">
        <ele>395.41108401305974</ele>
        <time>2022-03-23T10:44:07Z</time>
      </trkpt>
      <trkpt lat="34.32790039388236" lon="108.9863828951108">
        <ele>393.5066702654585</ele>
        <time>2022-03-23T10:44:15Z</time>
      </trkpt>
      <trkpt lat="34.32791959661702" lon="108.98623179635821">
        <ele>393.2161670261994</ele>
        <time>2022-03-23T10:44:17Z</time>
      </trkpt>
      <trkpt lat="34.3279176536514" lon="108.98609838178506">
        <ele>392.9032506356016</ele>
        <time>2022-03-23T10:44:19Z</time>
      </trkpt>
      <trkpt lat="34.327886938690085" lon="108.98596254420508">
        <ele>392.16493498627096</ele>
        <time>2022-03-23T10:44:21Z</time>
      </trkpt>
      <trkpt lat="34.32787163473348" lon="108.98567959327342">
        <ele>392.47528454940766</ele>
        <time>2022-03-23T10:44:25Z</time>
      </trkpt>
      <trkpt lat="34.32793783626486" lon="108.98538937930279">
        <ele>392.3846770497039</ele>
        <time>2022-03-23T10:44:29Z</time>
      </trkpt>
      <trkpt lat="34.32793897341149" lon="108.98525945881607">
        <ele>392.43095951527357</ele>
        <time>2022-03-23T10:44:31Z</time>
      </trkpt>
      <trkpt lat="34.32798086129659" lon="108.9851629044934">
        <ele>391.8691577864811</ele>
        <time>2022-03-23T10:44:33Z</time>
      </trkpt>
      <trkpt lat="34.328005009016664" lon="108.98479083353114">
        <ele>392.16316764894873</ele>
        <time>2022-03-23T10:44:39Z</time>
      </trkpt>
      <trkpt lat="34.32798711409675" lon="108.98464750808525">
        <ele>392.0151060903445</ele>
        <time>2022-03-23T10:44:43Z</time>
      </trkpt>
      <trkpt lat="34.328029030033484" lon="108.9842153293726">
        <ele>392.2377331154421</ele>
        <time>2022-03-23T10:44:51Z</time>
      </trkpt>
      <trkpt lat="34.32801746549863" lon="108.9839568380786">
        <ele>392.5947695411742</ele>
        <time>2022-03-23T10:44:55Z</time>
      </trkpt>
      <trkpt lat="34.32802951919264" lon="108.98364631982602">
        <ele>393.1019254764542</ele>
        <time>2022-03-23T10:45:01Z</time>
      </trkpt>
      <trkpt lat="34.32802133212721" lon="108.98343878223675">
        <ele>394.12743056658655</ele>
        <time>2022-03-23T10:45:05Z</time>
      </trkpt>
      <trkpt lat="34.32804222890907" lon="108.98286761963475">
        <ele>393.8367867032066</ele>
        <time>2022-03-23T10:45:15Z</time>
      </trkpt>
      <trkpt lat="34.32802657894685" lon="108.98276837445403">
        <ele>393.7871849592775</ele>
        <time>2022-03-23T10:45:17Z</time>
      </trkpt>
      <trkpt lat="34.328032361643245" lon="108.98230937262586">
        <ele>393.97922322060913</ele>
        <time>2022-03-23T10:45:25Z</time>
      </trkpt>
      <trkpt lat="34.32801294812654" lon="108.98218838221536">
        <ele>395.20447814650834</ele>
        <time>2022-03-23T10:45:27Z</time>
      </trkpt>
      <trkpt lat="34.32802081485088" lon="108.98203655161481">
        <ele>394.3305804943666</ele>
        <time>2022-03-23T10:45:29Z</time>
      </trkpt>
      <trkpt lat="34.32800647388502" lon="108.98194733437838">
        <ele>394.50172723829746</ele>
        <time>2022-03-23T10:45:31Z</time>
      </trkpt>
      <trkpt lat="34.32802567916166" lon="108.98168755937343">
        <ele>395.25068444386125</ele>
        <time>2022-03-23T10:45:41Z</time>
      </trkpt>
      <trkpt lat="34.32802065057552" lon="108.98152817622062">
        <ele>395.3412851989269</ele>
        <time>2022-03-23T10:45:45Z</time>
      </trkpt>
      <trkpt lat="34.3279843793192" lon="108.98139773519371">
        <ele>395.37095386721194</ele>
        <time>2022-03-23T10:45:49Z</time>
      </trkpt>
      <trkpt lat="34.328078155731326" lon="108.98120253768704">
        <ele>395.15712631400675</ele>
        <time>2022-03-23T10:45:59Z</time>
      </trkpt>
      <trkpt lat="34.328151695714936" lon="108.98118455577183">
        <ele>395.03456701990217</ele>
        <time>2022-03-23T10:46:05Z</time>
      </trkpt>
      <trkpt lat="34.328209331472785" lon="108.98113220991746">
        <ele>394.730941189453</ele>
        <time>2022-03-23T10:46:11Z</time>
      </trkpt>
      <trkpt lat="34.328242075424825" lon="108.98102706010182">
        <ele>394.09531811997294</ele>
        <time>2022-03-23T10:46:17Z</time>
      </trkpt>
      <trkpt lat="34.32826429988018" lon="108.98083006665192">
        <ele>394.7797016007826</ele>
        <time>2022-03-23T10:46:33Z</time>
      </trkpt>
      <trkpt lat="34.32832344293709" lon="108.98076105636568">
        <ele>395.24041758850217</ele>
        <time>2022-03-23T10:46:43Z</time>
      </trkpt>
      <trkpt lat="34.32838333051603" lon="108.98074230491625">
        <ele>395.27766611333936</ele>
        <time>2022-03-23T10:46:57Z</time>
      </trkpt>
      <trkpt lat="34.32852432921183" lon="108.98073009473516">
        <ele>395.7917309515178</ele>
        <time>2022-03-23T10:47:12Z</time>
      </trkpt>
      <trkpt lat="34.32853533292424" lon="108.98061285321238">
        <ele>395.24187184870243</ele>
        <time>2022-03-23T10:47:17Z</time>
      </trkpt>
      <trkpt lat="34.328562801001944" lon="108.980527099858">
        <ele>394.81257707439363</ele>
        <time>2022-03-23T10:47:23Z</time>
      </trkpt>
    </trkseg>
  </trk>
</gpx>