<?xml version="1.0" encoding="UTF-8"?>
<gpx xmlns="http://www.topografix.com/GPX/1/1" xmlns:gpxtpx="http://www.garmin.com/xmlschemas/TrackPointExtension/v1" xmlns:xsi="http://www.w3.org/2001/XMLSchema-instance" xsi:schemaLocation="http://www.topografix.com/GPX/1/1 http://www.topografix.com/GPX/1/1/gpx.xsd" version="1.1" creator="gpx.py -- https://github.com/tkrajina/gpxpy">
  <trk>
    <name>gpx from keep</name>
    <type>Ride</type>
    <trkseg>
      <trkpt lat="34.3283689242228" lon="108.98039680556995">
        <ele>483.457763671875</ele>
        <time>2022-03-08T23:30:50Z</time>
      </trkpt>
      <trkpt lat="34.327987440954374" lon="108.98063109484188">
        <ele>452.77655029296875</ele>
        <time>2022-03-08T23:31:44Z</time>
      </trkpt>
      <trkpt lat="34.32817902911149" lon="108.98038634220497">
        <ele>423.290283203125</ele>
        <time>2022-03-08T23:32:01Z</time>
      </trkpt>
      <trkpt lat="34.32873385473225" lon="108.98036719876927">
        <ele>399.3572692871094</ele>
        <time>2022-03-08T23:32:14Z</time>
      </trkpt>
      <trkpt lat="34.32854671697873" lon="108.980308563297">
        <ele>396.7633361816406</ele>
        <time>2022-03-08T23:32:20Z</time>
      </trkpt>
      <trkpt lat="34.32872481356955" lon="108.98010120514498">
        <ele>394.6060485839844</ele>
        <time>2022-03-08T23:32:26Z</time>
      </trkpt>
      <trkpt lat="34.32870753068765" lon="108.98031479798198">
        <ele>395.83977211037467</ele>
        <time>2022-03-08T23:32:32Z</time>
      </trkpt>
      <trkpt lat="34.3288056894196" lon="108.98041450826717">
        <ele>395.8298622461625</ele>
        <time>2022-03-08T23:32:34Z</time>
      </trkpt>
      <trkpt lat="34.32877941564433" lon="108.98050416575558">
        <ele>395.79858469946925</ele>
        <time>2022-03-08T23:32:36Z</time>
      </trkpt>
      <trkpt lat="34.32883139360457" lon="108.9806265095141">
        <ele>395.82999976302716</ele>
        <time>2022-03-08T23:32:38Z</time>
      </trkpt>
      <trkpt lat="34.32906136359392" lon="108.98086785577226">
        <ele>395.57543863449246</ele>
        <time>2022-03-08T23:32:46Z</time>
      </trkpt>
      <trkpt lat="34.32859012276573" lon="108.98077319668766">
        <ele>395.7968612667173</ele>
        <time>2022-03-08T23:32:50Z</time>
      </trkpt>
      <trkpt lat="34.32851164506857" lon="108.98078568828277">
        <ele>395.73513421975076</ele>
        <time>2022-03-08T23:32:54Z</time>
      </trkpt>
      <trkpt lat="34.32842486383535" lon="108.98082710333657">
        <ele>395.1488575441763</ele>
        <time>2022-03-08T23:33:00Z</time>
      </trkpt>
      <trkpt lat="34.328341418301704" lon="108.98079623532617">
        <ele>394.43693847116083</ele>
        <time>2022-03-08T23:33:06Z</time>
      </trkpt>
      <trkpt lat="34.32817210422669" lon="108.9808050108281">
        <ele>394.7345069507137</ele>
        <time>2022-03-08T23:33:16Z</time>
      </trkpt>
      <trkpt lat="34.32813120751451" lon="108.98089644120185">
        <ele>394.66461757477373</ele>
        <time>2022-03-08T23:33:26Z</time>
      </trkpt>
      <trkpt lat="34.328208546861696" lon="108.98121520576558">
        <ele>394.8630142817274</ele>
        <time>2022-03-08T23:33:44Z</time>
      </trkpt>
      <trkpt lat="34.328181030942844" lon="108.98129696850243">
        <ele>394.8887191079557</ele>
        <time>2022-03-08T23:33:56Z</time>
      </trkpt>
      <trkpt lat="34.32817112637633" lon="108.98128400375094">
        <ele>394.56494044326246</ele>
        <time>2022-03-08T23:33:58Z</time>
      </trkpt>
      <trkpt lat="34.32810070026934" lon="108.98145651207759">
        <ele>395.0799059411511</ele>
        <time>2022-03-08T23:34:39Z</time>
      </trkpt>
      <trkpt lat="34.328193589838634" lon="108.98171805798724">
        <ele>395.37558304704726</ele>
        <time>2022-03-08T23:34:47Z</time>
      </trkpt>
      <trkpt lat="34.32826279835748" lon="108.9818435063486">
        <ele>395.0481919478625</ele>
        <time>2022-03-08T23:34:51Z</time>
      </trkpt>
      <trkpt lat="34.32831482335267" lon="108.98199830410134">
        <ele>394.3465764001012</ele>
        <time>2022-03-08T23:34:55Z</time>
      </trkpt>
      <trkpt lat="34.328295199183266" lon="108.9821943150176">
        <ele>394.56431231368333</ele>
        <time>2022-03-08T23:34:59Z</time>
      </trkpt>
      <trkpt lat="34.32831268483808" lon="108.98249298854606">
        <ele>393.60419420339167</ele>
        <time>2022-03-08T23:35:07Z</time>
      </trkpt>
      <trkpt lat="34.32828262850559" lon="108.98274486733548">
        <ele>393.61492707394063</ele>
        <time>2022-03-08T23:35:17Z</time>
      </trkpt>
      <trkpt lat="34.32821739838949" lon="108.98281393531525">
        <ele>393.473811943084</ele>
        <time>2022-03-08T23:35:19Z</time>
      </trkpt>
      <trkpt lat="34.328165777143454" lon="108.98291297411865">
        <ele>393.8497786829248</ele>
        <time>2022-03-08T23:35:21Z</time>
      </trkpt>
      <trkpt lat="34.328157360332405" lon="108.98301613206972">
        <ele>393.30082033667713</ele>
        <time>2022-03-08T23:35:23Z</time>
      </trkpt>
      <trkpt lat="34.32818953066948" lon="108.98310099745515">
        <ele>392.8499251669273</ele>
        <time>2022-03-08T23:35:25Z</time>
      </trkpt>
      <trkpt lat="34.328260203755654" lon="108.98340541046024">
        <ele>392.9198515685275</ele>
        <time>2022-03-08T23:35:31Z</time>
      </trkpt>
      <trkpt lat="34.32835359502827" lon="108.9839708141083">
        <ele>392.8906256314367</ele>
        <time>2022-03-08T23:35:41Z</time>
      </trkpt>
      <trkpt lat="34.32834187098636" lon="108.98406215427113">
        <ele>392.7270782459527</ele>
        <time>2022-03-08T23:35:43Z</time>
      </trkpt>
      <trkpt lat="34.328269670831695" lon="108.98420401788485">
        <ele>392.55178703181446</ele>
        <time>2022-03-08T23:35:51Z</time>
      </trkpt>
      <trkpt lat="34.32805466235317" lon="108.98461406327476">
        <ele>392.3823425322771</ele>
        <time>2022-03-08T23:36:10Z</time>
      </trkpt>
      <trkpt lat="34.32801096470382" lon="108.98488570608234">
        <ele>392.0430105170235</ele>
        <time>2022-03-08T23:36:16Z</time>
      </trkpt>
      <trkpt lat="34.32803396997184" lon="108.98520997516053">
        <ele>394.07565676793456</ele>
        <time>2022-03-08T23:36:24Z</time>
      </trkpt>
      <trkpt lat="34.328006801664536" lon="108.98574532027109">
        <ele>392.5906272288412</ele>
        <time>2022-03-08T23:36:34Z</time>
      </trkpt>
      <trkpt lat="34.327968256027894" lon="108.98596759337217">
        <ele>392.36840105894953</ele>
        <time>2022-03-08T23:36:38Z</time>
      </trkpt>
      <trkpt lat="34.327936279568" lon="108.986564858258">
        <ele>392.37345998734236</ele>
        <time>2022-03-08T23:36:49Z</time>
      </trkpt>
      <trkpt lat="34.327899316559616" lon="108.98699929772935">
        <ele>393.48231615126133</ele>
        <time>2022-03-08T23:36:57Z</time>
      </trkpt>
      <trkpt lat="34.32790303033291" lon="108.98710424233617">
        <ele>393.8978961100802</ele>
        <time>2022-03-08T23:36:59Z</time>
      </trkpt>
      <trkpt lat="34.32788705363574" lon="108.98722600015215">
        <ele>394.1806245110929</ele>
        <time>2022-03-08T23:37:01Z</time>
      </trkpt>
      <trkpt lat="34.327925213141896" lon="108.98774690333344">
        <ele>394.4549072254449</ele>
        <time>2022-03-08T23:37:11Z</time>
      </trkpt>
      <trkpt lat="34.32794135305084" lon="108.98796168518527">
        <ele>393.29012653790414</ele>
        <time>2022-03-08T23:37:15Z</time>
      </trkpt>
      <trkpt lat="34.3279335763786" lon="108.98817763408609">
        <ele>393.36913987249136</ele>
        <time>2022-03-08T23:37:19Z</time>
      </trkpt>
      <trkpt lat="34.32794960441374" lon="108.98859596536387">
        <ele>393.0331709701568</ele>
        <time>2022-03-08T23:37:27Z</time>
      </trkpt>
      <trkpt lat="34.32793136795414" lon="108.98870102983507">
        <ele>392.9929105779156</ele>
        <time>2022-03-08T23:37:29Z</time>
      </trkpt>
      <trkpt lat="34.327941585497435" lon="108.98892229360715">
        <ele>392.64620806090534</ele>
        <time>2022-03-08T23:37:33Z</time>
      </trkpt>
      <trkpt lat="34.327881044857726" lon="108.9894414447586">
        <ele>391.44969196617603</ele>
        <time>2022-03-08T23:37:43Z</time>
      </trkpt>
      <trkpt lat="34.32788949328563" lon="108.98965970455338">
        <ele>392.4535114169121</ele>
        <time>2022-03-08T23:37:47Z</time>
      </trkpt>
      <trkpt lat="34.327859125365435" lon="108.98986882706214">
        <ele>392.4901415593922</ele>
        <time>2022-03-08T23:37:51Z</time>
      </trkpt>
      <trkpt lat="34.32785248678651" lon="108.99015530531544">
        <ele>391.70174156688154</ele>
        <time>2022-03-08T23:37:57Z</time>
      </trkpt>
      <trkpt lat="34.32782830381885" lon="108.9902553844342">
        <ele>392.0554715162143</ele>
        <time>2022-03-08T23:37:59Z</time>
      </trkpt>
      <trkpt lat="34.32777649001862" lon="108.9903500040953">
        <ele>391.5896088210866</ele>
        <time>2022-03-08T23:38:03Z</time>
      </trkpt>
      <trkpt lat="34.32781462738245" lon="108.9903320497664">
        <ele>391.6409850884229</ele>
        <time>2022-03-08T23:38:11Z</time>
      </trkpt>
      <trkpt lat="34.32783773726064" lon="108.99046622924457">
        <ele>390.89244901388884</ele>
        <time>2022-03-08T23:39:06Z</time>
      </trkpt>
      <trkpt lat="34.32785031035583" lon="108.99059158999088">
        <ele>391.53925029188395</ele>
        <time>2022-03-08T23:39:09Z</time>
      </trkpt>
      <trkpt lat="34.32784217854726" lon="108.99072645659389">
        <ele>391.65872311219573</ele>
        <time>2022-03-08T23:39:13Z</time>
      </trkpt>
      <trkpt lat="34.327884995493974" lon="108.99083107896489">
        <ele>391.18159464839846</ele>
        <time>2022-03-08T23:39:15Z</time>
      </trkpt>
      <trkpt lat="34.32790498777401" lon="108.99095967265374">
        <ele>391.8539513377473</ele>
        <time>2022-03-08T23:39:17Z</time>
      </trkpt>
      <trkpt lat="34.327993599309856" lon="108.99115954289299">
        <ele>390.9109768997878</ele>
        <time>2022-03-08T23:39:23Z</time>
      </trkpt>
      <trkpt lat="34.32796651246602" lon="108.99143583344717">
        <ele>391.7165927840397</ele>
        <time>2022-03-08T23:39:31Z</time>
      </trkpt>
      <trkpt lat="34.32795671901976" lon="108.99192075218926">
        <ele>393.50242955982685</ele>
        <time>2022-03-08T23:39:47Z</time>
      </trkpt>
      <trkpt lat="34.32797720520334" lon="108.99203124580863">
        <ele>393.32466036919504</ele>
        <time>2022-03-08T23:39:51Z</time>
      </trkpt>
      <trkpt lat="34.32804142449356" lon="108.99211003835306">
        <ele>392.45209604967386</ele>
        <time>2022-03-08T23:39:55Z</time>
      </trkpt>
      <trkpt lat="34.328002794901145" lon="108.99233898001313">
        <ele>393.7395635973662</ele>
        <time>2022-03-08T23:40:03Z</time>
      </trkpt>
      <trkpt lat="34.32800104303794" lon="108.99258690985505">
        <ele>393.2060792678967</ele>
        <time>2022-03-08T23:40:11Z</time>
      </trkpt>
      <trkpt lat="34.32807787166491" lon="108.99296324301311">
        <ele>393.74128307309</ele>
        <time>2022-03-08T23:40:19Z</time>
      </trkpt>
      <trkpt lat="34.32808925667165" lon="108.99319178650812">
        <ele>393.7854124708101</ele>
        <time>2022-03-08T23:40:23Z</time>
      </trkpt>
      <trkpt lat="34.32797317532627" lon="108.99384533810043">
        <ele>393.0246311314404</ele>
        <time>2022-03-08T23:40:33Z</time>
      </trkpt>
      <trkpt lat="34.327969168603204" lon="108.99430253811087">
        <ele>394.97991108335555</ele>
        <time>2022-03-08T23:40:41Z</time>
      </trkpt>
      <trkpt lat="34.32799912613073" lon="108.99459490047587">
        <ele>394.1094977427274</ele>
        <time>2022-03-08T23:40:47Z</time>
      </trkpt>
      <trkpt lat="34.32809778028376" lon="108.99489975077881">
        <ele>394.50263096857816</ele>
        <time>2022-03-08T23:40:55Z</time>
      </trkpt>
      <trkpt lat="34.32807126560086" lon="108.99512977688325">
        <ele>395.68758449703455</ele>
        <time>2022-03-08T23:41:03Z</time>
      </trkpt>
      <trkpt lat="34.328183725367424" lon="108.99550002879103">
        <ele>393.7196886045858</ele>
        <time>2022-03-08T23:41:13Z</time>
      </trkpt>
      <trkpt lat="34.32819144208127" lon="108.99574110774851">
        <ele>393.91420146171004</ele>
        <time>2022-03-08T23:41:19Z</time>
      </trkpt>
      <trkpt lat="34.32828506761154" lon="108.99607036981024">
        <ele>393.14165036100894</ele>
        <time>2022-03-08T23:41:31Z</time>
      </trkpt>
      <trkpt lat="34.32827986554637" lon="108.99615884882719">
        <ele>392.8512444952503</ele>
        <time>2022-03-08T23:41:33Z</time>
      </trkpt>
      <trkpt lat="34.32832799627812" lon="108.99622334759742">
        <ele>393.5511428201571</ele>
        <time>2022-03-08T23:41:37Z</time>
      </trkpt>
      <trkpt lat="34.3283860180329" lon="108.99641773625588">
        <ele>394.1709362687543</ele>
        <time>2022-03-08T23:41:45Z</time>
      </trkpt>
      <trkpt lat="34.328376069760914" lon="108.99651518938516">
        <ele>394.0198974246159</ele>
        <time>2022-03-08T23:41:47Z</time>
      </trkpt>
      <trkpt lat="34.32832047315822" lon="108.99661326613843">
        <ele>393.9718573568389</ele>
        <time>2022-03-08T23:41:51Z</time>
      </trkpt>
      <trkpt lat="34.328260037978474" lon="108.99668218325341">
        <ele>394.10340327676386</ele>
        <time>2022-03-08T23:41:57Z</time>
      </trkpt>
      <trkpt lat="34.32790454434611" lon="108.9977652187427">
        <ele>394.6216692654416</ele>
        <time>2022-03-08T23:42:16Z</time>
      </trkpt>
      <trkpt lat="34.32791782154296" lon="108.99786908133429">
        <ele>394.0399019084871</ele>
        <time>2022-03-08T23:42:18Z</time>
      </trkpt>
      <trkpt lat="34.32803466888365" lon="108.99804769177419">
        <ele>394.63979153800756</ele>
        <time>2022-03-08T23:42:22Z</time>
      </trkpt>
      <trkpt lat="34.32802938566825" lon="108.99823302253215">
        <ele>393.8396728243679</ele>
        <time>2022-03-08T23:42:24Z</time>
      </trkpt>
      <trkpt lat="34.32799717582871" lon="108.99838309214908">
        <ele>393.9585762564093</ele>
        <time>2022-03-08T23:42:26Z</time>
      </trkpt>
      <trkpt lat="34.32796391434314" lon="108.99893297241302">
        <ele>393.7642787154764</ele>
        <time>2022-03-08T23:42:34Z</time>
      </trkpt>
      <trkpt lat="34.32797092465039" lon="108.99940829471291">
        <ele>393.9639551853761</ele>
        <time>2022-03-08T23:42:42Z</time>
      </trkpt>
      <trkpt lat="34.327990510665884" lon="108.99963118855902">
        <ele>393.5682884436101</ele>
        <time>2022-03-08T23:42:46Z</time>
      </trkpt>
      <trkpt lat="34.32798107663793" lon="108.99975477413479">
        <ele>393.4197871843353</ele>
        <time>2022-03-08T23:42:48Z</time>
      </trkpt>
      <trkpt lat="34.32799891341067" lon="108.9998473414829">
        <ele>393.3821316594258</ele>
        <time>2022-03-08T23:42:50Z</time>
      </trkpt>
      <trkpt lat="34.32799818897714" lon="109.00019126112929">
        <ele>392.9117087451741</ele>
        <time>2022-03-08T23:42:56Z</time>
      </trkpt>
      <trkpt lat="34.327976838017335" lon="109.00052286671342">
        <ele>394.05310370214283</ele>
        <time>2022-03-08T23:43:02Z</time>
      </trkpt>
      <trkpt lat="34.32800582771206" lon="109.00080918848718">
        <ele>393.85396403074265</ele>
        <time>2022-03-08T23:43:07Z</time>
      </trkpt>
      <trkpt lat="34.32797559704296" lon="109.0010619904607">
        <ele>394.1317067379132</ele>
        <time>2022-03-08T23:43:11Z</time>
      </trkpt>
      <trkpt lat="34.3279823818003" lon="109.00160847083556">
        <ele>394.708524777554</ele>
        <time>2022-03-08T23:43:21Z</time>
      </trkpt>
      <trkpt lat="34.327992111116984" lon="109.00182017401265">
        <ele>394.0991671513766</ele>
        <time>2022-03-08T23:43:25Z</time>
      </trkpt>
      <trkpt lat="34.327974649478456" lon="109.00191573929449">
        <ele>393.50606031995267</ele>
        <time>2022-03-08T23:43:27Z</time>
      </trkpt>
      <trkpt lat="34.32798464335969" lon="109.00253998759182">
        <ele>395.3955999799073</ele>
        <time>2022-03-08T23:43:39Z</time>
      </trkpt>
      <trkpt lat="34.32796009513607" lon="109.00292755777565">
        <ele>395.34461110271513</ele>
        <time>2022-03-08T23:43:47Z</time>
      </trkpt>
      <trkpt lat="34.32795719988913" lon="109.00346282654334">
        <ele>394.76912315376103</ele>
        <time>2022-03-08T23:43:57Z</time>
      </trkpt>
      <trkpt lat="34.3279748012597" lon="109.00369932037923">
        <ele>394.6340143205598</ele>
        <time>2022-03-08T23:44:01Z</time>
      </trkpt>
      <trkpt lat="34.32795974427643" lon="109.00416910532864">
        <ele>393.9515870735049</ele>
        <time>2022-03-08T23:44:09Z</time>
      </trkpt>
      <trkpt lat="34.327975956989334" lon="109.00438433485803">
        <ele>393.85461222939193</ele>
        <time>2022-03-08T23:44:13Z</time>
      </trkpt>
      <trkpt lat="34.32794206707115" lon="109.0045963816627">
        <ele>393.5935681350529</ele>
        <time>2022-03-08T23:44:17Z</time>
      </trkpt>
      <trkpt lat="34.3279139201327" lon="109.00497757179666">
        <ele>393.6161699667573</ele>
        <time>2022-03-08T23:44:25Z</time>
      </trkpt>
      <trkpt lat="34.32796420530346" lon="109.00524964954722">
        <ele>394.2194208903238</ele>
        <time>2022-03-08T23:44:31Z</time>
      </trkpt>
      <trkpt lat="34.32797977716705" lon="109.00556794978026">
        <ele>394.5931888539344</ele>
        <time>2022-03-08T23:44:37Z</time>
      </trkpt>
      <trkpt lat="34.327969082571144" lon="109.00568945429737">
        <ele>394.6934020994231</ele>
        <time>2022-03-08T23:44:39Z</time>
      </trkpt>
      <trkpt lat="34.32797818123413" lon="109.00580014037104">
        <ele>394.5715072657913</ele>
        <time>2022-03-08T23:44:41Z</time>
      </trkpt>
      <trkpt lat="34.32795866302994" lon="109.00601509938184">
        <ele>394.5894300462678</ele>
        <time>2022-03-08T23:44:45Z</time>
      </trkpt>
      <trkpt lat="34.327994978517005" lon="109.00639903431811">
        <ele>394.5952641442418</ele>
        <time>2022-03-08T23:44:51Z</time>
      </trkpt>
      <trkpt lat="34.32800653445719" lon="109.00678138174197">
        <ele>393.6649868423119</ele>
        <time>2022-03-08T23:44:57Z</time>
      </trkpt>
      <trkpt lat="34.32799676520555" lon="109.00693202314176">
        <ele>394.3582438202575</ele>
        <time>2022-03-08T23:44:59Z</time>
      </trkpt>
      <trkpt lat="34.327989683464736" lon="109.00735111351594">
        <ele>393.27931008767337</ele>
        <time>2022-03-08T23:45:05Z</time>
      </trkpt>
      <trkpt lat="34.32792955868427" lon="109.00760410545763">
        <ele>392.60028633102775</ele>
        <time>2022-03-08T23:45:09Z</time>
      </trkpt>
      <trkpt lat="34.32789722036818" lon="109.0082525545576">
        <ele>392.37990724667907</ele>
        <time>2022-03-08T23:45:19Z</time>
      </trkpt>
      <trkpt lat="34.32789394932104" lon="109.00887810261338">
        <ele>392.38079979177564</ele>
        <time>2022-03-08T23:45:29Z</time>
      </trkpt>
      <trkpt lat="34.32788709944572" lon="109.00949908709333">
        <ele>389.2330385381356</ele>
        <time>2022-03-08T23:45:39Z</time>
      </trkpt>
      <trkpt lat="34.327903105950725" lon="109.01003576118316">
        <ele>386.22258355934173</ele>
        <time>2022-03-08T23:45:47Z</time>
      </trkpt>
      <trkpt lat="34.32789619182363" lon="109.01017354447379">
        <ele>385.93120227754116</ele>
        <time>2022-03-08T23:45:49Z</time>
      </trkpt>
      <trkpt lat="34.32790575738741" lon="109.01052972555323">
        <ele>386.3326527355239</ele>
        <time>2022-03-08T23:45:55Z</time>
      </trkpt>
      <trkpt lat="34.327869526613796" lon="109.01086940321198">
        <ele>385.66726265568286</ele>
        <time>2022-03-08T23:46:01Z</time>
      </trkpt>
      <trkpt lat="34.327883079548855" lon="109.01137333247463">
        <ele>386.42015438713133</ele>
        <time>2022-03-08T23:46:11Z</time>
      </trkpt>
      <trkpt lat="34.32790014328889" lon="109.01147133965918">
        <ele>387.5785670587793</ele>
        <time>2022-03-08T23:46:13Z</time>
      </trkpt>
      <trkpt lat="34.327896561193946" lon="109.01156289742404">
        <ele>387.97774673160166</ele>
        <time>2022-03-08T23:46:15Z</time>
      </trkpt>
      <trkpt lat="34.3279161417217" lon="109.01167345389246">
        <ele>386.8674053726718</ele>
        <time>2022-03-08T23:46:17Z</time>
      </trkpt>
      <trkpt lat="34.32789427067709" lon="109.01185154118916">
        <ele>387.1013557687402</ele>
        <time>2022-03-08T23:46:20Z</time>
      </trkpt>
      <trkpt lat="34.32788947648938" lon="109.01207936380358">
        <ele>387.0649857977405</ele>
        <time>2022-03-08T23:46:24Z</time>
      </trkpt>
      <trkpt lat="34.32791382581371" lon="109.01251619453595">
        <ele>387.648312240839</ele>
        <time>2022-03-08T23:46:32Z</time>
      </trkpt>
      <trkpt lat="34.32790668087243" lon="109.0130563240342">
        <ele>389.6777862235904</ele>
        <time>2022-03-08T23:46:42Z</time>
      </trkpt>
      <trkpt lat="34.32791471422822" lon="109.01351391112205">
        <ele>390.0852451873943</ele>
        <time>2022-03-08T23:46:50Z</time>
      </trkpt>
      <trkpt lat="34.327945803819695" lon="109.01373384460612">
        <ele>389.38312139641494</ele>
        <time>2022-03-08T23:46:54Z</time>
      </trkpt>
      <trkpt lat="34.327962597602294" lon="109.01404454479135">
        <ele>389.02620873227715</ele>
        <time>2022-03-08T23:47:00Z</time>
      </trkpt>
      <trkpt lat="34.32794342729676" lon="109.01458837001434">
        <ele>388.14774248190224</ele>
        <time>2022-03-08T23:47:10Z</time>
      </trkpt>
      <trkpt lat="34.328006156596615" lon="109.01514814098967">
        <ele>387.42878004629165</ele>
        <time>2022-03-08T23:47:19Z</time>
      </trkpt>
      <trkpt lat="34.32801891596825" lon="109.0155138760998">
        <ele>387.56576968263835</ele>
        <time>2022-03-08T23:47:25Z</time>
      </trkpt>
      <trkpt lat="34.32804848201574" lon="109.01560909102169">
        <ele>388.18428681977093</ele>
        <time>2022-03-08T23:47:27Z</time>
      </trkpt>
      <trkpt lat="34.32813140192537" lon="109.01567764432632">
        <ele>388.01360928826034</ele>
        <time>2022-03-08T23:47:29Z</time>
      </trkpt>
      <trkpt lat="34.32811578389387" lon="109.01587178038581">
        <ele>388.45267577283084</ele>
        <time>2022-03-08T23:47:33Z</time>
      </trkpt>
      <trkpt lat="34.32813182982528" lon="109.01596983226513">
        <ele>388.7535246880725</ele>
        <time>2022-03-08T23:47:35Z</time>
      </trkpt>
      <trkpt lat="34.3280979635346" lon="109.01622962448285">
        <ele>388.05639694351703</ele>
        <time>2022-03-08T23:47:39Z</time>
      </trkpt>
      <trkpt lat="34.328038498383584" lon="109.01648419243948">
        <ele>387.451676171273</ele>
        <time>2022-03-08T23:47:43Z</time>
      </trkpt>
      <trkpt lat="34.32803400350914" lon="109.01660398235974">
        <ele>387.67760535608977</ele>
        <time>2022-03-08T23:47:45Z</time>
      </trkpt>
      <trkpt lat="34.32781662051528" lon="109.01708185309205">
        <ele>388.2317437995225</ele>
        <time>2022-03-08T23:47:53Z</time>
      </trkpt>
      <trkpt lat="34.3276862638765" lon="109.0175328976552">
        <ele>387.8040626803413</ele>
        <time>2022-03-08T23:48:01Z</time>
      </trkpt>
      <trkpt lat="34.3276896203917" lon="109.0180773223504">
        <ele>388.5234164567664</ele>
        <time>2022-03-08T23:48:11Z</time>
      </trkpt>
      <trkpt lat="34.327706280740486" lon="109.01817485155662">
        <ele>388.75930844806135</ele>
        <time>2022-03-08T23:48:13Z</time>
      </trkpt>
      <trkpt lat="34.32769670319343" lon="109.0184119653775">
        <ele>387.97107834741473</ele>
        <time>2022-03-08T23:48:17Z</time>
      </trkpt>
      <trkpt lat="34.327567493588944" lon="109.01870920379429">
        <ele>388.43782749958336</ele>
        <time>2022-03-08T23:48:23Z</time>
      </trkpt>
      <trkpt lat="34.32750139754338" lon="109.01880450904281">
        <ele>388.8428643224761</ele>
        <time>2022-03-08T23:48:25Z</time>
      </trkpt>
      <trkpt lat="34.32741352847772" lon="109.0189886546888">
        <ele>389.683087060228</ele>
        <time>2022-03-08T23:48:29Z</time>
      </trkpt>
      <trkpt lat="34.327074329658416" lon="109.01945143146533">
        <ele>388.45156920701265</ele>
        <time>2022-03-08T23:48:39Z</time>
      </trkpt>
      <trkpt lat="34.32681804312182" lon="109.0198435555286">
        <ele>388.04363049939275</ele>
        <time>2022-03-08T23:48:47Z</time>
      </trkpt>
      <trkpt lat="34.32649165458277" lon="109.02027603561278">
        <ele>388.24056210927665</ele>
        <time>2022-03-08T23:48:57Z</time>
      </trkpt>
      <trkpt lat="34.32608715010431" lon="109.02066481824237">
        <ele>388.1438352111727</ele>
        <time>2022-03-08T23:49:07Z</time>
      </trkpt>
      <trkpt lat="34.325700869103" lon="109.02096535018514">
        <ele>388.65939453523606</ele>
        <time>2022-03-08T23:49:16Z</time>
      </trkpt>
      <trkpt lat="34.32530826765301" lon="109.02122317249022">
        <ele>388.25454751588404</ele>
        <time>2022-03-08T23:49:25Z</time>
      </trkpt>
      <trkpt lat="34.325224376654624" lon="109.02128579455352">
        <ele>388.2331500761211</ele>
        <time>2022-03-08T23:49:27Z</time>
      </trkpt>
      <trkpt lat="34.324883885058995" lon="109.02145359476155">
        <ele>388.3552477080375</ele>
        <time>2022-03-08T23:49:35Z</time>
      </trkpt>
      <trkpt lat="34.32468121761001" lon="109.0215183309252">
        <ele>389.3388592172414</ele>
        <time>2022-03-08T23:49:39Z</time>
      </trkpt>
      <trkpt lat="34.32459504899508" lon="109.0215636032551">
        <ele>389.0479425797239</ele>
        <time>2022-03-08T23:49:41Z</time>
      </trkpt>
      <trkpt lat="34.324299998079155" lon="109.02163606643438">
        <ele>388.47274840436876</ele>
        <time>2022-03-08T23:49:47Z</time>
      </trkpt>
      <trkpt lat="34.3241111984298" lon="109.02169191168764">
        <ele>388.6293060462922</ele>
        <time>2022-03-08T23:49:51Z</time>
      </trkpt>
      <trkpt lat="34.323626513285305" lon="109.02174454154283">
        <ele>388.93945802003145</ele>
        <time>2022-03-08T23:50:01Z</time>
      </trkpt>
      <trkpt lat="34.323156355534394" lon="109.02179552179217">
        <ele>389.49579993169755</ele>
        <time>2022-03-08T23:50:11Z</time>
      </trkpt>
      <trkpt lat="34.32296000955078" lon="109.0217934407963">
        <ele>390.0510550457984</ele>
        <time>2022-03-08T23:50:15Z</time>
      </trkpt>
      <trkpt lat="34.32287269126829" lon="109.02181324523283">
        <ele>390.17380816861987</ele>
        <time>2022-03-08T23:50:17Z</time>
      </trkpt>
      <trkpt lat="34.32239197697751" lon="109.02179341492035">
        <ele>390.20239243935794</ele>
        <time>2022-03-08T23:50:27Z</time>
      </trkpt>
      <trkpt lat="34.32190479649637" lon="109.0217140760371">
        <ele>389.6384717589244</ele>
        <time>2022-03-08T23:50:37Z</time>
      </trkpt>
      <trkpt lat="34.321522319306965" lon="109.02167211565887">
        <ele>389.81453432142735</ele>
        <time>2022-03-08T23:50:45Z</time>
      </trkpt>
      <trkpt lat="34.321332243552135" lon="109.0216725518697">
        <ele>390.2111701434478</ele>
        <time>2022-03-08T23:50:49Z</time>
      </trkpt>
      <trkpt lat="34.32087214378362" lon="109.02161046083391">
        <ele>390.3996622674167</ele>
        <time>2022-03-08T23:50:59Z</time>
      </trkpt>
      <trkpt lat="34.32040142366666" lon="109.02153642282188">
        <ele>390.0090491771698</ele>
        <time>2022-03-08T23:51:09Z</time>
      </trkpt>
      <trkpt lat="34.31992501368971" lon="109.02145827599242">
        <ele>390.256260195747</ele>
        <time>2022-03-08T23:51:19Z</time>
      </trkpt>
      <trkpt lat="34.319529271004306" lon="109.0214157999433">
        <ele>390.2325199926272</ele>
        <time>2022-03-08T23:51:27Z</time>
      </trkpt>
      <trkpt lat="34.31904100879425" lon="109.02146866931776">
        <ele>390.92225111927837</ele>
        <time>2022-03-08T23:51:37Z</time>
      </trkpt>
      <trkpt lat="34.318569543734796" lon="109.02148335114828">
        <ele>390.20584874786437</ele>
        <time>2022-03-08T23:51:47Z</time>
      </trkpt>
      <trkpt lat="34.318274757363525" lon="109.02154291255474">
        <ele>390.4693333376199</ele>
        <time>2022-03-08T23:51:53Z</time>
      </trkpt>
      <trkpt lat="34.31797196152385" lon="109.02154110136198">
        <ele>390.48454819153994</ele>
        <time>2022-03-08T23:51:59Z</time>
      </trkpt>
      <trkpt lat="34.3174778856106" lon="109.02162274942204">
        <ele>390.8429328985512</ele>
        <time>2022-03-08T23:52:09Z</time>
      </trkpt>
      <trkpt lat="34.31699626928123" lon="109.02166101238066">
        <ele>391.3437134884298</ele>
        <time>2022-03-08T23:52:19Z</time>
      </trkpt>
      <trkpt lat="34.31652846940976" lon="109.02176523324333">
        <ele>391.1151337688789</ele>
        <time>2022-03-08T23:52:29Z</time>
      </trkpt>
      <trkpt lat="34.31606266610386" lon="109.02195276253259">
        <ele>391.58812929317355</ele>
        <time>2022-03-08T23:52:39Z</time>
      </trkpt>
      <trkpt lat="34.315613600089996" lon="109.02213048580359">
        <ele>391.4579181158915</ele>
        <time>2022-03-08T23:52:49Z</time>
      </trkpt>
      <trkpt lat="34.31555076072385" lon="109.02218309580199">
        <ele>391.30200501251966</ele>
        <time>2022-03-08T23:52:51Z</time>
      </trkpt>
      <trkpt lat="34.315475013088246" lon="109.02221502528047">
        <ele>391.47146546375006</ele>
        <time>2022-03-08T23:52:53Z</time>
      </trkpt>
      <trkpt lat="34.31546759567437" lon="109.02223780419497">
        <ele>392.03408586699516</ele>
        <time>2022-03-08T23:53:03Z</time>
      </trkpt>
      <trkpt lat="34.315525943173" lon="109.02236895341511">
        <ele>392.49533922504634</ele>
        <time>2022-03-08T23:53:08Z</time>
      </trkpt>
      <trkpt lat="34.31567269088079" lon="109.02242756709481">
        <ele>391.6415710505098</ele>
        <time>2022-03-08T23:53:12Z</time>
      </trkpt>
      <trkpt lat="34.31573943694236" lon="109.0224825231692">
        <ele>391.01311373431236</ele>
        <time>2022-03-08T23:53:14Z</time>
      </trkpt>
      <trkpt lat="34.31587177686936" lon="109.02279181200417">
        <ele>390.26718229148537</ele>
        <time>2022-03-08T23:53:20Z</time>
      </trkpt>
      <trkpt lat="34.31590702856437" lon="109.02291261129285">
        <ele>389.9327816115692</ele>
        <time>2022-03-08T23:53:22Z</time>
      </trkpt>
      <trkpt lat="34.31614592612504" lon="109.02346440467987">
        <ele>387.2742222137749</ele>
        <time>2022-03-08T23:53:32Z</time>
      </trkpt>
      <trkpt lat="34.31620528923094" lon="109.02360025414211">
        <ele>388.0886000301689</ele>
        <time>2022-03-08T23:53:35Z</time>
      </trkpt>
      <trkpt lat="34.3161888601515" lon="109.02370135528778">
        <ele>388.81141747906804</ele>
        <time>2022-03-08T23:53:37Z</time>
      </trkpt>
      <trkpt lat="34.31611499100599" lon="109.02381120044254">
        <ele>389.120866805315</ele>
        <time>2022-03-08T23:53:41Z</time>
      </trkpt>
      <trkpt lat="34.315969384298846" lon="109.02391711056964">
        <ele>389.41551505960524</ele>
        <time>2022-03-08T23:53:45Z</time>
      </trkpt>
      <trkpt lat="34.31564375482765" lon="109.0241070835629">
        <ele>389.8524216283113</ele>
        <time>2022-03-08T23:53:53Z</time>
      </trkpt>
      <trkpt lat="34.3152563871051" lon="109.02440568735581">
        <ele>389.5730463359505</ele>
        <time>2022-03-08T23:54:03Z</time>
      </trkpt>
      <trkpt lat="34.314826739975935" lon="109.02474196594822">
        <ele>390.7278967658058</ele>
        <time>2022-03-08T23:54:15Z</time>
      </trkpt>
      <trkpt lat="34.31472226366689" lon="109.02478220998492">
        <ele>389.87387153785676</ele>
        <time>2022-03-08T23:54:17Z</time>
      </trkpt>
      <trkpt lat="34.314371821110974" lon="109.02505814127451">
        <ele>390.09253049921244</ele>
        <time>2022-03-08T23:54:26Z</time>
      </trkpt>
      <trkpt lat="34.31407778568025" lon="109.02520871688273">
        <ele>389.93312033172697</ele>
        <time>2022-03-08T23:54:32Z</time>
      </trkpt>
      <trkpt lat="34.313759814124026" lon="109.02534696393947">
        <ele>390.22384678944945</ele>
        <time>2022-03-08T23:54:38Z</time>
      </trkpt>
      <trkpt lat="34.31353239940774" lon="109.02542748095748">
        <ele>391.0668915947899</ele>
        <time>2022-03-08T23:54:42Z</time>
      </trkpt>
      <trkpt lat="34.31313228451715" lon="109.02563694383576">
        <ele>390.81401157565415</ele>
        <time>2022-03-08T23:54:50Z</time>
      </trkpt>
      <trkpt lat="34.31276428685572" lon="109.02586640900434">
        <ele>391.1949003422633</ele>
        <time>2022-03-08T23:54:58Z</time>
      </trkpt>
      <trkpt lat="34.312630442644775" lon="109.0260006707313">
        <ele>392.18262200336903</ele>
        <time>2022-03-08T23:55:02Z</time>
      </trkpt>
      <trkpt lat="34.31256071441076" lon="109.02604382897539">
        <ele>392.4652440007776</ele>
        <time>2022-03-08T23:55:04Z</time>
      </trkpt>
      <trkpt lat="34.31238157276289" lon="109.02622793025037">
        <ele>392.4316060738638</ele>
        <time>2022-03-08T23:55:10Z</time>
      </trkpt>
      <trkpt lat="34.31216530455915" lon="109.02633230046307">
        <ele>392.4647562550381</ele>
        <time>2022-03-08T23:55:14Z</time>
      </trkpt>
      <trkpt lat="34.311980278904315" lon="109.0264480637302">
        <ele>393.013728806749</ele>
        <time>2022-03-08T23:55:20Z</time>
      </trkpt>
      <trkpt lat="34.31189761637317" lon="109.02654586716525">
        <ele>392.4374866876751</ele>
        <time>2022-03-08T23:55:24Z</time>
      </trkpt>
      <trkpt lat="34.311775884789974" lon="109.02683119111616">
        <ele>392.1879702983424</ele>
        <time>2022-03-08T23:55:32Z</time>
      </trkpt>
      <trkpt lat="34.311666872423245" lon="109.02701834054444">
        <ele>392.4836127990857</ele>
        <time>2022-03-08T23:55:37Z</time>
      </trkpt>
      <trkpt lat="34.31141191391918" lon="109.02736216162928">
        <ele>391.691241113469</ele>
        <time>2022-03-08T23:55:45Z</time>
      </trkpt>
      <trkpt lat="34.311346269175694" lon="109.0278060268801">
        <ele>392.2862351797521</ele>
        <time>2022-03-08T23:55:53Z</time>
      </trkpt>
      <trkpt lat="34.31135237377907" lon="109.02790749588488">
        <ele>391.82340494170785</ele>
        <time>2022-03-08T23:55:55Z</time>
      </trkpt>
      <trkpt lat="34.311339174178244" lon="109.02802104119715">
        <ele>391.96374044846743</ele>
        <time>2022-03-08T23:55:57Z</time>
      </trkpt>
      <trkpt lat="34.31134954540786" lon="109.02819649377788">
        <ele>392.3461243994534</ele>
        <time>2022-03-08T23:56:01Z</time>
      </trkpt>
      <trkpt lat="34.31133832283389" lon="109.02840507228716">
        <ele>392.76373143680394</ele>
        <time>2022-03-08T23:56:05Z</time>
      </trkpt>
      <trkpt lat="34.31122960452476" lon="109.02884381475334">
        <ele>392.5130991842598</ele>
        <time>2022-03-08T23:56:13Z</time>
      </trkpt>
      <trkpt lat="34.31106307640296" lon="109.02903420881569">
        <ele>391.3977905269712</ele>
        <time>2022-03-08T23:56:17Z</time>
      </trkpt>
      <trkpt lat="34.31070871376647" lon="109.02934900158115">
        <ele>391.52084237430245</ele>
        <time>2022-03-08T23:56:25Z</time>
      </trkpt>
      <trkpt lat="34.31042093175239" lon="109.02950555385611">
        <ele>391.81122373137623</ele>
        <time>2022-03-08T23:56:31Z</time>
      </trkpt>
      <trkpt lat="34.31030666909412" lon="109.02950791315376">
        <ele>391.4159429259598</ele>
        <time>2022-03-08T23:56:33Z</time>
      </trkpt>
      <trkpt lat="34.31011112799308" lon="109.02954255691297">
        <ele>392.39911699388176</ele>
        <time>2022-03-08T23:56:37Z</time>
      </trkpt>
      <trkpt lat="34.30966562771766" lon="109.02942696508002">
        <ele>391.9329472100362</ele>
        <time>2022-03-08T23:56:45Z</time>
      </trkpt>
      <trkpt lat="34.30957128253069" lon="109.02939745243206">
        <ele>392.1450498951599</ele>
        <time>2022-03-08T23:56:47Z</time>
      </trkpt>
      <trkpt lat="34.30948200956474" lon="109.02934692155259">
        <ele>391.6568340426311</ele>
        <time>2022-03-08T23:56:49Z</time>
      </trkpt>
      <trkpt lat="34.30906964761694" lon="109.02896023937865">
        <ele>392.3371319081634</ele>
        <time>2022-03-08T23:56:59Z</time>
      </trkpt>
      <trkpt lat="34.30889116648141" lon="109.02888145479173">
        <ele>392.75656728446484</ele>
        <time>2022-03-08T23:57:03Z</time>
      </trkpt>
      <trkpt lat="34.30870766401777" lon="109.0288506203695">
        <ele>393.39186445623636</ele>
        <time>2022-03-08T23:57:07Z</time>
      </trkpt>
      <trkpt lat="34.30843974686332" lon="109.02888144913061">
        <ele>392.87064570654184</ele>
        <time>2022-03-08T23:57:13Z</time>
      </trkpt>
      <trkpt lat="34.308354902942796" lon="109.02891755036596">
        <ele>393.3772102193907</ele>
        <time>2022-03-08T23:57:15Z</time>
      </trkpt>
      <trkpt lat="34.308177879353835" lon="109.0291097611536">
        <ele>392.7778083672747</ele>
        <time>2022-03-08T23:57:21Z</time>
      </trkpt>
      <trkpt lat="34.3079670104653" lon="109.02957700302078">
        <ele>394.2924868706614</ele>
        <time>2022-03-08T23:57:31Z</time>
      </trkpt>
      <trkpt lat="34.30778932150866" lon="109.02983151454282">
        <ele>393.60899177752435</ele>
        <time>2022-03-08T23:57:37Z</time>
      </trkpt>
      <trkpt lat="34.30764036115996" lon="109.0299525168234">
        <ele>395.0307235205546</ele>
        <time>2022-03-08T23:57:41Z</time>
      </trkpt>
      <trkpt lat="34.30751166439095" lon="109.0300889614578">
        <ele>394.38540389109403</ele>
        <time>2022-03-08T23:57:45Z</time>
      </trkpt>
      <trkpt lat="34.30728283716784" lon="109.03026939994088">
        <ele>393.8114752396941</ele>
        <time>2022-03-08T23:57:51Z</time>
      </trkpt>
      <trkpt lat="34.30709122772839" lon="109.03033716299653">
        <ele>393.57293228060007</ele>
        <time>2022-03-08T23:57:55Z</time>
      </trkpt>
      <trkpt lat="34.30687068415923" lon="109.03047564166616">
        <ele>392.89971028640866</ele>
        <time>2022-03-08T23:58:01Z</time>
      </trkpt>
      <trkpt lat="34.3066172862889" lon="109.03067315381057">
        <ele>391.9891791911796</ele>
        <time>2022-03-08T23:58:09Z</time>
      </trkpt>
      <trkpt lat="34.30651265358851" lon="109.03069982246252">
        <ele>391.6268754331395</ele>
        <time>2022-03-08T23:58:11Z</time>
      </trkpt>
      <trkpt lat="34.306448276043845" lon="109.03075887119168">
        <ele>390.82446910161525</ele>
        <time>2022-03-08T23:58:13Z</time>
      </trkpt>
      <trkpt lat="34.30645280430537" lon="109.03085074493136">
        <ele>391.0410682829097</ele>
        <time>2022-03-08T23:58:15Z</time>
      </trkpt>
      <trkpt lat="34.30643559789682" lon="109.0309496029381">
        <ele>391.52488183323294</ele>
        <time>2022-03-08T23:58:17Z</time>
      </trkpt>
      <trkpt lat="34.30641037392923" lon="109.03152506739231">
        <ele>391.0468199253082</ele>
        <time>2022-03-08T23:58:27Z</time>
      </trkpt>
      <trkpt lat="34.30643304196206" lon="109.03212417344986">
        <ele>391.94278013613075</ele>
        <time>2022-03-08T23:58:37Z</time>
      </trkpt>
      <trkpt lat="34.30648499857522" lon="109.03272479962675">
        <ele>392.10262807272375</ele>
        <time>2022-03-08T23:58:47Z</time>
      </trkpt>
      <trkpt lat="34.3065008890706" lon="109.03283551444335">
        <ele>392.0223915083334</ele>
        <time>2022-03-08T23:58:49Z</time>
      </trkpt>
      <trkpt lat="34.3064854398266" lon="109.03296541749391">
        <ele>392.5346490992233</ele>
        <time>2022-03-08T23:58:51Z</time>
      </trkpt>
      <trkpt lat="34.306547737649815" lon="109.03343813607258">
        <ele>393.0537527371198</ele>
        <time>2022-03-08T23:58:59Z</time>
      </trkpt>
      <trkpt lat="34.306542886244806" lon="109.0335654071393">
        <ele>392.56717873271555</ele>
        <time>2022-03-08T23:59:01Z</time>
      </trkpt>
      <trkpt lat="34.30656617996803" lon="109.03381576644655">
        <ele>392.9484259383753</ele>
        <time>2022-03-08T23:59:05Z</time>
      </trkpt>
      <trkpt lat="34.30656234298863" lon="109.03393618501761">
        <ele>392.39076921343803</ele>
        <time>2022-03-08T23:59:07Z</time>
      </trkpt>
      <trkpt lat="34.30661789408493" lon="109.03428900696824">
        <ele>392.85982583090663</ele>
        <time>2022-03-08T23:59:13Z</time>
      </trkpt>
      <trkpt lat="34.306635705408105" lon="109.03479394548779">
        <ele>392.2110150437802</ele>
        <time>2022-03-08T23:59:21Z</time>
      </trkpt>
      <trkpt lat="34.30668832751637" lon="109.03517575065644">
        <ele>394.48378847073764</ele>
        <time>2022-03-08T23:59:27Z</time>
      </trkpt>
      <trkpt lat="34.30667198716264" lon="109.03529934676637">
        <ele>392.94070850871503</ele>
        <time>2022-03-08T23:59:29Z</time>
      </trkpt>
      <trkpt lat="34.3067015224491" lon="109.03553056009002">
        <ele>393.49204569496214</ele>
        <time>2022-03-08T23:59:33Z</time>
      </trkpt>
      <trkpt lat="34.3067304349861" lon="109.03605431488947">
        <ele>392.89998509641737</ele>
        <time>2022-03-08T23:59:41Z</time>
      </trkpt>
      <trkpt lat="34.306751972738134" lon="109.03614295792863">
        <ele>392.7948178043589</ele>
        <time>2022-03-08T23:59:43Z</time>
      </trkpt>
      <trkpt lat="34.306705228951095" lon="109.03650550535286">
        <ele>391.66306043881923</ele>
        <time>2022-03-08T23:59:55Z</time>
      </trkpt>
      <trkpt lat="34.30663828094326" lon="109.03654835248796">
        <ele>391.91537186689675</ele>
        <time>2022-03-08T23:59:59Z</time>
      </trkpt>
      <trkpt lat="34.306607106811796" lon="109.03669010922134">
        <ele>391.8074472453445</ele>
        <time>2022-03-09T00:00:10Z</time>
      </trkpt>
      <trkpt lat="34.30664589315443" lon="109.03677049184212">
        <ele>391.44031433109194</ele>
        <time>2022-03-09T00:00:20Z</time>
      </trkpt>
      <trkpt lat="34.306621744116995" lon="109.03683996999534">
        <ele>391.65370242204517</ele>
        <time>2022-03-09T00:00:32Z</time>
      </trkpt>
      <trkpt lat="34.30653035658045" lon="109.03705075839986">
        <ele>391.51908091828227</ele>
        <time>2022-03-09T00:00:57Z</time>
      </trkpt>
      <trkpt lat="34.306524734076504" lon="109.03707146225456">
        <ele>391.71085227653384</ele>
        <time>2022-03-09T00:01:05Z</time>
      </trkpt>
      <trkpt lat="34.30638304025801" lon="109.03708199136227">
        <ele>391.4711269289255</ele>
        <time>2022-03-09T00:01:18Z</time>
      </trkpt>
      <trkpt lat="34.306261396401766" lon="109.03717233082102">
        <ele>390.77879632264376</ele>
        <time>2022-03-09T00:01:36Z</time>
      </trkpt>
    </trkseg>
  </trk>
</gpx>