<?xml version="1.0" encoding="UTF-8"?>
<gpx xmlns="http://www.topografix.com/GPX/1/1" xmlns:gpxtpx="http://www.garmin.com/xmlschemas/TrackPointExtension/v1" xmlns:xsi="http://www.w3.org/2001/XMLSchema-instance" xsi:schemaLocation="http://www.topografix.com/GPX/1/1 http://www.topografix.com/GPX/1/1/gpx.xsd" version="1.1" creator="gpx.py -- https://github.com/tkrajina/gpxpy">
  <trk>
    <name>gpx from keep</name>
    <type>Run</type>
    <trkseg>
      <trkpt lat="34.29770780829653" lon="108.71032046448167">
        <ele>392.4012820049589</ele>
        <time>2026-08-25T12:03:03Z</time>
      </trkpt>
      <trkpt lat="34.29766513864867" lon="108.71040528257382">
        <ele>387.5224838256836</ele>
        <time>2026-08-25T12:03:07Z</time>
      </trkpt>
      <trkpt lat="34.297683001885694" lon="108.71048173681125">
        <ele>388.0786361694336</ele>
        <time>2026-08-25T12:03:10Z</time>
      </trkpt>
      <trkpt lat="34.29771576979834" lon="108.71043965343291">
        <ele>391.2749252319336</ele>
        <time>2026-08-25T12:03:17Z</time>
      </trkpt>
      <trkpt lat="34.29772276473805" lon="108.71025936145706">
        <ele>391.57424199581146</ele>
        <time>2026-08-25T12:03:23Z</time>
      </trkpt>
      <trkpt lat="34.297748865743586" lon="108.71020310871441">
        <ele>390.5797350117937</ele>
        <time>2026-08-25T12:03:26Z</time>
      </trkpt>
      <trkpt lat="34.29785199828101" lon="108.71017774593614">
        <ele>390.075950846076</ele>
        <time>2026-08-25T12:03:32Z</time>
      </trkpt>
      <trkpt lat="34.29796782397403" lon="108.71018508899571">
        <ele>387.79796486441046</ele>
        <time>2026-08-25T12:03:41Z</time>
      </trkpt>
      <trkpt lat="34.29801478206056" lon="108.71024533691063">
        <ele>387.65748472325504</ele>
        <time>2026-08-25T12:03:44Z</time>
      </trkpt>
      <trkpt lat="34.298026254545526" lon="108.71033140204499">
        <ele>387.35930056124926</ele>
        <time>2026-08-25T12:03:47Z</time>
      </trkpt>
      <trkpt lat="34.298054172881315" lon="108.71038892262044">
        <ele>387.9403702663258</ele>
        <time>2026-08-25T12:03:50Z</time>
      </trkpt>
      <trkpt lat="34.29809298842929" lon="108.71060399540315">
        <ele>389.7985486481339</ele>
        <time>2026-08-25T12:03:59Z</time>
      </trkpt>
      <trkpt lat="34.298086319741714" lon="108.7108990167029">
        <ele>388.573726169765</ele>
        <time>2026-08-25T12:04:11Z</time>
      </trkpt>
      <trkpt lat="34.298127973293205" lon="108.71096937701884">
        <ele>388.90165562555194</ele>
        <time>2026-08-25T12:04:14Z</time>
      </trkpt>
      <trkpt lat="34.29817870656231" lon="108.7112364928491">
        <ele>388.56085697654635</ele>
        <time>2026-08-25T12:04:32Z</time>
      </trkpt>
      <trkpt lat="34.298176210328116" lon="108.7114005942792">
        <ele>388.58983485773206</ele>
        <time>2026-08-25T12:04:44Z</time>
      </trkpt>
      <trkpt lat="34.29787799816349" lon="108.71151960489708">
        <ele>389.0180170154199</ele>
        <time>2026-08-25T12:05:05Z</time>
      </trkpt>
      <trkpt lat="34.29774905311872" lon="108.71155101895295">
        <ele>388.23605998326093</ele>
        <time>2026-08-25T12:05:11Z</time>
      </trkpt>
      <trkpt lat="34.297460334952106" lon="108.71169805821437">
        <ele>389.55716760922223</ele>
        <time>2026-08-25T12:05:27Z</time>
      </trkpt>
      <trkpt lat="34.29740429035882" lon="108.71174749810295">
        <ele>390.55046634282917</ele>
        <time>2026-08-25T12:05:33Z</time>
      </trkpt>
      <trkpt lat="34.297184435727125" lon="108.71178050241352">
        <ele>389.7976756086573</ele>
        <time>2026-08-25T12:05:45Z</time>
      </trkpt>
      <trkpt lat="34.29698337508328" lon="108.71189718899593">
        <ele>391.11958813946694</ele>
        <time>2026-08-25T12:06:00Z</time>
      </trkpt>
      <trkpt lat="34.29672839297969" lon="108.7119771980858">
        <ele>389.6824387134984</ele>
        <time>2026-08-25T12:06:15Z</time>
      </trkpt>
      <trkpt lat="34.296426642054506" lon="108.71210554447326">
        <ele>389.9649455649778</ele>
        <time>2026-08-25T12:06:33Z</time>
      </trkpt>
      <trkpt lat="34.296369651993366" lon="108.7120819460389">
        <ele>390.1309500988573</ele>
        <time>2026-08-25T12:06:36Z</time>
      </trkpt>
      <trkpt lat="34.296323918458235" lon="108.71203372037215">
        <ele>389.5262610949576</ele>
        <time>2026-08-25T12:06:39Z</time>
      </trkpt>
      <trkpt lat="34.29629997496228" lon="108.71196860654567">
        <ele>389.0513084633276</ele>
        <time>2026-08-25T12:06:42Z</time>
      </trkpt>
      <trkpt lat="34.29627535219618" lon="108.71171420644637">
        <ele>388.4732075566426</ele>
        <time>2026-08-25T12:06:54Z</time>
      </trkpt>
      <trkpt lat="34.29620817424728" lon="108.71136669654867">
        <ele>388.2246440453455</ele>
        <time>2026-08-25T12:07:09Z</time>
      </trkpt>
      <trkpt lat="34.29619444124104" lon="108.7111153579269">
        <ele>390.08416378777474</ele>
        <time>2026-08-25T12:07:21Z</time>
      </trkpt>
      <trkpt lat="34.29614669336636" lon="108.71074893818961">
        <ele>390.6867915028706</ele>
        <time>2026-08-25T12:07:37Z</time>
      </trkpt>
      <trkpt lat="34.296057342934226" lon="108.71039572542914">
        <ele>390.3636604035273</ele>
        <time>2026-08-25T12:07:52Z</time>
      </trkpt>
      <trkpt lat="34.29602838314648" lon="108.71030829576614">
        <ele>390.6067869896069</ele>
        <time>2026-08-25T12:07:58Z</time>
      </trkpt>
      <trkpt lat="34.29599459516307" lon="108.70992854634551">
        <ele>389.825786636211</ele>
        <time>2026-08-25T12:08:19Z</time>
      </trkpt>
      <trkpt lat="34.29595804772486" lon="108.7096049543727">
        <ele>389.21747058443725</ele>
        <time>2026-08-25T12:08:34Z</time>
      </trkpt>
      <trkpt lat="34.29596660763063" lon="108.70954671642689">
        <ele>389.40864170063287</ele>
        <time>2026-08-25T12:08:37Z</time>
      </trkpt>
      <trkpt lat="34.29590033940918" lon="108.70924533546408">
        <ele>388.22779554873705</ele>
        <time>2026-08-25T12:08:52Z</time>
      </trkpt>
      <trkpt lat="34.29588577345073" lon="108.70902622117232">
        <ele>388.7700840253383</ele>
        <time>2026-08-25T12:09:01Z</time>
      </trkpt>
      <trkpt lat="34.295845882916886" lon="108.7088196336561">
        <ele>388.98510182183236</ele>
        <time>2026-08-25T12:09:10Z</time>
      </trkpt>
      <trkpt lat="34.2958558773663" lon="108.70875787731846">
        <ele>389.2496430268511</ele>
        <time>2026-08-25T12:09:13Z</time>
      </trkpt>
      <trkpt lat="34.29581057958488" lon="108.7084040123845">
        <ele>389.97373859677464</ele>
        <time>2026-08-25T12:09:28Z</time>
      </trkpt>
      <trkpt lat="34.29578964122768" lon="108.70805691143303">
        <ele>389.63389650173485</ele>
        <time>2026-08-25T12:09:44Z</time>
      </trkpt>
      <trkpt lat="34.29574842809144" lon="108.70772521371362">
        <ele>390.39565271604806</ele>
        <time>2026-08-25T12:10:05Z</time>
      </trkpt>
      <trkpt lat="34.295702135874045" lon="108.70752933252336">
        <ele>390.861944780685</ele>
        <time>2026-08-25T12:10:17Z</time>
      </trkpt>
      <trkpt lat="34.29572067179632" lon="108.70741302189064">
        <ele>389.63469944987446</ele>
        <time>2026-08-25T12:10:23Z</time>
      </trkpt>
      <trkpt lat="34.29570824730335" lon="108.70721196266936">
        <ele>390.2035279003903</ele>
        <time>2026-08-25T12:10:32Z</time>
      </trkpt>
      <trkpt lat="34.295663869082134" lon="108.70708710302519">
        <ele>390.67586808558553</ele>
        <time>2026-08-25T12:10:41Z</time>
      </trkpt>
      <trkpt lat="34.29569889677091" lon="108.70700760573057">
        <ele>388.7196222888306</ele>
        <time>2026-08-25T12:10:47Z</time>
      </trkpt>
      <trkpt lat="34.2956864818236" lon="108.70665338020183">
        <ele>387.7668707948178</ele>
        <time>2026-08-25T12:11:11Z</time>
      </trkpt>
      <trkpt lat="34.29564974310598" lon="108.70639035763524">
        <ele>388.7080742912367</ele>
        <time>2026-08-25T12:11:29Z</time>
      </trkpt>
      <trkpt lat="34.29569176920334" lon="108.70624440235535">
        <ele>389.51382889878005</ele>
        <time>2026-08-25T12:11:39Z</time>
      </trkpt>
      <trkpt lat="34.295806892646205" lon="108.70609229562413">
        <ele>389.08867956418544</ele>
        <time>2026-08-25T12:11:57Z</time>
      </trkpt>
      <trkpt lat="34.29603247590544" lon="108.7060458111067">
        <ele>388.7293532760814</ele>
        <time>2026-08-25T12:12:15Z</time>
      </trkpt>
      <trkpt lat="34.29613325779124" lon="108.70600085367941">
        <ele>389.1108290813863</ele>
        <time>2026-08-25T12:12:21Z</time>
      </trkpt>
      <trkpt lat="34.29633134826479" lon="108.70598990298296">
        <ele>388.1510651251301</ele>
        <time>2026-08-25T12:12:33Z</time>
      </trkpt>
      <trkpt lat="34.29644370576539" lon="108.70595562619857">
        <ele>388.9329933440313</ele>
        <time>2026-08-25T12:12:39Z</time>
      </trkpt>
      <trkpt lat="34.29674308729295" lon="108.7059221136634">
        <ele>387.08177179004997</ele>
        <time>2026-08-25T12:12:54Z</time>
      </trkpt>
      <trkpt lat="34.296864270065534" lon="108.7058802968368">
        <ele>388.0620099697262</ele>
        <time>2026-08-25T12:13:00Z</time>
      </trkpt>
      <trkpt lat="34.29699862818157" lon="108.70586594787845">
        <ele>387.88039744552225</ele>
        <time>2026-08-25T12:13:06Z</time>
      </trkpt>
      <trkpt lat="34.29706726252403" lon="108.70584064741905">
        <ele>388.0132970586419</ele>
        <time>2026-08-25T12:13:09Z</time>
      </trkpt>
      <trkpt lat="34.29734683643019" lon="108.70580937310213">
        <ele>387.86553232371807</ele>
        <time>2026-08-25T12:13:24Z</time>
      </trkpt>
      <trkpt lat="34.29747299670859" lon="108.70576035669684">
        <ele>387.2974893832579</ele>
        <time>2026-08-25T12:13:33Z</time>
      </trkpt>
      <trkpt lat="34.29752749477662" lon="108.7057778854751">
        <ele>387.3751045856625</ele>
        <time>2026-08-25T12:13:36Z</time>
      </trkpt>
      <trkpt lat="34.29782204625852" lon="108.70572530535179">
        <ele>388.3164971200749</ele>
        <time>2026-08-25T12:13:52Z</time>
      </trkpt>
      <trkpt lat="34.29813706174544" lon="108.70567177574175">
        <ele>388.7807321064174</ele>
        <time>2026-08-25T12:14:07Z</time>
      </trkpt>
      <trkpt lat="34.29837083772166" lon="108.70563870970713">
        <ele>387.93927877303213</ele>
        <time>2026-08-25T12:14:19Z</time>
      </trkpt>
      <trkpt lat="34.29867321664428" lon="108.70556923024996">
        <ele>388.5072221541777</ele>
        <time>2026-08-25T12:14:34Z</time>
      </trkpt>
      <trkpt lat="34.29898805842831" lon="108.70552464864109">
        <ele>388.6092784134671</ele>
        <time>2026-08-25T12:14:49Z</time>
      </trkpt>
      <trkpt lat="34.2991703942091" lon="108.70548629050849">
        <ele>389.3204388488084</ele>
        <time>2026-08-25T12:14:58Z</time>
      </trkpt>
      <trkpt lat="34.2992105950736" lon="108.70553492696152">
        <ele>389.7657376015559</ele>
        <time>2026-08-25T12:15:01Z</time>
      </trkpt>
      <trkpt lat="34.29891582214297" lon="108.7056067790566">
        <ele>388.92801724467427</ele>
        <time>2026-08-25T12:15:16Z</time>
      </trkpt>
      <trkpt lat="34.29863271285314" lon="108.70565465654299">
        <ele>388.7590091265738</ele>
        <time>2026-08-25T12:15:31Z</time>
      </trkpt>
      <trkpt lat="34.29834205644753" lon="108.70571750101904">
        <ele>387.41041569039226</ele>
        <time>2026-08-25T12:15:46Z</time>
      </trkpt>
      <trkpt lat="34.29811923426622" lon="108.70577191837478">
        <ele>387.6323595242575</ele>
        <time>2026-08-25T12:15:58Z</time>
      </trkpt>
      <trkpt lat="34.29804584687417" lon="108.70576459031759">
        <ele>387.3007682999596</ele>
        <time>2026-08-25T12:16:02Z</time>
      </trkpt>
      <trkpt lat="34.2977646966122" lon="108.70583811475217">
        <ele>389.1730210147798</ele>
        <time>2026-08-25T12:16:21Z</time>
      </trkpt>
      <trkpt lat="34.2974561265771" lon="108.70588436399896">
        <ele>388.13185304868966</ele>
        <time>2026-08-25T12:16:42Z</time>
      </trkpt>
      <trkpt lat="34.29715939730192" lon="108.70592235823858">
        <ele>387.6637645121664</ele>
        <time>2026-08-25T12:16:57Z</time>
      </trkpt>
      <trkpt lat="34.297091988631024" lon="108.70592398314336">
        <ele>388.57974189985543</ele>
        <time>2026-08-25T12:17:00Z</time>
      </trkpt>
      <trkpt lat="34.29703070953926" lon="108.70595660233128">
        <ele>388.14359177835286</ele>
        <time>2026-08-25T12:17:03Z</time>
      </trkpt>
      <trkpt lat="34.29683454742493" lon="108.70598008639621">
        <ele>387.0327025661245</ele>
        <time>2026-08-25T12:17:12Z</time>
      </trkpt>
      <trkpt lat="34.29671291547007" lon="108.70602326015114">
        <ele>388.75129130575806</ele>
        <time>2026-08-25T12:17:18Z</time>
      </trkpt>
      <trkpt lat="34.29641316173071" lon="108.70605896823035">
        <ele>387.8695163372904</ele>
        <time>2026-08-25T12:17:33Z</time>
      </trkpt>
      <trkpt lat="34.296124288912665" lon="108.70611681614052">
        <ele>387.46375844907016</ele>
        <time>2026-08-25T12:17:48Z</time>
      </trkpt>
      <trkpt lat="34.295847443854434" lon="108.70615322355988">
        <ele>386.6975722676143</ele>
        <time>2026-08-25T12:18:01Z</time>
      </trkpt>
      <trkpt lat="34.29579004172946" lon="108.70617270275804">
        <ele>387.25050922948867</ele>
        <time>2026-08-25T12:18:04Z</time>
      </trkpt>
      <trkpt lat="34.295796019626536" lon="108.70609924133801">
        <ele>388.42848802451044</ele>
        <time>2026-08-25T12:18:10Z</time>
      </trkpt>
      <trkpt lat="34.29608921363677" lon="108.70602766887014">
        <ele>388.0292260842398</ele>
        <time>2026-08-25T12:18:25Z</time>
      </trkpt>
      <trkpt lat="34.296328570833545" lon="108.7059826459278">
        <ele>388.4827361507341</ele>
        <time>2026-08-25T12:18:37Z</time>
      </trkpt>
      <trkpt lat="34.29661160157612" lon="108.70593584846476">
        <ele>389.40088610257953</ele>
        <time>2026-08-25T12:18:52Z</time>
      </trkpt>
      <trkpt lat="34.296731957534085" lon="108.70592577933893">
        <ele>386.95518786273897</ele>
        <time>2026-08-25T12:18:58Z</time>
      </trkpt>
      <trkpt lat="34.29701197949126" lon="108.70585801341787">
        <ele>387.4553060978651</ele>
        <time>2026-08-25T12:19:13Z</time>
      </trkpt>
      <trkpt lat="34.29730320508716" lon="108.70581692843864">
        <ele>387.50717928726226</ele>
        <time>2026-08-25T12:19:28Z</time>
      </trkpt>
      <trkpt lat="34.29762124238815" lon="108.70576798924367">
        <ele>387.9618843374774</ele>
        <time>2026-08-25T12:19:46Z</time>
      </trkpt>
      <trkpt lat="34.297684597821814" lon="108.70574370967462">
        <ele>388.076933096163</ele>
        <time>2026-08-25T12:19:52Z</time>
      </trkpt>
      <trkpt lat="34.297985189551504" lon="108.70570489171722">
        <ele>387.38251635525376</ele>
        <time>2026-08-25T12:20:10Z</time>
      </trkpt>
      <trkpt lat="34.2982909609412" lon="108.70565322940253">
        <ele>387.7019387744367</ele>
        <time>2026-08-25T12:20:26Z</time>
      </trkpt>
      <trkpt lat="34.2984480823652" lon="108.70560506248701">
        <ele>388.52104287035763</ele>
        <time>2026-08-25T12:20:35Z</time>
      </trkpt>
      <trkpt lat="34.298747663053504" lon="108.70555898025879">
        <ele>389.51321182213724</ele>
        <time>2026-08-25T12:20:50Z</time>
      </trkpt>
      <trkpt lat="34.29902198536032" lon="108.70551578214119">
        <ele>387.36189435143024</ele>
        <time>2026-08-25T12:21:05Z</time>
      </trkpt>
      <trkpt lat="34.29923255858389" lon="108.70546760022619">
        <ele>391.10899595264345</ele>
        <time>2026-08-25T12:21:20Z</time>
      </trkpt>
      <trkpt lat="34.29918863314973" lon="108.70554072478826">
        <ele>390.7549440758303</ele>
        <time>2026-08-25T12:21:26Z</time>
      </trkpt>
      <trkpt lat="34.299040254212244" lon="108.70558984403925">
        <ele>389.67538157477975</ele>
        <time>2026-08-25T12:21:35Z</time>
      </trkpt>
      <trkpt lat="34.298773721381615" lon="108.70564970662731">
        <ele>387.9353728555143</ele>
        <time>2026-08-25T12:21:50Z</time>
      </trkpt>
      <trkpt lat="34.298470744578005" lon="108.70568926360752">
        <ele>389.50487978663296</ele>
        <time>2026-08-25T12:22:05Z</time>
      </trkpt>
      <trkpt lat="34.298162239793804" lon="108.70574947733536">
        <ele>388.2407182119787</ele>
        <time>2026-08-25T12:22:21Z</time>
      </trkpt>
      <trkpt lat="34.298109024745045" lon="108.70577668900435">
        <ele>388.98289769887924</ele>
        <time>2026-08-25T12:22:24Z</time>
      </trkpt>
      <trkpt lat="34.298046399628376" lon="108.70576395166601">
        <ele>387.9653890989721</ele>
        <time>2026-08-25T12:22:27Z</time>
      </trkpt>
      <trkpt lat="34.29773668504559" lon="108.70583767954935">
        <ele>389.2000213973224</ele>
        <time>2026-08-25T12:22:42Z</time>
      </trkpt>
      <trkpt lat="34.297616565190275" lon="108.70584620808718">
        <ele>388.1308353319764</ele>
        <time>2026-08-25T12:22:48Z</time>
      </trkpt>
      <trkpt lat="34.29755903627633" lon="108.70587326579218">
        <ele>387.54164287354797</ele>
        <time>2026-08-25T12:22:51Z</time>
      </trkpt>
      <trkpt lat="34.29725985239873" lon="108.7059162742776">
        <ele>387.56932296510786</ele>
        <time>2026-08-25T12:23:12Z</time>
      </trkpt>
      <trkpt lat="34.296975662375246" lon="108.70597206652566">
        <ele>387.97099452186376</ele>
        <time>2026-08-25T12:23:27Z</time>
      </trkpt>
      <trkpt lat="34.29667975288692" lon="108.70600549258428">
        <ele>388.2986388709396</ele>
        <time>2026-08-25T12:23:45Z</time>
      </trkpt>
      <trkpt lat="34.296566371423005" lon="108.70601917599699">
        <ele>386.6508094454184</ele>
        <time>2026-08-25T12:23:51Z</time>
      </trkpt>
      <trkpt lat="34.296247989040914" lon="108.70609948870845">
        <ele>389.2997859567404</ele>
        <time>2026-08-25T12:24:13Z</time>
      </trkpt>
      <trkpt lat="34.29614658113443" lon="108.70612874442658">
        <ele>389.51757652685046</ele>
        <time>2026-08-25T12:24:21Z</time>
      </trkpt>
      <trkpt lat="34.29609125358669" lon="108.70612694306683">
        <ele>388.8754381928593</ele>
        <time>2026-08-25T12:24:25Z</time>
      </trkpt>
      <trkpt lat="34.29601119583736" lon="108.70615860054747">
        <ele>390.15739750117064</ele>
        <time>2026-08-25T12:24:31Z</time>
      </trkpt>
      <trkpt lat="34.295930092338025" lon="108.70614958392305">
        <ele>388.64791705459356</ele>
        <time>2026-08-25T12:24:37Z</time>
      </trkpt>
      <trkpt lat="34.295843872518454" lon="108.70617146367903">
        <ele>389.1444907700643</ele>
        <time>2026-08-25T12:24:43Z</time>
      </trkpt>
      <trkpt lat="34.295761054933344" lon="108.70616174529492">
        <ele>388.41727332025766</ele>
        <time>2026-08-25T12:24:49Z</time>
      </trkpt>
      <trkpt lat="34.295801104760635" lon="108.70610205594535">
        <ele>387.9684438770637</ele>
        <time>2026-08-25T12:24:52Z</time>
      </trkpt>
      <trkpt lat="34.29585372102841" lon="108.70609905925477">
        <ele>388.6665308633819</ele>
        <time>2026-08-25T12:24:55Z</time>
      </trkpt>
      <trkpt lat="34.29616176983129" lon="108.70602161729552">
        <ele>389.41862868424505</ele>
        <time>2026-08-25T12:25:10Z</time>
      </trkpt>
      <trkpt lat="34.29633895499138" lon="108.70597434035199">
        <ele>388.8799255695194</ele>
        <time>2026-08-25T12:25:19Z</time>
      </trkpt>
      <trkpt lat="34.296638808663424" lon="108.70594189026218">
        <ele>387.7129349876195</ele>
        <time>2026-08-25T12:25:34Z</time>
      </trkpt>
      <trkpt lat="34.29692338736488" lon="108.70589505452837">
        <ele>387.2732212981209</ele>
        <time>2026-08-25T12:25:49Z</time>
      </trkpt>
      <trkpt lat="34.29697609913995" lon="108.70588243415509">
        <ele>386.9253482185304</ele>
        <time>2026-08-25T12:25:52Z</time>
      </trkpt>
      <trkpt lat="34.2970401382405" lon="108.70584065918229">
        <ele>388.013028036803</ele>
        <time>2026-08-25T12:25:58Z</time>
      </trkpt>
      <trkpt lat="34.29735350474035" lon="108.70581443632928">
        <ele>387.5850488357246</ele>
        <time>2026-08-25T12:26:20Z</time>
      </trkpt>
      <trkpt lat="34.29749060238098" lon="108.70577883868184">
        <ele>387.6318179182708</ele>
        <time>2026-08-25T12:26:27Z</time>
      </trkpt>
      <trkpt lat="34.29756321639777" lon="108.70578333762582">
        <ele>387.7267696298659</ele>
        <time>2026-08-25T12:26:31Z</time>
      </trkpt>
      <trkpt lat="34.29780585065258" lon="108.70571927733543">
        <ele>387.07330281473696</ele>
        <time>2026-08-25T12:26:43Z</time>
      </trkpt>
      <trkpt lat="34.29809442605406" lon="108.7056836924443">
        <ele>388.3901601638645</ele>
        <time>2026-08-25T12:26:58Z</time>
      </trkpt>
      <trkpt lat="34.29833536867248" lon="108.70564955383601">
        <ele>387.64547364320606</ele>
        <time>2026-08-25T12:27:10Z</time>
      </trkpt>
      <trkpt lat="34.29857901601368" lon="108.70560886153918">
        <ele>388.55826889630407</ele>
        <time>2026-08-25T12:27:22Z</time>
      </trkpt>
      <trkpt lat="34.29888630787589" lon="108.70551252991582">
        <ele>388.5797983491793</ele>
        <time>2026-08-25T12:27:43Z</time>
      </trkpt>
      <trkpt lat="34.29918515750956" lon="108.70547297389088">
        <ele>389.47526559978724</ele>
        <time>2026-08-25T12:28:04Z</time>
      </trkpt>
      <trkpt lat="34.29926899785569" lon="108.7054903967058">
        <ele>389.418082064949</ele>
        <time>2026-08-25T12:28:10Z</time>
      </trkpt>
      <trkpt lat="34.29932645699513" lon="108.70558416297764">
        <ele>389.5189950792119</ele>
        <time>2026-08-25T12:28:16Z</time>
      </trkpt>
      <trkpt lat="34.29938123101143" lon="108.70592479029827">
        <ele>390.04362309910357</ele>
        <time>2026-08-25T12:28:34Z</time>
      </trkpt>
      <trkpt lat="34.29944522976645" lon="108.70625172408153">
        <ele>391.4627948477864</ele>
        <time>2026-08-25T12:28:56Z</time>
      </trkpt>
      <trkpt lat="34.29947118391205" lon="108.70666966624671">
        <ele>390.537059398368</ele>
        <time>2026-08-25T12:29:20Z</time>
      </trkpt>
      <trkpt lat="34.29952406797703" lon="108.70702569395179">
        <ele>390.0212710564956</ele>
        <time>2026-08-25T12:29:44Z</time>
      </trkpt>
      <trkpt lat="34.2995133925184" lon="108.70709293610197">
        <ele>389.3234617188573</ele>
        <time>2026-08-25T12:29:50Z</time>
      </trkpt>
      <trkpt lat="34.2995373827678" lon="108.7071664509509">
        <ele>391.0170372594148</ele>
        <time>2026-08-25T12:29:56Z</time>
      </trkpt>
      <trkpt lat="34.29951638814036" lon="108.70750477351304">
        <ele>390.61837005708367</ele>
        <time>2026-08-25T12:30:11Z</time>
      </trkpt>
      <trkpt lat="34.29952526752647" lon="108.70757705204167">
        <ele>391.07381883077323</ele>
        <time>2026-08-25T12:30:14Z</time>
      </trkpt>
      <trkpt lat="34.299509052935605" lon="108.70764605165625">
        <ele>391.7549195578322</ele>
        <time>2026-08-25T12:30:17Z</time>
      </trkpt>
      <trkpt lat="34.29955263602281" lon="108.70796296645706">
        <ele>391.2901943977922</ele>
        <time>2026-08-25T12:30:33Z</time>
      </trkpt>
      <trkpt lat="34.29959850129196" lon="108.7082046752086">
        <ele>391.48144550900906</ele>
        <time>2026-08-25T12:30:45Z</time>
      </trkpt>
      <trkpt lat="34.29970164171857" lon="108.7084860298292">
        <ele>391.943329914473</ele>
        <time>2026-08-25T12:31:06Z</time>
      </trkpt>
      <trkpt lat="34.29963625451558" lon="108.70867272460457">
        <ele>389.71181630529463</ele>
        <time>2026-08-25T12:31:18Z</time>
      </trkpt>
      <trkpt lat="34.29970030250449" lon="108.70900595365303">
        <ele>391.07065457478166</ele>
        <time>2026-08-25T12:31:33Z</time>
      </trkpt>
      <trkpt lat="34.29969590672514" lon="108.70906839515217">
        <ele>390.90461879689246</ele>
        <time>2026-08-25T12:31:36Z</time>
      </trkpt>
      <trkpt lat="34.299714785482394" lon="108.7092052237199">
        <ele>391.73172528203577</ele>
        <time>2026-08-25T12:31:42Z</time>
      </trkpt>
      <trkpt lat="34.299694279480086" lon="108.70927675292819">
        <ele>390.7786405645311</ele>
        <time>2026-08-25T12:31:45Z</time>
      </trkpt>
      <trkpt lat="34.29971479534736" lon="108.70935136449668">
        <ele>390.2288565887138</ele>
        <time>2026-08-25T12:31:48Z</time>
      </trkpt>
      <trkpt lat="34.29971636975367" lon="108.70942485037916">
        <ele>389.5720890574157</ele>
        <time>2026-08-25T12:31:51Z</time>
      </trkpt>
      <trkpt lat="34.29974003871925" lon="108.70950060870072">
        <ele>390.96501685027033</ele>
        <time>2026-08-25T12:31:54Z</time>
      </trkpt>
      <trkpt lat="34.29978856158097" lon="108.70956051583285">
        <ele>390.5358954919502</ele>
        <time>2026-08-25T12:31:57Z</time>
      </trkpt>
      <trkpt lat="34.2998163527375" lon="108.70984348161005">
        <ele>389.75538832880557</ele>
        <time>2026-08-25T12:32:09Z</time>
      </trkpt>
      <trkpt lat="34.29987202517237" lon="108.71005608806787">
        <ele>391.2337631881237</ele>
        <time>2026-08-25T12:32:18Z</time>
      </trkpt>
      <trkpt lat="34.29986541497545" lon="108.71019340101722">
        <ele>390.64830961078405</ele>
        <time>2026-08-25T12:32:24Z</time>
      </trkpt>
      <trkpt lat="34.29984684014123" lon="108.71027309016672">
        <ele>390.4634363222867</ele>
        <time>2026-08-25T12:32:27Z</time>
      </trkpt>
      <trkpt lat="34.29977488772653" lon="108.71029999969295">
        <ele>388.76567559316754</ele>
        <time>2026-08-25T12:32:30Z</time>
      </trkpt>
      <trkpt lat="34.299762472201905" lon="108.71038774694281">
        <ele>390.4459724491462</ele>
        <time>2026-08-25T12:32:33Z</time>
      </trkpt>
      <trkpt lat="34.299666910219585" lon="108.71053809378537">
        <ele>391.14463056251407</ele>
        <time>2026-08-25T12:32:40Z</time>
      </trkpt>
      <trkpt lat="34.29960775819286" lon="108.71054650435804">
        <ele>390.4114987226203</ele>
        <time>2026-08-25T12:32:43Z</time>
      </trkpt>
      <trkpt lat="34.29950491241529" lon="108.71062990580828">
        <ele>392.6010013073683</ele>
        <time>2026-08-25T12:32:52Z</time>
      </trkpt>
      <trkpt lat="34.29950144639077" lon="108.71078609036432">
        <ele>392.04141789581627</ele>
        <time>2026-08-25T12:33:04Z</time>
      </trkpt>
      <trkpt lat="34.29945983698871" lon="108.71081125422106">
        <ele>390.71600296813995</ele>
        <time>2026-08-25T12:33:07Z</time>
      </trkpt>
      <trkpt lat="34.29943552278738" lon="108.71086300978038">
        <ele>391.23226398974657</ele>
        <time>2026-08-25T12:33:22Z</time>
      </trkpt>
      <trkpt lat="34.299320536629686" lon="108.71088703800942">
        <ele>390.55019569862634</ele>
        <time>2026-08-25T12:34:04Z</time>
      </trkpt>
      <trkpt lat="34.299312812112454" lon="108.7108962203106">
        <ele>390.47286389395595</ele>
        <time>2026-08-25T12:34:05Z</time>
      </trkpt>
      <trkpt lat="34.29903878418955" lon="108.7109956775146">
        <ele>390.0380419883877</ele>
        <time>2026-08-25T12:34:29Z</time>
      </trkpt>
      <trkpt lat="34.298901561303516" lon="108.7110450594663">
        <ele>389.84682100545615</ele>
        <time>2026-08-25T12:34:41Z</time>
      </trkpt>
      <trkpt lat="34.298649953500856" lon="108.71117000720763">
        <ele>389.82539087627083</ele>
        <time>2026-08-25T12:35:03Z</time>
      </trkpt>
      <trkpt lat="34.298330803798336" lon="108.7112949943376">
        <ele>389.76112846285105</ele>
        <time>2026-08-25T12:35:27Z</time>
      </trkpt>
      <trkpt lat="34.29825111891368" lon="108.71133536266353">
        <ele>389.82247839681804</ele>
        <time>2026-08-25T12:35:33Z</time>
      </trkpt>
      <trkpt lat="34.29817250551255" lon="108.71133368963075">
        <ele>389.44317880179733</ele>
        <time>2026-08-25T12:35:39Z</time>
      </trkpt>
      <trkpt lat="34.298126788205224" lon="108.71119965788697">
        <ele>388.8691733907908</ele>
        <time>2026-08-25T12:35:48Z</time>
      </trkpt>
      <trkpt lat="34.29810873417056" lon="108.71083543187062">
        <ele>388.78430963959545</ele>
        <time>2026-08-25T12:36:06Z</time>
      </trkpt>
      <trkpt lat="34.298109420093546" lon="108.71075393856961">
        <ele>388.83430238068104</ele>
        <time>2026-08-25T12:36:09Z</time>
      </trkpt>
      <trkpt lat="34.298083328098954" lon="108.71070249843507">
        <ele>390.31090621091425</ele>
        <time>2026-08-25T12:36:12Z</time>
      </trkpt>
      <trkpt lat="34.29803555791241" lon="108.71051470592265">
        <ele>389.2116019455716</ele>
        <time>2026-08-25T12:36:21Z</time>
      </trkpt>
      <trkpt lat="34.298021403521034" lon="108.7103737270128">
        <ele>388.8015827834606</ele>
        <time>2026-08-25T12:36:27Z</time>
      </trkpt>
      <trkpt lat="34.29796900819669" lon="108.71033541942992">
        <ele>386.30395045131445</ele>
        <time>2026-08-25T12:36:30Z</time>
      </trkpt>
      <trkpt lat="34.29794970810688" lon="108.71028531206734">
        <ele>385.9775952510536</ele>
        <time>2026-08-25T12:36:33Z</time>
      </trkpt>
      <trkpt lat="34.29798555412964" lon="108.71018951209037">
        <ele>387.4583018552512</ele>
        <time>2026-08-25T12:36:39Z</time>
      </trkpt>
      <trkpt lat="34.29793554413998" lon="108.71017459163544">
        <ele>388.01215640548617</ele>
        <time>2026-08-25T12:36:45Z</time>
      </trkpt>
      <trkpt lat="34.297774595548965" lon="108.71021156435584">
        <ele>386.98542420193553</ele>
        <time>2026-08-25T12:36:55Z</time>
      </trkpt>
      <trkpt lat="34.29775845575965" lon="108.71028339694597">
        <ele>387.93486957252026</ele>
        <time>2026-08-25T12:37:01Z</time>
      </trkpt>
      <trkpt lat="34.297827646694486" lon="108.71056507906866">
        <ele>387.54523680824786</ele>
        <time>2026-08-25T12:37:22Z</time>
      </trkpt>
      <trkpt lat="34.297827646694486" lon="108.71056507906866">
        <ele>387.54523680824786</ele>
        <time>2026-08-25T12:37:22Z</time>
      </trkpt>
    </trkseg>
  </trk>
</gpx>