<?xml version="1.0" encoding="UTF-8"?>
<gpx xmlns="http://www.topografix.com/GPX/1/1" xmlns:gpxtpx="http://www.garmin.com/xmlschemas/TrackPointExtension/v1" xmlns:xsi="http://www.w3.org/2001/XMLSchema-instance" xsi:schemaLocation="http://www.topografix.com/GPX/1/1 http://www.topografix.com/GPX/1/1/gpx.xsd" version="1.1" creator="gpx.py -- https://github.com/tkrajina/gpxpy">
  <trk>
    <name>gpx from keep</name>
    <type>Ride</type>
    <trkseg>
      <trkpt lat="34.30615555578623" lon="109.0373057522538">
        <ele>360.75030517578125</ele>
        <time>2022-04-14T10:29:39Z</time>
      </trkpt>
      <trkpt lat="34.30615457502632" lon="109.03790158017122">
        <ele>360.4540710449219</ele>
        <time>2022-04-14T10:29:46Z</time>
      </trkpt>
      <trkpt lat="34.30625848674401" lon="109.03714581526091">
        <ele>360.3270568847656</ele>
        <time>2022-04-14T10:29:52Z</time>
      </trkpt>
      <trkpt lat="34.30638057676189" lon="109.03714422118603">
        <ele>360.272216796875</ele>
        <time>2022-04-14T10:29:59Z</time>
      </trkpt>
      <trkpt lat="34.30642900957459" lon="109.03691950106148">
        <ele>391.09086078881506</ele>
        <time>2022-04-14T10:30:10Z</time>
      </trkpt>
      <trkpt lat="34.306572575481766" lon="109.03696586512731">
        <ele>391.38829701859504</ele>
        <time>2022-04-14T10:30:27Z</time>
      </trkpt>
      <trkpt lat="34.30665338977043" lon="109.03695991596686">
        <ele>391.9736660113558</ele>
        <time>2022-04-14T10:30:35Z</time>
      </trkpt>
      <trkpt lat="34.30656104531696" lon="109.03657614818647">
        <ele>392.618802732788</ele>
        <time>2022-04-14T10:30:58Z</time>
      </trkpt>
      <trkpt lat="34.306585338272896" lon="109.03656554284827">
        <ele>392.41200163867325</ele>
        <time>2022-04-14T10:31:05Z</time>
      </trkpt>
      <trkpt lat="34.30663530490035" lon="109.0364667249786">
        <ele>392.8272864986211</ele>
        <time>2022-04-14T10:31:30Z</time>
      </trkpt>
      <trkpt lat="34.30659608042555" lon="109.03636914427629">
        <ele>392.1773182693869</ele>
        <time>2022-04-14T10:31:32Z</time>
      </trkpt>
      <trkpt lat="34.3065026644354" lon="109.03583800029489">
        <ele>391.9491070602089</ele>
        <time>2022-04-14T10:31:45Z</time>
      </trkpt>
      <trkpt lat="34.306473258006044" lon="109.03575415394437">
        <ele>392.522164626047</ele>
        <time>2022-04-14T10:31:47Z</time>
      </trkpt>
      <trkpt lat="34.30646639309063" lon="109.03554461912024">
        <ele>393.4085555104539</ele>
        <time>2022-04-14T10:31:52Z</time>
      </trkpt>
      <trkpt lat="34.30642763671429" lon="109.03543729912522">
        <ele>393.32264487072825</ele>
        <time>2022-04-14T10:31:54Z</time>
      </trkpt>
      <trkpt lat="34.306429409153566" lon="109.03530055292082">
        <ele>393.5219854135066</ele>
        <time>2022-04-14T10:31:57Z</time>
      </trkpt>
      <trkpt lat="34.30639243592237" lon="109.0352247502172">
        <ele>393.29901787173003</ele>
        <time>2022-04-14T10:31:59Z</time>
      </trkpt>
      <trkpt lat="34.306387435224806" lon="109.0348717805485">
        <ele>392.68548486568034</ele>
        <time>2022-04-14T10:32:08Z</time>
      </trkpt>
      <trkpt lat="34.30642734791219" lon="109.03476841695284">
        <ele>393.9273763773963</ele>
        <time>2022-04-14T10:32:12Z</time>
      </trkpt>
      <trkpt lat="34.30638798140996" lon="109.03444974756948">
        <ele>392.3699815236032</ele>
        <time>2022-04-14T10:32:20Z</time>
      </trkpt>
      <trkpt lat="34.30640151887066" lon="109.03436266210898">
        <ele>392.86537459585816</ele>
        <time>2022-04-14T10:32:22Z</time>
      </trkpt>
      <trkpt lat="34.30633014017242" lon="109.03408575427393">
        <ele>393.5540574947372</ele>
        <time>2022-04-14T10:32:28Z</time>
      </trkpt>
      <trkpt lat="34.30625690873439" lon="109.03390650652017">
        <ele>392.39560155570507</ele>
        <time>2022-04-14T10:32:32Z</time>
      </trkpt>
      <trkpt lat="34.30624853731104" lon="109.03381958730476">
        <ele>392.85907531995326</ele>
        <time>2022-04-14T10:32:34Z</time>
      </trkpt>
      <trkpt lat="34.30615319066848" lon="109.03353193909741">
        <ele>393.16028258018196</ele>
        <time>2022-04-14T10:32:42Z</time>
      </trkpt>
      <trkpt lat="34.30619475507746" lon="109.03343511561594">
        <ele>393.2888018041849</ele>
        <time>2022-04-14T10:32:44Z</time>
      </trkpt>
      <trkpt lat="34.30626011027137" lon="109.03333459170845">
        <ele>392.8299362305552</ele>
        <time>2022-04-14T10:32:48Z</time>
      </trkpt>
      <trkpt lat="34.306318731129885" lon="109.03271643981569">
        <ele>392.27789705526084</ele>
        <time>2022-04-14T10:33:00Z</time>
      </trkpt>
      <trkpt lat="34.30628181860203" lon="109.03212979636014">
        <ele>393.52503841836005</ele>
        <time>2022-04-14T10:33:12Z</time>
      </trkpt>
      <trkpt lat="34.306294708574754" lon="109.03186539560532">
        <ele>393.63148179091513</ele>
        <time>2022-04-14T10:33:17Z</time>
      </trkpt>
      <trkpt lat="34.30627456471237" lon="109.0317698783074">
        <ele>393.2046457482502</ele>
        <time>2022-04-14T10:33:19Z</time>
      </trkpt>
      <trkpt lat="34.30628750450659" lon="109.03144197080584">
        <ele>392.0799257280305</ele>
        <time>2022-04-14T10:33:25Z</time>
      </trkpt>
      <trkpt lat="34.306314053262824" lon="109.03132140226775">
        <ele>392.6431669211015</ele>
        <time>2022-04-14T10:33:27Z</time>
      </trkpt>
      <trkpt lat="34.30636442490462" lon="109.0312272835911">
        <ele>393.15439919382334</ele>
        <time>2022-04-14T10:33:29Z</time>
      </trkpt>
      <trkpt lat="34.306595436035906" lon="109.03111059142998">
        <ele>393.4499143427238</ele>
        <time>2022-04-14T10:33:35Z</time>
      </trkpt>
      <trkpt lat="34.30691269045317" lon="109.03101899032586">
        <ele>392.8007161617279</ele>
        <time>2022-04-14T10:33:43Z</time>
      </trkpt>
      <trkpt lat="34.307353495366016" lon="109.03094457033204">
        <ele>393.5443853540346</ele>
        <time>2022-04-14T10:33:53Z</time>
      </trkpt>
      <trkpt lat="34.307806651274475" lon="109.03090524878678">
        <ele>394.47339167352766</ele>
        <time>2022-04-14T10:34:04Z</time>
      </trkpt>
      <trkpt lat="34.30790539114797" lon="109.03090101356503">
        <ele>394.20083049684763</ele>
        <time>2022-04-14T10:34:07Z</time>
      </trkpt>
      <trkpt lat="34.308187335489244" lon="109.03081965051193">
        <ele>395.4661286715418</ele>
        <time>2022-04-14T10:34:15Z</time>
      </trkpt>
      <trkpt lat="34.30864844081678" lon="109.03076038589505">
        <ele>395.57809341326356</ele>
        <time>2022-04-14T10:34:26Z</time>
      </trkpt>
      <trkpt lat="34.30890145671499" lon="109.03071993474303">
        <ele>395.0841243797913</ele>
        <time>2022-04-14T10:34:32Z</time>
      </trkpt>
      <trkpt lat="34.30933557400423" lon="109.03054877970531">
        <ele>395.4862997122109</ele>
        <time>2022-04-14T10:34:42Z</time>
      </trkpt>
      <trkpt lat="34.3096733596163" lon="109.03035580280196">
        <ele>394.2825158806518</ele>
        <time>2022-04-14T10:34:50Z</time>
      </trkpt>
      <trkpt lat="34.309988010611065" lon="109.03009267254654">
        <ele>395.69214203953743</ele>
        <time>2022-04-14T10:34:58Z</time>
      </trkpt>
      <trkpt lat="34.31007440430769" lon="109.0300381173502">
        <ele>394.6552908308804</ele>
        <time>2022-04-14T10:35:00Z</time>
      </trkpt>
      <trkpt lat="34.31046410400878" lon="109.02966779868467">
        <ele>394.1926794536412</ele>
        <time>2022-04-14T10:35:10Z</time>
      </trkpt>
      <trkpt lat="34.310868375142356" lon="109.02929239669368">
        <ele>394.06463145371526</ele>
        <time>2022-04-14T10:35:20Z</time>
      </trkpt>
      <trkpt lat="34.310940520258214" lon="109.02920580224743">
        <ele>394.07098248880357</ele>
        <time>2022-04-14T10:35:22Z</time>
      </trkpt>
      <trkpt lat="34.31110528536759" lon="109.02905776087236">
        <ele>393.11676699575037</ele>
        <time>2022-04-14T10:35:26Z</time>
      </trkpt>
      <trkpt lat="34.311321029156986" lon="109.02878836799844">
        <ele>392.1163295507431</ele>
        <time>2022-04-14T10:35:32Z</time>
      </trkpt>
      <trkpt lat="34.31146720445338" lon="109.02847898761618">
        <ele>392.84315074328333</ele>
        <time>2022-04-14T10:35:38Z</time>
      </trkpt>
      <trkpt lat="34.311491381530374" lon="109.02828779831583">
        <ele>392.9315493144095</ele>
        <time>2022-04-14T10:35:42Z</time>
      </trkpt>
      <trkpt lat="34.31149774317131" lon="109.02808073949502">
        <ele>393.8233979223296</ele>
        <time>2022-04-14T10:35:46Z</time>
      </trkpt>
      <trkpt lat="34.31153045038977" lon="109.02786731827247">
        <ele>393.20804967172444</ele>
        <time>2022-04-14T10:35:50Z</time>
      </trkpt>
      <trkpt lat="34.311543821683436" lon="109.0274106517836">
        <ele>392.80494940653443</ele>
        <time>2022-04-14T10:35:58Z</time>
      </trkpt>
      <trkpt lat="34.311658639614414" lon="109.02707103749324">
        <ele>392.0645530959591</ele>
        <time>2022-04-14T10:36:04Z</time>
      </trkpt>
      <trkpt lat="34.311777975856195" lon="109.02685283412269">
        <ele>393.5075431652367</ele>
        <time>2022-04-14T10:36:08Z</time>
      </trkpt>
      <trkpt lat="34.31196215946709" lon="109.02664046053022">
        <ele>392.6214371090755</ele>
        <time>2022-04-14T10:36:14Z</time>
      </trkpt>
      <trkpt lat="34.312305177571346" lon="109.02637264480654">
        <ele>394.0845915339887</ele>
        <time>2022-04-14T10:36:24Z</time>
      </trkpt>
      <trkpt lat="34.31234567425745" lon="109.02623405104427">
        <ele>393.6316389720887</ele>
        <time>2022-04-14T10:36:28Z</time>
      </trkpt>
      <trkpt lat="34.31240090221413" lon="109.026147470278">
        <ele>393.56108744069934</ele>
        <time>2022-04-14T10:36:30Z</time>
      </trkpt>
      <trkpt lat="34.31264940118053" lon="109.02610472930287">
        <ele>394.2057544486597</ele>
        <time>2022-04-14T10:36:34Z</time>
      </trkpt>
      <trkpt lat="34.31298129957906" lon="109.02588155285784">
        <ele>393.9264204269275</ele>
        <time>2022-04-14T10:36:42Z</time>
      </trkpt>
      <trkpt lat="34.313476619317115" lon="109.02569057672036">
        <ele>393.84760131221265</ele>
        <time>2022-04-14T10:37:00Z</time>
      </trkpt>
      <trkpt lat="34.313556776830374" lon="109.02566224475704">
        <ele>393.4731057686731</ele>
        <time>2022-04-14T10:37:02Z</time>
      </trkpt>
      <trkpt lat="34.31362792023976" lon="109.02561000232579">
        <ele>394.2699631033465</ele>
        <time>2022-04-14T10:37:04Z</time>
      </trkpt>
      <trkpt lat="34.31405713312567" lon="109.02544377265819">
        <ele>393.20869354810566</ele>
        <time>2022-04-14T10:37:14Z</time>
      </trkpt>
      <trkpt lat="34.31444459835768" lon="109.02519584043642">
        <ele>393.11588788498193</ele>
        <time>2022-04-14T10:37:24Z</time>
      </trkpt>
      <trkpt lat="34.31484280224063" lon="109.02493855874722">
        <ele>392.50778972916305</ele>
        <time>2022-04-14T10:37:34Z</time>
      </trkpt>
      <trkpt lat="34.31526067428117" lon="109.02465021909543">
        <ele>392.1277098003775</ele>
        <time>2022-04-14T10:37:44Z</time>
      </trkpt>
      <trkpt lat="34.315534210841705" lon="109.02447200698032">
        <ele>392.0084793511778</ele>
        <time>2022-04-14T10:37:50Z</time>
      </trkpt>
      <trkpt lat="34.31597275915962" lon="109.02424152351496">
        <ele>391.42959815543145</ele>
        <time>2022-04-14T10:38:00Z</time>
      </trkpt>
      <trkpt lat="34.31620818448672" lon="109.024086380424">
        <ele>392.68917567655444</ele>
        <time>2022-04-14T10:38:06Z</time>
      </trkpt>
      <trkpt lat="34.31621000988718" lon="109.02381519220476">
        <ele>391.1250534905121</ele>
        <time>2022-04-14T10:38:12Z</time>
      </trkpt>
      <trkpt lat="34.316248470812184" lon="109.02367412528162">
        <ele>390.98432506248355</ele>
        <time>2022-04-14T10:38:16Z</time>
      </trkpt>
      <trkpt lat="34.3162862952134" lon="109.02359344012226">
        <ele>391.2384675210342</ele>
        <time>2022-04-14T10:38:18Z</time>
      </trkpt>
      <trkpt lat="34.31626311039475" lon="109.02342674159928">
        <ele>391.2070654965937</ele>
        <time>2022-04-14T10:38:22Z</time>
      </trkpt>
      <trkpt lat="34.31603326506398" lon="109.02286669956425">
        <ele>388.84792105387896</ele>
        <time>2022-04-14T10:38:34Z</time>
      </trkpt>
      <trkpt lat="34.31582838937571" lon="109.02231299954214">
        <ele>391.41101526189595</ele>
        <time>2022-04-14T10:39:02Z</time>
      </trkpt>
      <trkpt lat="34.31587621093896" lon="109.02220623936391">
        <ele>391.92243149969727</ele>
        <time>2022-04-14T10:39:06Z</time>
      </trkpt>
      <trkpt lat="34.315957446529254" lon="109.02170115403062">
        <ele>392.3738630730659</ele>
        <time>2022-04-14T10:39:16Z</time>
      </trkpt>
      <trkpt lat="34.31593725743019" lon="109.02158667302436">
        <ele>391.78855032660067</ele>
        <time>2022-04-14T10:39:20Z</time>
      </trkpt>
      <trkpt lat="34.31594753128107" lon="109.02127722548742">
        <ele>393.42401025723666</ele>
        <time>2022-04-14T10:39:26Z</time>
      </trkpt>
      <trkpt lat="34.315928306767766" lon="109.02110071052762">
        <ele>394.6035520620644</ele>
        <time>2022-04-14T10:39:30Z</time>
      </trkpt>
      <trkpt lat="34.3159431084452" lon="109.02101340565079">
        <ele>394.6907249381766</ele>
        <time>2022-04-14T10:39:32Z</time>
      </trkpt>
      <trkpt lat="34.315936232349074" lon="109.02092278687206">
        <ele>394.60935212112963</ele>
        <time>2022-04-14T10:39:34Z</time>
      </trkpt>
      <trkpt lat="34.315948580190145" lon="109.02082403502074">
        <ele>395.2826009960845</ele>
        <time>2022-04-14T10:39:36Z</time>
      </trkpt>
      <trkpt lat="34.31591246742761" lon="109.02057811382328">
        <ele>395.79630545154214</ele>
        <time>2022-04-14T10:39:42Z</time>
      </trkpt>
      <trkpt lat="34.31592194674817" lon="109.02040190271617">
        <ele>397.0813902663067</ele>
        <time>2022-04-14T10:39:46Z</time>
      </trkpt>
      <trkpt lat="34.31590446240739" lon="109.02015606243546">
        <ele>397.4299826119095</ele>
        <time>2022-04-14T10:39:52Z</time>
      </trkpt>
      <trkpt lat="34.31593475591508" lon="109.01984847049467">
        <ele>398.6601163884625</ele>
        <time>2022-04-14T10:40:00Z</time>
      </trkpt>
      <trkpt lat="34.315941471345845" lon="109.01940868318181">
        <ele>399.6220591869205</ele>
        <time>2022-04-14T10:40:14Z</time>
      </trkpt>
      <trkpt lat="34.31592127149904" lon="109.01900379331526">
        <ele>401.01076519768685</ele>
        <time>2022-04-14T10:40:26Z</time>
      </trkpt>
      <trkpt lat="34.315927606675565" lon="109.01870605058384">
        <ele>401.66496358439326</ele>
        <time>2022-04-14T10:40:34Z</time>
      </trkpt>
      <trkpt lat="34.31590111443786" lon="109.01858245449812">
        <ele>402.0174013078213</ele>
        <time>2022-04-14T10:40:38Z</time>
      </trkpt>
      <trkpt lat="34.31592518082304" lon="109.01846170194658">
        <ele>402.00369511172175</ele>
        <time>2022-04-14T10:40:42Z</time>
      </trkpt>
      <trkpt lat="34.31592854856584" lon="109.01833413783004">
        <ele>402.4352044137195</ele>
        <time>2022-04-14T10:40:46Z</time>
      </trkpt>
      <trkpt lat="34.315905375562195" lon="109.01824918144747">
        <ele>402.8183442372829</ele>
        <time>2022-04-14T10:40:49Z</time>
      </trkpt>
      <trkpt lat="34.31592647616129" lon="109.01802291598325">
        <ele>404.0912928832695</ele>
        <time>2022-04-14T10:40:56Z</time>
      </trkpt>
      <trkpt lat="34.31600989831095" lon="109.01774292130384">
        <ele>404.3508074525744</ele>
        <time>2022-04-14T10:41:04Z</time>
      </trkpt>
      <trkpt lat="34.316028482967965" lon="109.01758271583611">
        <ele>404.88094091042876</ele>
        <time>2022-04-14T10:41:08Z</time>
      </trkpt>
      <trkpt lat="34.31599610697092" lon="109.01733710551814">
        <ele>404.9881287161261</ele>
        <time>2022-04-14T10:41:14Z</time>
      </trkpt>
      <trkpt lat="34.31596769342529" lon="109.0167611026419">
        <ele>405.8592753317207</ele>
        <time>2022-04-14T10:41:28Z</time>
      </trkpt>
      <trkpt lat="34.315983544116655" lon="109.0164578969767">
        <ele>407.183531393297</ele>
        <time>2022-04-14T10:41:36Z</time>
      </trkpt>
      <trkpt lat="34.316009632200675" lon="109.01634433049678">
        <ele>407.20091303717345</ele>
        <time>2022-04-14T10:41:38Z</time>
      </trkpt>
      <trkpt lat="34.31604086248043" lon="109.01575643080467">
        <ele>408.9248724998906</ele>
        <time>2022-04-14T10:41:54Z</time>
      </trkpt>
      <trkpt lat="34.31605052596578" lon="109.01526334862386">
        <ele>408.9453379260376</ele>
        <time>2022-04-14T10:42:04Z</time>
      </trkpt>
      <trkpt lat="34.316008208633" lon="109.01511946086917">
        <ele>409.1387635683641</ele>
        <time>2022-04-14T10:42:08Z</time>
      </trkpt>
      <trkpt lat="34.3160466991013" lon="109.01482185760268">
        <ele>410.24237774685025</ele>
        <time>2022-04-14T10:42:12Z</time>
      </trkpt>
      <trkpt lat="34.31599415416341" lon="109.0146708136344">
        <ele>409.769324041903</ele>
        <time>2022-04-14T10:42:16Z</time>
      </trkpt>
      <trkpt lat="34.31595542195878" lon="109.01435850015645">
        <ele>410.4056097185239</ele>
        <time>2022-04-14T10:42:22Z</time>
      </trkpt>
      <trkpt lat="34.315946541667955" lon="109.01379408713332">
        <ele>409.2311664270237</ele>
        <time>2022-04-14T10:42:36Z</time>
      </trkpt>
      <trkpt lat="34.31593318595472" lon="109.01366537633699">
        <ele>409.5885009383783</ele>
        <time>2022-04-14T10:42:40Z</time>
      </trkpt>
      <trkpt lat="34.31594102120069" lon="109.01352568144638">
        <ele>409.1639187997207</ele>
        <time>2022-04-14T10:42:44Z</time>
      </trkpt>
      <trkpt lat="34.31592955488085" lon="109.0133829496213">
        <ele>409.3500753380358</ele>
        <time>2022-04-14T10:42:48Z</time>
      </trkpt>
      <trkpt lat="34.315957778280854" lon="109.01316128922193">
        <ele>408.7518218830228</ele>
        <time>2022-04-14T10:42:53Z</time>
      </trkpt>
      <trkpt lat="34.31593282895088" lon="109.01289354859436">
        <ele>409.20461476407945</ele>
        <time>2022-04-14T10:43:00Z</time>
      </trkpt>
      <trkpt lat="34.31595334127796" lon="109.01268140536635">
        <ele>409.16607844270766</ele>
        <time>2022-04-14T10:43:05Z</time>
      </trkpt>
      <trkpt lat="34.315936394871414" lon="109.01236868856874">
        <ele>409.41238979343325</ele>
        <time>2022-04-14T10:43:13Z</time>
      </trkpt>
      <trkpt lat="34.31596602082419" lon="109.01174286899978">
        <ele>409.69978031888604</ele>
        <time>2022-04-14T10:43:23Z</time>
      </trkpt>
      <trkpt lat="34.316001888539134" lon="109.01157409547973">
        <ele>409.6883963625878</ele>
        <time>2022-04-14T10:43:25Z</time>
      </trkpt>
      <trkpt lat="34.31599765582456" lon="109.01092390676484">
        <ele>410.13199757318944</ele>
        <time>2022-04-14T10:43:33Z</time>
      </trkpt>
      <trkpt lat="34.3159803233569" lon="109.01073759100652">
        <ele>410.4991335440427</ele>
        <time>2022-04-14T10:43:35Z</time>
      </trkpt>
      <trkpt lat="34.3160451676446" lon="109.01015352389228">
        <ele>409.8417032258585</ele>
        <time>2022-04-14T10:43:41Z</time>
      </trkpt>
      <trkpt lat="34.31613551317095" lon="109.0099889621806">
        <ele>410.13319689780474</ele>
        <time>2022-04-14T10:43:43Z</time>
      </trkpt>
      <trkpt lat="34.31622879326647" lon="109.00989882051606">
        <ele>409.1480020871386</ele>
        <time>2022-04-14T10:43:45Z</time>
      </trkpt>
      <trkpt lat="34.31631961577091" lon="109.00988985937616">
        <ele>408.6159848123789</ele>
        <time>2022-04-14T10:43:47Z</time>
      </trkpt>
      <trkpt lat="34.31644316619394" lon="109.00978794357212">
        <ele>410.7208849051967</ele>
        <time>2022-04-14T10:43:51Z</time>
      </trkpt>
      <trkpt lat="34.31658965272029" lon="109.00972159463662">
        <ele>411.0089956810698</ele>
        <time>2022-04-14T10:43:55Z</time>
      </trkpt>
      <trkpt lat="34.31705557775006" lon="109.00963053975728">
        <ele>410.23149356618524</ele>
        <time>2022-04-14T10:44:07Z</time>
      </trkpt>
      <trkpt lat="34.317548663361904" lon="109.00962396014096">
        <ele>410.6336004380137</ele>
        <time>2022-04-14T10:44:19Z</time>
      </trkpt>
      <trkpt lat="34.31772507064553" lon="109.0096294447358">
        <ele>411.18696894682944</ele>
        <time>2022-04-14T10:44:23Z</time>
      </trkpt>
      <trkpt lat="34.31780434599476" lon="109.00960994576535">
        <ele>411.0462814643979</ele>
        <time>2022-04-14T10:44:25Z</time>
      </trkpt>
      <trkpt lat="34.31805230239685" lon="109.00964217201187">
        <ele>411.37128699943423</ele>
        <time>2022-04-14T10:44:31Z</time>
      </trkpt>
      <trkpt lat="34.3183091417263" lon="109.0096046707581">
        <ele>410.4016605243087</ele>
        <time>2022-04-14T10:44:37Z</time>
      </trkpt>
      <trkpt lat="34.31840021094426" lon="109.0095702365636">
        <ele>411.21339558716863</ele>
        <time>2022-04-14T10:44:39Z</time>
      </trkpt>
      <trkpt lat="34.31891540912444" lon="109.00959998034031">
        <ele>409.3712852159515</ele>
        <time>2022-04-14T10:44:49Z</time>
      </trkpt>
      <trkpt lat="34.31918815435026" lon="109.0096113173112">
        <ele>409.7141149332747</ele>
        <time>2022-04-14T10:44:54Z</time>
      </trkpt>
      <trkpt lat="34.31941033864286" lon="109.0095809182145">
        <ele>409.0806833207607</ele>
        <time>2022-04-14T10:44:58Z</time>
      </trkpt>
      <trkpt lat="34.31974768145573" lon="109.00960068800323">
        <ele>407.84555884078145</ele>
        <time>2022-04-14T10:45:04Z</time>
      </trkpt>
      <trkpt lat="34.319851934273224" lon="109.00958134973796">
        <ele>407.81993516813964</ele>
        <time>2022-04-14T10:45:06Z</time>
      </trkpt>
      <trkpt lat="34.32018607096664" lon="109.0095969551262">
        <ele>406.8247633446008</ele>
        <time>2022-04-14T10:45:12Z</time>
      </trkpt>
      <trkpt lat="34.32048940176069" lon="109.00953414519542">
        <ele>406.2862016260624</ele>
        <time>2022-04-14T10:45:18Z</time>
      </trkpt>
      <trkpt lat="34.320605642203226" lon="109.00953663870168">
        <ele>405.8203060692176</ele>
        <time>2022-04-14T10:45:20Z</time>
      </trkpt>
      <trkpt lat="34.32072100265962" lon="109.00956265444722">
        <ele>405.0575963780284</ele>
        <time>2022-04-14T10:45:22Z</time>
      </trkpt>
      <trkpt lat="34.32118781275602" lon="109.00957009506139">
        <ele>404.3784389058128</ele>
        <time>2022-04-14T10:45:30Z</time>
      </trkpt>
      <trkpt lat="34.32141297910046" lon="109.00951860237288">
        <ele>403.58560301642865</ele>
        <time>2022-04-14T10:45:34Z</time>
      </trkpt>
      <trkpt lat="34.32154481300472" lon="109.00954554889323">
        <ele>403.23385858535767</ele>
        <time>2022-04-14T10:45:36Z</time>
      </trkpt>
      <trkpt lat="34.32202293378516" lon="109.00954090475226">
        <ele>401.73286796174943</ele>
        <time>2022-04-14T10:45:44Z</time>
      </trkpt>
      <trkpt lat="34.322495832481174" lon="109.00954199129583">
        <ele>400.99118612241</ele>
        <time>2022-04-14T10:45:52Z</time>
      </trkpt>
      <trkpt lat="34.32261357394462" lon="109.0095622823021">
        <ele>400.96837126556784</ele>
        <time>2022-04-14T10:45:54Z</time>
      </trkpt>
      <trkpt lat="34.32307666335591" lon="109.00947961591282">
        <ele>400.0523226140067</ele>
        <time>2022-04-14T10:46:02Z</time>
      </trkpt>
      <trkpt lat="34.32355870277072" lon="109.00941739228988">
        <ele>398.832595041953</ele>
        <time>2022-04-14T10:46:10Z</time>
      </trkpt>
      <trkpt lat="34.324014302271216" lon="109.00932349554978">
        <ele>397.881399477832</ele>
        <time>2022-04-14T10:46:18Z</time>
      </trkpt>
      <trkpt lat="34.32441979325065" lon="109.00920035539858">
        <ele>397.9628966227174</ele>
        <time>2022-04-14T10:46:26Z</time>
      </trkpt>
      <trkpt lat="34.3248558476012" lon="109.0089950479523">
        <ele>397.6306239692494</ele>
        <time>2022-04-14T10:46:36Z</time>
      </trkpt>
      <trkpt lat="34.32521572358275" lon="109.00881249616354">
        <ele>397.4930949108675</ele>
        <time>2022-04-14T10:46:44Z</time>
      </trkpt>
      <trkpt lat="34.3256371854722" lon="109.00860744982072">
        <ele>396.45222359802574</ele>
        <time>2022-04-14T10:46:54Z</time>
      </trkpt>
      <trkpt lat="34.3260904761855" lon="109.00833836940332">
        <ele>397.25064500048757</ele>
        <time>2022-04-14T10:47:04Z</time>
      </trkpt>
      <trkpt lat="34.32628400081807" lon="109.00823125794703">
        <ele>396.9497600533068</ele>
        <time>2022-04-14T10:47:08Z</time>
      </trkpt>
      <trkpt lat="34.32646488860007" lon="109.00809188613927">
        <ele>397.16010624263436</ele>
        <time>2022-04-14T10:47:12Z</time>
      </trkpt>
      <trkpt lat="34.32692562236616" lon="109.00780151887697">
        <ele>396.24937528185546</ele>
        <time>2022-04-14T10:47:22Z</time>
      </trkpt>
      <trkpt lat="34.32700623947832" lon="109.00774121924822">
        <ele>395.6014151722193</ele>
        <time>2022-04-14T10:47:24Z</time>
      </trkpt>
      <trkpt lat="34.32714205770574" lon="109.00760027554956">
        <ele>396.35629153996706</ele>
        <time>2022-04-14T10:47:28Z</time>
      </trkpt>
      <trkpt lat="34.32756373513817" lon="109.00731937276176">
        <ele>395.7475888747722</ele>
        <time>2022-04-14T10:47:38Z</time>
      </trkpt>
      <trkpt lat="34.327723307942456" lon="109.00722296374835">
        <ele>395.7828860497102</ele>
        <time>2022-04-14T10:47:42Z</time>
      </trkpt>
      <trkpt lat="34.327740941183244" lon="109.00712225810562">
        <ele>395.66013133432716</ele>
        <time>2022-04-14T10:47:46Z</time>
      </trkpt>
      <trkpt lat="34.32773900342734" lon="109.0069559964422">
        <ele>395.07908920943737</ele>
        <time>2022-04-14T10:47:50Z</time>
      </trkpt>
      <trkpt lat="34.32776133806141" lon="109.00681772725487">
        <ele>394.8751956112683</ele>
        <time>2022-04-14T10:47:54Z</time>
      </trkpt>
      <trkpt lat="34.327823248228285" lon="109.00663894131858">
        <ele>394.9650915656239</ele>
        <time>2022-04-14T10:48:02Z</time>
      </trkpt>
      <trkpt lat="34.327969313447134" lon="109.00644750521691">
        <ele>394.81904590316117</ele>
        <time>2022-04-14T10:48:08Z</time>
      </trkpt>
      <trkpt lat="34.32799775745275" lon="109.00633784718734">
        <ele>395.08003263454884</ele>
        <time>2022-04-14T10:48:10Z</time>
      </trkpt>
      <trkpt lat="34.327984222996896" lon="109.00622209010295">
        <ele>394.65110835805535</ele>
        <time>2022-04-14T10:48:12Z</time>
      </trkpt>
      <trkpt lat="34.32800299661308" lon="109.00592640927302">
        <ele>394.8144636871293</ele>
        <time>2022-04-14T10:48:18Z</time>
      </trkpt>
      <trkpt lat="34.327989542098116" lon="109.00571321899415">
        <ele>395.0631921850145</ele>
        <time>2022-04-14T10:48:22Z</time>
      </trkpt>
      <trkpt lat="34.32790184444253" lon="109.00514877706657">
        <ele>395.1129020527005</ele>
        <time>2022-04-14T10:48:32Z</time>
      </trkpt>
      <trkpt lat="34.327903283847505" lon="109.00475239797254">
        <ele>394.7161038191989</ele>
        <time>2022-04-14T10:48:38Z</time>
      </trkpt>
      <trkpt lat="34.327881414599375" lon="109.00461731259514">
        <ele>394.88757031131536</ele>
        <time>2022-04-14T10:48:40Z</time>
      </trkpt>
      <trkpt lat="34.327896830806864" lon="109.0042410627041">
        <ele>395.61261691804975</ele>
        <time>2022-04-14T10:48:46Z</time>
      </trkpt>
      <trkpt lat="34.32795012662322" lon="109.00396818114204">
        <ele>395.2747987359762</ele>
        <time>2022-04-14T10:48:50Z</time>
      </trkpt>
      <trkpt lat="34.32796503765774" lon="109.00355743652736">
        <ele>395.70171390194446</ele>
        <time>2022-04-14T10:48:58Z</time>
      </trkpt>
      <trkpt lat="34.327922907987656" lon="109.00295422428495">
        <ele>396.2054952653125</ele>
        <time>2022-04-14T10:49:08Z</time>
      </trkpt>
      <trkpt lat="34.32790153943888" lon="109.00240973928014">
        <ele>395.353160363622</ele>
        <time>2022-04-14T10:49:16Z</time>
      </trkpt>
      <trkpt lat="34.32787409230725" lon="109.00179445470862">
        <ele>394.95216278359294</ele>
        <time>2022-04-14T10:49:26Z</time>
      </trkpt>
      <trkpt lat="34.327895563079984" lon="109.00154127882954">
        <ele>395.4006345467642</ele>
        <time>2022-04-14T10:49:30Z</time>
      </trkpt>
      <trkpt lat="34.32796945226555" lon="109.00125233810904">
        <ele>395.521241963841</ele>
        <time>2022-04-14T10:49:36Z</time>
      </trkpt>
      <trkpt lat="34.32800117509248" lon="109.00095650026365">
        <ele>396.2184731932357</ele>
        <time>2022-04-14T10:49:42Z</time>
      </trkpt>
      <trkpt lat="34.32798119746101" lon="109.00053552749327">
        <ele>395.61388869117945</ele>
        <time>2022-04-14T10:49:52Z</time>
      </trkpt>
      <trkpt lat="34.32787474261014" lon="109.00006030031759">
        <ele>395.314072964713</ele>
        <time>2022-04-14T10:50:04Z</time>
      </trkpt>
      <trkpt lat="34.32786208381754" lon="108.99958908189694">
        <ele>394.6946304142475</ele>
        <time>2022-04-14T10:50:14Z</time>
      </trkpt>
      <trkpt lat="34.32786559893912" lon="108.99908627893574">
        <ele>394.32715751230717</ele>
        <time>2022-04-14T10:50:22Z</time>
      </trkpt>
      <trkpt lat="34.327882216688145" lon="108.99900079811809">
        <ele>394.9685594653711</ele>
        <time>2022-04-14T10:50:24Z</time>
      </trkpt>
      <trkpt lat="34.327882134661074" lon="108.998382899484">
        <ele>394.93379338271916</ele>
        <time>2022-04-14T10:50:34Z</time>
      </trkpt>
      <trkpt lat="34.327869524817885" lon="108.99828020138949">
        <ele>395.16524171456695</ele>
        <time>2022-04-14T10:50:36Z</time>
      </trkpt>
      <trkpt lat="34.32789555128069" lon="108.99814615055453">
        <ele>395.6029311576858</ele>
        <time>2022-04-14T10:50:38Z</time>
      </trkpt>
      <trkpt lat="34.32789909913758" lon="108.99769573188627">
        <ele>396.32229320146143</ele>
        <time>2022-04-14T10:50:46Z</time>
      </trkpt>
      <trkpt lat="34.32794946446733" lon="108.99709282761542">
        <ele>396.1718337619677</ele>
        <time>2022-04-14T10:50:56Z</time>
      </trkpt>
      <trkpt lat="34.32793942776922" lon="108.99666233094592">
        <ele>395.48346465826035</ele>
        <time>2022-04-14T10:51:04Z</time>
      </trkpt>
      <trkpt lat="34.327993069933115" lon="108.9961476441818">
        <ele>395.91896922700107</ele>
        <time>2022-04-14T10:51:12Z</time>
      </trkpt>
      <trkpt lat="34.3279906247499" lon="108.99603802236346">
        <ele>395.91545848175883</ele>
        <time>2022-04-14T10:51:14Z</time>
      </trkpt>
      <trkpt lat="34.32804230842727" lon="108.9955379543781">
        <ele>395.04718095902354</ele>
        <time>2022-04-14T10:51:22Z</time>
      </trkpt>
      <trkpt lat="34.328014069855314" lon="108.99520487347273">
        <ele>395.58161674719304</ele>
        <time>2022-04-14T10:51:28Z</time>
      </trkpt>
      <trkpt lat="34.328038911028486" lon="108.99483937508764">
        <ele>394.9202484432608</ele>
        <time>2022-04-14T10:51:34Z</time>
      </trkpt>
      <trkpt lat="34.32803829175069" lon="108.99447524172841">
        <ele>393.69859391078353</ele>
        <time>2022-04-14T10:51:40Z</time>
      </trkpt>
      <trkpt lat="34.32805707647305" lon="108.9943437444873">
        <ele>394.7946966793388</ele>
        <time>2022-04-14T10:51:42Z</time>
      </trkpt>
      <trkpt lat="34.32802462830915" lon="108.99423903809961">
        <ele>394.1082868007943</ele>
        <time>2022-04-14T10:51:44Z</time>
      </trkpt>
      <trkpt lat="34.32807360890183" lon="108.99367070292803">
        <ele>394.82792356051505</ele>
        <time>2022-04-14T10:52:00Z</time>
      </trkpt>
      <trkpt lat="34.32805686218665" lon="108.99357884708932">
        <ele>395.5805181823671</ele>
        <time>2022-04-14T10:52:02Z</time>
      </trkpt>
      <trkpt lat="34.328071763557396" lon="108.99347279480237">
        <ele>395.49982334300876</ele>
        <time>2022-04-14T10:52:04Z</time>
      </trkpt>
      <trkpt lat="34.328050545310326" lon="108.99313418524973">
        <ele>395.498310550116</ele>
        <time>2022-04-14T10:52:10Z</time>
      </trkpt>
      <trkpt lat="34.32798751654719" lon="108.99280115768362">
        <ele>396.721735144034</ele>
        <time>2022-04-14T10:52:16Z</time>
      </trkpt>
      <trkpt lat="34.32799624568797" lon="108.99253671065401">
        <ele>395.814555618912</ele>
        <time>2022-04-14T10:52:20Z</time>
      </trkpt>
      <trkpt lat="34.3280530362711" lon="108.99201185761099">
        <ele>394.74591744411737</ele>
        <time>2022-04-14T10:52:28Z</time>
      </trkpt>
      <trkpt lat="34.32807648879453" lon="108.99143451186718">
        <ele>393.61991405300796</ele>
        <time>2022-04-14T10:52:38Z</time>
      </trkpt>
      <trkpt lat="34.32811204369351" lon="108.99117576666771">
        <ele>393.2280393447727</ele>
        <time>2022-04-14T10:52:54Z</time>
      </trkpt>
      <trkpt lat="34.3280809791837" lon="108.99100850249626">
        <ele>392.7533265398815</ele>
        <time>2022-04-14T10:53:29Z</time>
      </trkpt>
      <trkpt lat="34.32810733409121" lon="108.9908066935667">
        <ele>392.09857738856226</ele>
        <time>2022-04-14T10:53:36Z</time>
      </trkpt>
      <trkpt lat="34.32808990979901" lon="108.99050069056271">
        <ele>392.22115528583527</ele>
        <time>2022-04-14T10:53:42Z</time>
      </trkpt>
      <trkpt lat="34.32804917214853" lon="108.99020303092843">
        <ele>392.3914866093546</ele>
        <time>2022-04-14T10:53:48Z</time>
      </trkpt>
      <trkpt lat="34.32804825024499" lon="108.98975336290239">
        <ele>393.38799278251827</ele>
        <time>2022-04-14T10:53:56Z</time>
      </trkpt>
      <trkpt lat="34.32799805389861" lon="108.98920659437127">
        <ele>393.373579015024</ele>
        <time>2022-04-14T10:54:06Z</time>
      </trkpt>
      <trkpt lat="34.32800491269712" lon="108.98895717926024">
        <ele>393.26196400262415</ele>
        <time>2022-04-14T10:54:10Z</time>
      </trkpt>
      <trkpt lat="34.32794247528409" lon="108.98855951883098">
        <ele>392.7157621085644</ele>
        <time>2022-04-14T10:54:16Z</time>
      </trkpt>
      <trkpt lat="34.32792257163508" lon="108.98802352628958">
        <ele>394.03828727453947</ele>
        <time>2022-04-14T10:54:26Z</time>
      </trkpt>
      <trkpt lat="34.32791005798603" lon="108.98780053409331">
        <ele>393.91990645136684</ele>
        <time>2022-04-14T10:54:30Z</time>
      </trkpt>
      <trkpt lat="34.32793490526179" lon="108.98745502068171">
        <ele>395.645325133577</ele>
        <time>2022-04-14T10:54:36Z</time>
      </trkpt>
      <trkpt lat="34.327839844138445" lon="108.98736495328636">
        <ele>395.61629974190146</ele>
        <time>2022-04-14T10:54:40Z</time>
      </trkpt>
      <trkpt lat="34.32788082678376" lon="108.98683452128257">
        <ele>395.49805597029626</ele>
        <time>2022-04-14T10:54:48Z</time>
      </trkpt>
      <trkpt lat="34.32788557634226" lon="108.98656121322131">
        <ele>393.9043781775981</ele>
        <time>2022-04-14T10:54:52Z</time>
      </trkpt>
      <trkpt lat="34.327917630734156" lon="108.98640854556402">
        <ele>393.7673590350896</ele>
        <time>2022-04-14T10:54:54Z</time>
      </trkpt>
      <trkpt lat="34.3279356735755" lon="108.98600562824724">
        <ele>393.1598407905549</ele>
        <time>2022-04-14T10:55:00Z</time>
      </trkpt>
      <trkpt lat="34.327921342634966" lon="108.98586763980443">
        <ele>392.5613805009052</ele>
        <time>2022-04-14T10:55:02Z</time>
      </trkpt>
      <trkpt lat="34.327960498339166" lon="108.98550968219575">
        <ele>392.4781265826896</ele>
        <time>2022-04-14T10:55:08Z</time>
      </trkpt>
      <trkpt lat="34.328023112581114" lon="108.985130452483">
        <ele>392.3988231997937</ele>
        <time>2022-04-14T10:55:16Z</time>
      </trkpt>
      <trkpt lat="34.32803607737438" lon="108.984967537875">
        <ele>392.20200852584094</ele>
        <time>2022-04-14T10:55:20Z</time>
      </trkpt>
      <trkpt lat="34.328076740275286" lon="108.98479500683256">
        <ele>392.60981519985944</ele>
        <time>2022-04-14T10:55:24Z</time>
      </trkpt>
      <trkpt lat="34.328088030715875" lon="108.98418735297912">
        <ele>392.81675089057535</ele>
        <time>2022-04-14T10:55:38Z</time>
      </trkpt>
      <trkpt lat="34.32809566439448" lon="108.98408543584996">
        <ele>393.5679262317717</ele>
        <time>2022-04-14T10:55:40Z</time>
      </trkpt>
      <trkpt lat="34.32807930935433" lon="108.98389081641925">
        <ele>392.95757943112403</ele>
        <time>2022-04-14T10:55:44Z</time>
      </trkpt>
      <trkpt lat="34.32811326074669" lon="108.98369071696652">
        <ele>392.9812961425632</ele>
        <time>2022-04-14T10:55:48Z</time>
      </trkpt>
      <trkpt lat="34.32808737994881" lon="108.98335504578776">
        <ele>393.63734314776957</ele>
        <time>2022-04-14T10:55:56Z</time>
      </trkpt>
      <trkpt lat="34.328115895737895" lon="108.98285779360087">
        <ele>393.50325012393296</ele>
        <time>2022-04-14T10:56:06Z</time>
      </trkpt>
      <trkpt lat="34.32808763262621" lon="108.982776440794">
        <ele>393.56239600945264</ele>
        <time>2022-04-14T10:56:08Z</time>
      </trkpt>
      <trkpt lat="34.32806912275476" lon="108.98256962165868">
        <ele>393.9723491957411</ele>
        <time>2022-04-14T10:56:12Z</time>
      </trkpt>
      <trkpt lat="34.32799522901451" lon="108.98225309754974">
        <ele>393.87894720956683</ele>
        <time>2022-04-14T10:56:18Z</time>
      </trkpt>
      <trkpt lat="34.32801679835488" lon="108.98210986552398">
        <ele>394.3568282350898</ele>
        <time>2022-04-14T10:56:22Z</time>
      </trkpt>
      <trkpt lat="34.327994183100984" lon="108.98201939308873">
        <ele>394.5583698907867</ele>
        <time>2022-04-14T10:56:28Z</time>
      </trkpt>
      <trkpt lat="34.32811330987898" lon="108.9817694053365">
        <ele>395.5147913303226</ele>
        <time>2022-04-14T10:56:36Z</time>
      </trkpt>
      <trkpt lat="34.32808209346355" lon="108.98164867676745">
        <ele>395.14284679852426</ele>
        <time>2022-04-14T10:56:38Z</time>
      </trkpt>
      <trkpt lat="34.32801799216983" lon="108.98149019260846">
        <ele>395.4700975250453</ele>
        <time>2022-04-14T10:56:44Z</time>
      </trkpt>
      <trkpt lat="34.32803791043708" lon="108.98139603343645">
        <ele>395.40740563254803</ele>
        <time>2022-04-14T10:56:46Z</time>
      </trkpt>
      <trkpt lat="34.32803074083859" lon="108.9812299727619">
        <ele>395.76513180229813</ele>
        <time>2022-04-14T10:56:50Z</time>
      </trkpt>
      <trkpt lat="34.32809019650224" lon="108.98108613071742">
        <ele>395.0008891541511</ele>
        <time>2022-04-14T10:56:52Z</time>
      </trkpt>
      <trkpt lat="34.32814742395919" lon="108.98102407488977">
        <ele>395.07585605606437</ele>
        <time>2022-04-14T10:56:54Z</time>
      </trkpt>
      <trkpt lat="34.32817770416503" lon="108.98093065967088">
        <ele>394.54846209287643</ele>
        <time>2022-04-14T10:57:00Z</time>
      </trkpt>
      <trkpt lat="34.32817295185885" lon="108.9808439763527">
        <ele>394.78330717328936</ele>
        <time>2022-04-14T10:57:06Z</time>
      </trkpt>
      <trkpt lat="34.32823969619638" lon="108.98078592165528">
        <ele>394.57323963195086</ele>
        <time>2022-04-14T10:57:16Z</time>
      </trkpt>
      <trkpt lat="34.32831992948019" lon="108.98076075132397">
        <ele>395.0685248449445</ele>
        <time>2022-04-14T10:57:24Z</time>
      </trkpt>
      <trkpt lat="34.32840175959004" lon="108.98076921594331">
        <ele>395.37721110414714</ele>
        <time>2022-04-14T10:57:32Z</time>
      </trkpt>
      <trkpt lat="34.32849390308872" lon="108.98081777310387">
        <ele>395.65739507600665</ele>
        <time>2022-04-14T10:57:36Z</time>
      </trkpt>
      <trkpt lat="34.328594018783456" lon="108.98078512986356">
        <ele>396.0460285106674</ele>
        <time>2022-04-14T10:57:42Z</time>
      </trkpt>
      <trkpt lat="34.32862686264962" lon="108.98069940441042">
        <ele>395.8616915354505</ele>
        <time>2022-04-14T10:57:46Z</time>
      </trkpt>
      <trkpt lat="34.32863044283048" lon="108.9805766592097">
        <ele>395.52031654678285</ele>
        <time>2022-04-14T10:57:52Z</time>
      </trkpt>
      <trkpt lat="34.32860668995425" lon="108.98037752277612">
        <ele>396.0120685454458</ele>
        <time>2022-04-14T10:58:04Z</time>
      </trkpt>
      <trkpt lat="34.32880510665383" lon="108.98021196946581">
        <ele>395.85967563837767</ele>
        <time>2022-04-14T10:58:26Z</time>
      </trkpt>
    </trkseg>
  </trk>
</gpx>