<?xml version="1.0" encoding="UTF-8"?>
<gpx xmlns="http://www.topografix.com/GPX/1/1" xmlns:gpxtpx="http://www.garmin.com/xmlschemas/TrackPointExtension/v1" xmlns:xsi="http://www.w3.org/2001/XMLSchema-instance" xsi:schemaLocation="http://www.topografix.com/GPX/1/1 http://www.topografix.com/GPX/1/1/gpx.xsd" version="1.1" creator="gpx.py -- https://github.com/tkrajina/gpxpy">
  <trk>
    <name>gpx from keep</name>
    <type>Ride</type>
    <trkseg>
      <trkpt lat="34.32848807884712" lon="108.98015257827483">
        <ele>397.77395248413086</ele>
        <time>2022-03-27T23:27:58Z</time>
      </trkpt>
      <trkpt lat="34.32804516253259" lon="108.98036695546455">
        <ele>396.6824073791504</ele>
        <time>2022-03-27T23:28:32Z</time>
      </trkpt>
      <trkpt lat="34.328221460154516" lon="108.9802440245362">
        <ele>397.1289825439453</ele>
        <time>2022-03-27T23:28:47Z</time>
      </trkpt>
      <trkpt lat="34.32849835676138" lon="108.98022042099001">
        <ele>396.7205581665039</ele>
        <time>2022-03-27T23:28:59Z</time>
      </trkpt>
      <trkpt lat="34.3287071506413" lon="108.9804850542947">
        <ele>396.8705577850342</ele>
        <time>2022-03-27T23:29:11Z</time>
      </trkpt>
      <trkpt lat="34.32854209103279" lon="108.98043163548905">
        <ele>397.01917266845703</ele>
        <time>2022-03-27T23:29:16Z</time>
      </trkpt>
      <trkpt lat="34.328675494688596" lon="108.98039834238882">
        <ele>397.12155532836914</ele>
        <time>2022-03-27T23:29:22Z</time>
      </trkpt>
      <trkpt lat="34.328669140853954" lon="108.98025455311131">
        <ele>397.1590118408203</ele>
        <time>2022-03-27T23:29:28Z</time>
      </trkpt>
      <trkpt lat="34.32856348286532" lon="108.98042502859623">
        <ele>397.00026512145996</ele>
        <time>2022-03-27T23:29:34Z</time>
      </trkpt>
      <trkpt lat="34.32862065615403" lon="108.98063223262093">
        <ele>395.80242699664086</ele>
        <time>2022-03-27T23:29:42Z</time>
      </trkpt>
      <trkpt lat="34.32862565158209" lon="108.98081770491471">
        <ele>396.09528665151447</ele>
        <time>2022-03-27T23:29:54Z</time>
      </trkpt>
      <trkpt lat="34.32852614235467" lon="108.98084374418255">
        <ele>395.541677438654</ele>
        <time>2022-03-27T23:29:59Z</time>
      </trkpt>
      <trkpt lat="34.32820768149168" lon="108.98082977158568">
        <ele>394.47709875553846</ele>
        <time>2022-03-27T23:30:18Z</time>
      </trkpt>
      <trkpt lat="34.328155638937595" lon="108.98089359081102">
        <ele>394.5354764126241</ele>
        <time>2022-03-27T23:30:26Z</time>
      </trkpt>
      <trkpt lat="34.32816309291933" lon="108.98098323696418">
        <ele>394.3749208115041</ele>
        <time>2022-03-27T23:30:32Z</time>
      </trkpt>
      <trkpt lat="34.328200151474654" lon="108.98108054408257">
        <ele>394.48425260651857</ele>
        <time>2022-03-27T23:30:38Z</time>
      </trkpt>
      <trkpt lat="34.32821727077447" lon="108.9813486717022">
        <ele>395.03412758372724</ele>
        <time>2022-03-27T23:30:53Z</time>
      </trkpt>
      <trkpt lat="34.328237747907586" lon="108.98145259653406">
        <ele>394.7050965242088</ele>
        <time>2022-03-27T23:30:59Z</time>
      </trkpt>
      <trkpt lat="34.32822681434207" lon="108.98154309049809">
        <ele>394.8461268655956</ele>
        <time>2022-03-27T23:31:04Z</time>
      </trkpt>
      <trkpt lat="34.32818320842411" lon="108.98162629093099">
        <ele>394.65787847619504</ele>
        <time>2022-03-27T23:31:08Z</time>
      </trkpt>
      <trkpt lat="34.32816829492039" lon="108.98180567377136">
        <ele>395.22700365353376</ele>
        <time>2022-03-27T23:31:17Z</time>
      </trkpt>
      <trkpt lat="34.32816796822578" lon="108.98190749578406">
        <ele>396.4330939082429</ele>
        <time>2022-03-27T23:31:32Z</time>
      </trkpt>
      <trkpt lat="34.32813409264356" lon="108.98204399027158">
        <ele>395.34814577084035</ele>
        <time>2022-03-27T23:32:06Z</time>
      </trkpt>
      <trkpt lat="34.32816355652567" lon="108.98216113375307">
        <ele>394.61832768376917</ele>
        <time>2022-03-27T23:32:10Z</time>
      </trkpt>
      <trkpt lat="34.32816561771228" lon="108.98269407201605">
        <ele>394.2225715126842</ele>
        <time>2022-03-27T23:32:24Z</time>
      </trkpt>
      <trkpt lat="34.328237323709544" lon="108.98307775768059">
        <ele>392.73999286908656</ele>
        <time>2022-03-27T23:32:36Z</time>
      </trkpt>
      <trkpt lat="34.328213812298564" lon="108.98323043650255">
        <ele>392.7506433511153</ele>
        <time>2022-03-27T23:32:40Z</time>
      </trkpt>
      <trkpt lat="34.328268963379685" lon="108.98335141667069">
        <ele>391.9766729036346</ele>
        <time>2022-03-27T23:32:44Z</time>
      </trkpt>
      <trkpt lat="34.32822782394983" lon="108.98360475766464">
        <ele>392.1304716374725</ele>
        <time>2022-03-27T23:32:48Z</time>
      </trkpt>
      <trkpt lat="34.328166103538" lon="108.98382486743017">
        <ele>392.19267326500267</ele>
        <time>2022-03-27T23:32:52Z</time>
      </trkpt>
      <trkpt lat="34.32813403880128" lon="108.9840505616222">
        <ele>391.50621810369194</ele>
        <time>2022-03-27T23:32:57Z</time>
      </trkpt>
      <trkpt lat="34.32809530665749" lon="108.98416382851183">
        <ele>391.8179322127253</ele>
        <time>2022-03-27T23:33:00Z</time>
      </trkpt>
      <trkpt lat="34.32806040575343" lon="108.98451454682682">
        <ele>392.03740674443543</ele>
        <time>2022-03-27T23:33:10Z</time>
      </trkpt>
      <trkpt lat="34.32810675148967" lon="108.98479316294966">
        <ele>391.884424042888</ele>
        <time>2022-03-27T23:33:16Z</time>
      </trkpt>
      <trkpt lat="34.32809582868701" lon="108.98489046971086">
        <ele>391.649201804772</ele>
        <time>2022-03-27T23:33:18Z</time>
      </trkpt>
      <trkpt lat="34.32811481158166" lon="108.98536162832978">
        <ele>391.6259473338723</ele>
        <time>2022-03-27T23:33:28Z</time>
      </trkpt>
      <trkpt lat="34.32813082371584" lon="108.98544944877116">
        <ele>391.5382002517581</ele>
        <time>2022-03-27T23:33:30Z</time>
      </trkpt>
      <trkpt lat="34.32812478271743" lon="108.98585951467744">
        <ele>392.20383347943425</ele>
        <time>2022-03-27T23:33:38Z</time>
      </trkpt>
      <trkpt lat="34.32807979120071" lon="108.98619049631444">
        <ele>391.5849013617262</ele>
        <time>2022-03-27T23:33:44Z</time>
      </trkpt>
      <trkpt lat="34.328085515033905" lon="108.9862887231305">
        <ele>391.8265933189541</ele>
        <time>2022-03-27T23:33:46Z</time>
      </trkpt>
      <trkpt lat="34.328068747573" lon="108.98640507147383">
        <ele>391.9018276967108</ele>
        <time>2022-03-27T23:33:48Z</time>
      </trkpt>
      <trkpt lat="34.328064294386394" lon="108.9867091158075">
        <ele>392.2860925765708</ele>
        <time>2022-03-27T23:33:54Z</time>
      </trkpt>
      <trkpt lat="34.3281116016293" lon="108.98712768538725">
        <ele>393.62022794317454</ele>
        <time>2022-03-27T23:34:05Z</time>
      </trkpt>
      <trkpt lat="34.32816132113197" lon="108.98721280925213">
        <ele>392.59108804073185</ele>
        <time>2022-03-27T23:34:07Z</time>
      </trkpt>
      <trkpt lat="34.328141848681156" lon="108.98734761019686">
        <ele>392.3556837514043</ele>
        <time>2022-03-27T23:34:11Z</time>
      </trkpt>
      <trkpt lat="34.32814133837362" lon="108.98750789023292">
        <ele>393.1325115803629</ele>
        <time>2022-03-27T23:34:15Z</time>
      </trkpt>
      <trkpt lat="34.328248533262034" lon="108.98782937010658">
        <ele>392.36530425120145</ele>
        <time>2022-03-27T23:34:25Z</time>
      </trkpt>
      <trkpt lat="34.32823931739384" lon="108.98797347939514">
        <ele>392.51063108164817</ele>
        <time>2022-03-27T23:34:29Z</time>
      </trkpt>
      <trkpt lat="34.3282735196477" lon="108.98820635746544">
        <ele>390.5154507821426</ele>
        <time>2022-03-27T23:34:37Z</time>
      </trkpt>
      <trkpt lat="34.328425118048756" lon="108.98838356849342">
        <ele>390.5516230734065</ele>
        <time>2022-03-27T23:34:45Z</time>
      </trkpt>
      <trkpt lat="34.32842919573221" lon="108.98847372606477">
        <ele>391.9889617096633</ele>
        <time>2022-03-27T23:34:47Z</time>
      </trkpt>
      <trkpt lat="34.328499983514476" lon="108.98869013576288">
        <ele>391.6418019635603</ele>
        <time>2022-03-27T23:34:55Z</time>
      </trkpt>
      <trkpt lat="34.32843217135723" lon="108.9888859330055">
        <ele>391.76321674045175</ele>
        <time>2022-03-27T23:35:07Z</time>
      </trkpt>
      <trkpt lat="34.32785509976037" lon="108.99023395744189">
        <ele>391.7036692406982</ele>
        <time>2022-03-27T23:35:58Z</time>
      </trkpt>
      <trkpt lat="34.32785961733109" lon="108.99036138688301">
        <ele>392.32120957784355</ele>
        <time>2022-03-27T23:36:01Z</time>
      </trkpt>
      <trkpt lat="34.32789630739979" lon="108.99049105833753">
        <ele>392.3543858714402</ele>
        <time>2022-03-27T23:36:05Z</time>
      </trkpt>
      <trkpt lat="34.32802863636139" lon="108.99070631623243">
        <ele>391.5294124186039</ele>
        <time>2022-03-27T23:36:11Z</time>
      </trkpt>
      <trkpt lat="34.32801214224055" lon="108.99085756055888">
        <ele>391.46482854057103</ele>
        <time>2022-03-27T23:36:13Z</time>
      </trkpt>
      <trkpt lat="34.3280461879867" lon="108.99093955375064">
        <ele>391.4211495546624</ele>
        <time>2022-03-27T23:36:15Z</time>
      </trkpt>
      <trkpt lat="34.32804228674445" lon="108.99102885341802">
        <ele>391.30505013652146</ele>
        <time>2022-03-27T23:36:17Z</time>
      </trkpt>
      <trkpt lat="34.32798906860915" lon="108.99122290725589">
        <ele>392.3312834929675</ele>
        <time>2022-03-27T23:36:21Z</time>
      </trkpt>
      <trkpt lat="34.32795165701475" lon="108.99130018088567">
        <ele>393.2887521199882</ele>
        <time>2022-03-27T23:36:23Z</time>
      </trkpt>
      <trkpt lat="34.32794127901816" lon="108.99157841259479">
        <ele>393.51841443870217</ele>
        <time>2022-03-27T23:36:31Z</time>
      </trkpt>
      <trkpt lat="34.32791344709876" lon="108.99170208341282">
        <ele>393.99375204276294</ele>
        <time>2022-03-27T23:36:35Z</time>
      </trkpt>
      <trkpt lat="34.327935995101576" lon="108.9918295816957">
        <ele>393.23148382641375</ele>
        <time>2022-03-27T23:36:41Z</time>
      </trkpt>
      <trkpt lat="34.32803049245191" lon="108.99207289534571">
        <ele>392.6166531937197</ele>
        <time>2022-03-27T23:36:53Z</time>
      </trkpt>
      <trkpt lat="34.328004321883945" lon="108.99231741025915">
        <ele>393.77383272442967</ele>
        <time>2022-03-27T23:37:01Z</time>
      </trkpt>
      <trkpt lat="34.327948760922965" lon="108.99257300096127">
        <ele>394.1650653621182</ele>
        <time>2022-03-27T23:37:09Z</time>
      </trkpt>
      <trkpt lat="34.32795358971547" lon="108.99272369708218">
        <ele>394.2655988764018</ele>
        <time>2022-03-27T23:37:13Z</time>
      </trkpt>
      <trkpt lat="34.32799429184498" lon="108.99287440639172">
        <ele>395.1673221634701</ele>
        <time>2022-03-27T23:37:17Z</time>
      </trkpt>
      <trkpt lat="34.328048804415324" lon="108.99335664486972">
        <ele>393.7223363555968</ele>
        <time>2022-03-27T23:37:31Z</time>
      </trkpt>
      <trkpt lat="34.32810452797751" lon="108.99352920307396">
        <ele>393.61132133193314</ele>
        <time>2022-03-27T23:37:35Z</time>
      </trkpt>
      <trkpt lat="34.32810105217867" lon="108.99368063317623">
        <ele>394.141687435098</ele>
        <time>2022-03-27T23:37:39Z</time>
      </trkpt>
      <trkpt lat="34.32806408920879" lon="108.99386607330355">
        <ele>394.0261598210782</ele>
        <time>2022-03-27T23:37:43Z</time>
      </trkpt>
      <trkpt lat="34.32806136415302" lon="108.99413266858419">
        <ele>393.8328836662695</ele>
        <time>2022-03-27T23:37:49Z</time>
      </trkpt>
      <trkpt lat="34.32811899673068" lon="108.99423203110375">
        <ele>393.50956235360354</ele>
        <time>2022-03-27T23:37:51Z</time>
      </trkpt>
      <trkpt lat="34.32818212216567" lon="108.99440693384446">
        <ele>393.4455888001248</ele>
        <time>2022-03-27T23:37:55Z</time>
      </trkpt>
      <trkpt lat="34.328234211843956" lon="108.99484571850486">
        <ele>393.71509713027626</ele>
        <time>2022-03-27T23:38:01Z</time>
      </trkpt>
      <trkpt lat="34.32823815636939" lon="108.9952885497637">
        <ele>394.06746845319867</ele>
        <time>2022-03-27T23:38:09Z</time>
      </trkpt>
      <trkpt lat="34.32825637677109" lon="108.99544515920586">
        <ele>392.74342561978847</ele>
        <time>2022-03-27T23:38:13Z</time>
      </trkpt>
      <trkpt lat="34.328322398148835" lon="108.9956811555056">
        <ele>393.1208034828305</ele>
        <time>2022-03-27T23:38:21Z</time>
      </trkpt>
      <trkpt lat="34.3283297542717" lon="108.99583645109774">
        <ele>393.0607209485024</ele>
        <time>2022-03-27T23:38:25Z</time>
      </trkpt>
      <trkpt lat="34.32828538391365" lon="108.99599300960344">
        <ele>393.1270524710417</ele>
        <time>2022-03-27T23:38:27Z</time>
      </trkpt>
      <trkpt lat="34.32828925790275" lon="108.99608263288616">
        <ele>393.4143667649478</ele>
        <time>2022-03-27T23:38:29Z</time>
      </trkpt>
      <trkpt lat="34.32827044637159" lon="108.9961892568613">
        <ele>393.79298739880323</ele>
        <time>2022-03-27T23:38:31Z</time>
      </trkpt>
      <trkpt lat="34.32829457015444" lon="108.99648678887363">
        <ele>394.0024099647999</ele>
        <time>2022-03-27T23:38:39Z</time>
      </trkpt>
      <trkpt lat="34.32836422401521" lon="108.99657380712236">
        <ele>394.41269863117486</ele>
        <time>2022-03-27T23:38:43Z</time>
      </trkpt>
      <trkpt lat="34.328348176606085" lon="108.99668187636058">
        <ele>393.9841265939176</ele>
        <time>2022-03-27T23:38:45Z</time>
      </trkpt>
      <trkpt lat="34.32837122134078" lon="108.99682973614492">
        <ele>395.4386650621891</ele>
        <time>2022-03-27T23:38:49Z</time>
      </trkpt>
      <trkpt lat="34.32842068197147" lon="108.99696207797862">
        <ele>395.37547597289085</ele>
        <time>2022-03-27T23:38:53Z</time>
      </trkpt>
      <trkpt lat="34.328413688401376" lon="108.9971282247">
        <ele>395.257275682874</ele>
        <time>2022-03-27T23:38:57Z</time>
      </trkpt>
      <trkpt lat="34.32834531132378" lon="108.99756321055749">
        <ele>395.3194910129532</ele>
        <time>2022-03-27T23:39:07Z</time>
      </trkpt>
      <trkpt lat="34.32821107747301" lon="108.99807752827249">
        <ele>395.0311207091436</ele>
        <time>2022-03-27T23:39:19Z</time>
      </trkpt>
      <trkpt lat="34.3281907538562" lon="108.99823586084858">
        <ele>395.6687513347715</ele>
        <time>2022-03-27T23:39:23Z</time>
      </trkpt>
      <trkpt lat="34.32819149569379" lon="108.99838276199303">
        <ele>394.95743359066546</ele>
        <time>2022-03-27T23:39:27Z</time>
      </trkpt>
      <trkpt lat="34.32824061437785" lon="108.99861734640126">
        <ele>395.28381453081965</ele>
        <time>2022-03-27T23:39:35Z</time>
      </trkpt>
      <trkpt lat="34.3282587938856" lon="108.99896047135707">
        <ele>395.7916823551059</ele>
        <time>2022-03-27T23:39:45Z</time>
      </trkpt>
      <trkpt lat="34.328208947098766" lon="108.99915452855319">
        <ele>395.4526514885947</ele>
        <time>2022-03-27T23:39:49Z</time>
      </trkpt>
      <trkpt lat="34.3282438418613" lon="108.9995038465904">
        <ele>395.5047868741676</ele>
        <time>2022-03-27T23:40:01Z</time>
      </trkpt>
      <trkpt lat="34.32819953482505" lon="108.99977968784243">
        <ele>394.7288368707523</ele>
        <time>2022-03-27T23:40:09Z</time>
      </trkpt>
      <trkpt lat="34.328195095412156" lon="109.00012532507805">
        <ele>393.65372017398477</ele>
        <time>2022-03-27T23:40:21Z</time>
      </trkpt>
      <trkpt lat="34.32816263697509" lon="109.0002582932369">
        <ele>394.1905252598226</ele>
        <time>2022-03-27T23:40:25Z</time>
      </trkpt>
      <trkpt lat="34.328157316224285" lon="109.00035077088319">
        <ele>394.0193019080907</ele>
        <time>2022-03-27T23:40:27Z</time>
      </trkpt>
      <trkpt lat="34.32821010532195" lon="109.00059248990672">
        <ele>393.9746960690245</ele>
        <time>2022-03-27T23:40:33Z</time>
      </trkpt>
      <trkpt lat="34.32788656011155" lon="109.00400309222374">
        <ele>394.1478433320299</ele>
        <time>2022-03-27T23:40:35Z</time>
      </trkpt>
      <trkpt lat="34.327877131994704" lon="109.00409708125433">
        <ele>393.9614253733307</ele>
        <time>2022-03-27T23:40:37Z</time>
      </trkpt>
      <trkpt lat="34.327897653029474" lon="109.00431722922364">
        <ele>395.423358312808</ele>
        <time>2022-03-27T23:40:41Z</time>
      </trkpt>
      <trkpt lat="34.32786055154092" lon="109.00464565667774">
        <ele>394.24532767012715</ele>
        <time>2022-03-27T23:40:47Z</time>
      </trkpt>
      <trkpt lat="34.32786604381379" lon="109.0050125137632">
        <ele>394.03546871151775</ele>
        <time>2022-03-27T23:40:55Z</time>
      </trkpt>
      <trkpt lat="34.32788482232303" lon="109.00513058995695">
        <ele>394.51996012497693</ele>
        <time>2022-03-27T23:40:57Z</time>
      </trkpt>
      <trkpt lat="34.32788890993082" lon="109.005527268243">
        <ele>394.56910590082407</ele>
        <time>2022-03-27T23:41:05Z</time>
      </trkpt>
      <trkpt lat="34.327938801763416" lon="109.0057222668613">
        <ele>395.0547213992104</ele>
        <time>2022-03-27T23:41:09Z</time>
      </trkpt>
      <trkpt lat="34.32793600568034" lon="109.00591526594118">
        <ele>394.60970520041883</ele>
        <time>2022-03-27T23:41:13Z</time>
      </trkpt>
      <trkpt lat="34.32797885199978" lon="109.00627051777126">
        <ele>394.5691703874618</ele>
        <time>2022-03-27T23:41:21Z</time>
      </trkpt>
      <trkpt lat="34.32797044833021" lon="109.00635770300553">
        <ele>394.6860466003418</ele>
        <time>2022-03-27T23:41:23Z</time>
      </trkpt>
      <trkpt lat="34.32799516644797" lon="109.006631620526">
        <ele>394.60423321370035</ele>
        <time>2022-03-27T23:41:29Z</time>
      </trkpt>
      <trkpt lat="34.327970943417554" lon="109.00682336732314">
        <ele>394.52425602450967</ele>
        <time>2022-03-27T23:41:33Z</time>
      </trkpt>
      <trkpt lat="34.32799018671731" lon="109.00691770989204">
        <ele>394.8658812120557</ele>
        <time>2022-03-27T23:41:35Z</time>
      </trkpt>
      <trkpt lat="34.32794578627758" lon="109.0073294689028">
        <ele>394.6287657432258</ele>
        <time>2022-03-27T23:41:43Z</time>
      </trkpt>
      <trkpt lat="34.32789916182266" lon="109.00753970271293">
        <ele>393.25512189790606</ele>
        <time>2022-03-27T23:41:47Z</time>
      </trkpt>
      <trkpt lat="34.3278886282496" lon="109.00812933503136">
        <ele>392.49765718821436</ele>
        <time>2022-03-27T23:41:57Z</time>
      </trkpt>
      <trkpt lat="34.327903983968" lon="109.00847637934119">
        <ele>392.4687200980261</ele>
        <time>2022-03-27T23:42:03Z</time>
      </trkpt>
      <trkpt lat="34.32794856768854" lon="109.00869529204829">
        <ele>393.0750453155488</ele>
        <time>2022-03-27T23:42:07Z</time>
      </trkpt>
      <trkpt lat="34.32795442916213" lon="109.00921639545618">
        <ele>392.0526176672429</ele>
        <time>2022-03-27T23:42:15Z</time>
      </trkpt>
      <trkpt lat="34.32794945797342" lon="109.00976145724559">
        <ele>387.54326876904815</ele>
        <time>2022-03-27T23:42:23Z</time>
      </trkpt>
      <trkpt lat="34.3279499112765" lon="109.0102638290988">
        <ele>385.96941177081317</ele>
        <time>2022-03-27T23:42:31Z</time>
      </trkpt>
      <trkpt lat="34.32793108592925" lon="109.01059546030183">
        <ele>386.3516576299444</ele>
        <time>2022-03-27T23:42:37Z</time>
      </trkpt>
      <trkpt lat="34.32792160893793" lon="109.0111858099548">
        <ele>386.51189445890486</ele>
        <time>2022-03-27T23:42:49Z</time>
      </trkpt>
      <trkpt lat="34.32790556801204" lon="109.01170326807875">
        <ele>386.8978700656444</ele>
        <time>2022-03-27T23:42:59Z</time>
      </trkpt>
      <trkpt lat="34.32789719475531" lon="109.01223970327626">
        <ele>387.635201680474</ele>
        <time>2022-03-27T23:43:09Z</time>
      </trkpt>
      <trkpt lat="34.32787819493501" lon="109.01284669378956">
        <ele>389.76489161048084</ele>
        <time>2022-03-27T23:43:21Z</time>
      </trkpt>
      <trkpt lat="34.32789342752472" lon="109.01332880206552">
        <ele>389.64794253371656</ele>
        <time>2022-03-27T23:43:30Z</time>
      </trkpt>
      <trkpt lat="34.3279373859605" lon="109.01393611664885">
        <ele>389.4747594008222</ele>
        <time>2022-03-27T23:43:42Z</time>
      </trkpt>
      <trkpt lat="34.32797177960394" lon="109.01422453654878">
        <ele>388.27216181345284</ele>
        <time>2022-03-27T23:43:48Z</time>
      </trkpt>
      <trkpt lat="34.32797662287063" lon="109.01463888442036">
        <ele>387.52885472774506</ele>
        <time>2022-03-27T23:43:56Z</time>
      </trkpt>
      <trkpt lat="34.328015414982346" lon="109.01498121794015">
        <ele>387.9812108054757</ele>
        <time>2022-03-27T23:44:02Z</time>
      </trkpt>
      <trkpt lat="34.328101676831714" lon="109.01540018906528">
        <ele>388.06904534064233</ele>
        <time>2022-03-27T23:44:10Z</time>
      </trkpt>
      <trkpt lat="34.32808851016964" lon="109.01548870976683">
        <ele>389.37938051950186</ele>
        <time>2022-03-27T23:44:12Z</time>
      </trkpt>
      <trkpt lat="34.32813139936878" lon="109.01565155750336">
        <ele>388.34125647321343</ele>
        <time>2022-03-27T23:44:16Z</time>
      </trkpt>
      <trkpt lat="34.32806402490154" lon="109.01591919779788">
        <ele>388.5215029846877</ele>
        <time>2022-03-27T23:44:24Z</time>
      </trkpt>
      <trkpt lat="34.32797166646446" lon="109.01646634623818">
        <ele>386.9604202657938</ele>
        <time>2022-03-27T23:44:39Z</time>
      </trkpt>
      <trkpt lat="34.32782481886517" lon="109.0170499977258">
        <ele>388.83100308757275</ele>
        <time>2022-03-27T23:44:51Z</time>
      </trkpt>
      <trkpt lat="34.327723069701264" lon="109.01746188631206">
        <ele>389.7065753089264</ele>
        <time>2022-03-27T23:45:01Z</time>
      </trkpt>
      <trkpt lat="34.327691093541645" lon="109.01807972115081">
        <ele>389.6435641441494</ele>
        <time>2022-03-27T23:45:17Z</time>
      </trkpt>
      <trkpt lat="34.32768847459054" lon="109.0182111036544">
        <ele>389.48772094305605</ele>
        <time>2022-03-27T23:45:21Z</time>
      </trkpt>
      <trkpt lat="34.32762754866602" lon="109.01847156113861">
        <ele>388.88829946890473</ele>
        <time>2022-03-27T23:45:29Z</time>
      </trkpt>
      <trkpt lat="34.327541887794624" lon="109.01880776955504">
        <ele>389.6200566245243</ele>
        <time>2022-03-27T23:45:39Z</time>
      </trkpt>
      <trkpt lat="34.327326977846425" lon="109.01924782399388">
        <ele>388.54249576386064</ele>
        <time>2022-03-27T23:45:55Z</time>
      </trkpt>
      <trkpt lat="34.32714038232901" lon="109.01946751281638">
        <ele>388.59511671122164</ele>
        <time>2022-03-27T23:46:03Z</time>
      </trkpt>
      <trkpt lat="34.32707384721171" lon="109.01959422689818">
        <ele>388.8948621042073</ele>
        <time>2022-03-27T23:46:07Z</time>
      </trkpt>
      <trkpt lat="34.32674138682277" lon="109.0198114732754">
        <ele>388.23895572312176</ele>
        <time>2022-03-27T23:46:17Z</time>
      </trkpt>
      <trkpt lat="34.32663625432252" lon="109.01991498947918">
        <ele>389.082339306362</ele>
        <time>2022-03-27T23:46:21Z</time>
      </trkpt>
      <trkpt lat="34.32637328996185" lon="109.02003418180091">
        <ele>389.22435634117573</ele>
        <time>2022-03-27T23:46:29Z</time>
      </trkpt>
      <trkpt lat="34.326242012745915" lon="109.02011628640008">
        <ele>389.132092429325</ele>
        <time>2022-03-27T23:46:33Z</time>
      </trkpt>
      <trkpt lat="34.32601128064734" lon="109.02016524141904">
        <ele>389.86162914149463</ele>
        <time>2022-03-27T23:46:39Z</time>
      </trkpt>
      <trkpt lat="34.32584921994083" lon="109.02021882150831">
        <ele>390.27804274111986</ele>
        <time>2022-03-27T23:46:43Z</time>
      </trkpt>
      <trkpt lat="34.32536350778887" lon="109.02042481959404">
        <ele>390.7064785351977</ele>
        <time>2022-03-27T23:46:57Z</time>
      </trkpt>
      <trkpt lat="34.32525099126989" lon="109.02052628155319">
        <ele>391.35360036045313</ele>
        <time>2022-03-27T23:47:01Z</time>
      </trkpt>
      <trkpt lat="34.325012235728444" lon="109.02065078805167">
        <ele>391.0312141450122</ele>
        <time>2022-03-27T23:47:09Z</time>
      </trkpt>
      <trkpt lat="34.32468510973358" lon="109.02076528666707">
        <ele>390.24417252652347</ele>
        <time>2022-03-27T23:47:19Z</time>
      </trkpt>
      <trkpt lat="34.32454206568345" lon="109.0207903919772">
        <ele>390.7154035717249</ele>
        <time>2022-03-27T23:47:23Z</time>
      </trkpt>
      <trkpt lat="34.324077198160836" lon="109.02072687720458">
        <ele>391.27350145950913</ele>
        <time>2022-03-27T23:47:37Z</time>
      </trkpt>
      <trkpt lat="34.32395343067243" lon="109.02068359885095">
        <ele>391.9787643318996</ele>
        <time>2022-03-27T23:47:41Z</time>
      </trkpt>
      <trkpt lat="34.32360219679232" lon="109.0206481694703">
        <ele>393.9983617719263</ele>
        <time>2022-03-27T23:47:53Z</time>
      </trkpt>
      <trkpt lat="34.323487075807904" lon="109.02061917943752">
        <ele>394.70748848468065</ele>
        <time>2022-03-27T23:47:57Z</time>
      </trkpt>
      <trkpt lat="34.32326609331988" lon="109.02066596114648">
        <ele>395.41012267768383</ele>
        <time>2022-03-27T23:48:05Z</time>
      </trkpt>
      <trkpt lat="34.323150605672" lon="109.02065895537088">
        <ele>394.249567175284</ele>
        <time>2022-03-27T23:48:09Z</time>
      </trkpt>
      <trkpt lat="34.32302284665816" lon="109.02068328770616">
        <ele>393.7601890442893</ele>
        <time>2022-03-27T23:48:13Z</time>
      </trkpt>
      <trkpt lat="34.322907531090486" lon="109.02072824069008">
        <ele>394.3003951376304</ele>
        <time>2022-03-27T23:48:17Z</time>
      </trkpt>
      <trkpt lat="34.3200599496201" lon="109.02146589101892">
        <ele>393.4281480284408</ele>
        <time>2022-03-27T23:48:21Z</time>
      </trkpt>
      <trkpt lat="34.31993342276047" lon="109.02144054875197">
        <ele>393.4674499584362</ele>
        <time>2022-03-27T23:48:25Z</time>
      </trkpt>
      <trkpt lat="34.319551855316064" lon="109.02144321250127">
        <ele>392.2197151677683</ele>
        <time>2022-03-27T23:48:31Z</time>
      </trkpt>
      <trkpt lat="34.31943446140773" lon="109.02140688672857">
        <ele>391.2127965465188</ele>
        <time>2022-03-27T23:48:33Z</time>
      </trkpt>
      <trkpt lat="34.31921614363227" lon="109.02142934462407">
        <ele>390.5822069346905</ele>
        <time>2022-03-27T23:48:37Z</time>
      </trkpt>
      <trkpt lat="34.32004644098632" lon="109.02149232758775">
        <ele>390.8767027212307</ele>
        <time>2022-03-27T23:48:47Z</time>
      </trkpt>
      <trkpt lat="34.31954751874811" lon="109.02148773679333">
        <ele>391.0313432980329</ele>
        <time>2022-03-27T23:48:49Z</time>
      </trkpt>
      <trkpt lat="34.318802149673374" lon="109.02143811382318">
        <ele>390.72642191220075</ele>
        <time>2022-03-27T23:48:51Z</time>
      </trkpt>
      <trkpt lat="34.318292711290184" lon="109.02147799797447">
        <ele>391.17924647126347</ele>
        <time>2022-03-27T23:48:57Z</time>
      </trkpt>
      <trkpt lat="34.31790041114228" lon="109.02151416638567">
        <ele>390.9187212847173</ele>
        <time>2022-03-27T23:49:05Z</time>
      </trkpt>
      <trkpt lat="34.31738687435791" lon="109.0216065473797">
        <ele>391.0140476413071</ele>
        <time>2022-03-27T23:49:17Z</time>
      </trkpt>
      <trkpt lat="34.316924637745174" lon="109.02163118258825">
        <ele>391.5299655329436</ele>
        <time>2022-03-27T23:49:27Z</time>
      </trkpt>
      <trkpt lat="34.31677564231817" lon="109.0216875292879">
        <ele>391.673917115666</ele>
        <time>2022-03-27T23:49:31Z</time>
      </trkpt>
      <trkpt lat="34.316610541668766" lon="109.02172032391368">
        <ele>391.18512117117643</ele>
        <time>2022-03-27T23:49:35Z</time>
      </trkpt>
      <trkpt lat="34.31654019841959" lon="109.02175623065708">
        <ele>391.97594370972365</ele>
        <time>2022-03-27T23:49:37Z</time>
      </trkpt>
      <trkpt lat="34.316208584687324" lon="109.02182720407842">
        <ele>391.2230285741389</ele>
        <time>2022-03-27T23:49:45Z</time>
      </trkpt>
      <trkpt lat="34.316132150347805" lon="109.02206835877527">
        <ele>391.3958717258647</ele>
        <time>2022-03-27T23:49:53Z</time>
      </trkpt>
      <trkpt lat="34.316020082327206" lon="109.02221023768954">
        <ele>390.7962067229673</ele>
        <time>2022-03-27T23:50:01Z</time>
      </trkpt>
      <trkpt lat="34.315974991913954" lon="109.02223043062085">
        <ele>390.2604629397392</ele>
        <time>2022-03-27T23:50:11Z</time>
      </trkpt>
      <trkpt lat="34.315848843259374" lon="109.02235166694564">
        <ele>390.8976267836988</ele>
        <time>2022-03-27T23:50:22Z</time>
      </trkpt>
      <trkpt lat="34.315815368810696" lon="109.02249264447336">
        <ele>390.13971086777747</ele>
        <time>2022-03-27T23:50:26Z</time>
      </trkpt>
      <trkpt lat="34.31600228815691" lon="109.02303614841126">
        <ele>387.7856580596417</ele>
        <time>2022-03-27T23:50:38Z</time>
      </trkpt>
      <trkpt lat="34.316155835749065" lon="109.02349121858056">
        <ele>388.156980490312</ele>
        <time>2022-03-27T23:50:47Z</time>
      </trkpt>
      <trkpt lat="34.3161962752445" lon="109.02357593638637">
        <ele>388.0668392824009</ele>
        <time>2022-03-27T23:50:49Z</time>
      </trkpt>
      <trkpt lat="34.316208413386896" lon="109.02366363477036">
        <ele>388.6760670794174</ele>
        <time>2022-03-27T23:50:51Z</time>
      </trkpt>
      <trkpt lat="34.31607144976025" lon="109.02386374611967">
        <ele>389.8385277716443</ele>
        <time>2022-03-27T23:50:59Z</time>
      </trkpt>
      <trkpt lat="34.31561731198737" lon="109.02408612650426">
        <ele>390.1767953867093</ele>
        <time>2022-03-27T23:51:11Z</time>
      </trkpt>
      <trkpt lat="34.3153855298197" lon="109.0242808390382">
        <ele>390.3340226812288</ele>
        <time>2022-03-27T23:51:19Z</time>
      </trkpt>
      <trkpt lat="34.3152156385918" lon="109.02448177076877">
        <ele>389.88966082036495</ele>
        <time>2022-03-27T23:51:27Z</time>
      </trkpt>
      <trkpt lat="34.31511245172551" lon="109.02456751809402">
        <ele>390.2309584906325</ele>
        <time>2022-03-27T23:51:31Z</time>
      </trkpt>
      <trkpt lat="34.31483816201593" lon="109.02470128741034">
        <ele>389.72217889502645</ele>
        <time>2022-03-27T23:51:39Z</time>
      </trkpt>
      <trkpt lat="34.314800238541956" lon="109.0248430574259">
        <ele>390.2327969400212</ele>
        <time>2022-03-27T23:51:43Z</time>
      </trkpt>
      <trkpt lat="34.31452462957338" lon="109.0250675383079">
        <ele>390.28073322586715</ele>
        <time>2022-03-27T23:51:51Z</time>
      </trkpt>
      <trkpt lat="34.31416023949266" lon="109.02520547046801">
        <ele>389.9146652761847</ele>
        <time>2022-03-27T23:52:01Z</time>
      </trkpt>
      <trkpt lat="34.31387695376533" lon="109.02534803474683">
        <ele>391.1387266749516</ele>
        <time>2022-03-27T23:52:09Z</time>
      </trkpt>
      <trkpt lat="34.313725644353156" lon="109.02553462999593">
        <ele>392.1224980568513</ele>
        <time>2022-03-27T23:52:15Z</time>
      </trkpt>
      <trkpt lat="34.313520479102564" lon="109.02564319368688">
        <ele>392.2396786240861</ele>
        <time>2022-03-27T23:52:21Z</time>
      </trkpt>
      <trkpt lat="34.31346222672834" lon="109.02570346298732">
        <ele>392.87183932214975</ele>
        <time>2022-03-27T23:52:23Z</time>
      </trkpt>
      <trkpt lat="34.313402695248044" lon="109.02580938022551">
        <ele>392.90677127055824</ele>
        <time>2022-03-27T23:52:27Z</time>
      </trkpt>
      <trkpt lat="34.31336995763626" lon="109.02591353843185">
        <ele>392.78408488817513</ele>
        <time>2022-03-27T23:52:31Z</time>
      </trkpt>
      <trkpt lat="34.313235142706645" lon="109.02605146794227">
        <ele>391.9252278814092</ele>
        <time>2022-03-27T23:52:39Z</time>
      </trkpt>
      <trkpt lat="34.3130619381471" lon="109.02609365159252">
        <ele>391.71329927816987</ele>
        <time>2022-03-27T23:52:43Z</time>
      </trkpt>
      <trkpt lat="34.31279254883321" lon="109.02623029399707">
        <ele>392.3125698361546</ele>
        <time>2022-03-27T23:52:47Z</time>
      </trkpt>
      <trkpt lat="34.312694736496276" lon="109.02633112362417">
        <ele>392.8706990890205</ele>
        <time>2022-03-27T23:52:49Z</time>
      </trkpt>
      <trkpt lat="34.31256910277423" lon="109.02648781143937">
        <ele>393.03955293633044</ele>
        <time>2022-03-27T23:52:53Z</time>
      </trkpt>
      <trkpt lat="34.312473739746075" lon="109.02656080040812">
        <ele>393.3222772413865</ele>
        <time>2022-03-27T23:52:55Z</time>
      </trkpt>
      <trkpt lat="34.31234016051139" lon="109.0267160669323">
        <ele>393.8852799171582</ele>
        <time>2022-03-27T23:52:59Z</time>
      </trkpt>
      <trkpt lat="34.31216744368685" lon="109.0268557740913">
        <ele>394.0972187621519</ele>
        <time>2022-03-27T23:53:03Z</time>
      </trkpt>
      <trkpt lat="34.31202759162194" lon="109.02706210802162">
        <ele>393.5767514407635</ele>
        <time>2022-03-27T23:53:09Z</time>
      </trkpt>
      <trkpt lat="34.31199533780181" lon="109.02717879448707">
        <ele>393.4558378122747</ele>
        <time>2022-03-27T23:53:13Z</time>
      </trkpt>
      <trkpt lat="34.311988497196005" lon="109.02732136820384">
        <ele>393.6924872910604</ele>
        <time>2022-03-27T23:53:17Z</time>
      </trkpt>
      <trkpt lat="34.311778900846065" lon="109.02760414011986">
        <ele>394.2810962982476</ele>
        <time>2022-03-27T23:53:27Z</time>
      </trkpt>
      <trkpt lat="34.311748642938625" lon="109.02788676881876">
        <ele>393.93835760466754</ele>
        <time>2022-03-27T23:53:35Z</time>
      </trkpt>
      <trkpt lat="34.31177733723606" lon="109.0281742358894">
        <ele>393.1820675935596</ele>
        <time>2022-03-27T23:53:43Z</time>
      </trkpt>
      <trkpt lat="34.31176275498477" lon="109.02828056757394">
        <ele>392.9582609087229</ele>
        <time>2022-03-27T23:53:47Z</time>
      </trkpt>
      <trkpt lat="34.31171723899378" lon="109.02837341029155">
        <ele>393.46070240903646</ele>
        <time>2022-03-27T23:53:51Z</time>
      </trkpt>
      <trkpt lat="34.31169315065357" lon="109.02847637226307">
        <ele>392.8996863896027</ele>
        <time>2022-03-27T23:53:55Z</time>
      </trkpt>
      <trkpt lat="34.31155814254598" lon="109.0286684961341">
        <ele>392.648138592951</ele>
        <time>2022-03-27T23:54:03Z</time>
      </trkpt>
      <trkpt lat="34.31134438889771" lon="109.02892534761742">
        <ele>392.2800992820412</ele>
        <time>2022-03-27T23:54:11Z</time>
      </trkpt>
      <trkpt lat="34.310955635976065" lon="109.02918894851695">
        <ele>391.38921109680086</ele>
        <time>2022-03-27T23:54:21Z</time>
      </trkpt>
      <trkpt lat="34.310704794508695" lon="109.02934125119766">
        <ele>391.6239709658548</ele>
        <time>2022-03-27T23:54:27Z</time>
      </trkpt>
      <trkpt lat="34.31053788782153" lon="109.02949102706752">
        <ele>391.87543256022036</ele>
        <time>2022-03-27T23:54:31Z</time>
      </trkpt>
      <trkpt lat="34.31036480468725" lon="109.02958023420406">
        <ele>391.664897470735</ele>
        <time>2022-03-27T23:54:35Z</time>
      </trkpt>
      <trkpt lat="34.30993266386094" lon="109.02973213561229">
        <ele>391.708793502301</ele>
        <time>2022-03-27T23:54:43Z</time>
      </trkpt>
      <trkpt lat="34.30983677871773" lon="109.02977457431732">
        <ele>392.15942399948835</ele>
        <time>2022-03-27T23:54:45Z</time>
      </trkpt>
      <trkpt lat="34.309742788721444" lon="109.02985596685085">
        <ele>392.8414510153234</ele>
        <time>2022-03-27T23:54:47Z</time>
      </trkpt>
      <trkpt lat="34.30955653226224" lon="109.0299380449831">
        <ele>393.2630746876821</ele>
        <time>2022-03-27T23:54:51Z</time>
      </trkpt>
      <trkpt lat="34.30937980767157" lon="109.03004619009835">
        <ele>393.7308939062059</ele>
        <time>2022-03-27T23:54:57Z</time>
      </trkpt>
      <trkpt lat="34.30902479605798" lon="109.03019560504895">
        <ele>395.82116670068353</ele>
        <time>2022-03-27T23:55:05Z</time>
      </trkpt>
      <trkpt lat="34.308931097854874" lon="109.03026123534104">
        <ele>396.23730599693954</ele>
        <time>2022-03-27T23:55:07Z</time>
      </trkpt>
      <trkpt lat="34.308843264205336" lon="109.03027724881697">
        <ele>396.1353380391374</ele>
        <time>2022-03-27T23:55:09Z</time>
      </trkpt>
      <trkpt lat="34.30874650701571" lon="109.03033845136541">
        <ele>396.5014956416562</ele>
        <time>2022-03-27T23:55:11Z</time>
      </trkpt>
      <trkpt lat="34.308557491747436" lon="109.03039008785831">
        <ele>396.3849930278957</ele>
        <time>2022-03-27T23:55:15Z</time>
      </trkpt>
      <trkpt lat="34.30837982181879" lon="109.03047603647353">
        <ele>396.52780026756227</ele>
        <time>2022-03-27T23:55:19Z</time>
      </trkpt>
      <trkpt lat="34.30820305167931" lon="109.03046895318008">
        <ele>396.18104622419924</ele>
        <time>2022-03-27T23:55:23Z</time>
      </trkpt>
      <trkpt lat="34.30777694234659" lon="109.03065147730355">
        <ele>395.5867189625278</ele>
        <time>2022-03-27T23:55:29Z</time>
      </trkpt>
      <trkpt lat="34.307641162710716" lon="109.03070057052338">
        <ele>395.48194234538823</ele>
        <time>2022-03-27T23:55:31Z</time>
      </trkpt>
      <trkpt lat="34.30749172441729" lon="109.03072443295096">
        <ele>395.4342276947573</ele>
        <time>2022-03-27T23:55:33Z</time>
      </trkpt>
      <trkpt lat="34.30734004743134" lon="109.030793733492">
        <ele>394.3665946740657</ele>
        <time>2022-03-27T23:55:35Z</time>
      </trkpt>
      <trkpt lat="34.30708272824122" lon="109.03098655069073">
        <ele>393.56890630256385</ele>
        <time>2022-03-27T23:55:39Z</time>
      </trkpt>
      <trkpt lat="34.30691025389342" lon="109.03100734869412">
        <ele>391.5252536358312</ele>
        <time>2022-03-27T23:55:41Z</time>
      </trkpt>
      <trkpt lat="34.30663424787142" lon="109.03120133359114">
        <ele>391.2110977442935</ele>
        <time>2022-03-27T23:55:45Z</time>
      </trkpt>
      <trkpt lat="34.30656507101463" lon="109.03131582828208">
        <ele>391.4319189414382</ele>
        <time>2022-03-27T23:55:47Z</time>
      </trkpt>
      <trkpt lat="34.30648174501765" lon="109.03155610586342">
        <ele>391.83440565969795</ele>
        <time>2022-03-27T23:55:51Z</time>
      </trkpt>
      <trkpt lat="34.30642761234187" lon="109.03211712835449">
        <ele>392.7280162861571</ele>
        <time>2022-03-27T23:56:01Z</time>
      </trkpt>
      <trkpt lat="34.30645278540867" lon="109.03265520040983">
        <ele>393.6045204224065</ele>
        <time>2022-03-27T23:56:11Z</time>
      </trkpt>
      <trkpt lat="34.30648731648986" lon="109.03309679708852">
        <ele>392.44001284614205</ele>
        <time>2022-03-27T23:56:19Z</time>
      </trkpt>
      <trkpt lat="34.30653126052961" lon="109.03362941789727">
        <ele>393.2943431204185</ele>
        <time>2022-03-27T23:56:29Z</time>
      </trkpt>
      <trkpt lat="34.30654517625041" lon="109.03385409993517">
        <ele>393.8096796423197</ele>
        <time>2022-03-27T23:56:33Z</time>
      </trkpt>
      <trkpt lat="34.3065532741741" lon="109.03446819331694">
        <ele>392.70540047157556</ele>
        <time>2022-03-27T23:56:45Z</time>
      </trkpt>
      <trkpt lat="34.30658852110854" lon="109.03489747964915">
        <ele>393.8376596029848</ele>
        <time>2022-03-27T23:56:53Z</time>
      </trkpt>
      <trkpt lat="34.3066232310971" lon="109.0349807548141">
        <ele>393.39616447500885</ele>
        <time>2022-03-27T23:56:55Z</time>
      </trkpt>
      <trkpt lat="34.306657183112314" lon="109.03530884007237">
        <ele>393.224932464771</ele>
        <time>2022-03-27T23:57:01Z</time>
      </trkpt>
      <trkpt lat="34.30665008287643" lon="109.03542069921679">
        <ele>392.8631738955155</ele>
        <time>2022-03-27T23:57:03Z</time>
      </trkpt>
      <trkpt lat="34.30668272933178" lon="109.03562332113104">
        <ele>393.6302659874782</ele>
        <time>2022-03-27T23:57:07Z</time>
      </trkpt>
      <trkpt lat="34.306669020255214" lon="109.03614820963587">
        <ele>391.3360433448106</ele>
        <time>2022-03-27T23:57:21Z</time>
      </trkpt>
      <trkpt lat="34.3065906133646" lon="109.03616749500331">
        <ele>392.17167629115283</ele>
        <time>2022-03-27T23:57:25Z</time>
      </trkpt>
      <trkpt lat="34.30656708553612" lon="109.03625801374481">
        <ele>391.7532704230398</ele>
        <time>2022-03-27T23:57:31Z</time>
      </trkpt>
      <trkpt lat="34.306606921177895" lon="109.03685080277843">
        <ele>391.44352270290256</ele>
        <time>2022-03-27T23:58:13Z</time>
      </trkpt>
      <trkpt lat="34.30657931585014" lon="109.03694700632641">
        <ele>392.36702108196914</ele>
        <time>2022-03-27T23:58:23Z</time>
      </trkpt>
      <trkpt lat="34.30649169144207" lon="109.03694176812473">
        <ele>391.5243427185342</ele>
        <time>2022-03-27T23:58:33Z</time>
      </trkpt>
      <trkpt lat="34.306461457314214" lon="109.03700616387665">
        <ele>391.56772600580007</ele>
        <time>2022-03-27T23:58:41Z</time>
      </trkpt>
    </trkseg>
  </trk>
</gpx>