<?xml version="1.0" encoding="UTF-8"?>
<gpx xmlns="http://www.topografix.com/GPX/1/1" xmlns:gpxtpx="http://www.garmin.com/xmlschemas/TrackPointExtension/v1" xmlns:xsi="http://www.w3.org/2001/XMLSchema-instance" xsi:schemaLocation="http://www.topografix.com/GPX/1/1 http://www.topografix.com/GPX/1/1/gpx.xsd" version="1.1" creator="gpx.py -- https://github.com/tkrajina/gpxpy">
  <trk>
    <name>gpx from keep</name>
    <type>Run</type>
    <trkseg>
      <trkpt lat="34.297629569556705" lon="108.71032906230555">
        <ele>394.0136123956776</ele>
        <time>2026-09-02T23:17:59Z</time>
      </trkpt>
      <trkpt lat="34.29769249459244" lon="108.71039690911738">
        <ele>393.1295980019554</ele>
        <time>2026-09-02T23:18:35Z</time>
      </trkpt>
      <trkpt lat="34.29753673696158" lon="108.7104777129477">
        <ele>441.34090423583984</ele>
        <time>2026-09-02T23:18:38Z</time>
      </trkpt>
      <trkpt lat="34.29758470223527" lon="108.71031155911042">
        <ele>391.1667709518224</ele>
        <time>2026-09-02T23:18:46Z</time>
      </trkpt>
      <trkpt lat="34.29768048305335" lon="108.71017212717274">
        <ele>399.7895741229877</ele>
        <time>2026-09-02T23:18:50Z</time>
      </trkpt>
      <trkpt lat="34.29790982179538" lon="108.71014748121998">
        <ele>403.5329822245985</ele>
        <time>2026-09-02T23:18:58Z</time>
      </trkpt>
      <trkpt lat="34.29800650615273" lon="108.71027147979191">
        <ele>389.2572072632611</ele>
        <time>2026-09-02T23:19:02Z</time>
      </trkpt>
      <trkpt lat="34.298052250026906" lon="108.71053477194975">
        <ele>388.2724453806877</ele>
        <time>2026-09-02T23:19:14Z</time>
      </trkpt>
      <trkpt lat="34.29805373927263" lon="108.71062787741447">
        <ele>388.6371331764385</ele>
        <time>2026-09-02T23:19:18Z</time>
      </trkpt>
      <trkpt lat="34.29808033028317" lon="108.7107085869978">
        <ele>389.80130691826344</ele>
        <time>2026-09-02T23:19:22Z</time>
      </trkpt>
      <trkpt lat="34.298065208153986" lon="108.71090810275311">
        <ele>389.6450859326869</ele>
        <time>2026-09-02T23:19:30Z</time>
      </trkpt>
      <trkpt lat="34.29814144869452" lon="108.71113955457923">
        <ele>389.28516269288957</ele>
        <time>2026-09-02T23:19:39Z</time>
      </trkpt>
      <trkpt lat="34.29816304001492" lon="108.7112790676563">
        <ele>389.52109029889107</ele>
        <time>2026-09-02T23:19:45Z</time>
      </trkpt>
      <trkpt lat="34.298157456119945" lon="108.7113510268272">
        <ele>389.39145560748875</ele>
        <time>2026-09-02T23:19:48Z</time>
      </trkpt>
      <trkpt lat="34.29812669164802" lon="108.71139476329355">
        <ele>389.4104584213346</ele>
        <time>2026-09-02T23:19:51Z</time>
      </trkpt>
      <trkpt lat="34.29801457650676" lon="108.71144786838195">
        <ele>389.08267724886537</ele>
        <time>2026-09-02T23:19:57Z</time>
      </trkpt>
      <trkpt lat="34.29795419876169" lon="108.71145521440779">
        <ele>389.0436561079696</ele>
        <time>2026-09-02T23:20:00Z</time>
      </trkpt>
      <trkpt lat="34.2976634528443" lon="108.71158764217111">
        <ele>388.0919355135411</ele>
        <time>2026-09-02T23:20:15Z</time>
      </trkpt>
      <trkpt lat="34.297436535113036" lon="108.71167194165389">
        <ele>388.4162408411503</ele>
        <time>2026-09-02T23:20:27Z</time>
      </trkpt>
      <trkpt lat="34.29738339225099" lon="108.71170768195154">
        <ele>388.6396154426038</ele>
        <time>2026-09-02T23:20:30Z</time>
      </trkpt>
      <trkpt lat="34.29732520903509" lon="108.7117121893578">
        <ele>388.6968839233741</ele>
        <time>2026-09-02T23:20:33Z</time>
      </trkpt>
      <trkpt lat="34.29700117399106" lon="108.71183818007474">
        <ele>389.28581277187914</ele>
        <time>2026-09-02T23:20:51Z</time>
      </trkpt>
      <trkpt lat="34.296696999086606" lon="108.71195654926937">
        <ele>388.8402197957039</ele>
        <time>2026-09-02T23:21:09Z</time>
      </trkpt>
      <trkpt lat="34.29647969352458" lon="108.7120673859096">
        <ele>388.7803412117064</ele>
        <time>2026-09-02T23:21:21Z</time>
      </trkpt>
      <trkpt lat="34.29636538463179" lon="108.71206096253349">
        <ele>389.002399421297</ele>
        <time>2026-09-02T23:21:27Z</time>
      </trkpt>
      <trkpt lat="34.296304447014556" lon="108.71196325903156">
        <ele>387.6008407641202</ele>
        <time>2026-09-02T23:21:33Z</time>
      </trkpt>
      <trkpt lat="34.29626812882594" lon="108.71160898408603">
        <ele>388.282856432721</ele>
        <time>2026-09-02T23:21:49Z</time>
      </trkpt>
      <trkpt lat="34.29622333747117" lon="108.7112371163609">
        <ele>389.8102255659178</ele>
        <time>2026-09-02T23:22:06Z</time>
      </trkpt>
      <trkpt lat="34.29617911313493" lon="108.71090709292046">
        <ele>390.011366722174</ele>
        <time>2026-09-02T23:22:21Z</time>
      </trkpt>
      <trkpt lat="34.29613771553778" lon="108.71075918813065">
        <ele>390.422193155624</ele>
        <time>2026-09-02T23:22:30Z</time>
      </trkpt>
      <trkpt lat="34.29613685767458" lon="108.71066352741651">
        <ele>391.32577083073556</ele>
        <time>2026-09-02T23:22:36Z</time>
      </trkpt>
      <trkpt lat="34.29608275754617" lon="108.71029345404958">
        <ele>390.52098771184683</ele>
        <time>2026-09-02T23:22:57Z</time>
      </trkpt>
      <trkpt lat="34.29603484021288" lon="108.70992197933641">
        <ele>390.69547018874437</ele>
        <time>2026-09-02T23:23:15Z</time>
      </trkpt>
      <trkpt lat="34.295979293523224" lon="108.70955875698976">
        <ele>390.71166068222374</ele>
        <time>2026-09-02T23:23:33Z</time>
      </trkpt>
      <trkpt lat="34.29593135802373" lon="108.70918481864005">
        <ele>390.40326472278684</ele>
        <time>2026-09-02T23:23:51Z</time>
      </trkpt>
      <trkpt lat="34.295880746887455" lon="108.70885631920012">
        <ele>390.3000200986862</ele>
        <time>2026-09-02T23:24:05Z</time>
      </trkpt>
      <trkpt lat="34.295858887426334" lon="108.70865315008795">
        <ele>390.3689974853769</ele>
        <time>2026-09-02T23:24:14Z</time>
      </trkpt>
      <trkpt lat="34.29585865616861" lon="108.70837573823322">
        <ele>391.10709463153034</ele>
        <time>2026-09-02T23:24:26Z</time>
      </trkpt>
      <trkpt lat="34.29583906977264" lon="108.70832131140801">
        <ele>390.2462263805792</ele>
        <time>2026-09-02T23:24:29Z</time>
      </trkpt>
      <trkpt lat="34.29580090038837" lon="108.70795504988814">
        <ele>389.97684054169804</ele>
        <time>2026-09-02T23:24:47Z</time>
      </trkpt>
      <trkpt lat="34.295798156089916" lon="108.70788390514043">
        <ele>389.7698604874313</ele>
        <time>2026-09-02T23:24:53Z</time>
      </trkpt>
      <trkpt lat="34.2957774299294" lon="108.70781780267527">
        <ele>390.1709937239066</ele>
        <time>2026-09-02T23:24:59Z</time>
      </trkpt>
      <trkpt lat="34.29578126233601" lon="108.70744592872914">
        <ele>389.18321289494634</ele>
        <time>2026-09-02T23:25:20Z</time>
      </trkpt>
      <trkpt lat="34.29575411636145" lon="108.70736720679015">
        <ele>391.0768831586465</ele>
        <time>2026-09-02T23:25:26Z</time>
      </trkpt>
      <trkpt lat="34.29574120549674" lon="108.70697840718685">
        <ele>389.64456974714994</ele>
        <time>2026-09-02T23:25:48Z</time>
      </trkpt>
      <trkpt lat="34.29572205887591" lon="108.70681779960925">
        <ele>390.0711396150291</ele>
        <time>2026-09-02T23:25:56Z</time>
      </trkpt>
      <trkpt lat="34.29568268824845" lon="108.70669580850526">
        <ele>390.59167545009404</ele>
        <time>2026-09-02T23:26:04Z</time>
      </trkpt>
      <trkpt lat="34.29569470665736" lon="108.70659819663967">
        <ele>390.44870435539633</ele>
        <time>2026-09-02T23:26:10Z</time>
      </trkpt>
      <trkpt lat="34.29566460459092" lon="108.7064162316445">
        <ele>390.14128445647657</ele>
        <time>2026-09-02T23:26:22Z</time>
      </trkpt>
      <trkpt lat="34.29567677195779" lon="108.70631176372558">
        <ele>390.9867853447795</ele>
        <time>2026-09-02T23:26:28Z</time>
      </trkpt>
      <trkpt lat="34.29575149800518" lon="108.70615928073023">
        <ele>391.01426129136235</ele>
        <time>2026-09-02T23:26:37Z</time>
      </trkpt>
      <trkpt lat="34.29584530807582" lon="108.70608579292482">
        <ele>389.25503508374095</ele>
        <time>2026-09-02T23:26:43Z</time>
      </trkpt>
      <trkpt lat="34.29615539156365" lon="108.70600463874827">
        <ele>389.33907459676266</ele>
        <time>2026-09-02T23:27:01Z</time>
      </trkpt>
      <trkpt lat="34.29634192861469" lon="108.70596750529772">
        <ele>388.21648947615176</ele>
        <time>2026-09-02T23:27:13Z</time>
      </trkpt>
      <trkpt lat="34.29660088880859" lon="108.70593202125833">
        <ele>388.463602906093</ele>
        <time>2026-09-02T23:27:28Z</time>
      </trkpt>
      <trkpt lat="34.29669841982419" lon="108.70593867521242">
        <ele>388.3444098867476</ele>
        <time>2026-09-02T23:27:34Z</time>
      </trkpt>
      <trkpt lat="34.296754003405695" lon="108.7059116328503">
        <ele>388.8044146075845</ele>
        <time>2026-09-02T23:27:37Z</time>
      </trkpt>
      <trkpt lat="34.296806606557865" lon="108.70591978077402">
        <ele>386.9718333501369</ele>
        <time>2026-09-02T23:27:40Z</time>
      </trkpt>
      <trkpt lat="34.2970748510588" lon="108.70585173780105">
        <ele>388.45787906553596</ele>
        <time>2026-09-02T23:27:56Z</time>
      </trkpt>
      <trkpt lat="34.29723124513615" lon="108.70582332118033">
        <ele>389.10669031366706</ele>
        <time>2026-09-02T23:28:08Z</time>
      </trkpt>
      <trkpt lat="34.29733673582679" lon="108.7058158237483">
        <ele>389.47008269745857</ele>
        <time>2026-09-02T23:28:15Z</time>
      </trkpt>
      <trkpt lat="34.297638038607396" lon="108.70574545421788">
        <ele>389.29540492687374</ele>
        <time>2026-09-02T23:28:33Z</time>
      </trkpt>
      <trkpt lat="34.297867283729936" lon="108.7057080090649">
        <ele>389.6472708452493</ele>
        <time>2026-09-02T23:28:45Z</time>
      </trkpt>
      <trkpt lat="34.297927707408085" lon="108.70572373202953">
        <ele>389.98586263973266</ele>
        <time>2026-09-02T23:28:48Z</time>
      </trkpt>
      <trkpt lat="34.2979795837212" lon="108.70568760433548">
        <ele>389.28745692875236</ele>
        <time>2026-09-02T23:28:51Z</time>
      </trkpt>
      <trkpt lat="34.29807780051509" lon="108.70569652575219">
        <ele>388.2606826350093</ele>
        <time>2026-09-02T23:28:57Z</time>
      </trkpt>
      <trkpt lat="34.29835421295708" lon="108.70562769450031">
        <ele>389.6953804679215</ele>
        <time>2026-09-02T23:29:15Z</time>
      </trkpt>
      <trkpt lat="34.2986274993748" lon="108.70558924401418">
        <ele>390.17276382725686</ele>
        <time>2026-09-02T23:29:30Z</time>
      </trkpt>
      <trkpt lat="34.298736219371875" lon="108.70556874964717">
        <ele>389.2838676581159</ele>
        <time>2026-09-02T23:29:36Z</time>
      </trkpt>
      <trkpt lat="34.298779969316605" lon="108.70553774024565">
        <ele>389.15644315071404</ele>
        <time>2026-09-02T23:29:39Z</time>
      </trkpt>
      <trkpt lat="34.29890808125222" lon="108.70552919399013">
        <ele>389.48105286154896</ele>
        <time>2026-09-02T23:29:48Z</time>
      </trkpt>
      <trkpt lat="34.299193313518224" lon="108.70546807478954">
        <ele>389.90713876951486</ele>
        <time>2026-09-02T23:30:05Z</time>
      </trkpt>
      <trkpt lat="34.299251794223075" lon="108.70543991022754">
        <ele>389.903704976663</ele>
        <time>2026-09-02T23:30:09Z</time>
      </trkpt>
      <trkpt lat="34.29932539567717" lon="108.70553740048257">
        <ele>389.7529821638018</ele>
        <time>2026-09-02T23:30:17Z</time>
      </trkpt>
      <trkpt lat="34.299349582897875" lon="108.70578273279791">
        <ele>390.67299356870353</ele>
        <time>2026-09-02T23:30:29Z</time>
      </trkpt>
      <trkpt lat="34.29938017586331" lon="108.70589005415871">
        <ele>390.73906623758376</ele>
        <time>2026-09-02T23:30:35Z</time>
      </trkpt>
      <trkpt lat="34.299419224425776" lon="108.70624034844091">
        <ele>389.13217380829155</ele>
        <time>2026-09-02T23:30:53Z</time>
      </trkpt>
      <trkpt lat="34.29942539322117" lon="108.70642787679137">
        <ele>391.26431525405496</ele>
        <time>2026-09-02T23:31:02Z</time>
      </trkpt>
      <trkpt lat="34.29948842177597" lon="108.70676077104521">
        <ele>390.91350945830345</ele>
        <time>2026-09-02T23:31:17Z</time>
      </trkpt>
      <trkpt lat="34.29949541990267" lon="108.70689063537131">
        <ele>391.3029785566032</ele>
        <time>2026-09-02T23:31:23Z</time>
      </trkpt>
      <trkpt lat="34.2995263277539" lon="108.70701980769617">
        <ele>390.7681985171512</ele>
        <time>2026-09-02T23:31:35Z</time>
      </trkpt>
      <trkpt lat="34.299512326387706" lon="108.70708033680197">
        <ele>389.8851368930191</ele>
        <time>2026-09-02T23:31:38Z</time>
      </trkpt>
      <trkpt lat="34.299532842385815" lon="108.7072137216351">
        <ele>389.99558629188687</ele>
        <time>2026-09-02T23:31:44Z</time>
      </trkpt>
      <trkpt lat="34.29951347155718" lon="108.70734609742019">
        <ele>390.751782650128</ele>
        <time>2026-09-02T23:31:50Z</time>
      </trkpt>
      <trkpt lat="34.29951886774761" lon="108.70740559143835">
        <ele>391.8695635795593</ele>
        <time>2026-09-02T23:31:53Z</time>
      </trkpt>
      <trkpt lat="34.2994900462164" lon="108.70753484502673">
        <ele>389.42101093940437</ele>
        <time>2026-09-02T23:32:02Z</time>
      </trkpt>
      <trkpt lat="34.29949714618454" lon="108.70758892990014">
        <ele>390.7234509875998</ele>
        <time>2026-09-02T23:32:06Z</time>
      </trkpt>
      <trkpt lat="34.299485763575916" lon="108.70764452062137">
        <ele>390.26178164221346</ele>
        <time>2026-09-02T23:32:10Z</time>
      </trkpt>
      <trkpt lat="34.29950412534311" lon="108.70772869315833">
        <ele>391.29189772810787</ele>
        <time>2026-09-02T23:32:17Z</time>
      </trkpt>
      <trkpt lat="34.29949638994277" lon="108.70780567497395">
        <ele>391.4395845681429</ele>
        <time>2026-09-02T23:32:23Z</time>
      </trkpt>
      <trkpt lat="34.29958146732849" lon="108.70817663830637">
        <ele>391.33865836355835</ele>
        <time>2026-09-02T23:32:44Z</time>
      </trkpt>
      <trkpt lat="34.29958903587929" lon="108.70831407176193">
        <ele>390.5487492810935</ele>
        <time>2026-09-02T23:32:53Z</time>
      </trkpt>
      <trkpt lat="34.2995625879229" lon="108.70837999975694">
        <ele>391.55865229759365</ele>
        <time>2026-09-02T23:33:02Z</time>
      </trkpt>
      <trkpt lat="34.299645115291554" lon="108.70851886404547">
        <ele>390.92619549296796</ele>
        <time>2026-09-02T23:33:14Z</time>
      </trkpt>
      <trkpt lat="34.299684542552555" lon="108.70888973615446">
        <ele>391.9860913278535</ele>
        <time>2026-09-02T23:33:35Z</time>
      </trkpt>
      <trkpt lat="34.29968092208884" lon="108.70907604683005">
        <ele>390.63096776232123</ele>
        <time>2026-09-02T23:33:44Z</time>
      </trkpt>
      <trkpt lat="34.29974320335603" lon="108.70932645086651">
        <ele>390.7511011585593</ele>
        <time>2026-09-02T23:33:56Z</time>
      </trkpt>
      <trkpt lat="34.299751511886384" lon="108.70952299764315">
        <ele>390.98416041675955</ele>
        <time>2026-09-02T23:34:08Z</time>
      </trkpt>
      <trkpt lat="34.29978622137383" lon="108.70956356128141">
        <ele>390.73642772901803</ele>
        <time>2026-09-02T23:34:12Z</time>
      </trkpt>
      <trkpt lat="34.29978921124775" lon="108.70970605224935">
        <ele>390.4132397826761</ele>
        <time>2026-09-02T23:34:26Z</time>
      </trkpt>
      <trkpt lat="34.29982635359779" lon="108.70983267771774">
        <ele>390.8663008082658</ele>
        <time>2026-09-02T23:34:32Z</time>
      </trkpt>
      <trkpt lat="34.29982941913347" lon="108.7099023934915">
        <ele>391.62036305014044</ele>
        <time>2026-09-02T23:34:35Z</time>
      </trkpt>
      <trkpt lat="34.299852158501025" lon="108.70997057199695">
        <ele>391.6407185262069</ele>
        <time>2026-09-02T23:34:38Z</time>
      </trkpt>
      <trkpt lat="34.299872245672645" lon="108.71024224670658">
        <ele>391.02460173051804</ele>
        <time>2026-09-02T23:34:50Z</time>
      </trkpt>
      <trkpt lat="34.29974185451623" lon="108.71040806103186">
        <ele>391.0707627935335</ele>
        <time>2026-09-02T23:34:59Z</time>
      </trkpt>
      <trkpt lat="34.29972205664793" lon="108.71048479863765">
        <ele>390.49117689579725</ele>
        <time>2026-09-02T23:35:02Z</time>
      </trkpt>
      <trkpt lat="34.29962876715322" lon="108.7105395410465">
        <ele>390.32629715371877</ele>
        <time>2026-09-02T23:35:08Z</time>
      </trkpt>
      <trkpt lat="34.299561574439586" lon="108.71054840823592">
        <ele>391.6177971176803</ele>
        <time>2026-09-02T23:35:14Z</time>
      </trkpt>
      <trkpt lat="34.29950130725569" lon="108.71060238869048">
        <ele>391.8437744071707</ele>
        <time>2026-09-02T23:35:20Z</time>
      </trkpt>
      <trkpt lat="34.29946979445503" lon="108.71079222322258">
        <ele>389.75817381218076</ele>
        <time>2026-09-02T23:35:32Z</time>
      </trkpt>
      <trkpt lat="34.29942682518194" lon="108.71080909325813">
        <ele>390.2914368864149</ele>
        <time>2026-09-02T23:35:35Z</time>
      </trkpt>
      <trkpt lat="34.29941626212908" lon="108.71086878859946">
        <ele>391.5561447311193</ele>
        <time>2026-09-02T23:36:45Z</time>
      </trkpt>
      <trkpt lat="34.29914203489202" lon="108.71096574993224">
        <ele>389.681107214652</ele>
        <time>2026-09-02T23:37:06Z</time>
      </trkpt>
      <trkpt lat="34.29892721570261" lon="108.71103645930563">
        <ele>388.94355961773545</ele>
        <time>2026-09-02T23:37:18Z</time>
      </trkpt>
      <trkpt lat="34.298638405656135" lon="108.71116853554416">
        <ele>390.60185234062374</ele>
        <time>2026-09-02T23:37:39Z</time>
      </trkpt>
      <trkpt lat="34.29851342216865" lon="108.71121793291043">
        <ele>390.2368553923443</ele>
        <time>2026-09-02T23:37:48Z</time>
      </trkpt>
      <trkpt lat="34.29847452736499" lon="108.71125041014699">
        <ele>389.8473798893392</ele>
        <time>2026-09-02T23:37:51Z</time>
      </trkpt>
      <trkpt lat="34.29835039622154" lon="108.7112741316654">
        <ele>387.77512869238853</ele>
        <time>2026-09-02T23:38:00Z</time>
      </trkpt>
      <trkpt lat="34.29826703784348" lon="108.71133708483232">
        <ele>389.20427987445146</ele>
        <time>2026-09-02T23:38:06Z</time>
      </trkpt>
      <trkpt lat="34.298219241070804" lon="108.71133847352029">
        <ele>390.1187294330448</ele>
        <time>2026-09-02T23:38:09Z</time>
      </trkpt>
      <trkpt lat="34.29818685422051" lon="108.71128394697402">
        <ele>389.55544907413423</ele>
        <time>2026-09-02T23:38:12Z</time>
      </trkpt>
      <trkpt lat="34.29814241859254" lon="108.71111750933026">
        <ele>389.57598004490137</ele>
        <time>2026-09-02T23:38:21Z</time>
      </trkpt>
      <trkpt lat="34.29808960524505" lon="108.7110115783791">
        <ele>389.37692907173187</ele>
        <time>2026-09-02T23:38:29Z</time>
      </trkpt>
      <trkpt lat="34.298092214783054" lon="108.71095631522498">
        <ele>388.5474925991148</ele>
        <time>2026-09-02T23:38:33Z</time>
      </trkpt>
      <trkpt lat="34.29804537635321" lon="108.71076960589131">
        <ele>388.50364147126675</ele>
        <time>2026-09-02T23:38:49Z</time>
      </trkpt>
      <trkpt lat="34.29808140843274" lon="108.71067981006924">
        <ele>389.04802186600864</ele>
        <time>2026-09-02T23:38:52Z</time>
      </trkpt>
      <trkpt lat="34.29802748725257" lon="108.7105293411287">
        <ele>389.0251262476668</ele>
        <time>2026-09-02T23:38:58Z</time>
      </trkpt>
      <trkpt lat="34.29808395325421" lon="108.71027721448091">
        <ele>388.57524838205427</ele>
        <time>2026-09-02T23:39:10Z</time>
      </trkpt>
      <trkpt lat="34.29807780080887" lon="108.71018720577196">
        <ele>389.6079390812665</ele>
        <time>2026-09-02T23:39:16Z</time>
      </trkpt>
      <trkpt lat="34.29803387264749" lon="108.7101495724634">
        <ele>389.6656526401639</ele>
        <time>2026-09-02T23:39:19Z</time>
      </trkpt>
      <trkpt lat="34.29777410972996" lon="108.71023662328335">
        <ele>388.5881213322282</ele>
        <time>2026-09-02T23:39:34Z</time>
      </trkpt>
      <trkpt lat="34.29779503881591" lon="108.7104263194452">
        <ele>388.7404661029577</ele>
        <time>2026-09-02T23:39:46Z</time>
      </trkpt>
      <trkpt lat="34.29773945584833" lon="108.7105338909437">
        <ele>387.84027453232557</ele>
        <time>2026-09-02T23:39:56Z</time>
      </trkpt>
    </trkseg>
  </trk>
</gpx>