<?xml version="1.0" encoding="UTF-8"?>
<gpx xmlns="http://www.topografix.com/GPX/1/1" xmlns:gpxtpx="http://www.garmin.com/xmlschemas/TrackPointExtension/v1" xmlns:xsi="http://www.w3.org/2001/XMLSchema-instance" xsi:schemaLocation="http://www.topografix.com/GPX/1/1 http://www.topografix.com/GPX/1/1/gpx.xsd" version="1.1" creator="gpx.py -- https://github.com/tkrajina/gpxpy">
  <trk>
    <name>gpx from keep</name>
    <type>Run</type>
    <trkseg>
      <trkpt lat="34.328151989850184" lon="108.9804381034768">
        <ele>396.0723602967337</ele>
        <time>2026-09-11T23:57:17Z</time>
      </trkpt>
      <trkpt lat="34.328131727769225" lon="108.98036960172922">
        <ele>395.8703149519861</ele>
        <time>2026-09-11T23:57:23Z</time>
      </trkpt>
      <trkpt lat="34.32816172803916" lon="108.9799934321114">
        <ele>396.045054984279</ele>
        <time>2026-09-11T23:57:47Z</time>
      </trkpt>
      <trkpt lat="34.32817267317221" lon="108.97976603777667">
        <ele>396.3737650029361</ele>
        <time>2026-09-11T23:57:59Z</time>
      </trkpt>
      <trkpt lat="34.32819889246624" lon="108.97952063509403">
        <ele>396.72650200128555</ele>
        <time>2026-09-11T23:58:08Z</time>
      </trkpt>
      <trkpt lat="34.32817262514191" lon="108.9793849653035">
        <ele>396.34833406098187</ele>
        <time>2026-09-11T23:58:11Z</time>
      </trkpt>
      <trkpt lat="34.32817643323419" lon="108.97927511070647">
        <ele>395.2409186800942</ele>
        <time>2026-09-11T23:58:14Z</time>
      </trkpt>
      <trkpt lat="34.3281506559078" lon="108.9791885274561">
        <ele>395.89163323678076</ele>
        <time>2026-09-11T23:58:17Z</time>
      </trkpt>
      <trkpt lat="34.328137512885554" lon="108.9788535735224">
        <ele>396.187307940796</ele>
        <time>2026-09-11T23:58:38Z</time>
      </trkpt>
      <trkpt lat="34.328140106582914" lon="108.97876259727396">
        <ele>395.9809562470764</ele>
        <time>2026-09-11T23:58:44Z</time>
      </trkpt>
      <trkpt lat="34.32817963856478" lon="108.97860820117522">
        <ele>396.4717724742368</ele>
        <time>2026-09-11T23:58:54Z</time>
      </trkpt>
      <trkpt lat="34.32817832902215" lon="108.97822440674295">
        <ele>396.24839374329895</ele>
        <time>2026-09-11T23:59:18Z</time>
      </trkpt>
      <trkpt lat="34.328147284600895" lon="108.97783430870436">
        <ele>395.72640217561275</ele>
        <time>2026-09-11T23:59:45Z</time>
      </trkpt>
      <trkpt lat="34.328148617803045" lon="108.97768978832696">
        <ele>395.88927542231977</ele>
        <time>2026-09-11T23:59:54Z</time>
      </trkpt>
      <trkpt lat="34.3281332362112" lon="108.97756932217165">
        <ele>396.1502548009157</ele>
        <time>2026-09-12T00:00:00Z</time>
      </trkpt>
      <trkpt lat="34.32815354316305" lon="108.977325109785">
        <ele>396.07047273777425</ele>
        <time>2026-09-12T00:00:21Z</time>
      </trkpt>
      <trkpt lat="34.32818928780166" lon="108.97723336693541">
        <ele>395.5584361385554</ele>
        <time>2026-09-12T00:00:30Z</time>
      </trkpt>
      <trkpt lat="34.328186081566926" lon="108.97711711895427">
        <ele>395.6408808734268</ele>
        <time>2026-09-12T00:00:36Z</time>
      </trkpt>
      <trkpt lat="34.3282009902778" lon="108.97705110426173">
        <ele>395.91851778607816</ele>
        <time>2026-09-12T00:00:39Z</time>
      </trkpt>
      <trkpt lat="34.328187001078184" lon="108.97697614253298">
        <ele>395.9020138066262</ele>
        <time>2026-09-12T00:00:42Z</time>
      </trkpt>
      <trkpt lat="34.3281913164114" lon="108.9769029315897">
        <ele>395.99416148103774</ele>
        <time>2026-09-12T00:00:48Z</time>
      </trkpt>
      <trkpt lat="34.328164381684125" lon="108.9767889562636">
        <ele>395.75160393305123</ele>
        <time>2026-09-12T00:00:54Z</time>
      </trkpt>
      <trkpt lat="34.3281596812753" lon="108.97661184462508">
        <ele>395.6027056025341</ele>
        <time>2026-09-12T00:01:05Z</time>
      </trkpt>
      <trkpt lat="34.328136485390694" lon="108.97650320936114">
        <ele>395.8531226599589</ele>
        <time>2026-09-12T00:01:13Z</time>
      </trkpt>
      <trkpt lat="34.328129076328196" lon="108.97616669910667">
        <ele>395.7822078783065</ele>
        <time>2026-09-12T00:01:33Z</time>
      </trkpt>
      <trkpt lat="34.32811886423877" lon="108.97608796955137">
        <ele>395.76533151511103</ele>
        <time>2026-09-12T00:01:39Z</time>
      </trkpt>
      <trkpt lat="34.328394279345076" lon="108.97608331877869">
        <ele>395.37647643499076</ele>
        <time>2026-09-12T00:02:12Z</time>
      </trkpt>
      <trkpt lat="34.328477961983054" lon="108.9760779530221">
        <ele>395.2451505213976</ele>
        <time>2026-09-12T00:02:18Z</time>
      </trkpt>
      <trkpt lat="34.32851002017712" lon="108.97603122103754">
        <ele>395.89094437193125</ele>
        <time>2026-09-12T00:03:19Z</time>
      </trkpt>
      <trkpt lat="34.328480830057785" lon="108.97598795913235">
        <ele>396.0249422919005</ele>
        <time>2026-09-12T00:03:25Z</time>
      </trkpt>
      <trkpt lat="34.3284234578526" lon="108.97597382303063">
        <ele>397.5577894607559</ele>
        <time>2026-09-12T00:03:31Z</time>
      </trkpt>
      <trkpt lat="34.328114012591534" lon="108.97598866175802">
        <ele>397.1312867058441</ele>
        <time>2026-09-12T00:04:01Z</time>
      </trkpt>
      <trkpt lat="34.327940368206704" lon="108.97594576568943">
        <ele>397.85020171664655</ele>
        <time>2026-09-12T00:04:10Z</time>
      </trkpt>
      <trkpt lat="34.3278142692383" lon="108.97593091867772">
        <ele>396.6102087078616</ele>
        <time>2026-09-12T00:04:16Z</time>
      </trkpt>
      <trkpt lat="34.327690903463946" lon="108.97589688396285">
        <ele>395.78432417381555</ele>
        <time>2026-09-12T00:04:22Z</time>
      </trkpt>
      <trkpt lat="34.32737002143644" lon="108.97587895663065">
        <ele>395.1330819623545</ele>
        <time>2026-09-12T00:04:37Z</time>
      </trkpt>
      <trkpt lat="34.32707781011929" lon="108.97585060625532">
        <ele>396.8809906858951</ele>
        <time>2026-09-12T00:04:52Z</time>
      </trkpt>
      <trkpt lat="34.32677138551133" lon="108.97580940092872">
        <ele>396.500721372664</ele>
        <time>2026-09-12T00:05:07Z</time>
      </trkpt>
      <trkpt lat="34.32648606344064" lon="108.97579803866937">
        <ele>397.3147766571492</ele>
        <time>2026-09-12T00:05:22Z</time>
      </trkpt>
      <trkpt lat="34.32620096196269" lon="108.97577243131205">
        <ele>396.9136223047972</ele>
        <time>2026-09-12T00:05:35Z</time>
      </trkpt>
      <trkpt lat="34.32588593448553" lon="108.9757379625974">
        <ele>396.6421761838719</ele>
        <time>2026-09-12T00:05:50Z</time>
      </trkpt>
      <trkpt lat="34.32557027688122" lon="108.9757781897277">
        <ele>397.1349909165874</ele>
        <time>2026-09-12T00:06:08Z</time>
      </trkpt>
      <trkpt lat="34.32539631752023" lon="108.97575566527568">
        <ele>396.97587608825415</ele>
        <time>2026-09-12T00:06:23Z</time>
      </trkpt>
      <trkpt lat="34.32532892664453" lon="108.97572605104702">
        <ele>396.5424033831805</ele>
        <time>2026-09-12T00:06:29Z</time>
      </trkpt>
      <trkpt lat="34.32521934485497" lon="108.975743323133">
        <ele>396.3361676130444</ele>
        <time>2026-09-12T00:06:35Z</time>
      </trkpt>
      <trkpt lat="34.32504007802565" lon="108.97598508421885">
        <ele>396.1643995102495</ele>
        <time>2026-09-12T00:06:47Z</time>
      </trkpt>
      <trkpt lat="34.32470617678205" lon="108.97598092392965">
        <ele>395.83647857327014</ele>
        <time>2026-09-12T00:07:02Z</time>
      </trkpt>
      <trkpt lat="34.32459483843315" lon="108.97595710160647">
        <ele>396.09088511485606</ele>
        <time>2026-09-12T00:07:08Z</time>
      </trkpt>
      <trkpt lat="34.32454457515633" lon="108.97591022621353">
        <ele>396.2292986391112</ele>
        <time>2026-09-12T00:07:11Z</time>
      </trkpt>
      <trkpt lat="34.32434692424387" lon="108.97558403345462">
        <ele>396.1882109474391</ele>
        <time>2026-09-12T00:07:29Z</time>
      </trkpt>
      <trkpt lat="34.3242724776183" lon="108.97554730949027">
        <ele>395.8595972787589</ele>
        <time>2026-09-12T00:07:33Z</time>
      </trkpt>
      <trkpt lat="34.32394807706366" lon="108.9755284328583">
        <ele>396.97804834134877</ele>
        <time>2026-09-12T00:07:48Z</time>
      </trkpt>
      <trkpt lat="34.32375007483201" lon="108.97553528719823">
        <ele>396.05199027247727</ele>
        <time>2026-09-12T00:07:57Z</time>
      </trkpt>
      <trkpt lat="34.32342557533564" lon="108.97549068093257">
        <ele>396.438926323317</ele>
        <time>2026-09-12T00:08:15Z</time>
      </trkpt>
      <trkpt lat="34.32315238181865" lon="108.97546946333362">
        <ele>396.32121580000967</ele>
        <time>2026-09-12T00:08:30Z</time>
      </trkpt>
      <trkpt lat="34.322851062318044" lon="108.97545262092781">
        <ele>396.512300956063</ele>
        <time>2026-09-12T00:08:45Z</time>
      </trkpt>
      <trkpt lat="34.32254753276844" lon="108.97543187846367">
        <ele>396.210327652283</ele>
        <time>2026-09-12T00:09:00Z</time>
      </trkpt>
      <trkpt lat="34.32229797595172" lon="108.97541622158522">
        <ele>395.59869421552867</ele>
        <time>2026-09-12T00:09:12Z</time>
      </trkpt>
      <trkpt lat="34.32223738974805" lon="108.9753954328107">
        <ele>395.51802975777537</ele>
        <time>2026-09-12T00:09:15Z</time>
      </trkpt>
      <trkpt lat="34.32214401085128" lon="108.97530418718603">
        <ele>395.81805053539574</ele>
        <time>2026-09-12T00:09:21Z</time>
      </trkpt>
      <trkpt lat="34.32199937195535" lon="108.97525455661588">
        <ele>395.58394055068493</ele>
        <time>2026-09-12T00:09:29Z</time>
      </trkpt>
      <trkpt lat="34.321671389822434" lon="108.97523437322461">
        <ele>396.43180187325925</ele>
        <time>2026-09-12T00:09:46Z</time>
      </trkpt>
      <trkpt lat="34.32149218542909" lon="108.97521249568007">
        <ele>395.4759309068322</ele>
        <time>2026-09-12T00:09:55Z</time>
      </trkpt>
      <trkpt lat="34.32136716285353" lon="108.9752345006302">
        <ele>395.30306285619736</ele>
        <time>2026-09-12T00:10:01Z</time>
      </trkpt>
      <trkpt lat="34.32131587155975" lon="108.97527741338234">
        <ele>395.4090054742992</ele>
        <time>2026-09-12T00:10:04Z</time>
      </trkpt>
      <trkpt lat="34.32128391952711" lon="108.9753466084464">
        <ele>395.2903180643916</ele>
        <time>2026-09-12T00:10:07Z</time>
      </trkpt>
      <trkpt lat="34.321189097134024" lon="108.97543845804174">
        <ele>394.5392187265679</ele>
        <time>2026-09-12T00:10:13Z</time>
      </trkpt>
      <trkpt lat="34.32106999335559" lon="108.97546915801176">
        <ele>395.6089558620006</ele>
        <time>2026-09-12T00:10:19Z</time>
      </trkpt>
      <trkpt lat="34.320961433633606" lon="108.97544679776006">
        <ele>394.6490962365642</ele>
        <time>2026-09-12T00:10:25Z</time>
      </trkpt>
      <trkpt lat="34.320910154379305" lon="108.97546641045982">
        <ele>394.7523928247392</ele>
        <time>2026-09-12T00:10:28Z</time>
      </trkpt>
      <trkpt lat="34.32078772265054" lon="108.97546596274603">
        <ele>394.8956417934969</ele>
        <time>2026-09-12T00:10:40Z</time>
      </trkpt>
      <trkpt lat="34.32057628935962" lon="108.97541318934105">
        <ele>395.0055201537907</ele>
        <time>2026-09-12T00:11:07Z</time>
      </trkpt>
      <trkpt lat="34.32038368546978" lon="108.97542392917292">
        <ele>394.11409708391875</ele>
        <time>2026-09-12T00:11:16Z</time>
      </trkpt>
      <trkpt lat="34.32019748550008" lon="108.97539740297347">
        <ele>394.97216422483325</ele>
        <time>2026-09-12T00:11:25Z</time>
      </trkpt>
      <trkpt lat="34.319889238752225" lon="108.97542619427139">
        <ele>394.34038080181926</ele>
        <time>2026-09-12T00:11:40Z</time>
      </trkpt>
      <trkpt lat="34.31959371992521" lon="108.97540140012796">
        <ele>394.42804262787104</ele>
        <time>2026-09-12T00:11:54Z</time>
      </trkpt>
      <trkpt lat="34.31941133956708" lon="108.97539542345781">
        <ele>396.4767898824066</ele>
        <time>2026-09-12T00:12:03Z</time>
      </trkpt>
      <trkpt lat="34.31929241661194" lon="108.97535103879063">
        <ele>395.2174138156697</ele>
        <time>2026-09-12T00:12:09Z</time>
      </trkpt>
      <trkpt lat="34.319146633492366" lon="108.9751825807723">
        <ele>395.5563350422308</ele>
        <time>2026-09-12T00:12:21Z</time>
      </trkpt>
      <trkpt lat="34.31908146931121" lon="108.97520675704668">
        <ele>397.53237829729915</ele>
        <time>2026-09-12T00:12:27Z</time>
      </trkpt>
      <trkpt lat="34.319002068726824" lon="108.97521018753234">
        <ele>398.4681591838598</ele>
        <time>2026-09-12T00:12:33Z</time>
      </trkpt>
      <trkpt lat="34.31889840367765" lon="108.9751929391256">
        <ele>398.90203563310206</ele>
        <time>2026-09-12T00:12:45Z</time>
      </trkpt>
      <trkpt lat="34.31884951730259" lon="108.97516775064882">
        <ele>398.73266551457345</ele>
        <time>2026-09-12T00:12:54Z</time>
      </trkpt>
      <trkpt lat="34.3185336653853" lon="108.97515383494014">
        <ele>396.8275990821421</ele>
        <time>2026-09-12T00:13:43Z</time>
      </trkpt>
      <trkpt lat="34.318432731328976" lon="108.97516951461618">
        <ele>397.4259293079376</ele>
        <time>2026-09-12T00:13:52Z</time>
      </trkpt>
      <trkpt lat="34.31814681752683" lon="108.97514082012128">
        <ele>396.06551957689226</ele>
        <time>2026-09-12T00:14:16Z</time>
      </trkpt>
      <trkpt lat="34.31805101645718" lon="108.97513748632329">
        <ele>396.19594097230583</ele>
        <time>2026-09-12T00:14:22Z</time>
      </trkpt>
      <trkpt lat="34.317924821746026" lon="108.97517803019002">
        <ele>397.05377011280507</ele>
        <time>2026-09-12T00:14:34Z</time>
      </trkpt>
      <trkpt lat="34.31784488471611" lon="108.97517034964962">
        <ele>397.3698686659336</ele>
        <time>2026-09-12T00:14:40Z</time>
      </trkpt>
      <trkpt lat="34.317644296320694" lon="108.97542413009081">
        <ele>396.26945939380676</ele>
        <time>2026-09-12T00:15:01Z</time>
      </trkpt>
      <trkpt lat="34.31758802616346" lon="108.97549810041322">
        <ele>396.2571315364912</ele>
        <time>2026-09-12T00:15:07Z</time>
      </trkpt>
      <trkpt lat="34.317495276160535" lon="108.97554452350121">
        <ele>395.5826751617715</ele>
        <time>2026-09-12T00:15:13Z</time>
      </trkpt>
      <trkpt lat="34.317173394565444" lon="108.97554234840223">
        <ele>396.37308113928884</ele>
        <time>2026-09-12T00:15:31Z</time>
      </trkpt>
      <trkpt lat="34.317123307818555" lon="108.97552563652053">
        <ele>397.26081294566393</ele>
        <time>2026-09-12T00:15:34Z</time>
      </trkpt>
      <trkpt lat="34.316842552936606" lon="108.97550289529234">
        <ele>397.7300944235176</ele>
        <time>2026-09-12T00:15:50Z</time>
      </trkpt>
      <trkpt lat="34.31678532933093" lon="108.97548008456974">
        <ele>397.085466010496</ele>
        <time>2026-09-12T00:15:53Z</time>
      </trkpt>
      <trkpt lat="34.31659060501432" lon="108.9751711062736">
        <ele>397.88164308667183</ele>
        <time>2026-09-12T00:16:11Z</time>
      </trkpt>
      <trkpt lat="34.31655325935937" lon="108.97512607836799">
        <ele>397.77131799515337</ele>
        <time>2026-09-12T00:16:14Z</time>
      </trkpt>
      <trkpt lat="34.316239883289875" lon="108.97510883760168">
        <ele>398.5555399991572</ele>
        <time>2026-09-12T00:16:32Z</time>
      </trkpt>
      <trkpt lat="34.31596563888567" lon="108.97509089766308">
        <ele>398.9216105872765</ele>
        <time>2026-09-12T00:16:47Z</time>
      </trkpt>
      <trkpt lat="34.31564981276189" lon="108.97506398653547">
        <ele>398.42935812845826</ele>
        <time>2026-09-12T00:17:05Z</time>
      </trkpt>
      <trkpt lat="34.3155971969795" lon="108.97505498547078">
        <ele>397.94122307933867</ele>
        <time>2026-09-12T00:17:08Z</time>
      </trkpt>
      <trkpt lat="34.31553594884492" lon="108.97501819548641">
        <ele>399.32665642537177</ele>
        <time>2026-09-12T00:17:11Z</time>
      </trkpt>
      <trkpt lat="34.31541709243877" lon="108.97509830642711">
        <ele>398.9822185318917</ele>
        <time>2026-09-12T00:17:20Z</time>
      </trkpt>
      <trkpt lat="34.31519456548463" lon="108.97509354916173">
        <ele>399.7367566395551</ele>
        <time>2026-09-12T00:17:38Z</time>
      </trkpt>
      <trkpt lat="34.315073643477625" lon="108.97504382106943">
        <ele>400.733877684921</ele>
        <time>2026-09-12T00:17:48Z</time>
      </trkpt>
      <trkpt lat="34.314799072162195" lon="108.97506780202814">
        <ele>400.48928303830326</ele>
        <time>2026-09-12T00:18:07Z</time>
      </trkpt>
      <trkpt lat="34.314751821229635" lon="108.97503117994883">
        <ele>400.26307302340865</ele>
        <time>2026-09-12T00:18:10Z</time>
      </trkpt>
      <trkpt lat="34.314428576415416" lon="108.97500714990035">
        <ele>400.13826932385564</ele>
        <time>2026-09-12T00:18:28Z</time>
      </trkpt>
      <trkpt lat="34.31412900347967" lon="108.97498600016895">
        <ele>400.2313845856115</ele>
        <time>2026-09-12T00:18:43Z</time>
      </trkpt>
      <trkpt lat="34.31407207960058" lon="108.97499733714679">
        <ele>401.0583531940356</ele>
        <time>2026-09-12T00:18:46Z</time>
      </trkpt>
      <trkpt lat="34.31400826974956" lon="108.97497818568564">
        <ele>401.7531143920496</ele>
        <time>2026-09-12T00:18:49Z</time>
      </trkpt>
      <trkpt lat="34.31395349002215" lon="108.97499113800183">
        <ele>400.8730140347034</ele>
        <time>2026-09-12T00:18:52Z</time>
      </trkpt>
      <trkpt lat="34.31385466554998" lon="108.97508035873102">
        <ele>401.61354056186974</ele>
        <time>2026-09-12T00:18:58Z</time>
      </trkpt>
      <trkpt lat="34.31379812615118" lon="108.97510716804304">
        <ele>400.8406246379018</ele>
        <time>2026-09-12T00:19:01Z</time>
      </trkpt>
      <trkpt lat="34.31368379384095" lon="108.97505603095517">
        <ele>399.62727297563106</ele>
        <time>2026-09-12T00:19:07Z</time>
      </trkpt>
      <trkpt lat="34.31362991771198" lon="108.97506913120806">
        <ele>399.87666380405426</ele>
        <time>2026-09-12T00:19:10Z</time>
      </trkpt>
      <trkpt lat="34.313510094999614" lon="108.97503600901277">
        <ele>400.45510458014905</ele>
        <time>2026-09-12T00:19:19Z</time>
      </trkpt>
      <trkpt lat="34.31346009586974" lon="108.97507143786416">
        <ele>401.36275459080935</ele>
        <time>2026-09-12T00:19:28Z</time>
      </trkpt>
      <trkpt lat="34.31342761642221" lon="108.97502312266958">
        <ele>401.3182173129171</ele>
        <time>2026-09-12T00:19:43Z</time>
      </trkpt>
      <trkpt lat="34.31331921987279" lon="108.9749094956909">
        <ele>401.14962359238416</ele>
        <time>2026-09-12T00:19:52Z</time>
      </trkpt>
      <trkpt lat="34.31325130774865" lon="108.97493274369273">
        <ele>402.7751921163872</ele>
        <time>2026-09-12T00:19:59Z</time>
      </trkpt>
      <trkpt lat="34.31317011903186" lon="108.97493180502701">
        <ele>402.06593099981546</ele>
        <time>2026-09-12T00:20:06Z</time>
      </trkpt>
      <trkpt lat="34.31309842604557" lon="108.97490901244579">
        <ele>400.6157829463482</ele>
        <time>2026-09-12T00:20:12Z</time>
      </trkpt>
      <trkpt lat="34.3130134245194" lon="108.97492740862788">
        <ele>402.13943917211145</ele>
        <time>2026-09-12T00:20:18Z</time>
      </trkpt>
      <trkpt lat="34.31294030246675" lon="108.97490900366329">
        <ele>400.8384307231754</ele>
        <time>2026-09-12T00:20:24Z</time>
      </trkpt>
      <trkpt lat="34.31271451295798" lon="108.97492672235342">
        <ele>402.38336452655494</ele>
        <time>2026-09-12T00:20:42Z</time>
      </trkpt>
      <trkpt lat="34.31243360420998" lon="108.97489645164966">
        <ele>402.7895089816302</ele>
        <time>2026-09-12T00:21:06Z</time>
      </trkpt>
      <trkpt lat="34.31236399058766" lon="108.97486484306268">
        <ele>402.87527084257454</ele>
        <time>2026-09-12T00:21:12Z</time>
      </trkpt>
      <trkpt lat="34.312298148569525" lon="108.9748567665627">
        <ele>402.33714662492275</ele>
        <time>2026-09-12T00:21:18Z</time>
      </trkpt>
      <trkpt lat="34.31215993169293" lon="108.97492258255468">
        <ele>402.549009071663</ele>
        <time>2026-09-12T00:21:30Z</time>
      </trkpt>
      <trkpt lat="34.31209042923341" lon="108.97493409660088">
        <ele>401.5657872473821</ele>
        <time>2026-09-12T00:21:36Z</time>
      </trkpt>
      <trkpt lat="34.31207268144408" lon="108.97484678255609">
        <ele>401.93233744520694</ele>
        <time>2026-09-12T00:21:51Z</time>
      </trkpt>
      <trkpt lat="34.31203694088372" lon="108.97477739269705">
        <ele>402.3151823831722</ele>
        <time>2026-09-12T00:22:01Z</time>
      </trkpt>
      <trkpt lat="34.31203230660524" lon="108.97484126334204">
        <ele>402.0150513332337</ele>
        <time>2026-09-12T00:22:16Z</time>
      </trkpt>
      <trkpt lat="34.312137314236296" lon="108.97490810195994">
        <ele>402.7578471302986</ele>
        <time>2026-09-12T00:23:12Z</time>
      </trkpt>
      <trkpt lat="34.31211833201436" lon="108.97501832948419">
        <ele>401.9514945205301</ele>
        <time>2026-09-12T00:23:18Z</time>
      </trkpt>
      <trkpt lat="34.31227064898159" lon="108.97518441502567">
        <ele>401.26984856743366</ele>
        <time>2026-09-12T00:23:24Z</time>
      </trkpt>
      <trkpt lat="34.31245112549232" lon="108.97522772648752">
        <ele>401.7334590507671</ele>
        <time>2026-09-12T00:23:33Z</time>
      </trkpt>
      <trkpt lat="34.31258508719006" lon="108.97510521477014">
        <ele>403.0142544992268</ele>
        <time>2026-09-12T00:23:42Z</time>
      </trkpt>
      <trkpt lat="34.31268965871694" lon="108.97508574887576">
        <ele>401.60457825288177</ele>
        <time>2026-09-12T00:23:48Z</time>
      </trkpt>
      <trkpt lat="34.31285849015329" lon="108.97516796906628">
        <ele>401.5556711954996</ele>
        <time>2026-09-12T00:23:57Z</time>
      </trkpt>
      <trkpt lat="34.31295482803249" lon="108.97523137385642">
        <ele>401.66858353000134</ele>
        <time>2026-09-12T00:24:03Z</time>
      </trkpt>
      <trkpt lat="34.31302301787267" lon="108.97523109399663">
        <ele>402.26701774355024</ele>
        <time>2026-09-12T00:24:07Z</time>
      </trkpt>
      <trkpt lat="34.31313740918528" lon="108.97517591126739">
        <ele>401.83990151714534</ele>
        <time>2026-09-12T00:24:13Z</time>
      </trkpt>
      <trkpt lat="34.31318945443362" lon="108.97522340508837">
        <ele>401.2116912212223</ele>
        <time>2026-09-12T00:24:16Z</time>
      </trkpt>
      <trkpt lat="34.31328485574369" lon="108.97525333025264">
        <ele>402.0794737255201</ele>
        <time>2026-09-12T00:24:22Z</time>
      </trkpt>
      <trkpt lat="34.313490101851094" lon="108.97523827890669">
        <ele>401.7620466426015</ele>
        <time>2026-09-12T00:24:34Z</time>
      </trkpt>
      <trkpt lat="34.31352598543084" lon="108.97518907713591">
        <ele>401.3583204289898</ele>
        <time>2026-09-12T00:24:40Z</time>
      </trkpt>
      <trkpt lat="34.31356823254014" lon="108.97521242396112">
        <ele>401.54361680615693</ele>
        <time>2026-09-12T00:24:43Z</time>
      </trkpt>
      <trkpt lat="34.313689838246205" lon="108.97519874867331">
        <ele>401.0957515044138</ele>
        <time>2026-09-12T00:24:55Z</time>
      </trkpt>
      <trkpt lat="34.31378022652685" lon="108.97526654872684">
        <ele>401.0818121423945</ele>
        <time>2026-09-12T00:25:04Z</time>
      </trkpt>
      <trkpt lat="34.31383036115225" lon="108.97522493445064">
        <ele>401.0756678758189</ele>
        <time>2026-09-12T00:25:10Z</time>
      </trkpt>
      <trkpt lat="34.31384478216639" lon="108.97507889510196">
        <ele>400.8677417738363</ele>
        <time>2026-09-12T00:25:19Z</time>
      </trkpt>
      <trkpt lat="34.31389387564404" lon="108.97505459796385">
        <ele>399.90666869841516</ele>
        <time>2026-09-12T00:25:22Z</time>
      </trkpt>
      <trkpt lat="34.31395564354684" lon="108.97499337965921">
        <ele>401.8829649435356</ele>
        <time>2026-09-12T00:25:28Z</time>
      </trkpt>
      <trkpt lat="34.31400916075619" lon="108.97498428601111">
        <ele>401.390540715307</ele>
        <time>2026-09-12T00:25:31Z</time>
      </trkpt>
      <trkpt lat="34.31428258287058" lon="108.97500250744666">
        <ele>400.64124292414635</ele>
        <time>2026-09-12T00:25:46Z</time>
      </trkpt>
      <trkpt lat="34.31455664356909" lon="108.97502819925381">
        <ele>398.93269094545394</ele>
        <time>2026-09-12T00:26:01Z</time>
      </trkpt>
      <trkpt lat="34.314876970749594" lon="108.97505497375965">
        <ele>399.58561383839697</ele>
        <time>2026-09-12T00:26:18Z</time>
      </trkpt>
      <trkpt lat="34.31515908916816" lon="108.9750505333668">
        <ele>399.2972694709897</ele>
        <time>2026-09-12T00:26:33Z</time>
      </trkpt>
      <trkpt lat="34.31521836039458" lon="108.97504126326916">
        <ele>400.11050690710545</ele>
        <time>2026-09-12T00:26:39Z</time>
      </trkpt>
      <trkpt lat="34.315518363658654" lon="108.9750700692042">
        <ele>399.60014489572495</ele>
        <time>2026-09-12T00:27:03Z</time>
      </trkpt>
      <trkpt lat="34.31578934462873" lon="108.9750831342728">
        <ele>398.8770545376465</ele>
        <time>2026-09-12T00:27:18Z</time>
      </trkpt>
      <trkpt lat="34.31609702786765" lon="108.97511812448218">
        <ele>398.27257943339646</ele>
        <time>2026-09-12T00:27:36Z</time>
      </trkpt>
      <trkpt lat="34.31637561045112" lon="108.97512990317084">
        <ele>396.9520906880498</ele>
        <time>2026-09-12T00:27:51Z</time>
      </trkpt>
      <trkpt lat="34.3165386796916" lon="108.97515786836749">
        <ele>397.57102354988456</ele>
        <time>2026-09-12T00:28:00Z</time>
      </trkpt>
      <trkpt lat="34.31662874356988" lon="108.97524561576134">
        <ele>397.8784248707816</ele>
        <time>2026-09-12T00:28:06Z</time>
      </trkpt>
      <trkpt lat="34.316776632507626" lon="108.97548036341637">
        <ele>397.1990882018581</ele>
        <time>2026-09-12T00:28:19Z</time>
      </trkpt>
      <trkpt lat="34.31682651865847" lon="108.975518521461">
        <ele>396.30563294142485</ele>
        <time>2026-09-12T00:28:22Z</time>
      </trkpt>
      <trkpt lat="34.31710146428098" lon="108.97553876027816">
        <ele>396.6901053870097</ele>
        <time>2026-09-12T00:28:38Z</time>
      </trkpt>
      <trkpt lat="34.31737691004608" lon="108.97555535862715">
        <ele>396.5543326046318</ele>
        <time>2026-09-12T00:28:53Z</time>
      </trkpt>
      <trkpt lat="34.31749003416093" lon="108.97557480954539">
        <ele>396.1234424998984</ele>
        <time>2026-09-12T00:28:59Z</time>
      </trkpt>
      <trkpt lat="34.31755005908142" lon="108.97555787320822">
        <ele>395.80742612387985</ele>
        <time>2026-09-12T00:29:02Z</time>
      </trkpt>
      <trkpt lat="34.317648633967075" lon="108.97540604663554">
        <ele>396.4312824085355</ele>
        <time>2026-09-12T00:29:11Z</time>
      </trkpt>
      <trkpt lat="34.31778007817295" lon="108.97526468489082">
        <ele>395.72569371014833</ele>
        <time>2026-09-12T00:29:20Z</time>
      </trkpt>
      <trkpt lat="34.3178593151143" lon="108.97514990255824">
        <ele>396.62833091430366</ele>
        <time>2026-09-12T00:29:26Z</time>
      </trkpt>
      <trkpt lat="34.31814377876864" lon="108.97514723477565">
        <ele>399.01308410055935</ele>
        <time>2026-09-12T00:29:41Z</time>
      </trkpt>
      <trkpt lat="34.318434636419646" lon="108.97515622516254">
        <ele>398.5594971338287</ele>
        <time>2026-09-12T00:30:11Z</time>
      </trkpt>
      <trkpt lat="34.318755193334084" lon="108.97515759981917">
        <ele>397.8735105013475</ele>
        <time>2026-09-12T00:30:39Z</time>
      </trkpt>
      <trkpt lat="34.31886989082163" lon="108.97516418793705">
        <ele>396.21362804155797</ele>
        <time>2026-09-12T00:30:48Z</time>
      </trkpt>
      <trkpt lat="34.31901592906352" lon="108.97514402177198">
        <ele>394.356951222755</ele>
        <time>2026-09-12T00:31:03Z</time>
      </trkpt>
      <trkpt lat="34.31906941778645" lon="108.97522733486224">
        <ele>395.26021084655076</ele>
        <time>2026-09-12T00:31:06Z</time>
      </trkpt>
      <trkpt lat="34.319119381090914" lon="108.97517336046286">
        <ele>394.2143413312733</ele>
        <time>2026-09-12T00:31:09Z</time>
      </trkpt>
      <trkpt lat="34.31921083484881" lon="108.97520416353109">
        <ele>393.7799571864307</ele>
        <time>2026-09-12T00:31:12Z</time>
      </trkpt>
      <trkpt lat="34.31933003333559" lon="108.97533093729137">
        <ele>395.6604442903772</ele>
        <time>2026-09-12T00:31:21Z</time>
      </trkpt>
      <trkpt lat="34.31935719406166" lon="108.97538789156982">
        <ele>395.4405358582735</ele>
        <time>2026-09-12T00:31:27Z</time>
      </trkpt>
      <trkpt lat="34.31963862095414" lon="108.97537168182934">
        <ele>394.011720479466</ele>
        <time>2026-09-12T00:31:54Z</time>
      </trkpt>
      <trkpt lat="34.319989914360264" lon="108.9754124489859">
        <ele>394.51682955864817</ele>
        <time>2026-09-12T00:32:18Z</time>
      </trkpt>
      <trkpt lat="34.32009086467066" lon="108.9754252090775">
        <ele>395.17042896989733</ele>
        <time>2026-09-12T00:32:24Z</time>
      </trkpt>
      <trkpt lat="34.32026602312772" lon="108.97538988603505">
        <ele>394.6825516326353</ele>
        <time>2026-09-12T00:32:34Z</time>
      </trkpt>
      <trkpt lat="34.32040968712397" lon="108.97540028930925">
        <ele>394.8102368619293</ele>
        <time>2026-09-12T00:32:42Z</time>
      </trkpt>
      <trkpt lat="34.320468118659896" lon="108.97542010983705">
        <ele>395.2524333614856</ele>
        <time>2026-09-12T00:32:45Z</time>
      </trkpt>
      <trkpt lat="34.320696506384216" lon="108.97542034761706">
        <ele>395.774046308361</ele>
        <time>2026-09-12T00:33:03Z</time>
      </trkpt>
      <trkpt lat="34.32077454374025" lon="108.9754542751066">
        <ele>395.8040550937876</ele>
        <time>2026-09-12T00:33:09Z</time>
      </trkpt>
      <trkpt lat="34.32083192119727" lon="108.9754426972151">
        <ele>395.7799688121304</ele>
        <time>2026-09-12T00:33:15Z</time>
      </trkpt>
      <trkpt lat="34.32087623053634" lon="108.97545837842253">
        <ele>396.3153266534209</ele>
        <time>2026-09-12T00:33:18Z</time>
      </trkpt>
      <trkpt lat="34.32108991245924" lon="108.9754196951249">
        <ele>395.44909748248756</ele>
        <time>2026-09-12T00:33:36Z</time>
      </trkpt>
      <trkpt lat="34.3211588313578" lon="108.97543044168661">
        <ele>394.45781925227493</ele>
        <time>2026-09-12T00:33:42Z</time>
      </trkpt>
      <trkpt lat="34.32122170019927" lon="108.97548641210284">
        <ele>395.6830117404461</ele>
        <time>2026-09-12T00:33:48Z</time>
      </trkpt>
      <trkpt lat="34.32127737296246" lon="108.97560275899211">
        <ele>395.36135963443667</ele>
        <time>2026-09-12T00:33:54Z</time>
      </trkpt>
      <trkpt lat="34.3213645026944" lon="108.97568137559381">
        <ele>394.89110030047596</ele>
        <time>2026-09-12T00:34:00Z</time>
      </trkpt>
      <trkpt lat="34.32141680058204" lon="108.97570300424498">
        <ele>395.15216448903084</ele>
        <time>2026-09-12T00:34:03Z</time>
      </trkpt>
      <trkpt lat="34.321702683112115" lon="108.97569832602618">
        <ele>396.0482619535178</ele>
        <time>2026-09-12T00:34:18Z</time>
      </trkpt>
      <trkpt lat="34.32198537316769" lon="108.97572615839944">
        <ele>395.2746808771044</ele>
        <time>2026-09-12T00:34:33Z</time>
      </trkpt>
      <trkpt lat="34.32226546188688" lon="108.97578203251443">
        <ele>395.1767761213705</ele>
        <time>2026-09-12T00:34:49Z</time>
      </trkpt>
      <trkpt lat="34.32258197919796" lon="108.97579392126855">
        <ele>395.9099531862885</ele>
        <time>2026-09-12T00:35:07Z</time>
      </trkpt>
      <trkpt lat="34.32286124035555" lon="108.97579961284319">
        <ele>395.61988026462495</ele>
        <time>2026-09-12T00:35:25Z</time>
      </trkpt>
      <trkpt lat="34.32290910732998" lon="108.97579793702735">
        <ele>395.84871408343315</ele>
        <time>2026-09-12T00:35:28Z</time>
      </trkpt>
      <trkpt lat="34.32295115307251" lon="108.97577527964476">
        <ele>396.29215727280825</ele>
        <time>2026-09-12T00:35:31Z</time>
      </trkpt>
      <trkpt lat="34.32309886206925" lon="108.97550792220572">
        <ele>395.46818154491484</ele>
        <time>2026-09-12T00:35:46Z</time>
      </trkpt>
      <trkpt lat="34.323169835323796" lon="108.97547539446504">
        <ele>396.5777856083587</ele>
        <time>2026-09-12T00:35:52Z</time>
      </trkpt>
      <trkpt lat="34.323470560459775" lon="108.9754982390954">
        <ele>396.54080261383206</ele>
        <time>2026-09-12T00:36:07Z</time>
      </trkpt>
      <trkpt lat="34.32351810368546" lon="108.97548243985322">
        <ele>396.19400698132813</ele>
        <time>2026-09-12T00:36:13Z</time>
      </trkpt>
      <trkpt lat="34.323627325106685" lon="108.97548393028238">
        <ele>396.34511336591095</ele>
        <time>2026-09-12T00:36:19Z</time>
      </trkpt>
      <trkpt lat="34.323688226665645" lon="108.97545982612688">
        <ele>396.222349611111</ele>
        <time>2026-09-12T00:36:22Z</time>
      </trkpt>
      <trkpt lat="34.32379407426233" lon="108.97550605929132">
        <ele>397.11703860014677</ele>
        <time>2026-09-12T00:36:34Z</time>
      </trkpt>
      <trkpt lat="34.32398695126242" lon="108.97552435894781">
        <ele>396.82801796961576</ele>
        <time>2026-09-12T00:36:59Z</time>
      </trkpt>
      <trkpt lat="34.32410168392767" lon="108.97551321943051">
        <ele>396.0686626005918</ele>
        <time>2026-09-12T00:37:05Z</time>
      </trkpt>
      <trkpt lat="34.324257350429164" lon="108.97555016296415">
        <ele>396.70961885061115</ele>
        <time>2026-09-12T00:37:14Z</time>
      </trkpt>
      <trkpt lat="34.324416353851774" lon="108.97565382475648">
        <ele>396.65318064484745</ele>
        <time>2026-09-12T00:37:29Z</time>
      </trkpt>
      <trkpt lat="34.32448939391491" lon="108.97577855915736">
        <ele>396.72352492809296</ele>
        <time>2026-09-12T00:37:41Z</time>
      </trkpt>
      <trkpt lat="34.32452156178507" lon="108.9758836368184">
        <ele>396.22967366315424</ele>
        <time>2026-09-12T00:37:47Z</time>
      </trkpt>
      <trkpt lat="34.324612579007926" lon="108.9759831876536">
        <ele>394.64367569517344</ele>
        <time>2026-09-12T00:37:56Z</time>
      </trkpt>
      <trkpt lat="34.32495073338518" lon="108.97599179179562">
        <ele>397.2805019756779</ele>
        <time>2026-09-12T00:38:35Z</time>
      </trkpt>
      <trkpt lat="34.32500064069751" lon="108.97599364046035">
        <ele>397.3437411179766</ele>
        <time>2026-09-12T00:38:38Z</time>
      </trkpt>
      <trkpt lat="34.32506120361011" lon="108.97595491459472">
        <ele>396.7199541339651</ele>
        <time>2026-09-12T00:38:44Z</time>
      </trkpt>
      <trkpt lat="34.32514281796151" lon="108.97582468617534">
        <ele>396.38682088349015</ele>
        <time>2026-09-12T00:38:54Z</time>
      </trkpt>
      <trkpt lat="34.325197052749786" lon="108.97581230477252">
        <ele>396.5364818042144</ele>
        <time>2026-09-12T00:39:00Z</time>
      </trkpt>
      <trkpt lat="34.32522601410346" lon="108.975731170399">
        <ele>396.783645151183</ele>
        <time>2026-09-12T00:39:06Z</time>
      </trkpt>
      <trkpt lat="34.325270285526756" lon="108.97571734647656">
        <ele>397.2415941590443</ele>
        <time>2026-09-12T00:39:09Z</time>
      </trkpt>
      <trkpt lat="34.325370008027825" lon="108.97574186191378">
        <ele>396.575369249098</ele>
        <time>2026-09-12T00:39:21Z</time>
      </trkpt>
      <trkpt lat="34.325418164007175" lon="108.97569997834282">
        <ele>396.5788257904351</ele>
        <time>2026-09-12T00:39:27Z</time>
      </trkpt>
      <trkpt lat="34.325542941820665" lon="108.97568413795088">
        <ele>396.70944457966834</ele>
        <time>2026-09-12T00:39:36Z</time>
      </trkpt>
      <trkpt lat="34.325620615092994" lon="108.97569248545072">
        <ele>396.315328839235</ele>
        <time>2026-09-12T00:39:42Z</time>
      </trkpt>
      <trkpt lat="34.32565822459217" lon="108.97572268061873">
        <ele>396.50391979143023</ele>
        <time>2026-09-12T00:39:45Z</time>
      </trkpt>
      <trkpt lat="34.32584360693287" lon="108.97576170520897">
        <ele>397.0561403594911</ele>
        <time>2026-09-12T00:40:00Z</time>
      </trkpt>
      <trkpt lat="34.325947835429" lon="108.97574584405196">
        <ele>397.18455648608506</ele>
        <time>2026-09-12T00:40:06Z</time>
      </trkpt>
      <trkpt lat="34.32599478188802" lon="108.97575979551524">
        <ele>397.07801180519164</ele>
        <time>2026-09-12T00:40:09Z</time>
      </trkpt>
      <trkpt lat="34.3260939639721" lon="108.97573521894746">
        <ele>397.2830567955971</ele>
        <time>2026-09-12T00:40:15Z</time>
      </trkpt>
      <trkpt lat="34.32615143359722" lon="108.97576271567539">
        <ele>397.3945471905172</ele>
        <time>2026-09-12T00:40:24Z</time>
      </trkpt>
      <trkpt lat="34.32646518916056" lon="108.97576144182699">
        <ele>396.13829609565437</ele>
        <time>2026-09-12T00:40:48Z</time>
      </trkpt>
      <trkpt lat="34.326774283487126" lon="108.97581944871028">
        <ele>397.4787580119446</ele>
        <time>2026-09-12T00:41:21Z</time>
      </trkpt>
      <trkpt lat="34.32706254946751" lon="108.97581882853224">
        <ele>398.12543016765267</ele>
        <time>2026-09-12T00:41:42Z</time>
      </trkpt>
      <trkpt lat="34.327135625381125" lon="108.97581463466669">
        <ele>398.2033965131268</ele>
        <time>2026-09-12T00:41:48Z</time>
      </trkpt>
      <trkpt lat="34.32718275912871" lon="108.97584908232865">
        <ele>397.5988278705627</ele>
        <time>2026-09-12T00:41:51Z</time>
      </trkpt>
      <trkpt lat="34.32724683766985" lon="108.9758430816686">
        <ele>397.26594990491867</ele>
        <time>2026-09-12T00:41:57Z</time>
      </trkpt>
      <trkpt lat="34.3273742044342" lon="108.97587207492302">
        <ele>397.349038425833</ele>
        <time>2026-09-12T00:42:09Z</time>
      </trkpt>
      <trkpt lat="34.32742920944879" lon="108.97586363871463">
        <ele>396.1009334186092</ele>
        <time>2026-09-12T00:42:15Z</time>
      </trkpt>
      <trkpt lat="34.32775040410243" lon="108.97591161513759">
        <ele>398.67425888124853</ele>
        <time>2026-09-12T00:42:45Z</time>
      </trkpt>
      <trkpt lat="34.32792522607674" lon="108.97595811866786">
        <ele>397.43772429507226</ele>
        <time>2026-09-12T00:43:04Z</time>
      </trkpt>
      <trkpt lat="34.32816402323941" lon="108.97595162007715">
        <ele>396.0646385187283</ele>
        <time>2026-09-12T00:43:23Z</time>
      </trkpt>
      <trkpt lat="34.328452046357036" lon="108.97597819708868">
        <ele>395.56271121744066</ele>
        <time>2026-09-12T00:43:53Z</time>
      </trkpt>
      <trkpt lat="34.32851276100181" lon="108.97603004780908">
        <ele>394.969563559629</ele>
        <time>2026-09-12T00:44:02Z</time>
      </trkpt>
      <trkpt lat="34.32849090064448" lon="108.9760837173606">
        <ele>395.80818921141326</ele>
        <time>2026-09-12T00:44:59Z</time>
      </trkpt>
      <trkpt lat="34.32855251389775" lon="108.97606792968013">
        <ele>396.0040487572551</ele>
        <time>2026-09-12T00:45:46Z</time>
      </trkpt>
      <trkpt lat="34.32867871868222" lon="108.97616310088817">
        <ele>396.5972106689587</ele>
        <time>2026-09-12T00:45:58Z</time>
      </trkpt>
      <trkpt lat="34.32874476117195" lon="108.976291329208">
        <ele>395.6007089279592</ele>
        <time>2026-09-12T00:46:07Z</time>
      </trkpt>
      <trkpt lat="34.32881802673399" lon="108.97634163403369">
        <ele>396.2262008553371</ele>
        <time>2026-09-12T00:46:13Z</time>
      </trkpt>
      <trkpt lat="34.32889484153236" lon="108.97636428072158">
        <ele>395.8713156953454</ele>
        <time>2026-09-12T00:46:19Z</time>
      </trkpt>
      <trkpt lat="34.32916992619597" lon="108.97634209094856">
        <ele>396.20854436419904</ele>
        <time>2026-09-12T00:46:40Z</time>
      </trkpt>
      <trkpt lat="34.32939749409455" lon="108.97638494209254">
        <ele>395.80910288728774</ele>
        <time>2026-09-12T00:46:58Z</time>
      </trkpt>
      <trkpt lat="34.32947902239826" lon="108.9763685379925">
        <ele>396.15282116178423</ele>
        <time>2026-09-12T00:47:04Z</time>
      </trkpt>
      <trkpt lat="34.329630726728624" lon="108.97640247982157">
        <ele>395.74568497762084</ele>
        <time>2026-09-12T00:47:14Z</time>
      </trkpt>
      <trkpt lat="34.32976443943471" lon="108.97637557917545">
        <ele>394.84332301467657</ele>
        <time>2026-09-12T00:47:29Z</time>
      </trkpt>
      <trkpt lat="34.32990123821292" lon="108.97619174902755">
        <ele>394.57056156452745</ele>
        <time>2026-09-12T00:47:47Z</time>
      </trkpt>
      <trkpt lat="34.32993445824007" lon="108.97611748456916">
        <ele>394.9191530160606</ele>
        <time>2026-09-12T00:47:53Z</time>
      </trkpt>
      <trkpt lat="34.329994613827324" lon="108.97606389465983">
        <ele>394.65076647512615</ele>
        <time>2026-09-12T00:48:00Z</time>
      </trkpt>
      <trkpt lat="34.33029420630867" lon="108.9760826390354">
        <ele>394.37268084008247</ele>
        <time>2026-09-12T00:48:24Z</time>
      </trkpt>
      <trkpt lat="34.33058931638828" lon="108.9761038175803">
        <ele>393.7901092823595</ele>
        <time>2026-09-12T00:48:48Z</time>
      </trkpt>
      <trkpt lat="34.330663984858504" lon="108.97609877742808">
        <ele>393.66736449394375</ele>
        <time>2026-09-12T00:48:54Z</time>
      </trkpt>
      <trkpt lat="34.33071728275732" lon="108.97615457827908">
        <ele>393.59611355978996</ele>
        <time>2026-09-12T00:49:03Z</time>
      </trkpt>
      <trkpt lat="34.33072712474893" lon="108.9765050512354">
        <ele>393.7626597182825</ele>
        <time>2026-09-12T00:49:28Z</time>
      </trkpt>
      <trkpt lat="34.33074389707979" lon="108.97665145437601">
        <ele>393.75121075939387</ele>
        <time>2026-09-12T00:49:40Z</time>
      </trkpt>
      <trkpt lat="34.33069746084407" lon="108.97689672566277">
        <ele>394.600700115785</ele>
        <time>2026-09-12T00:49:55Z</time>
      </trkpt>
      <trkpt lat="34.330689448301236" lon="108.97712067353169">
        <ele>394.8458510125056</ele>
        <time>2026-09-12T00:50:13Z</time>
      </trkpt>
      <trkpt lat="34.330703560850765" lon="108.97717625671169">
        <ele>394.6699659684673</ele>
        <time>2026-09-12T00:50:19Z</time>
      </trkpt>
      <trkpt lat="34.33064952408761" lon="108.9773576741721">
        <ele>394.6441293945536</ele>
        <time>2026-09-12T00:50:31Z</time>
      </trkpt>
      <trkpt lat="34.33067121772411" lon="108.97764581992057">
        <ele>395.237025921233</ele>
        <time>2026-09-12T00:50:49Z</time>
      </trkpt>
      <trkpt lat="34.33066872021177" lon="108.97781856874653">
        <ele>395.79503908753395</ele>
        <time>2026-09-12T00:51:01Z</time>
      </trkpt>
      <trkpt lat="34.33068652797821" lon="108.97789253338935">
        <ele>395.45125262532383</ele>
        <time>2026-09-12T00:51:07Z</time>
      </trkpt>
      <trkpt lat="34.33065835587252" lon="108.97795384310152">
        <ele>393.9069811012596</ele>
        <time>2026-09-12T00:51:13Z</time>
      </trkpt>
      <trkpt lat="34.33065934360805" lon="108.97833317483985">
        <ele>394.3302585212514</ele>
        <time>2026-09-12T00:51:38Z</time>
      </trkpt>
      <trkpt lat="34.33066950793947" lon="108.9787034144314">
        <ele>394.60340752545744</ele>
        <time>2026-09-12T00:52:02Z</time>
      </trkpt>
      <trkpt lat="34.3306376954928" lon="108.97884259312914">
        <ele>395.38509462215006</ele>
        <time>2026-09-12T00:52:11Z</time>
      </trkpt>
      <trkpt lat="34.330510727151726" lon="108.97903686647126">
        <ele>395.8585933772847</ele>
        <time>2026-09-12T00:52:26Z</time>
      </trkpt>
      <trkpt lat="34.33043660718896" lon="108.97904170929795">
        <ele>396.0481345206499</ele>
        <time>2026-09-12T00:52:32Z</time>
      </trkpt>
      <trkpt lat="34.3302367782341" lon="108.97909305789312">
        <ele>395.352082548663</ele>
        <time>2026-09-12T00:52:47Z</time>
      </trkpt>
      <trkpt lat="34.330125710807096" lon="108.97907384496564">
        <ele>395.22014976199716</ele>
        <time>2026-09-12T00:52:56Z</time>
      </trkpt>
      <trkpt lat="34.33012794517877" lon="108.97917561991058">
        <ele>394.9599104197696</ele>
        <time>2026-09-12T00:53:14Z</time>
      </trkpt>
      <trkpt lat="34.33007834374289" lon="108.97914365694935">
        <ele>395.03809826727957</ele>
        <time>2026-09-12T00:53:45Z</time>
      </trkpt>
      <trkpt lat="34.33001432019425" lon="108.97908832149683">
        <ele>394.89073194004595</ele>
        <time>2026-09-12T00:54:03Z</time>
      </trkpt>
      <trkpt lat="34.329962660035804" lon="108.97907142932306">
        <ele>395.0916016995907</ele>
        <time>2026-09-12T00:54:09Z</time>
      </trkpt>
      <trkpt lat="34.32988814295607" lon="108.97913600720311">
        <ele>395.23417184501886</ele>
        <time>2026-09-12T00:54:18Z</time>
      </trkpt>
    </trkseg>
  </trk>
</gpx>