<?xml version="1.0" encoding="UTF-8"?>
<gpx xmlns="http://www.topografix.com/GPX/1/1" xmlns:gpxtpx="http://www.garmin.com/xmlschemas/TrackPointExtension/v1" xmlns:xsi="http://www.w3.org/2001/XMLSchema-instance" xsi:schemaLocation="http://www.topografix.com/GPX/1/1 http://www.topografix.com/GPX/1/1/gpx.xsd" version="1.1" creator="gpx.py -- https://github.com/tkrajina/gpxpy">
  <trk>
    <name>gpx from keep</name>
    <type>Ride</type>
    <trkseg>
      <trkpt lat="34.30637555604604" lon="109.03705879107396">
        <ele>391.4756077127531</ele>
        <time>2022-03-18T09:50:20Z</time>
      </trkpt>
      <trkpt lat="34.30646345086749" lon="109.03708891488085">
        <ele>391.5517446696758</ele>
        <time>2022-03-18T09:50:24Z</time>
      </trkpt>
      <trkpt lat="34.306474645763714" lon="109.03717730330469">
        <ele>391.5824788874015</ele>
        <time>2022-03-18T09:50:35Z</time>
      </trkpt>
      <trkpt lat="34.30654325539415" lon="109.03720884604519">
        <ele>391.8872344288975</ele>
        <time>2022-03-18T09:50:39Z</time>
      </trkpt>
      <trkpt lat="34.3065882944746" lon="109.03709446848897">
        <ele>392.0490273758769</ele>
        <time>2022-03-18T09:50:46Z</time>
      </trkpt>
      <trkpt lat="34.30656527722395" lon="109.03701243987246">
        <ele>392.00987657066435</ele>
        <time>2022-03-18T09:50:52Z</time>
      </trkpt>
      <trkpt lat="34.306573008874615" lon="109.03691694949286">
        <ele>391.4921122863889</ele>
        <time>2022-03-18T09:50:58Z</time>
      </trkpt>
      <trkpt lat="34.30652626898481" lon="109.03663738357378">
        <ele>391.9256095569581</ele>
        <time>2022-03-18T09:51:20Z</time>
      </trkpt>
      <trkpt lat="34.3065375955118" lon="109.03652729237956">
        <ele>391.7321362392977</ele>
        <time>2022-03-18T09:51:28Z</time>
      </trkpt>
      <trkpt lat="34.30651092002975" lon="109.03622205863516">
        <ele>391.81708237715065</ele>
        <time>2022-03-18T09:51:46Z</time>
      </trkpt>
      <trkpt lat="34.306519069749974" lon="109.03613038207315">
        <ele>391.63891168218106</ele>
        <time>2022-03-18T09:51:56Z</time>
      </trkpt>
      <trkpt lat="34.30643819376507" lon="109.03585823093744">
        <ele>392.1865201899782</ele>
        <time>2022-03-18T09:52:55Z</time>
      </trkpt>
      <trkpt lat="34.306415050963835" lon="109.03571736559186">
        <ele>392.53380401059985</ele>
        <time>2022-03-18T09:52:59Z</time>
      </trkpt>
      <trkpt lat="34.306289309530285" lon="109.03528262643171">
        <ele>392.4670761935413</ele>
        <time>2022-03-18T09:53:09Z</time>
      </trkpt>
      <trkpt lat="34.30632765655044" lon="109.03499380022839">
        <ele>391.61667815968394</ele>
        <time>2022-03-18T09:53:15Z</time>
      </trkpt>
      <trkpt lat="34.306404017596655" lon="109.03472016658341">
        <ele>392.2317580189556</ele>
        <time>2022-03-18T09:53:19Z</time>
      </trkpt>
      <trkpt lat="34.30641425367161" lon="109.03461465902332">
        <ele>393.1237804936245</ele>
        <time>2022-03-18T09:53:21Z</time>
      </trkpt>
      <trkpt lat="34.30638326150516" lon="109.03453308242257">
        <ele>392.86205413844436</ele>
        <time>2022-03-18T09:53:23Z</time>
      </trkpt>
      <trkpt lat="34.306336003032364" lon="109.03404913175136">
        <ele>392.92091858107597</ele>
        <time>2022-03-18T09:53:33Z</time>
      </trkpt>
      <trkpt lat="34.3062870681413" lon="109.03396209676903">
        <ele>392.50052105169743</ele>
        <time>2022-03-18T09:53:35Z</time>
      </trkpt>
      <trkpt lat="34.306221697488276" lon="109.03390526488248">
        <ele>392.8488479638472</ele>
        <time>2022-03-18T09:53:37Z</time>
      </trkpt>
      <trkpt lat="34.30614250969405" lon="109.03364480908992">
        <ele>393.9539477098733</ele>
        <time>2022-03-18T09:53:45Z</time>
      </trkpt>
      <trkpt lat="34.30603532712121" lon="109.03359848071995">
        <ele>393.4811033979058</ele>
        <time>2022-03-18T09:53:49Z</time>
      </trkpt>
      <trkpt lat="34.30594464100214" lon="109.03345857205905">
        <ele>393.49137759860605</ele>
        <time>2022-03-18T09:53:53Z</time>
      </trkpt>
      <trkpt lat="34.30593744388962" lon="109.03334402274041">
        <ele>393.59299343824387</ele>
        <time>2022-03-18T09:53:55Z</time>
      </trkpt>
      <trkpt lat="34.30596961121096" lon="109.03318124713832">
        <ele>393.0192643329501</ele>
        <time>2022-03-18T09:53:57Z</time>
      </trkpt>
      <trkpt lat="34.305944340158845" lon="109.03294090276925">
        <ele>393.2638567490503</ele>
        <time>2022-03-18T09:54:01Z</time>
      </trkpt>
      <trkpt lat="34.30596521498564" lon="109.03280541949066">
        <ele>392.7566127618775</ele>
        <time>2022-03-18T09:54:03Z</time>
      </trkpt>
      <trkpt lat="34.30601697919782" lon="109.0326290554476">
        <ele>392.4536235285923</ele>
        <time>2022-03-18T09:54:05Z</time>
      </trkpt>
      <trkpt lat="34.30603032961572" lon="109.03234407767313">
        <ele>392.8302935855463</ele>
        <time>2022-03-18T09:54:09Z</time>
      </trkpt>
      <trkpt lat="34.30601306219599" lon="109.032220466947">
        <ele>393.1793351219967</ele>
        <time>2022-03-18T09:54:11Z</time>
      </trkpt>
      <trkpt lat="34.305898172009506" lon="109.03204577894911">
        <ele>393.83486985694617</ele>
        <time>2022-03-18T09:54:15Z</time>
      </trkpt>
      <trkpt lat="34.305910189630346" lon="109.03185015879">
        <ele>394.7908247569576</ele>
        <time>2022-03-18T09:54:19Z</time>
      </trkpt>
      <trkpt lat="34.30590202137829" lon="109.03170275839717">
        <ele>393.68118143547326</ele>
        <time>2022-03-18T09:54:23Z</time>
      </trkpt>
      <trkpt lat="34.30598573065545" lon="109.03159624373293">
        <ele>394.3560787253082</ele>
        <time>2022-03-18T09:54:27Z</time>
      </trkpt>
      <trkpt lat="34.306111187585735" lon="109.03156478692027">
        <ele>394.0051203025505</ele>
        <time>2022-03-18T09:54:29Z</time>
      </trkpt>
      <trkpt lat="34.30632237445391" lon="109.03144361029017">
        <ele>392.43278030026704</ele>
        <time>2022-03-18T09:54:33Z</time>
      </trkpt>
      <trkpt lat="34.30660042995155" lon="109.03122447480057">
        <ele>391.0592235662043</ele>
        <time>2022-03-18T09:54:37Z</time>
      </trkpt>
      <trkpt lat="34.306884619881245" lon="109.03104708564102">
        <ele>390.9567531272769</ele>
        <time>2022-03-18T09:54:41Z</time>
      </trkpt>
      <trkpt lat="34.30732385391372" lon="109.03089621837012">
        <ele>391.74852414801717</ele>
        <time>2022-03-18T09:54:49Z</time>
      </trkpt>
      <trkpt lat="34.30780957743041" lon="109.03081738253225">
        <ele>393.3173107774928</ele>
        <time>2022-03-18T09:54:59Z</time>
      </trkpt>
      <trkpt lat="34.30819334676624" lon="109.03075416362144">
        <ele>393.91122470330447</ele>
        <time>2022-03-18T09:55:07Z</time>
      </trkpt>
      <trkpt lat="34.308681136108156" lon="109.0307122750796">
        <ele>394.13946191687137</ele>
        <time>2022-03-18T09:55:17Z</time>
      </trkpt>
      <trkpt lat="34.309153035777086" lon="109.03054826119903">
        <ele>392.7490421561524</ele>
        <time>2022-03-18T09:55:27Z</time>
      </trkpt>
      <trkpt lat="34.309251318222394" lon="109.03051963898082">
        <ele>393.0545714041218</ele>
        <time>2022-03-18T09:55:29Z</time>
      </trkpt>
      <trkpt lat="34.309691591796664" lon="109.03021654005153">
        <ele>393.464155360125</ele>
        <time>2022-03-18T09:55:39Z</time>
      </trkpt>
      <trkpt lat="34.309864585431114" lon="109.0300753939594">
        <ele>393.7983258906752</ele>
        <time>2022-03-18T09:55:43Z</time>
      </trkpt>
      <trkpt lat="34.30995482497593" lon="109.03003152813537">
        <ele>393.4755570590496</ele>
        <time>2022-03-18T09:55:45Z</time>
      </trkpt>
      <trkpt lat="34.310074566524" lon="109.03000869837011">
        <ele>393.2637396948412</ele>
        <time>2022-03-18T09:55:47Z</time>
      </trkpt>
      <trkpt lat="34.3101796525746" lon="109.02985273786626">
        <ele>393.13981899712235</ele>
        <time>2022-03-18T09:55:51Z</time>
      </trkpt>
      <trkpt lat="34.31060873655811" lon="109.0294467466486">
        <ele>392.05626672599465</ele>
        <time>2022-03-18T09:56:01Z</time>
      </trkpt>
      <trkpt lat="34.31100216789834" lon="109.02903215800737">
        <ele>391.5600730907172</ele>
        <time>2022-03-18T09:56:11Z</time>
      </trkpt>
      <trkpt lat="34.31122109793372" lon="109.02872196354957">
        <ele>390.89973052218556</ele>
        <time>2022-03-18T09:56:17Z</time>
      </trkpt>
      <trkpt lat="34.31127381188071" lon="109.02860980012888">
        <ele>391.0225554406643</ele>
        <time>2022-03-18T09:56:19Z</time>
      </trkpt>
      <trkpt lat="34.31130151803809" lon="109.02849823555707">
        <ele>391.7438742844388</ele>
        <time>2022-03-18T09:56:21Z</time>
      </trkpt>
      <trkpt lat="34.31138515078185" lon="109.02830739094162">
        <ele>391.6714568603784</ele>
        <time>2022-03-18T09:56:25Z</time>
      </trkpt>
      <trkpt lat="34.31141332184422" lon="109.02820443274844">
        <ele>392.4536500070244</ele>
        <time>2022-03-18T09:56:27Z</time>
      </trkpt>
      <trkpt lat="34.3113988975554" lon="109.02798779466734">
        <ele>393.40231241844594</ele>
        <time>2022-03-18T09:56:31Z</time>
      </trkpt>
      <trkpt lat="34.311430419703534" lon="109.02776238939843">
        <ele>392.7654327331111</ele>
        <time>2022-03-18T09:56:35Z</time>
      </trkpt>
      <trkpt lat="34.31143251984789" lon="109.02764103437516">
        <ele>392.67429658491164</ele>
        <time>2022-03-18T09:56:37Z</time>
      </trkpt>
      <trkpt lat="34.311560752523" lon="109.02715364405002">
        <ele>393.0825108913705</ele>
        <time>2022-03-18T09:56:45Z</time>
      </trkpt>
      <trkpt lat="34.311728789425054" lon="109.02681940786424">
        <ele>392.25216167699546</ele>
        <time>2022-03-18T09:56:51Z</time>
      </trkpt>
      <trkpt lat="34.31186905512483" lon="109.02663616054272">
        <ele>391.89028281066567</ele>
        <time>2022-03-18T09:56:55Z</time>
      </trkpt>
      <trkpt lat="34.312262533469884" lon="109.0262872710907">
        <ele>393.1621593721211</ele>
        <time>2022-03-18T09:57:05Z</time>
      </trkpt>
      <trkpt lat="34.31239063751403" lon="109.02612464723899">
        <ele>393.61175035405904</ele>
        <time>2022-03-18T09:57:11Z</time>
      </trkpt>
      <trkpt lat="34.312624810926124" lon="109.02599312727156">
        <ele>393.38024549372494</ele>
        <time>2022-03-18T09:57:15Z</time>
      </trkpt>
      <trkpt lat="34.31268304594366" lon="109.02589680481792">
        <ele>393.18525096122175</ele>
        <time>2022-03-18T09:57:17Z</time>
      </trkpt>
      <trkpt lat="34.31276418428034" lon="109.02584934398875">
        <ele>392.47284475527704</ele>
        <time>2022-03-18T09:57:19Z</time>
      </trkpt>
      <trkpt lat="34.31282943559888" lon="109.02577650074869">
        <ele>392.9587709931657</ele>
        <time>2022-03-18T09:57:21Z</time>
      </trkpt>
      <trkpt lat="34.31293878137734" lon="109.02575353240046">
        <ele>393.6994539303705</ele>
        <time>2022-03-18T09:57:23Z</time>
      </trkpt>
      <trkpt lat="34.313112792767434" lon="109.02565850897012">
        <ele>393.1451441170648</ele>
        <time>2022-03-18T09:57:27Z</time>
      </trkpt>
      <trkpt lat="34.31344214666865" lon="109.02557688960378">
        <ele>390.73381395079195</ele>
        <time>2022-03-18T09:57:33Z</time>
      </trkpt>
      <trkpt lat="34.31384374364452" lon="109.02546062031284">
        <ele>391.55360943451524</ele>
        <time>2022-03-18T09:57:41Z</time>
      </trkpt>
      <trkpt lat="34.31401967183617" lon="109.02535562792875">
        <ele>392.356000687927</ele>
        <time>2022-03-18T09:57:45Z</time>
      </trkpt>
      <trkpt lat="34.31412897163412" lon="109.02532666206173">
        <ele>391.83875648584217</ele>
        <time>2022-03-18T09:57:47Z</time>
      </trkpt>
      <trkpt lat="34.31457828041575" lon="109.0250518478468">
        <ele>391.08066339138895</ele>
        <time>2022-03-18T09:57:57Z</time>
      </trkpt>
      <trkpt lat="34.31500865967521" lon="109.02474473539719">
        <ele>390.53305556531996</ele>
        <time>2022-03-18T09:58:07Z</time>
      </trkpt>
      <trkpt lat="34.31547137451574" lon="109.0244354120398">
        <ele>390.1721254354343</ele>
        <time>2022-03-18T09:58:17Z</time>
      </trkpt>
      <trkpt lat="34.31585096684286" lon="109.02421124956413">
        <ele>390.4732747282833</ele>
        <time>2022-03-18T09:58:25Z</time>
      </trkpt>
      <trkpt lat="34.31596796473236" lon="109.02417292068417">
        <ele>390.30781431961805</ele>
        <time>2022-03-18T09:58:27Z</time>
      </trkpt>
      <trkpt lat="34.31623196013268" lon="109.0240236502643">
        <ele>390.6022630594671</ele>
        <time>2022-03-18T09:58:33Z</time>
      </trkpt>
      <trkpt lat="34.3165154311871" lon="109.02390936546358">
        <ele>390.4997489787638</ele>
        <time>2022-03-18T09:58:41Z</time>
      </trkpt>
      <trkpt lat="34.31655273630303" lon="109.02387604095053">
        <ele>390.8630446335301</ele>
        <time>2022-03-18T09:58:51Z</time>
      </trkpt>
      <trkpt lat="34.31647363415056" lon="109.0237080070217">
        <ele>390.56874348875135</ele>
        <time>2022-03-18T09:59:32Z</time>
      </trkpt>
      <trkpt lat="34.316413545750706" lon="109.02364344314806">
        <ele>389.803723343648</ele>
        <time>2022-03-18T09:59:34Z</time>
      </trkpt>
      <trkpt lat="34.316268447873384" lon="109.0233673872272">
        <ele>389.42887522559613</ele>
        <time>2022-03-18T09:59:40Z</time>
      </trkpt>
      <trkpt lat="34.31607608660295" lon="109.0228422414405">
        <ele>387.7692012032494</ele>
        <time>2022-03-18T09:59:50Z</time>
      </trkpt>
      <trkpt lat="34.31586858959486" lon="109.02233031134222">
        <ele>389.2898581903428</ele>
        <time>2022-03-18T10:00:00Z</time>
      </trkpt>
      <trkpt lat="34.31586570919659" lon="109.0220093564432">
        <ele>391.2658441318199</ele>
        <time>2022-03-18T10:00:06Z</time>
      </trkpt>
      <trkpt lat="34.31594128890999" lon="109.02159789935314">
        <ele>392.6724438080564</ele>
        <time>2022-03-18T10:00:14Z</time>
      </trkpt>
      <trkpt lat="34.31590590707069" lon="109.02134049539643">
        <ele>393.50942280422896</ele>
        <time>2022-03-18T10:00:20Z</time>
      </trkpt>
      <trkpt lat="34.315914990804856" lon="109.02125131576176">
        <ele>394.48339088913053</ele>
        <time>2022-03-18T10:00:22Z</time>
      </trkpt>
      <trkpt lat="34.3158479631286" lon="109.02089101194727">
        <ele>395.72635451797396</ele>
        <time>2022-03-18T10:00:31Z</time>
      </trkpt>
      <trkpt lat="34.31587929102652" lon="109.02060541468245">
        <ele>394.4401147188619</ele>
        <time>2022-03-18T10:00:37Z</time>
      </trkpt>
      <trkpt lat="34.31586451772827" lon="109.02051557326251">
        <ele>395.9848342994228</ele>
        <time>2022-03-18T10:00:39Z</time>
      </trkpt>
      <trkpt lat="34.315865834441205" lon="109.0203174621762">
        <ele>396.56840443238616</ele>
        <time>2022-03-18T10:00:43Z</time>
      </trkpt>
      <trkpt lat="34.31589343854437" lon="109.020107409022">
        <ele>397.1106300801039</ele>
        <time>2022-03-18T10:00:47Z</time>
      </trkpt>
      <trkpt lat="34.31589673963116" lon="109.01950814430508">
        <ele>399.8333762641996</ele>
        <time>2022-03-18T10:00:59Z</time>
      </trkpt>
      <trkpt lat="34.315911683569404" lon="109.01889895748239">
        <ele>401.9136008573696</ele>
        <time>2022-03-18T10:01:11Z</time>
      </trkpt>
      <trkpt lat="34.31591499516109" lon="109.0183090386425">
        <ele>403.10643886588514</ele>
        <time>2022-03-18T10:01:23Z</time>
      </trkpt>
      <trkpt lat="34.31590464154899" lon="109.01812828455618">
        <ele>404.5294470516965</ele>
        <time>2022-03-18T10:01:27Z</time>
      </trkpt>
      <trkpt lat="34.31591710139167" lon="109.01796286504992">
        <ele>405.10180837195367</ele>
        <time>2022-03-18T10:01:31Z</time>
      </trkpt>
      <trkpt lat="34.31588084200648" lon="109.0173961018736">
        <ele>405.3719675829634</ele>
        <time>2022-03-18T10:01:45Z</time>
      </trkpt>
      <trkpt lat="34.315824961469765" lon="109.01677132466126">
        <ele>407.4746856549755</ele>
        <time>2022-03-18T10:01:59Z</time>
      </trkpt>
      <trkpt lat="34.3158330504323" lon="109.01657496445594">
        <ele>407.3892084173858</ele>
        <time>2022-03-18T10:02:03Z</time>
      </trkpt>
      <trkpt lat="34.31581924755848" lon="109.01638448568625">
        <ele>408.68847202975303</ele>
        <time>2022-03-18T10:02:07Z</time>
      </trkpt>
      <trkpt lat="34.31586883754742" lon="109.01586128298807">
        <ele>408.67386920005083</ele>
        <time>2022-03-18T10:02:17Z</time>
      </trkpt>
      <trkpt lat="34.31586574934098" lon="109.01553605224517">
        <ele>409.2440887475386</ele>
        <time>2022-03-18T10:02:23Z</time>
      </trkpt>
      <trkpt lat="34.31590230489892" lon="109.0152893613695">
        <ele>408.50971115846187</ele>
        <time>2022-03-18T10:02:27Z</time>
      </trkpt>
      <trkpt lat="34.31584196280492" lon="109.0148054534939">
        <ele>410.7388501651585</ele>
        <time>2022-03-18T10:02:37Z</time>
      </trkpt>
      <trkpt lat="34.315861394353696" lon="109.01445180050054">
        <ele>410.1801142450422</ele>
        <time>2022-03-18T10:02:43Z</time>
      </trkpt>
      <trkpt lat="34.31583706849978" lon="109.01435497994666">
        <ele>409.99019949510694</ele>
        <time>2022-03-18T10:02:45Z</time>
      </trkpt>
      <trkpt lat="34.31584884110042" lon="109.01412611357516">
        <ele>410.5598656097427</ele>
        <time>2022-03-18T10:02:49Z</time>
      </trkpt>
      <trkpt lat="34.31582291273407" lon="109.0136811639862">
        <ele>409.6721814032644</ele>
        <time>2022-03-18T10:02:57Z</time>
      </trkpt>
      <trkpt lat="34.315834414360076" lon="109.0134467122437">
        <ele>409.8472840078175</ele>
        <time>2022-03-18T10:03:01Z</time>
      </trkpt>
      <trkpt lat="34.31580920567703" lon="109.01326121504373">
        <ele>410.17826769314706</ele>
        <time>2022-03-18T10:03:05Z</time>
      </trkpt>
      <trkpt lat="34.31583626874573" lon="109.01264583211353">
        <ele>410.6659346651286</ele>
        <time>2022-03-18T10:03:15Z</time>
      </trkpt>
      <trkpt lat="34.31585973300316" lon="109.0124020465937">
        <ele>409.51009305752814</ele>
        <time>2022-03-18T10:03:19Z</time>
      </trkpt>
      <trkpt lat="34.31581420296479" lon="109.01194162375354">
        <ele>409.6063372679055</ele>
        <time>2022-03-18T10:03:27Z</time>
      </trkpt>
      <trkpt lat="34.3158270874635" lon="109.01181009018887">
        <ele>409.49428514856845</ele>
        <time>2022-03-18T10:03:29Z</time>
      </trkpt>
      <trkpt lat="34.31580735803764" lon="109.01169722065256">
        <ele>410.12947293836623</ele>
        <time>2022-03-18T10:03:31Z</time>
      </trkpt>
      <trkpt lat="34.315773821452424" lon="109.01161240737063">
        <ele>409.8197238864377</ele>
        <time>2022-03-18T10:03:33Z</time>
      </trkpt>
      <trkpt lat="34.31577585363689" lon="109.01108730952286">
        <ele>409.8631620891392</ele>
        <time>2022-03-18T10:03:41Z</time>
      </trkpt>
      <trkpt lat="34.315797239125445" lon="109.01083720987913">
        <ele>409.6684925220907</ele>
        <time>2022-03-18T10:03:45Z</time>
      </trkpt>
      <trkpt lat="34.31576953022505" lon="109.0102697132213">
        <ele>409.00320932269096</ele>
        <time>2022-03-18T10:03:55Z</time>
      </trkpt>
      <trkpt lat="34.3157890191623" lon="109.0100322573883">
        <ele>409.1308412095532</ele>
        <time>2022-03-18T10:03:59Z</time>
      </trkpt>
      <trkpt lat="34.31583949148903" lon="109.00989540788703">
        <ele>409.0616573728621</ele>
        <time>2022-03-18T10:04:01Z</time>
      </trkpt>
      <trkpt lat="34.315978288109086" lon="109.00977713888331">
        <ele>408.2467973092571</ele>
        <time>2022-03-18T10:04:03Z</time>
      </trkpt>
      <trkpt lat="34.316465003828036" lon="109.00966609625178">
        <ele>408.9620238915086</ele>
        <time>2022-03-18T10:04:13Z</time>
      </trkpt>
      <trkpt lat="34.31682124084001" lon="109.0095737385998">
        <ele>408.49185941182077</ele>
        <time>2022-03-18T10:04:21Z</time>
      </trkpt>
      <trkpt lat="34.31721336310642" lon="109.00954699557435">
        <ele>407.98277692776173</ele>
        <time>2022-03-18T10:04:29Z</time>
      </trkpt>
      <trkpt lat="34.31731108244012" lon="109.00956631795253">
        <ele>408.30148780345917</ele>
        <time>2022-03-18T10:04:31Z</time>
      </trkpt>
      <trkpt lat="34.31757342990925" lon="109.00954411211123">
        <ele>408.7897896133363</ele>
        <time>2022-03-18T10:04:37Z</time>
      </trkpt>
      <trkpt lat="34.317783353240095" lon="109.009570536064">
        <ele>409.2694269856438</ele>
        <time>2022-03-18T10:04:41Z</time>
      </trkpt>
      <trkpt lat="34.31814958166967" lon="109.00951157111062">
        <ele>408.8614823957905</ele>
        <time>2022-03-18T10:04:49Z</time>
      </trkpt>
      <trkpt lat="34.31861178294462" lon="109.00953740912149">
        <ele>407.9326399648562</ele>
        <time>2022-03-18T10:04:57Z</time>
      </trkpt>
      <trkpt lat="34.319079487356724" lon="109.00955446576312">
        <ele>407.3357411781326</ele>
        <time>2022-03-18T10:05:05Z</time>
      </trkpt>
      <trkpt lat="34.31942292872639" lon="109.0095150523355">
        <ele>407.36866955272853</ele>
        <time>2022-03-18T10:05:11Z</time>
      </trkpt>
      <trkpt lat="34.31968103592176" lon="109.00953535320016">
        <ele>406.7950229672715</ele>
        <time>2022-03-18T10:05:15Z</time>
      </trkpt>
      <trkpt lat="34.319799030622654" lon="109.00951814238024">
        <ele>406.6525560244918</ele>
        <time>2022-03-18T10:05:17Z</time>
      </trkpt>
      <trkpt lat="34.32034246309731" lon="109.0095393094844">
        <ele>405.80166093446314</ele>
        <time>2022-03-18T10:05:25Z</time>
      </trkpt>
      <trkpt lat="34.32087888434936" lon="109.00954374954424">
        <ele>403.7591471057385</ele>
        <time>2022-03-18T10:05:33Z</time>
      </trkpt>
      <trkpt lat="34.32100312767384" lon="109.00954752790791">
        <ele>403.0077211000025</ele>
        <time>2022-03-18T10:05:35Z</time>
      </trkpt>
      <trkpt lat="34.321118782775535" lon="109.00952601270839">
        <ele>402.3584041884169</ele>
        <time>2022-03-18T10:05:37Z</time>
      </trkpt>
      <trkpt lat="34.32165824508383" lon="109.00954905305625">
        <ele>401.3191327014938</ele>
        <time>2022-03-18T10:05:45Z</time>
      </trkpt>
      <trkpt lat="34.32191239560577" lon="109.00955425908947">
        <ele>400.8030982101336</ele>
        <time>2022-03-18T10:05:49Z</time>
      </trkpt>
      <trkpt lat="34.322038482107104" lon="109.00959160579804">
        <ele>400.2167770881206</ele>
        <time>2022-03-18T10:05:51Z</time>
      </trkpt>
      <trkpt lat="34.32228677180939" lon="109.00958426413374">
        <ele>399.1841146033257</ele>
        <time>2022-03-18T10:05:55Z</time>
      </trkpt>
      <trkpt lat="34.322811254266824" lon="109.00947839333507">
        <ele>398.5335139669478</ele>
        <time>2022-03-18T10:06:03Z</time>
      </trkpt>
      <trkpt lat="34.32335286386894" lon="109.00940523468113">
        <ele>396.83528197649866</ele>
        <time>2022-03-18T10:06:11Z</time>
      </trkpt>
      <trkpt lat="34.323862484441584" lon="109.00933398741428">
        <ele>396.2922889282927</ele>
        <time>2022-03-18T10:06:19Z</time>
      </trkpt>
      <trkpt lat="34.323964780365934" lon="109.00930424235833">
        <ele>396.42904442735016</ele>
        <time>2022-03-18T10:06:21Z</time>
      </trkpt>
      <trkpt lat="34.324075319665276" lon="109.00923207886787">
        <ele>396.5948779238388</ele>
        <time>2022-03-18T10:06:23Z</time>
      </trkpt>
      <trkpt lat="34.324286871309205" lon="109.0091551194842">
        <ele>396.46341892611235</ele>
        <time>2022-03-18T10:06:27Z</time>
      </trkpt>
      <trkpt lat="34.32451261942211" lon="109.00910884962919">
        <ele>396.3951667584479</ele>
        <time>2022-03-18T10:06:31Z</time>
      </trkpt>
      <trkpt lat="34.32491670083096" lon="109.0089195695627">
        <ele>395.69002310186625</ele>
        <time>2022-03-18T10:06:39Z</time>
      </trkpt>
      <trkpt lat="34.325395629463564" lon="109.00870518128274">
        <ele>395.9864353518933</ele>
        <time>2022-03-18T10:06:49Z</time>
      </trkpt>
      <trkpt lat="34.32576176267729" lon="109.008502399401">
        <ele>395.019242817536</ele>
        <time>2022-03-18T10:06:57Z</time>
      </trkpt>
      <trkpt lat="34.32603938191845" lon="109.00831318042103">
        <ele>396.17999445740134</ele>
        <time>2022-03-18T10:07:03Z</time>
      </trkpt>
      <trkpt lat="34.32641269259386" lon="109.00807946050774">
        <ele>395.1550066061318</ele>
        <time>2022-03-18T10:07:11Z</time>
      </trkpt>
      <trkpt lat="34.326885333414666" lon="109.00778704982488">
        <ele>394.61713028140366</ele>
        <time>2022-03-18T10:07:21Z</time>
      </trkpt>
      <trkpt lat="34.32730352142218" lon="109.00745498220465">
        <ele>394.45397397782654</ele>
        <time>2022-03-18T10:07:31Z</time>
      </trkpt>
      <trkpt lat="34.327720239713166" lon="109.00717738258332">
        <ele>395.0881351791322</ele>
        <time>2022-03-18T10:07:41Z</time>
      </trkpt>
      <trkpt lat="34.32788828164942" lon="109.0071051946496">
        <ele>394.4687593653798</ele>
        <time>2022-03-18T10:07:45Z</time>
      </trkpt>
      <trkpt lat="34.32807878584296" lon="109.00695529189775">
        <ele>393.78769697993994</ele>
        <time>2022-03-18T10:07:53Z</time>
      </trkpt>
      <trkpt lat="34.32812687629784" lon="109.00700848462938">
        <ele>394.3155062459409</ele>
        <time>2022-03-18T10:08:01Z</time>
      </trkpt>
      <trkpt lat="34.328153937675985" lon="109.00679817017027">
        <ele>394.8553244648501</ele>
        <time>2022-03-18T10:08:36Z</time>
      </trkpt>
      <trkpt lat="34.328089810574184" lon="109.0064882566539">
        <ele>393.92110421322286</ele>
        <time>2022-03-18T10:08:42Z</time>
      </trkpt>
      <trkpt lat="34.32809309687708" lon="109.00625827045215">
        <ele>393.65337892621756</ele>
        <time>2022-03-18T10:08:46Z</time>
      </trkpt>
      <trkpt lat="34.328031305109334" lon="109.0057904110044">
        <ele>395.13737396802753</ele>
        <time>2022-03-18T10:08:56Z</time>
      </trkpt>
      <trkpt lat="34.3279517382834" lon="109.0054747934315">
        <ele>395.786126755178</ele>
        <time>2022-03-18T10:09:04Z</time>
      </trkpt>
      <trkpt lat="34.327944682949365" lon="109.0052945143691">
        <ele>395.57129388395697</ele>
        <time>2022-03-18T10:09:07Z</time>
      </trkpt>
      <trkpt lat="34.32791592780398" lon="109.00513591848716">
        <ele>395.92538117803633</ele>
        <time>2022-03-18T10:09:11Z</time>
      </trkpt>
      <trkpt lat="34.327843128103275" lon="109.00495128581902">
        <ele>395.088884816505</ele>
        <time>2022-03-18T10:09:15Z</time>
      </trkpt>
      <trkpt lat="34.32782925144162" lon="109.00470091919053">
        <ele>394.6867883866653</ele>
        <time>2022-03-18T10:09:19Z</time>
      </trkpt>
      <trkpt lat="34.32785882468825" lon="109.00427151478921">
        <ele>394.46244354825467</ele>
        <time>2022-03-18T10:09:25Z</time>
      </trkpt>
      <trkpt lat="34.32790586484947" lon="109.00407469716359">
        <ele>395.1071762535721</ele>
        <time>2022-03-18T10:09:28Z</time>
      </trkpt>
      <trkpt lat="34.32793901678932" lon="109.00361408483664">
        <ele>395.293573865667</ele>
        <time>2022-03-18T10:09:36Z</time>
      </trkpt>
      <trkpt lat="34.32793051486687" lon="109.00350857590347">
        <ele>395.381942932494</ele>
        <time>2022-03-18T10:09:38Z</time>
      </trkpt>
      <trkpt lat="34.327940826888415" lon="109.0033885404195">
        <ele>395.4577644234523</ele>
        <time>2022-03-18T10:09:40Z</time>
      </trkpt>
      <trkpt lat="34.327919125383104" lon="109.00325987425107">
        <ele>395.74068876635283</ele>
        <time>2022-03-18T10:09:42Z</time>
      </trkpt>
      <trkpt lat="34.32790352736712" lon="109.00267238181071">
        <ele>395.713255725801</ele>
        <time>2022-03-18T10:09:52Z</time>
      </trkpt>
      <trkpt lat="34.32789341442701" lon="109.00254911063084">
        <ele>395.4309473214671</ele>
        <time>2022-03-18T10:09:54Z</time>
      </trkpt>
      <trkpt lat="34.327905984916505" lon="109.0024091937864">
        <ele>395.6547752432525</ele>
        <time>2022-03-18T10:09:56Z</time>
      </trkpt>
      <trkpt lat="34.32787127912636" lon="109.00184582552338">
        <ele>395.8816238641739</ele>
        <time>2022-03-18T10:10:06Z</time>
      </trkpt>
      <trkpt lat="34.327877430794345" lon="109.0017489065796">
        <ele>396.210396069102</ele>
        <time>2022-03-18T10:10:08Z</time>
      </trkpt>
      <trkpt lat="34.327854656348784" lon="109.0015429554573">
        <ele>396.9110249374062</ele>
        <time>2022-03-18T10:10:12Z</time>
      </trkpt>
      <trkpt lat="34.32781777763836" lon="109.0014594887669">
        <ele>396.73220836929977</ele>
        <time>2022-03-18T10:10:14Z</time>
      </trkpt>
      <trkpt lat="34.327791341928354" lon="109.0012289089504">
        <ele>395.9698771433905</ele>
        <time>2022-03-18T10:10:18Z</time>
      </trkpt>
      <trkpt lat="34.3278342488679" lon="109.0007438146431">
        <ele>396.2329870229587</ele>
        <time>2022-03-18T10:10:26Z</time>
      </trkpt>
      <trkpt lat="34.32784520012768" lon="109.00017149246729">
        <ele>395.96482222061604</ele>
        <time>2022-03-18T10:10:36Z</time>
      </trkpt>
      <trkpt lat="34.32784610415501" lon="108.99986561978375">
        <ele>395.3268148070201</ele>
        <time>2022-03-18T10:10:42Z</time>
      </trkpt>
      <trkpt lat="34.327812671937885" lon="108.99976317365632">
        <ele>394.9810828557238</ele>
        <time>2022-03-18T10:10:44Z</time>
      </trkpt>
      <trkpt lat="34.327764727086205" lon="108.99968939780847">
        <ele>394.5813117660582</ele>
        <time>2022-03-18T10:10:46Z</time>
      </trkpt>
      <trkpt lat="34.32772778578645" lon="108.99958719059732">
        <ele>394.3492349181324</ele>
        <time>2022-03-18T10:10:48Z</time>
      </trkpt>
      <trkpt lat="34.32765218430642" lon="108.99952338856731">
        <ele>393.8083904525265</ele>
        <time>2022-03-18T10:10:50Z</time>
      </trkpt>
      <trkpt lat="34.32763211425903" lon="108.99931727239729">
        <ele>394.23873502761126</ele>
        <time>2022-03-18T10:10:54Z</time>
      </trkpt>
      <trkpt lat="34.32759300715573" lon="108.99922273599914">
        <ele>393.68104381952435</ele>
        <time>2022-03-18T10:10:56Z</time>
      </trkpt>
      <trkpt lat="34.32766489174228" lon="108.99907436274837">
        <ele>394.1427397765219</ele>
        <time>2022-03-18T10:10:58Z</time>
      </trkpt>
      <trkpt lat="34.32775410805263" lon="108.9985636087807">
        <ele>394.1631974587217</ele>
        <time>2022-03-18T10:11:06Z</time>
      </trkpt>
      <trkpt lat="34.32777323215597" lon="108.99843471871101">
        <ele>394.6357578812167</ele>
        <time>2022-03-18T10:11:08Z</time>
      </trkpt>
      <trkpt lat="34.32783651693912" lon="108.99826494010868">
        <ele>395.0469597745687</ele>
        <time>2022-03-18T10:11:10Z</time>
      </trkpt>
      <trkpt lat="34.32792576568068" lon="108.9976540847634">
        <ele>395.0942615773529</ele>
        <time>2022-03-18T10:11:19Z</time>
      </trkpt>
      <trkpt lat="34.327961531970494" lon="108.99702040943816">
        <ele>395.4587942371145</ele>
        <time>2022-03-18T10:11:29Z</time>
      </trkpt>
      <trkpt lat="34.32794809600683" lon="108.99678394529153">
        <ele>395.335184420459</ele>
        <time>2022-03-18T10:11:33Z</time>
      </trkpt>
      <trkpt lat="34.32796853021205" lon="108.99653239996212">
        <ele>395.0115416534245</ele>
        <time>2022-03-18T10:11:37Z</time>
      </trkpt>
      <trkpt lat="34.32797745459434" lon="108.99619036291568">
        <ele>395.20891114976257</ele>
        <time>2022-03-18T10:11:43Z</time>
      </trkpt>
      <trkpt lat="34.32792982601958" lon="108.99599521164714">
        <ele>395.17875712551177</ele>
        <time>2022-03-18T10:11:47Z</time>
      </trkpt>
      <trkpt lat="34.327927979671635" lon="108.9954331204793">
        <ele>394.63234441075474</ele>
        <time>2022-03-18T10:11:57Z</time>
      </trkpt>
      <trkpt lat="34.327980749328866" lon="108.99490362262245">
        <ele>394.6122148586437</ele>
        <time>2022-03-18T10:12:05Z</time>
      </trkpt>
      <trkpt lat="34.327950410087496" lon="108.99429402666878">
        <ele>395.51971289981157</ele>
        <time>2022-03-18T10:12:15Z</time>
      </trkpt>
      <trkpt lat="34.32794049226663" lon="108.99405288540594">
        <ele>395.5678618811071</ele>
        <time>2022-03-18T10:12:19Z</time>
      </trkpt>
      <trkpt lat="34.32791465110759" lon="108.99394790366392">
        <ele>395.24523186217993</ele>
        <time>2022-03-18T10:12:21Z</time>
      </trkpt>
      <trkpt lat="34.327929406627185" lon="108.99381439216191">
        <ele>395.01637099310756</ele>
        <time>2022-03-18T10:12:23Z</time>
      </trkpt>
      <trkpt lat="34.32792158357523" lon="108.99357750231337">
        <ele>394.345554638654</ele>
        <time>2022-03-18T10:12:27Z</time>
      </trkpt>
      <trkpt lat="34.32787940457772" lon="108.99334759179217">
        <ele>395.4950169250369</ele>
        <time>2022-03-18T10:12:31Z</time>
      </trkpt>
      <trkpt lat="34.32787647936232" lon="108.99287722962492">
        <ele>395.60310563258827</ele>
        <time>2022-03-18T10:12:39Z</time>
      </trkpt>
      <trkpt lat="34.32785193133038" lon="108.99264280508791">
        <ele>395.30831603705883</ele>
        <time>2022-03-18T10:12:43Z</time>
      </trkpt>
      <trkpt lat="34.327868391416764" lon="108.99250554631054">
        <ele>395.4057693136856</ele>
        <time>2022-03-18T10:12:45Z</time>
      </trkpt>
      <trkpt lat="34.32792637306545" lon="108.99223567025628">
        <ele>393.9018108546734</ele>
        <time>2022-03-18T10:12:49Z</time>
      </trkpt>
      <trkpt lat="34.3279207728571" lon="108.99211819440055">
        <ele>394.3675705110654</ele>
        <time>2022-03-18T10:12:51Z</time>
      </trkpt>
      <trkpt lat="34.32797439479724" lon="108.99157382647435">
        <ele>393.28952475171536</ele>
        <time>2022-03-18T10:12:59Z</time>
      </trkpt>
      <trkpt lat="34.328004707473006" lon="108.99123872481549">
        <ele>392.70544639695436</ele>
        <time>2022-03-18T10:13:05Z</time>
      </trkpt>
      <trkpt lat="34.328059021850194" lon="108.99104743726375">
        <ele>391.6743532717228</ele>
        <time>2022-03-18T10:13:21Z</time>
      </trkpt>
      <trkpt lat="34.32806318944043" lon="108.99092895315641">
        <ele>391.9792916830629</ele>
        <time>2022-03-18T10:14:14Z</time>
      </trkpt>
      <trkpt lat="34.32808001909051" lon="108.99072262733692">
        <ele>392.1159075507894</ele>
        <time>2022-03-18T10:14:18Z</time>
      </trkpt>
      <trkpt lat="34.32807534987755" lon="108.99060306496763">
        <ele>391.9781747991219</ele>
        <time>2022-03-18T10:14:20Z</time>
      </trkpt>
      <trkpt lat="34.328026370541096" lon="108.9903740890285">
        <ele>393.2217188058421</ele>
        <time>2022-03-18T10:14:24Z</time>
      </trkpt>
      <trkpt lat="34.32798402632814" lon="108.98985608268012">
        <ele>394.3319054376334</ele>
        <time>2022-03-18T10:14:34Z</time>
      </trkpt>
      <trkpt lat="34.327909381673294" lon="108.9893736792436">
        <ele>394.6268460014835</ele>
        <time>2022-03-18T10:14:44Z</time>
      </trkpt>
      <trkpt lat="34.32791306452936" lon="108.98924331228599">
        <ele>393.20550299063325</ele>
        <time>2022-03-18T10:14:46Z</time>
      </trkpt>
      <trkpt lat="34.32787659413946" lon="108.98897184701468">
        <ele>393.2649617828429</ele>
        <time>2022-03-18T10:14:52Z</time>
      </trkpt>
      <trkpt lat="34.32788273925634" lon="108.98859290886712">
        <ele>390.88631181884557</ele>
        <time>2022-03-18T10:14:58Z</time>
      </trkpt>
      <trkpt lat="34.32786775074935" lon="108.98850727435428">
        <ele>391.5534091340378</ele>
        <time>2022-03-18T10:15:00Z</time>
      </trkpt>
      <trkpt lat="34.32786355426284" lon="108.98830203665081">
        <ele>393.5335166705772</ele>
        <time>2022-03-18T10:15:04Z</time>
      </trkpt>
      <trkpt lat="34.32789139332923" lon="108.98795323443554">
        <ele>394.490841338411</ele>
        <time>2022-03-18T10:15:10Z</time>
      </trkpt>
      <trkpt lat="34.327880600723674" lon="108.98786076300941">
        <ele>394.5648788511753</ele>
        <time>2022-03-18T10:15:12Z</time>
      </trkpt>
      <trkpt lat="34.327894104709266" lon="108.98775980881983">
        <ele>395.18771314807236</ele>
        <time>2022-03-18T10:15:14Z</time>
      </trkpt>
      <trkpt lat="34.32777764151306" lon="108.98760585172082">
        <ele>394.2102821748704</ele>
        <time>2022-03-18T10:15:18Z</time>
      </trkpt>
      <trkpt lat="34.32773151062993" lon="108.98728039868772">
        <ele>395.09804429113865</ele>
        <time>2022-03-18T10:15:25Z</time>
      </trkpt>
      <trkpt lat="34.327866115658665" lon="108.98663398563421">
        <ele>394.80442597717047</ele>
        <time>2022-03-18T10:15:33Z</time>
      </trkpt>
      <trkpt lat="34.32790277632166" lon="108.98619834302012">
        <ele>393.10195736121386</ele>
        <time>2022-03-18T10:15:39Z</time>
      </trkpt>
      <trkpt lat="34.32786794825805" lon="108.9860995560646">
        <ele>392.8240137351677</ele>
        <time>2022-03-18T10:15:41Z</time>
      </trkpt>
      <trkpt lat="34.32790444113496" lon="108.98568827014873">
        <ele>392.31950035784394</ele>
        <time>2022-03-18T10:15:47Z</time>
      </trkpt>
      <trkpt lat="34.32798394896304" lon="108.98514976984086">
        <ele>392.82126621808857</ele>
        <time>2022-03-18T10:15:55Z</time>
      </trkpt>
      <trkpt lat="34.328010760979545" lon="108.98480228960824">
        <ele>391.54489408712834</ele>
        <time>2022-03-18T10:16:01Z</time>
      </trkpt>
      <trkpt lat="34.3279781314396" lon="108.98464965715827">
        <ele>392.4527688845992</ele>
        <time>2022-03-18T10:16:05Z</time>
      </trkpt>
      <trkpt lat="34.327973985994525" lon="108.98453937464235">
        <ele>392.8642294704914</ele>
        <time>2022-03-18T10:16:09Z</time>
      </trkpt>
      <trkpt lat="34.32802001245494" lon="108.9844490694689">
        <ele>392.50201810803264</ele>
        <time>2022-03-18T10:16:11Z</time>
      </trkpt>
      <trkpt lat="34.32802001245494" lon="108.9844490694689">
        <ele>392.50201810803264</ele>
        <time>2022-03-18T10:16:17Z</time>
      </trkpt>
      <trkpt lat="34.32807990637354" lon="108.98405931959347">
        <ele>392.06602027639747</ele>
        <time>2022-03-18T10:16:36Z</time>
      </trkpt>
      <trkpt lat="34.328036452199285" lon="108.98351928094407">
        <ele>394.31119796074927</ele>
        <time>2022-03-18T10:16:52Z</time>
      </trkpt>
      <trkpt lat="34.32801591243436" lon="108.98330755118839">
        <ele>395.4407810168341</ele>
        <time>2022-03-18T10:17:00Z</time>
      </trkpt>
      <trkpt lat="34.32801952954045" lon="108.98293521835393">
        <ele>394.5131977656856</ele>
        <time>2022-03-18T10:17:12Z</time>
      </trkpt>
      <trkpt lat="34.32797862038798" lon="108.98281631251488">
        <ele>394.69285982940346</ele>
        <time>2022-03-18T10:17:16Z</time>
      </trkpt>
      <trkpt lat="34.32796819867673" lon="108.98253346575905">
        <ele>394.11484350729734</ele>
        <time>2022-03-18T10:17:24Z</time>
      </trkpt>
      <trkpt lat="34.32788704602115" lon="108.98218285335732">
        <ele>394.40754571557045</ele>
        <time>2022-03-18T10:17:35Z</time>
      </trkpt>
      <trkpt lat="34.327907446364684" lon="108.98204262745057">
        <ele>394.9448943566531</ele>
        <time>2022-03-18T10:17:39Z</time>
      </trkpt>
      <trkpt lat="34.327875281589954" lon="108.98193598557043">
        <ele>394.57333097886294</ele>
        <time>2022-03-18T10:17:43Z</time>
      </trkpt>
      <trkpt lat="34.327907470971525" lon="108.98183832542463">
        <ele>393.89486611634493</ele>
        <time>2022-03-18T10:17:49Z</time>
      </trkpt>
      <trkpt lat="34.32792022373017" lon="108.98169627525594">
        <ele>394.5032475627959</ele>
        <time>2022-03-18T10:17:55Z</time>
      </trkpt>
      <trkpt lat="34.32790850021649" lon="108.981430943259">
        <ele>394.29123109858483</ele>
        <time>2022-03-18T10:18:05Z</time>
      </trkpt>
      <trkpt lat="34.32792021083769" lon="108.98132458130863">
        <ele>394.21149191726</ele>
        <time>2022-03-18T10:18:09Z</time>
      </trkpt>
      <trkpt lat="34.32818330400496" lon="108.98097678603163">
        <ele>394.6044502137229</ele>
        <time>2022-03-18T10:18:25Z</time>
      </trkpt>
      <trkpt lat="34.32825001888325" lon="108.98092292290346">
        <ele>394.8397645559162</ele>
        <time>2022-03-18T10:18:31Z</time>
      </trkpt>
      <trkpt lat="34.32834992103364" lon="108.9809178304276">
        <ele>394.8630162924528</ele>
        <time>2022-03-18T10:18:37Z</time>
      </trkpt>
      <trkpt lat="34.328432749586675" lon="108.98088061265976">
        <ele>394.8253255179152</ele>
        <time>2022-03-18T10:18:41Z</time>
      </trkpt>
      <trkpt lat="34.32849053048464" lon="108.98082569599711">
        <ele>395.1502723302692</ele>
        <time>2022-03-18T10:18:45Z</time>
      </trkpt>
      <trkpt lat="34.32853479127502" lon="108.98072955895482">
        <ele>395.229109804146</ele>
        <time>2022-03-18T10:18:49Z</time>
      </trkpt>
      <trkpt lat="34.32856529648926" lon="108.9806075260137">
        <ele>395.68797516077757</ele>
        <time>2022-03-18T10:18:55Z</time>
      </trkpt>
      <trkpt lat="34.328572365561335" lon="108.98050745551838">
        <ele>395.85065716691315</ele>
        <time>2022-03-18T10:19:01Z</time>
      </trkpt>
      <trkpt lat="34.32859875040425" lon="108.98040822985743">
        <ele>395.7120387274772</ele>
        <time>2022-03-18T10:19:07Z</time>
      </trkpt>
      <trkpt lat="34.328677117706945" lon="108.98035784361325">
        <ele>395.659989179112</ele>
        <time>2022-03-18T10:19:17Z</time>
      </trkpt>
      <trkpt lat="34.32881638987889" lon="108.98039957839836">
        <ele>395.90831946674734</ele>
        <time>2022-03-18T10:19:25Z</time>
      </trkpt>
      <trkpt lat="34.32822116842849" lon="108.98042389133788">
        <ele>401.629337310791</ele>
        <time>2022-03-18T10:19:42Z</time>
      </trkpt>
      <trkpt lat="34.328436020266246" lon="108.9802968037222">
        <ele>403.0930995941162</ele>
        <time>2022-03-18T10:20:35Z</time>
      </trkpt>
      <trkpt lat="34.32822734627072" lon="108.98020323650523">
        <ele>400.5455379486084</ele>
        <time>2022-03-18T10:20:41Z</time>
      </trkpt>
      <trkpt lat="34.32822116842849" lon="108.98042389133788">
        <ele>398.585542678833</ele>
        <time>2022-03-18T10:21:54Z</time>
      </trkpt>
      <trkpt lat="34.32819174087723" lon="108.98015781505501">
        <ele>398.5317192077637</ele>
        <time>2022-03-18T10:22:11Z</time>
      </trkpt>
      <trkpt lat="34.32822116842849" lon="108.98042389133788">
        <ele>398.5432643890381</ele>
        <time>2022-03-18T10:22:14Z</time>
      </trkpt>
      <trkpt lat="34.32822116842849" lon="108.98042389133788">
        <ele>398.5432643890381</ele>
        <time>2022-03-18T10:22:20Z</time>
      </trkpt>
    </trkseg>
  </trk>
</gpx>