<?xml version="1.0" encoding="UTF-8"?>
<gpx xmlns="http://www.topografix.com/GPX/1/1" xmlns:gpxtpx="http://www.garmin.com/xmlschemas/TrackPointExtension/v1" xmlns:xsi="http://www.w3.org/2001/XMLSchema-instance" xsi:schemaLocation="http://www.topografix.com/GPX/1/1 http://www.topografix.com/GPX/1/1/gpx.xsd" version="1.1" creator="gpx.py -- https://github.com/tkrajina/gpxpy">
  <trk>
    <name>gpx from keep</name>
    <type>Ride</type>
    <trkseg>
      <trkpt lat="34.32831849840309" lon="108.98045680341009">
        <ele>510.8052673339844</ele>
        <time>2022-03-23T23:20:24Z</time>
      </trkpt>
      <trkpt lat="34.32834141364679" lon="108.98034512670611">
        <ele>510.8052673339844</ele>
        <time>2022-03-23T23:20:30Z</time>
      </trkpt>
      <trkpt lat="34.32835856061318" lon="108.98052059961226">
        <ele>503.2122497558594</ele>
        <time>2022-03-23T23:20:54Z</time>
      </trkpt>
      <trkpt lat="34.32850372665732" lon="108.98022006862479">
        <ele>458.7169189453125</ele>
        <time>2022-03-23T23:21:52Z</time>
      </trkpt>
      <trkpt lat="34.32857080140759" lon="108.9803893767553">
        <ele>444.0517883300781</ele>
        <time>2022-03-23T23:21:59Z</time>
      </trkpt>
      <trkpt lat="34.32873565910627" lon="108.98043777213248">
        <ele>433.3758544921875</ele>
        <time>2022-03-23T23:22:05Z</time>
      </trkpt>
      <trkpt lat="34.328892178786894" lon="108.98011711199402">
        <ele>426.5072326660156</ele>
        <time>2022-03-23T23:22:17Z</time>
      </trkpt>
      <trkpt lat="34.328735412864525" lon="108.98034911807328">
        <ele>424.56591796875</ele>
        <time>2022-03-23T23:22:23Z</time>
      </trkpt>
      <trkpt lat="34.32870093533206" lon="108.98046118352237">
        <ele>423.7530517578125</ele>
        <time>2022-03-23T23:22:29Z</time>
      </trkpt>
      <trkpt lat="34.32871455162098" lon="108.9806199873287">
        <ele>395.9223700082224</ele>
        <time>2022-03-23T23:22:31Z</time>
      </trkpt>
      <trkpt lat="34.328744425417796" lon="108.98071196829672">
        <ele>395.88178332294194</ele>
        <time>2022-03-23T23:22:33Z</time>
      </trkpt>
      <trkpt lat="34.328690670352636" lon="108.98080804803166">
        <ele>395.9552373267698</ele>
        <time>2022-03-23T23:22:38Z</time>
      </trkpt>
      <trkpt lat="34.32861620976126" lon="108.98085021630118">
        <ele>395.4034171551466</ele>
        <time>2022-03-23T23:22:50Z</time>
      </trkpt>
      <trkpt lat="34.32846583279678" lon="108.98081827152367">
        <ele>395.12760198581964</ele>
        <time>2022-03-23T23:22:59Z</time>
      </trkpt>
      <trkpt lat="34.32839319758023" lon="108.98078217700565">
        <ele>395.10696479305625</ele>
        <time>2022-03-23T23:23:04Z</time>
      </trkpt>
      <trkpt lat="34.32831546749606" lon="108.98079306971182">
        <ele>394.3823483623564</ele>
        <time>2022-03-23T23:23:11Z</time>
      </trkpt>
      <trkpt lat="34.32823600276454" lon="108.98083431758178">
        <ele>394.74930059257895</ele>
        <time>2022-03-23T23:23:16Z</time>
      </trkpt>
      <trkpt lat="34.32815143916938" lon="108.98095453480046">
        <ele>394.6386517724022</ele>
        <time>2022-03-23T23:23:34Z</time>
      </trkpt>
      <trkpt lat="34.32812539512111" lon="108.98112852831872">
        <ele>395.560701161623</ele>
        <time>2022-03-23T23:24:32Z</time>
      </trkpt>
      <trkpt lat="34.32818430153603" lon="108.98136747023176">
        <ele>394.9935908028856</ele>
        <time>2022-03-23T23:24:38Z</time>
      </trkpt>
      <trkpt lat="34.328170575539076" lon="108.98147457270343">
        <ele>395.68411597795784</ele>
        <time>2022-03-23T23:24:41Z</time>
      </trkpt>
      <trkpt lat="34.32820740241879" lon="108.98157407537715">
        <ele>395.68927614577115</ele>
        <time>2022-03-23T23:24:43Z</time>
      </trkpt>
      <trkpt lat="34.32821937275808" lon="108.98175859018662">
        <ele>394.4637152245268</ele>
        <time>2022-03-23T23:24:47Z</time>
      </trkpt>
      <trkpt lat="34.328193312351694" lon="108.98184322036265">
        <ele>394.5263439817354</ele>
        <time>2022-03-23T23:24:49Z</time>
      </trkpt>
      <trkpt lat="34.328186371585666" lon="108.9820585590965">
        <ele>395.58585928287357</ele>
        <time>2022-03-23T23:24:53Z</time>
      </trkpt>
      <trkpt lat="34.32813640755733" lon="108.98222360535921">
        <ele>394.28707377333194</ele>
        <time>2022-03-23T23:24:57Z</time>
      </trkpt>
      <trkpt lat="34.328125128177135" lon="108.98277476439338">
        <ele>393.25748946145177</ele>
        <time>2022-03-23T23:25:09Z</time>
      </trkpt>
      <trkpt lat="34.32812907488393" lon="108.98288022655333">
        <ele>393.07743496168405</ele>
        <time>2022-03-23T23:25:11Z</time>
      </trkpt>
      <trkpt lat="34.32810971984934" lon="108.9829772663552">
        <ele>393.02425823453814</ele>
        <time>2022-03-23T23:25:13Z</time>
      </trkpt>
      <trkpt lat="34.32811974988274" lon="108.98308807669008">
        <ele>392.94165878742933</ele>
        <time>2022-03-23T23:25:15Z</time>
      </trkpt>
      <trkpt lat="34.32810993938493" lon="108.98318778781498">
        <ele>392.38239261880517</ele>
        <time>2022-03-23T23:25:17Z</time>
      </trkpt>
      <trkpt lat="34.32813846694386" lon="108.98339911470026">
        <ele>392.7948336182162</ele>
        <time>2022-03-23T23:25:21Z</time>
      </trkpt>
      <trkpt lat="34.32812538247056" lon="108.98348893483632">
        <ele>392.2176156723872</ele>
        <time>2022-03-23T23:25:23Z</time>
      </trkpt>
      <trkpt lat="34.32815832952288" lon="108.98360138560109">
        <ele>392.5158849339932</ele>
        <time>2022-03-23T23:25:25Z</time>
      </trkpt>
      <trkpt lat="34.328159750714164" lon="108.98378154139695">
        <ele>392.4569836053997</ele>
        <time>2022-03-23T23:25:29Z</time>
      </trkpt>
      <trkpt lat="34.32817853467098" lon="108.98389968503729">
        <ele>391.53884557727724</ele>
        <time>2022-03-23T23:25:33Z</time>
      </trkpt>
      <trkpt lat="34.32816677434565" lon="108.98391482205702">
        <ele>391.52839385252446</ele>
        <time>2022-03-23T23:25:47Z</time>
      </trkpt>
      <trkpt lat="34.32802115125926" lon="108.98410796109472">
        <ele>392.05300270486623</ele>
        <time>2022-03-23T23:26:08Z</time>
      </trkpt>
      <trkpt lat="34.327884296469115" lon="108.98443860973794">
        <ele>391.81922283023596</ele>
        <time>2022-03-23T23:26:16Z</time>
      </trkpt>
      <trkpt lat="34.32785710929247" lon="108.98476574545994">
        <ele>392.4703213237226</ele>
        <time>2022-03-23T23:26:24Z</time>
      </trkpt>
      <trkpt lat="34.32788251088753" lon="108.98495226798627">
        <ele>390.63917096704245</ele>
        <time>2022-03-23T23:26:28Z</time>
      </trkpt>
      <trkpt lat="34.32787067101102" lon="108.98504563936753">
        <ele>388.62725340854377</ele>
        <time>2022-03-23T23:26:30Z</time>
      </trkpt>
      <trkpt lat="34.32796032269774" lon="108.985416876857">
        <ele>391.32212776038796</ele>
        <time>2022-03-23T23:26:38Z</time>
      </trkpt>
      <trkpt lat="34.3279842813904" lon="108.98564211904048">
        <ele>391.72539640776813</ele>
        <time>2022-03-23T23:26:42Z</time>
      </trkpt>
      <trkpt lat="34.32795433859353" lon="108.98620053292494">
        <ele>391.4520209217444</ele>
        <time>2022-03-23T23:26:55Z</time>
      </trkpt>
      <trkpt lat="34.32793172651352" lon="108.98636595480711">
        <ele>391.97519483976066</ele>
        <time>2022-03-23T23:26:59Z</time>
      </trkpt>
      <trkpt lat="34.32790047114576" lon="108.98645828507041">
        <ele>391.7715475894511</ele>
        <time>2022-03-23T23:27:01Z</time>
      </trkpt>
      <trkpt lat="34.3279012103368" lon="108.98673450576698">
        <ele>392.52715433295816</ele>
        <time>2022-03-23T23:27:07Z</time>
      </trkpt>
      <trkpt lat="34.327887659813214" lon="108.98681982461466">
        <ele>393.2752417670563</ele>
        <time>2022-03-23T23:27:09Z</time>
      </trkpt>
      <trkpt lat="34.327925784094894" lon="108.98734532888228">
        <ele>393.50124174170196</ele>
        <time>2022-03-23T23:27:19Z</time>
      </trkpt>
      <trkpt lat="34.32793999428521" lon="108.98753847874835">
        <ele>395.3451194856316</ele>
        <time>2022-03-23T23:27:23Z</time>
      </trkpt>
      <trkpt lat="34.327932826162396" lon="108.98786370971557">
        <ele>393.48817764688283</ele>
        <time>2022-03-23T23:27:29Z</time>
      </trkpt>
      <trkpt lat="34.32798069648763" lon="108.9881504063368">
        <ele>393.005999119021</ele>
        <time>2022-03-23T23:27:35Z</time>
      </trkpt>
      <trkpt lat="34.32791399787299" lon="108.988624942033">
        <ele>392.52451906260103</ele>
        <time>2022-03-23T23:27:45Z</time>
      </trkpt>
      <trkpt lat="34.32789697624022" lon="108.98923950052814">
        <ele>391.60636381059885</ele>
        <time>2022-03-23T23:27:57Z</time>
      </trkpt>
      <trkpt lat="34.327891901689874" lon="108.98944013520794">
        <ele>392.9401754690334</ele>
        <time>2022-03-23T23:28:01Z</time>
      </trkpt>
      <trkpt lat="34.327856248721176" lon="108.98974560394387">
        <ele>391.17143847886473</ele>
        <time>2022-03-23T23:28:07Z</time>
      </trkpt>
      <trkpt lat="34.32784708668623" lon="108.9902652293914">
        <ele>392.1800970528275</ele>
        <time>2022-03-23T23:28:21Z</time>
      </trkpt>
      <trkpt lat="34.327833233523826" lon="108.99031914643227">
        <ele>392.03057092987</ele>
        <time>2022-03-23T23:28:33Z</time>
      </trkpt>
      <trkpt lat="34.32778648985134" lon="108.99066503120844">
        <ele>392.8783148806542</ele>
        <time>2022-03-23T23:29:16Z</time>
      </trkpt>
      <trkpt lat="34.327779380706026" lon="108.99095105989664">
        <ele>393.76825960259885</ele>
        <time>2022-03-23T23:29:22Z</time>
      </trkpt>
      <trkpt lat="34.327853601445035" lon="108.9915507319024">
        <ele>392.8660690113902</ele>
        <time>2022-03-23T23:29:34Z</time>
      </trkpt>
      <trkpt lat="34.3278442559877" lon="108.99215417862015">
        <ele>390.7550933463499</ele>
        <time>2022-03-23T23:29:48Z</time>
      </trkpt>
      <trkpt lat="34.32788108707782" lon="108.99271054439579">
        <ele>391.00971290655434</ele>
        <time>2022-03-23T23:30:00Z</time>
      </trkpt>
      <trkpt lat="34.32786325301142" lon="108.99331840257648">
        <ele>391.89140532072634</ele>
        <time>2022-03-23T23:30:12Z</time>
      </trkpt>
      <trkpt lat="34.327883695733505" lon="108.99384380531104">
        <ele>391.9056939231232</ele>
        <time>2022-03-23T23:30:22Z</time>
      </trkpt>
      <trkpt lat="34.32790936119258" lon="108.99433824392072">
        <ele>392.73692075163126</ele>
        <time>2022-03-23T23:30:32Z</time>
      </trkpt>
      <trkpt lat="34.32791593186815" lon="108.99496096134764">
        <ele>392.5914836982265</ele>
        <time>2022-03-23T23:30:44Z</time>
      </trkpt>
      <trkpt lat="34.327914365222306" lon="108.99550141965682">
        <ele>393.19069414865226</ele>
        <time>2022-03-23T23:30:54Z</time>
      </trkpt>
      <trkpt lat="34.32791424549933" lon="108.99575428964214">
        <ele>392.02429694030434</ele>
        <time>2022-03-23T23:30:59Z</time>
      </trkpt>
      <trkpt lat="34.32789999219314" lon="108.99624531940206">
        <ele>393.7935589523986</ele>
        <time>2022-03-23T23:31:09Z</time>
      </trkpt>
      <trkpt lat="34.32790903575577" lon="108.99645688562472">
        <ele>393.0566479358822</ele>
        <time>2022-03-23T23:31:13Z</time>
      </trkpt>
      <trkpt lat="34.32786088064169" lon="108.996985458146">
        <ele>393.7275327872485</ele>
        <time>2022-03-23T23:31:23Z</time>
      </trkpt>
      <trkpt lat="34.327827560050295" lon="108.99752495812746">
        <ele>394.08421356230974</ele>
        <time>2022-03-23T23:31:33Z</time>
      </trkpt>
      <trkpt lat="34.327829740406685" lon="108.9981330085314">
        <ele>393.9638996422291</ele>
        <time>2022-03-23T23:31:44Z</time>
      </trkpt>
      <trkpt lat="34.327858412171686" lon="108.99845820692317">
        <ele>394.3145744455978</ele>
        <time>2022-03-23T23:31:50Z</time>
      </trkpt>
      <trkpt lat="34.32783650072703" lon="108.99867175307276">
        <ele>393.72390332631767</ele>
        <time>2022-03-23T23:31:54Z</time>
      </trkpt>
      <trkpt lat="34.32783072362907" lon="108.99897555654337">
        <ele>393.6533512873575</ele>
        <time>2022-03-23T23:32:00Z</time>
      </trkpt>
      <trkpt lat="34.32779844625603" lon="108.99916260091437">
        <ele>392.482540181838</ele>
        <time>2022-03-23T23:32:04Z</time>
      </trkpt>
      <trkpt lat="34.327819057662566" lon="108.99969319910343">
        <ele>392.9771639620885</ele>
        <time>2022-03-23T23:32:14Z</time>
      </trkpt>
      <trkpt lat="34.32782325970553" lon="109.00022604939402">
        <ele>393.27681892644614</ele>
        <time>2022-03-23T23:32:24Z</time>
      </trkpt>
      <trkpt lat="34.32782874841003" lon="109.00056333417571">
        <ele>393.0110347410664</ele>
        <time>2022-03-23T23:32:30Z</time>
      </trkpt>
      <trkpt lat="34.32784313234653" lon="109.00068064780828">
        <ele>393.7214753283188</ele>
        <time>2022-03-23T23:32:32Z</time>
      </trkpt>
      <trkpt lat="34.32782909174938" lon="109.00090237831427">
        <ele>393.5524293631315</ele>
        <time>2022-03-23T23:32:36Z</time>
      </trkpt>
      <trkpt lat="34.327851806102615" lon="109.00112089362618">
        <ele>392.93988684751093</ele>
        <time>2022-03-23T23:32:40Z</time>
      </trkpt>
      <trkpt lat="34.32784754992174" lon="109.00133008096094">
        <ele>393.4137809192762</ele>
        <time>2022-03-23T23:32:44Z</time>
      </trkpt>
      <trkpt lat="34.32783022564369" lon="109.00143445643403">
        <ele>391.7898439299315</ele>
        <time>2022-03-23T23:32:46Z</time>
      </trkpt>
      <trkpt lat="34.32784013550858" lon="109.00155595571763">
        <ele>392.77361722290516</ele>
        <time>2022-03-23T23:32:48Z</time>
      </trkpt>
      <trkpt lat="34.327806993937784" lon="109.00186226744238">
        <ele>392.2903844062239</ele>
        <time>2022-03-23T23:32:54Z</time>
      </trkpt>
      <trkpt lat="34.32780309000263" lon="109.0020633268876">
        <ele>392.17764972615987</ele>
        <time>2022-03-23T23:32:58Z</time>
      </trkpt>
      <trkpt lat="34.32784163696" lon="109.00254466395188">
        <ele>392.95852222293615</ele>
        <time>2022-03-23T23:33:07Z</time>
      </trkpt>
      <trkpt lat="34.32781191901709" lon="109.00272183931968">
        <ele>393.85731969960034</ele>
        <time>2022-03-23T23:33:11Z</time>
      </trkpt>
      <trkpt lat="34.32782421388257" lon="109.00293554973723">
        <ele>394.3294534860179</ele>
        <time>2022-03-23T23:33:15Z</time>
      </trkpt>
      <trkpt lat="34.32781191426877" lon="109.00302404238869">
        <ele>393.2786928266287</ele>
        <time>2022-03-23T23:33:17Z</time>
      </trkpt>
      <trkpt lat="34.32782097795887" lon="109.00342737719576">
        <ele>393.1789199002087</ele>
        <time>2022-03-23T23:33:25Z</time>
      </trkpt>
      <trkpt lat="34.32781883707951" lon="109.00385023620274">
        <ele>393.0800445144996</ele>
        <time>2022-03-23T23:33:33Z</time>
      </trkpt>
      <trkpt lat="34.32785670425364" lon="109.0041706186792">
        <ele>393.55633226037025</ele>
        <time>2022-03-23T23:33:39Z</time>
      </trkpt>
      <trkpt lat="34.32787234115232" lon="109.00455405525723">
        <ele>395.5752009348944</ele>
        <time>2022-03-23T23:33:47Z</time>
      </trkpt>
      <trkpt lat="34.32780582714762" lon="109.00464840397844">
        <ele>393.75425930321217</ele>
        <time>2022-03-23T23:33:49Z</time>
      </trkpt>
      <trkpt lat="34.32778334272268" lon="109.0051437576504">
        <ele>392.6694651460275</ele>
        <time>2022-03-23T23:34:01Z</time>
      </trkpt>
      <trkpt lat="34.32774906423841" lon="109.00541719397582">
        <ele>391.1651112725958</ele>
        <time>2022-03-23T23:34:07Z</time>
      </trkpt>
      <trkpt lat="34.32777551584417" lon="109.00551614805673">
        <ele>392.24278505239636</ele>
        <time>2022-03-23T23:34:09Z</time>
      </trkpt>
      <trkpt lat="34.32776881364478" lon="109.0058971819929">
        <ele>392.6119093503803</ele>
        <time>2022-03-23T23:34:17Z</time>
      </trkpt>
      <trkpt lat="34.327806115264856" lon="109.00644027727029">
        <ele>394.31962704472244</ele>
        <time>2022-03-23T23:34:27Z</time>
      </trkpt>
      <trkpt lat="34.32783637856084" lon="109.00676307715746">
        <ele>394.6472173174843</ele>
        <time>2022-03-23T23:34:33Z</time>
      </trkpt>
      <trkpt lat="34.327718691360914" lon="109.00690542882116">
        <ele>392.9522374756634</ele>
        <time>2022-03-23T23:34:49Z</time>
      </trkpt>
      <trkpt lat="34.32773634359683" lon="109.0071781455756">
        <ele>394.4458327041939</ele>
        <time>2022-03-23T23:35:36Z</time>
      </trkpt>
      <trkpt lat="34.327773625732796" lon="109.00726895687106">
        <ele>395.0085610533133</ele>
        <time>2022-03-23T23:35:38Z</time>
      </trkpt>
      <trkpt lat="34.32780718922185" lon="109.0074725938306">
        <ele>394.2278061863035</ele>
        <time>2022-03-23T23:35:42Z</time>
      </trkpt>
      <trkpt lat="34.32782935311777" lon="109.00771821692652">
        <ele>393.9185539148748</ele>
        <time>2022-03-23T23:35:46Z</time>
      </trkpt>
      <trkpt lat="34.32782899347451" lon="109.00824573028927">
        <ele>393.36062082927674</ele>
        <time>2022-03-23T23:35:54Z</time>
      </trkpt>
      <trkpt lat="34.32784107613928" lon="109.00878893131977">
        <ele>392.0610413663089</ele>
        <time>2022-03-23T23:36:02Z</time>
      </trkpt>
      <trkpt lat="34.32782971428436" lon="109.00932806419556">
        <ele>390.586339564994</ele>
        <time>2022-03-23T23:36:10Z</time>
      </trkpt>
      <trkpt lat="34.327827062932954" lon="109.00997432489396">
        <ele>385.88168276753277</ele>
        <time>2022-03-23T23:36:20Z</time>
      </trkpt>
      <trkpt lat="34.32783588094798" lon="109.0105012134521">
        <ele>385.8676763381809</ele>
        <time>2022-03-23T23:36:28Z</time>
      </trkpt>
      <trkpt lat="34.327815514829446" lon="109.01086447821615">
        <ele>384.9267015270889</ele>
        <time>2022-03-23T23:36:34Z</time>
      </trkpt>
      <trkpt lat="34.32779762410404" lon="109.01096245671123">
        <ele>384.78545244876295</ele>
        <time>2022-03-23T23:36:36Z</time>
      </trkpt>
      <trkpt lat="34.32781062186078" lon="109.01153946726137">
        <ele>387.0064974920824</ele>
        <time>2022-03-23T23:36:46Z</time>
      </trkpt>
      <trkpt lat="34.327823039569715" lon="109.01200126020605">
        <ele>386.5357534009963</ele>
        <time>2022-03-23T23:36:54Z</time>
      </trkpt>
      <trkpt lat="34.327839212170375" lon="109.01256064115333">
        <ele>388.03629385959357</ele>
        <time>2022-03-23T23:37:04Z</time>
      </trkpt>
      <trkpt lat="34.32781578233105" lon="109.01265671927437">
        <ele>388.82955403160304</ele>
        <time>2022-03-23T23:37:06Z</time>
      </trkpt>
      <trkpt lat="34.32782855629197" lon="109.01330574662303">
        <ele>389.74219135195017</ele>
        <time>2022-03-23T23:37:17Z</time>
      </trkpt>
      <trkpt lat="34.327851960465885" lon="109.01388577653998">
        <ele>388.6160068558529</ele>
        <time>2022-03-23T23:37:27Z</time>
      </trkpt>
      <trkpt lat="34.327845531955056" lon="109.01444088897534">
        <ele>386.20882589090616</ele>
        <time>2022-03-23T23:37:37Z</time>
      </trkpt>
      <trkpt lat="34.327883123492775" lon="109.01503925083367">
        <ele>387.2286251829937</ele>
        <time>2022-03-23T23:37:47Z</time>
      </trkpt>
      <trkpt lat="34.32787650372454" lon="109.01525777406735">
        <ele>386.98892978113145</ele>
        <time>2022-03-23T23:37:51Z</time>
      </trkpt>
      <trkpt lat="34.32789084633449" lon="109.0153801731766">
        <ele>386.80949967261404</ele>
        <time>2022-03-23T23:37:53Z</time>
      </trkpt>
      <trkpt lat="34.32789262387165" lon="109.01568285360504">
        <ele>387.6213045557961</ele>
        <time>2022-03-23T23:37:59Z</time>
      </trkpt>
      <trkpt lat="34.327804925821475" lon="109.01627168285732">
        <ele>386.4220284856856</ele>
        <time>2022-03-23T23:38:11Z</time>
      </trkpt>
      <trkpt lat="34.32774611763039" lon="109.01678936479108">
        <ele>386.9764099344611</ele>
        <time>2022-03-23T23:38:21Z</time>
      </trkpt>
      <trkpt lat="34.32759170114204" lon="109.01739204380866">
        <ele>387.7354032015428</ele>
        <time>2022-03-23T23:38:33Z</time>
      </trkpt>
      <trkpt lat="34.32755389546564" lon="109.01792535959065">
        <ele>388.03985766880214</ele>
        <time>2022-03-23T23:38:43Z</time>
      </trkpt>
      <trkpt lat="34.32760036611358" lon="109.0183290798074">
        <ele>388.77095959801227</ele>
        <time>2022-03-23T23:38:51Z</time>
      </trkpt>
      <trkpt lat="34.32758885400326" lon="109.01843059154425">
        <ele>387.4330236297101</ele>
        <time>2022-03-23T23:38:53Z</time>
      </trkpt>
      <trkpt lat="34.32755022732438" lon="109.01852151316767">
        <ele>388.74769833218306</ele>
        <time>2022-03-23T23:38:55Z</time>
      </trkpt>
      <trkpt lat="34.327248694160474" lon="109.0190074245426">
        <ele>389.1588880950585</ele>
        <time>2022-03-23T23:39:07Z</time>
      </trkpt>
      <trkpt lat="34.32697739854278" lon="109.01944942996714">
        <ele>388.7070162296295</ele>
        <time>2022-03-23T23:39:17Z</time>
      </trkpt>
      <trkpt lat="34.32686985652194" lon="109.01962511924275">
        <ele>388.4475015187636</ele>
        <time>2022-03-23T23:39:21Z</time>
      </trkpt>
      <trkpt lat="34.32655468528662" lon="109.02006225914684">
        <ele>388.44798181951046</ele>
        <time>2022-03-23T23:39:31Z</time>
      </trkpt>
      <trkpt lat="34.32620427896755" lon="109.0204436831525">
        <ele>387.149834504351</ele>
        <time>2022-03-23T23:39:41Z</time>
      </trkpt>
      <trkpt lat="34.325903881646795" lon="109.0207380459235">
        <ele>387.16941631399095</ele>
        <time>2022-03-23T23:39:49Z</time>
      </trkpt>
      <trkpt lat="34.32552934119286" lon="109.0210105929537">
        <ele>387.2651084549725</ele>
        <time>2022-03-23T23:39:59Z</time>
      </trkpt>
      <trkpt lat="34.32521684964256" lon="109.02120520518848">
        <ele>387.8295054817572</ele>
        <time>2022-03-23T23:40:07Z</time>
      </trkpt>
      <trkpt lat="34.32479588359117" lon="109.02141881554499">
        <ele>387.3819960206747</ele>
        <time>2022-03-23T23:40:17Z</time>
      </trkpt>
      <trkpt lat="34.324438137523366" lon="109.02155550677891">
        <ele>387.9984679063782</ele>
        <time>2022-03-23T23:40:25Z</time>
      </trkpt>
      <trkpt lat="34.32416599419273" lon="109.02161462200701">
        <ele>386.5860962923616</ele>
        <time>2022-03-23T23:40:31Z</time>
      </trkpt>
      <trkpt lat="34.32399250503372" lon="109.0216692209809">
        <ele>387.15835327655077</ele>
        <time>2022-03-23T23:40:35Z</time>
      </trkpt>
      <trkpt lat="34.323545098885475" lon="109.02170202842719">
        <ele>388.2387096770108</ele>
        <time>2022-03-23T23:40:45Z</time>
      </trkpt>
      <trkpt lat="34.323081898428114" lon="109.02171135350582">
        <ele>388.4720818307251</ele>
        <time>2022-03-23T23:40:55Z</time>
      </trkpt>
      <trkpt lat="34.32262139267095" lon="109.02173751663805">
        <ele>388.40348812099546</ele>
        <time>2022-03-23T23:41:05Z</time>
      </trkpt>
      <trkpt lat="34.32235637541602" lon="109.02169359760973">
        <ele>388.25466032046825</ele>
        <time>2022-03-23T23:41:11Z</time>
      </trkpt>
      <trkpt lat="34.32225833391578" lon="109.02170293774088">
        <ele>388.1941821593791</ele>
        <time>2022-03-23T23:41:13Z</time>
      </trkpt>
      <trkpt lat="34.32190289285151" lon="109.02165079892227">
        <ele>388.1181012224406</ele>
        <time>2022-03-23T23:41:21Z</time>
      </trkpt>
      <trkpt lat="34.32181705588435" lon="109.02161413691607">
        <ele>389.251573426649</ele>
        <time>2022-03-23T23:41:23Z</time>
      </trkpt>
      <trkpt lat="34.32137469324855" lon="109.02154840350414">
        <ele>388.7659972496331</ele>
        <time>2022-03-23T23:41:33Z</time>
      </trkpt>
      <trkpt lat="34.32091079187012" lon="109.0214861553429">
        <ele>389.6084538511932</ele>
        <time>2022-03-23T23:41:43Z</time>
      </trkpt>
      <trkpt lat="34.320614839495676" lon="109.02147286341554">
        <ele>391.40728754829615</ele>
        <time>2022-03-23T23:41:49Z</time>
      </trkpt>
      <trkpt lat="34.32016649654219" lon="109.02138559690695">
        <ele>389.2971965605393</ele>
        <time>2022-03-23T23:41:59Z</time>
      </trkpt>
      <trkpt lat="34.319725430373495" lon="109.02133856117344">
        <ele>389.0244981003925</ele>
        <time>2022-03-23T23:42:09Z</time>
      </trkpt>
      <trkpt lat="34.319246861492765" lon="109.02134751236073">
        <ele>389.36763406544924</ele>
        <time>2022-03-23T23:42:19Z</time>
      </trkpt>
      <trkpt lat="34.31878399718675" lon="109.02136205718426">
        <ele>389.39167183823884</ele>
        <time>2022-03-23T23:42:29Z</time>
      </trkpt>
      <trkpt lat="34.31850367823372" lon="109.02141347324175">
        <ele>389.56921808142215</ele>
        <time>2022-03-23T23:42:35Z</time>
      </trkpt>
      <trkpt lat="34.31820700847988" lon="109.0214221607644">
        <ele>389.86634234525263</ele>
        <time>2022-03-23T23:42:41Z</time>
      </trkpt>
      <trkpt lat="34.31771588695128" lon="109.02147778611733">
        <ele>390.0474459063262</ele>
        <time>2022-03-23T23:42:51Z</time>
      </trkpt>
      <trkpt lat="34.317238670603096" lon="109.02152723843005">
        <ele>391.07515789195895</ele>
        <time>2022-03-23T23:43:01Z</time>
      </trkpt>
      <trkpt lat="34.316958315897644" lon="109.02156454268652">
        <ele>390.61639385670424</ele>
        <time>2022-03-23T23:43:07Z</time>
      </trkpt>
      <trkpt lat="34.31658177822233" lon="109.02164846825931">
        <ele>390.3283975208178</ele>
        <time>2022-03-23T23:43:15Z</time>
      </trkpt>
      <trkpt lat="34.31639608399339" lon="109.02172701014084">
        <ele>389.70645673945546</ele>
        <time>2022-03-23T23:43:19Z</time>
      </trkpt>
      <trkpt lat="34.31629942401982" lon="109.02174268075433">
        <ele>389.80396923143417</ele>
        <time>2022-03-23T23:43:21Z</time>
      </trkpt>
      <trkpt lat="34.31621264692409" lon="109.02178880768335">
        <ele>390.1546323429793</ele>
        <time>2022-03-23T23:43:23Z</time>
      </trkpt>
      <trkpt lat="34.31613734756994" lon="109.02185522694111">
        <ele>390.51325191464275</ele>
        <time>2022-03-23T23:43:25Z</time>
      </trkpt>
      <trkpt lat="34.31606908313568" lon="109.02205143344136">
        <ele>390.7948573175818</ele>
        <time>2022-03-23T23:43:29Z</time>
      </trkpt>
      <trkpt lat="34.3158997037102" lon="109.02215350164738">
        <ele>391.53517311252654</ele>
        <time>2022-03-23T23:43:35Z</time>
      </trkpt>
      <trkpt lat="34.315855860416164" lon="109.0222195542355">
        <ele>390.29094333574176</ele>
        <time>2022-03-23T23:43:45Z</time>
      </trkpt>
      <trkpt lat="34.31574140009711" lon="109.02244656164578">
        <ele>389.7789889993146</ele>
        <time>2022-03-23T23:44:25Z</time>
      </trkpt>
      <trkpt lat="34.31573256087045" lon="109.02254221822989">
        <ele>390.1237978702411</ele>
        <time>2022-03-23T23:44:27Z</time>
      </trkpt>
      <trkpt lat="34.3159291376816" lon="109.0230385376183">
        <ele>388.73980233911425</ele>
        <time>2022-03-23T23:44:39Z</time>
      </trkpt>
      <trkpt lat="34.315997283807896" lon="109.0232873140996">
        <ele>387.55308894906193</ele>
        <time>2022-03-23T23:44:47Z</time>
      </trkpt>
      <trkpt lat="34.315975275881755" lon="109.02350646212521">
        <ele>387.27593707479537</ele>
        <time>2022-03-23T23:44:55Z</time>
      </trkpt>
      <trkpt lat="34.31584666789149" lon="109.02364359785386">
        <ele>387.06475703511387</ele>
        <time>2022-03-23T23:45:03Z</time>
      </trkpt>
      <trkpt lat="34.31544058797163" lon="109.02391045748573">
        <ele>387.6014810008928</ele>
        <time>2022-03-23T23:45:19Z</time>
      </trkpt>
      <trkpt lat="34.31510298189201" lon="109.02409641188757">
        <ele>387.33222333341837</ele>
        <time>2022-03-23T23:45:31Z</time>
      </trkpt>
      <trkpt lat="34.315008224960614" lon="109.0242239374544">
        <ele>387.6248266743496</ele>
        <time>2022-03-23T23:45:35Z</time>
      </trkpt>
      <trkpt lat="34.31491819762317" lon="109.02431104208088">
        <ele>387.76507694646716</ele>
        <time>2022-03-23T23:45:39Z</time>
      </trkpt>
      <trkpt lat="34.31455730382116" lon="109.02438906191564">
        <ele>388.43414806202054</ele>
        <time>2022-03-23T23:45:51Z</time>
      </trkpt>
      <trkpt lat="34.31442718998706" lon="109.02439682134623">
        <ele>387.9760698080063</ele>
        <time>2022-03-23T23:45:55Z</time>
      </trkpt>
      <trkpt lat="34.314198797717445" lon="109.02450075491599">
        <ele>388.2809167839587</ele>
        <time>2022-03-23T23:46:03Z</time>
      </trkpt>
      <trkpt lat="34.31396516013874" lon="109.02457989843292">
        <ele>387.20127673354</ele>
        <time>2022-03-23T23:46:11Z</time>
      </trkpt>
      <trkpt lat="34.31386592011701" lon="109.0246441491011">
        <ele>386.4110515443608</ele>
        <time>2022-03-23T23:46:15Z</time>
      </trkpt>
      <trkpt lat="34.31366892127124" lon="109.02469959945844">
        <ele>385.6860474795103</ele>
        <time>2022-03-23T23:46:23Z</time>
      </trkpt>
      <trkpt lat="34.31349741172546" lon="109.02483997174693">
        <ele>385.1520887799561</ele>
        <time>2022-03-23T23:46:31Z</time>
      </trkpt>
      <trkpt lat="34.31333223776494" lon="109.02486646737005">
        <ele>385.7510610707104</ele>
        <time>2022-03-23T23:46:35Z</time>
      </trkpt>
      <trkpt lat="34.313268906959614" lon="109.02491497112912">
        <ele>386.48030409403145</ele>
        <time>2022-03-23T23:46:37Z</time>
      </trkpt>
      <trkpt lat="34.31306474665361" lon="109.02519581454045">
        <ele>386.7590924743563</ele>
        <time>2022-03-23T23:46:45Z</time>
      </trkpt>
      <trkpt lat="34.31292851281621" lon="109.02548221701427">
        <ele>388.73021758906543</ele>
        <time>2022-03-23T23:46:51Z</time>
      </trkpt>
      <trkpt lat="34.31281388130626" lon="109.02562548071411">
        <ele>390.56203093007207</ele>
        <time>2022-03-23T23:46:55Z</time>
      </trkpt>
      <trkpt lat="34.312677678160576" lon="109.02590034088195">
        <ele>390.1916403826326</ele>
        <time>2022-03-23T23:47:01Z</time>
      </trkpt>
      <trkpt lat="34.312550665534374" lon="109.02629167605706">
        <ele>391.1308307610452</ele>
        <time>2022-03-23T23:47:09Z</time>
      </trkpt>
      <trkpt lat="34.31244669735141" lon="109.02643221848483">
        <ele>391.59409639332443</ele>
        <time>2022-03-23T23:47:13Z</time>
      </trkpt>
      <trkpt lat="34.3123100276069" lon="109.026551140079">
        <ele>392.01823274232447</ele>
        <time>2022-03-23T23:47:17Z</time>
      </trkpt>
      <trkpt lat="34.31191183029194" lon="109.02694170077471">
        <ele>390.02951344661415</ele>
        <time>2022-03-23T23:47:31Z</time>
      </trkpt>
      <trkpt lat="34.31144747457331" lon="109.02726438635138">
        <ele>390.8698245184496</ele>
        <time>2022-03-23T23:47:47Z</time>
      </trkpt>
      <trkpt lat="34.31110266403791" lon="109.02744989187379">
        <ele>390.0660475138575</ele>
        <time>2022-03-23T23:47:59Z</time>
      </trkpt>
      <trkpt lat="34.3109058264093" lon="109.02760167511867">
        <ele>388.3778731217608</ele>
        <time>2022-03-23T23:48:07Z</time>
      </trkpt>
      <trkpt lat="34.31069310220364" lon="109.02769522863818">
        <ele>387.4124532453716</ele>
        <time>2022-03-23T23:48:15Z</time>
      </trkpt>
      <trkpt lat="34.310465699388786" lon="109.02774050249437">
        <ele>386.3911016508937</ele>
        <time>2022-03-23T23:48:23Z</time>
      </trkpt>
      <trkpt lat="34.31035317803302" lon="109.02778919768471">
        <ele>386.5964698139578</ele>
        <time>2022-03-23T23:48:27Z</time>
      </trkpt>
      <trkpt lat="34.31005239709172" lon="109.02780232179803">
        <ele>387.3747245725244</ele>
        <time>2022-03-23T23:48:37Z</time>
      </trkpt>
      <trkpt lat="34.30997493652878" lon="109.0278506266663">
        <ele>387.2650545928627</ele>
        <time>2022-03-23T23:48:41Z</time>
      </trkpt>
      <trkpt lat="34.30822096912597" lon="109.0304428856325">
        <ele>395.9490213217214</ele>
        <time>2022-03-23T23:48:43Z</time>
      </trkpt>
      <trkpt lat="34.30804768587918" lon="109.03044154730689">
        <ele>395.3435439383611</ele>
        <time>2022-03-23T23:48:47Z</time>
      </trkpt>
      <trkpt lat="34.30742810703759" lon="109.03057992322202">
        <ele>394.49489178787917</ele>
        <time>2022-03-23T23:48:57Z</time>
      </trkpt>
      <trkpt lat="34.30692838560836" lon="109.03067101524333">
        <ele>392.11936460621655</ele>
        <time>2022-03-23T23:49:05Z</time>
      </trkpt>
      <trkpt lat="34.30668674819206" lon="109.03068495228179">
        <ele>391.3178847525269</ele>
        <time>2022-03-23T23:49:09Z</time>
      </trkpt>
      <trkpt lat="34.30638683920327" lon="109.030747256188">
        <ele>391.12828388623893</ele>
        <time>2022-03-23T23:49:15Z</time>
      </trkpt>
      <trkpt lat="34.306162937574015" lon="109.03074272916017">
        <ele>390.1245453758165</ele>
        <time>2022-03-23T23:49:23Z</time>
      </trkpt>
      <trkpt lat="34.30615432974635" lon="109.03077179505593">
        <ele>392.419885979034</ele>
        <time>2022-03-23T23:49:31Z</time>
      </trkpt>
      <trkpt lat="34.30614099229087" lon="109.03096276598112">
        <ele>391.4630205389112</ele>
        <time>2022-03-23T23:49:56Z</time>
      </trkpt>
      <trkpt lat="34.306213109636346" lon="109.03114293905293">
        <ele>391.97334742266685</ele>
        <time>2022-03-23T23:50:01Z</time>
      </trkpt>
      <trkpt lat="34.306243287838676" lon="109.03143058081703">
        <ele>391.467012533918</ele>
        <time>2022-03-23T23:50:07Z</time>
      </trkpt>
      <trkpt lat="34.30630286581456" lon="109.03172471208914">
        <ele>390.43015126977116</ele>
        <time>2022-03-23T23:50:13Z</time>
      </trkpt>
      <trkpt lat="34.30629297488113" lon="109.03191165464055">
        <ele>390.02825209870934</ele>
        <time>2022-03-23T23:50:17Z</time>
      </trkpt>
      <trkpt lat="34.30631612804378" lon="109.03234378863013">
        <ele>390.2598707526922</ele>
        <time>2022-03-23T23:50:25Z</time>
      </trkpt>
      <trkpt lat="34.30638320498005" lon="109.03290059074024">
        <ele>390.9307745369151</ele>
        <time>2022-03-23T23:50:35Z</time>
      </trkpt>
      <trkpt lat="34.30638154204325" lon="109.0330080722419">
        <ele>390.65373471099883</ele>
        <time>2022-03-23T23:50:37Z</time>
      </trkpt>
      <trkpt lat="34.30643749323078" lon="109.03349822195857">
        <ele>391.0883948709816</ele>
        <time>2022-03-23T23:50:47Z</time>
      </trkpt>
      <trkpt lat="34.30643549543747" lon="109.03369699504758">
        <ele>389.9672483932227</ele>
        <time>2022-03-23T23:50:51Z</time>
      </trkpt>
      <trkpt lat="34.306481710632625" lon="109.03431642095089">
        <ele>389.4505552537739</ele>
        <time>2022-03-23T23:51:03Z</time>
      </trkpt>
      <trkpt lat="34.30654461193938" lon="109.0348921953565">
        <ele>391.66784200724214</ele>
        <time>2022-03-23T23:51:13Z</time>
      </trkpt>
      <trkpt lat="34.30657189329507" lon="109.03520419250904">
        <ele>390.26684653479606</ele>
        <time>2022-03-23T23:51:19Z</time>
      </trkpt>
      <trkpt lat="34.30658962624117" lon="109.03552894288813">
        <ele>390.5132601093501</ele>
        <time>2022-03-23T23:51:25Z</time>
      </trkpt>
      <trkpt lat="34.306618427046374" lon="109.03575092516539">
        <ele>390.4291794402525</ele>
        <time>2022-03-23T23:51:29Z</time>
      </trkpt>
      <trkpt lat="34.30662096500488" lon="109.03608665757305">
        <ele>391.7639714451507</ele>
        <time>2022-03-23T23:51:35Z</time>
      </trkpt>
      <trkpt lat="34.30663810455813" lon="109.0361813139282">
        <ele>393.0509083913639</ele>
        <time>2022-03-23T23:51:37Z</time>
      </trkpt>
      <trkpt lat="34.30662278196997" lon="109.03627343162974">
        <ele>392.8373994724825</ele>
        <time>2022-03-23T23:51:39Z</time>
      </trkpt>
      <trkpt lat="34.306588668649184" lon="109.03632406053539">
        <ele>391.67349947057664</ele>
        <time>2022-03-23T23:51:49Z</time>
      </trkpt>
      <trkpt lat="34.3065910011885" lon="109.0364380983817">
        <ele>391.39548129495233</ele>
        <time>2022-03-23T23:51:56Z</time>
      </trkpt>
      <trkpt lat="34.30664420022639" lon="109.03695324714651">
        <ele>391.8536673048511</ele>
        <time>2022-03-23T23:52:31Z</time>
      </trkpt>
      <trkpt lat="34.306607138456656" lon="109.03701706759836">
        <ele>392.07042841706425</ele>
        <time>2022-03-23T23:52:43Z</time>
      </trkpt>
      <trkpt lat="34.30652701044741" lon="109.03703501383698">
        <ele>391.63150974176824</ele>
        <time>2022-03-23T23:52:52Z</time>
      </trkpt>
      <trkpt lat="34.30643898698268" lon="109.037083469437">
        <ele>391.7095689550042</ele>
        <time>2022-03-23T23:52:59Z</time>
      </trkpt>
      <trkpt lat="34.30636578056253" lon="109.0371645027917">
        <ele>390.6500343726948</ele>
        <time>2022-03-23T23:53:09Z</time>
      </trkpt>
      <trkpt lat="34.30637111292026" lon="109.0372157546722">
        <ele>391.61464511603117</ele>
        <time>2022-03-23T23:53:15Z</time>
      </trkpt>
    </trkseg>
  </trk>
</gpx>