<?xml version="1.0" encoding="UTF-8"?>
<gpx xmlns="http://www.topografix.com/GPX/1/1" xmlns:gpxtpx="http://www.garmin.com/xmlschemas/TrackPointExtension/v1" xmlns:xsi="http://www.w3.org/2001/XMLSchema-instance" xsi:schemaLocation="http://www.topografix.com/GPX/1/1 http://www.topografix.com/GPX/1/1/gpx.xsd" version="1.1" creator="gpx.py -- https://github.com/tkrajina/gpxpy">
  <trk>
    <name>gpx from keep</name>
    <type>Ride</type>
    <trkseg>
      <trkpt lat="34.328245004114486" lon="108.98075868205947">
        <ele>395.5803234856576</ele>
        <time>2022-03-26T11:23:08Z</time>
      </trkpt>
      <trkpt lat="34.3281629078484" lon="108.98081879369316">
        <ele>395.1492040446028</ele>
        <time>2022-03-26T11:23:16Z</time>
      </trkpt>
      <trkpt lat="34.328140327355214" lon="108.98092890800176">
        <ele>395.8125323439017</ele>
        <time>2022-03-26T11:23:24Z</time>
      </trkpt>
      <trkpt lat="34.32820186950069" lon="108.98132283000571">
        <ele>393.6178494086489</ele>
        <time>2022-03-26T11:24:10Z</time>
      </trkpt>
      <trkpt lat="34.328120411966495" lon="108.98140299197189">
        <ele>394.251066329889</ele>
        <time>2022-03-26T11:25:12Z</time>
      </trkpt>
      <trkpt lat="34.32811476443611" lon="108.98150540424322">
        <ele>393.9587031593546</ele>
        <time>2022-03-26T11:25:15Z</time>
      </trkpt>
      <trkpt lat="34.32814269519727" lon="108.98159018523097">
        <ele>394.23930346779525</ele>
        <time>2022-03-26T11:25:18Z</time>
      </trkpt>
      <trkpt lat="34.328147783147266" lon="108.98168396448655">
        <ele>394.4074967559427</ele>
        <time>2022-03-26T11:25:21Z</time>
      </trkpt>
      <trkpt lat="34.328112093788434" lon="108.98176978784609">
        <ele>394.8303830390796</ele>
        <time>2022-03-26T11:25:24Z</time>
      </trkpt>
      <trkpt lat="34.328189166768446" lon="108.98180893237554">
        <ele>395.2246589427814</ele>
        <time>2022-03-26T11:25:28Z</time>
      </trkpt>
      <trkpt lat="34.328225583329115" lon="108.98194934901663">
        <ele>395.05371564626694</ele>
        <time>2022-03-26T11:25:32Z</time>
      </trkpt>
      <trkpt lat="34.32829375909775" lon="108.98206597945361">
        <ele>394.8603391209617</ele>
        <time>2022-03-26T11:25:36Z</time>
      </trkpt>
      <trkpt lat="34.3282783138553" lon="108.98232702025295">
        <ele>394.5286841727793</ele>
        <time>2022-03-26T11:25:42Z</time>
      </trkpt>
      <trkpt lat="34.328192497304855" lon="108.98272295284875">
        <ele>394.3105058837682</ele>
        <time>2022-03-26T11:25:50Z</time>
      </trkpt>
      <trkpt lat="34.32817947665269" lon="108.98284839642768">
        <ele>394.73464545607567</ele>
        <time>2022-03-26T11:25:54Z</time>
      </trkpt>
      <trkpt lat="34.32819169418916" lon="108.98312555974262">
        <ele>393.5809980100021</ele>
        <time>2022-03-26T11:26:02Z</time>
      </trkpt>
      <trkpt lat="34.328167668556304" lon="108.9832773635913">
        <ele>393.2050841739401</ele>
        <time>2022-03-26T11:26:06Z</time>
      </trkpt>
      <trkpt lat="34.328238902451346" lon="108.9835741882427">
        <ele>393.17597214505076</ele>
        <time>2022-03-26T11:26:14Z</time>
      </trkpt>
      <trkpt lat="34.32833449983734" lon="108.98378061528392">
        <ele>394.4834265029058</ele>
        <time>2022-03-26T11:26:20Z</time>
      </trkpt>
      <trkpt lat="34.32835395798458" lon="108.98391010591334">
        <ele>394.3078526025638</ele>
        <time>2022-03-26T11:26:24Z</time>
      </trkpt>
      <trkpt lat="34.32830942290465" lon="108.98405958319054">
        <ele>393.3856567097828</ele>
        <time>2022-03-26T11:26:28Z</time>
      </trkpt>
      <trkpt lat="34.328212530533236" lon="108.98423066062814">
        <ele>391.9481724910438</ele>
        <time>2022-03-26T11:26:40Z</time>
      </trkpt>
      <trkpt lat="34.32800190417564" lon="108.98452111533894">
        <ele>391.65095417387784</ele>
        <time>2022-03-26T11:26:47Z</time>
      </trkpt>
      <trkpt lat="34.327950170979" lon="108.98465647258347">
        <ele>391.58592432085425</ele>
        <time>2022-03-26T11:26:51Z</time>
      </trkpt>
      <trkpt lat="34.32792575474975" lon="108.98501352762618">
        <ele>392.09184383787215</ele>
        <time>2022-03-26T11:26:59Z</time>
      </trkpt>
      <trkpt lat="34.32798309095649" lon="108.9855748354467">
        <ele>393.4053882109001</ele>
        <time>2022-03-26T11:27:15Z</time>
      </trkpt>
      <trkpt lat="34.32797053340626" lon="108.98601776005098">
        <ele>393.71413614042103</ele>
        <time>2022-03-26T11:27:27Z</time>
      </trkpt>
      <trkpt lat="34.32800084189298" lon="108.98664690318208">
        <ele>394.0739213274792</ele>
        <time>2022-03-26T11:27:43Z</time>
      </trkpt>
      <trkpt lat="34.32798019055674" lon="108.98696146689323">
        <ele>394.31969478260726</ele>
        <time>2022-03-26T11:27:51Z</time>
      </trkpt>
      <trkpt lat="34.32798238029249" lon="108.98721687991177">
        <ele>395.0577956736088</ele>
        <time>2022-03-26T11:27:57Z</time>
      </trkpt>
      <trkpt lat="34.32794723262836" lon="108.98749662087116">
        <ele>395.2806065483019</ele>
        <time>2022-03-26T11:28:03Z</time>
      </trkpt>
      <trkpt lat="34.32794839784033" lon="108.98758870025083">
        <ele>395.0161102646962</ele>
        <time>2022-03-26T11:28:05Z</time>
      </trkpt>
      <trkpt lat="34.32791742536556" lon="108.9877875142349">
        <ele>394.5830933852121</ele>
        <time>2022-03-26T11:28:09Z</time>
      </trkpt>
      <trkpt lat="34.327930977561266" lon="108.98807550299341">
        <ele>393.87724256981164</ele>
        <time>2022-03-26T11:28:15Z</time>
      </trkpt>
      <trkpt lat="34.32790508604434" lon="108.98866733203023">
        <ele>392.2987874094397</ele>
        <time>2022-03-26T11:28:27Z</time>
      </trkpt>
      <trkpt lat="34.32790794064229" lon="108.98883282881009">
        <ele>390.67568654194474</ele>
        <time>2022-03-26T11:28:31Z</time>
      </trkpt>
      <trkpt lat="34.32793845602003" lon="108.98892602058665">
        <ele>390.83748937305063</ele>
        <time>2022-03-26T11:28:33Z</time>
      </trkpt>
      <trkpt lat="34.327910961951595" lon="108.98932371801858">
        <ele>390.16750027704984</ele>
        <time>2022-03-26T11:28:41Z</time>
      </trkpt>
      <trkpt lat="34.32798055939525" lon="108.98984617194199">
        <ele>391.9450297290459</ele>
        <time>2022-03-26T11:28:51Z</time>
      </trkpt>
      <trkpt lat="34.327932115004685" lon="108.99012295283634">
        <ele>392.3376075197011</ele>
        <time>2022-03-26T11:28:59Z</time>
      </trkpt>
      <trkpt lat="34.32793172275" lon="108.9902288258519">
        <ele>392.44171410333365</ele>
        <time>2022-03-26T11:29:03Z</time>
      </trkpt>
      <trkpt lat="34.327881349921114" lon="108.9903385408225">
        <ele>391.8442328115925</ele>
        <time>2022-03-26T11:29:11Z</time>
      </trkpt>
      <trkpt lat="34.32791319995414" lon="108.99062558957091">
        <ele>391.5984950233251</ele>
        <time>2022-03-26T11:29:19Z</time>
      </trkpt>
      <trkpt lat="34.32790762953116" lon="108.99079528159558">
        <ele>391.5579652711749</ele>
        <time>2022-03-26T11:29:23Z</time>
      </trkpt>
      <trkpt lat="34.3279649990665" lon="108.99113347318993">
        <ele>391.2767229890451</ele>
        <time>2022-03-26T11:29:31Z</time>
      </trkpt>
      <trkpt lat="34.328000028028086" lon="108.99122558844977">
        <ele>391.97254809364676</ele>
        <time>2022-03-26T11:29:35Z</time>
      </trkpt>
      <trkpt lat="34.327988089220824" lon="108.99144823896476">
        <ele>394.3031646432355</ele>
        <time>2022-03-26T11:29:41Z</time>
      </trkpt>
      <trkpt lat="34.327958151483365" lon="108.9915916607577">
        <ele>394.4856917774305</ele>
        <time>2022-03-26T11:29:45Z</time>
      </trkpt>
      <trkpt lat="34.32798037617919" lon="108.99211561089267">
        <ele>395.13382992334664</ele>
        <time>2022-03-26T11:30:01Z</time>
      </trkpt>
      <trkpt lat="34.32798794381713" lon="108.99233439237041">
        <ele>394.03286657854915</ele>
        <time>2022-03-26T11:30:09Z</time>
      </trkpt>
      <trkpt lat="34.32796946099775" lon="108.9924357429279">
        <ele>394.91121564619243</ele>
        <time>2022-03-26T11:30:13Z</time>
      </trkpt>
      <trkpt lat="34.327974566715305" lon="108.99265632741215">
        <ele>393.55162730813026</ele>
        <time>2022-03-26T11:30:21Z</time>
      </trkpt>
      <trkpt lat="34.32796082442325" lon="108.99279626425319">
        <ele>394.25942883174866</ele>
        <time>2022-03-26T11:30:25Z</time>
      </trkpt>
      <trkpt lat="34.32796628227451" lon="108.99293633795088">
        <ele>394.75147633533925</ele>
        <time>2022-03-26T11:30:29Z</time>
      </trkpt>
      <trkpt lat="34.32794207390666" lon="108.99314479868507">
        <ele>395.28079935442656</ele>
        <time>2022-03-26T11:30:37Z</time>
      </trkpt>
      <trkpt lat="34.327917363489455" lon="108.99323652103615">
        <ele>394.60841976944357</ele>
        <time>2022-03-26T11:30:41Z</time>
      </trkpt>
      <trkpt lat="34.327921003380865" lon="108.99336063180122">
        <ele>393.8017279645428</ele>
        <time>2022-03-26T11:30:47Z</time>
      </trkpt>
      <trkpt lat="34.327898294196466" lon="108.99344352216022">
        <ele>394.2174428552389</ele>
        <time>2022-03-26T11:30:51Z</time>
      </trkpt>
      <trkpt lat="34.327903247939204" lon="108.99356632279809">
        <ele>393.5396479992196</ele>
        <time>2022-03-26T11:30:57Z</time>
      </trkpt>
      <trkpt lat="34.327831177875964" lon="108.99369801594273">
        <ele>394.2782637225464</ele>
        <time>2022-03-26T11:31:01Z</time>
      </trkpt>
      <trkpt lat="34.32778850394196" lon="108.99389651052502">
        <ele>394.3255399223417</ele>
        <time>2022-03-26T11:31:05Z</time>
      </trkpt>
      <trkpt lat="34.32800020907137" lon="108.99427814940144">
        <ele>392.8501092372462</ele>
        <time>2022-03-26T11:31:15Z</time>
      </trkpt>
      <trkpt lat="34.32811141242362" lon="108.99462120098512">
        <ele>393.5356898838654</ele>
        <time>2022-03-26T11:31:23Z</time>
      </trkpt>
      <trkpt lat="34.328194430786326" lon="108.99477606290658">
        <ele>392.8897557435557</ele>
        <time>2022-03-26T11:31:27Z</time>
      </trkpt>
      <trkpt lat="34.32823684157055" lon="108.99492729074237">
        <ele>393.3135880706832</ele>
        <time>2022-03-26T11:31:31Z</time>
      </trkpt>
      <trkpt lat="34.328260314552125" lon="108.99509439607984">
        <ele>393.22965981066227</ele>
        <time>2022-03-26T11:31:35Z</time>
      </trkpt>
      <trkpt lat="34.32824848020232" lon="108.99525033800717">
        <ele>393.1707884222269</ele>
        <time>2022-03-26T11:31:39Z</time>
      </trkpt>
      <trkpt lat="34.32827403306961" lon="108.9958491499144">
        <ele>394.81388515327126</ele>
        <time>2022-03-26T11:31:55Z</time>
      </trkpt>
      <trkpt lat="34.32804297110202" lon="108.99793698893882">
        <ele>396.9373207446188</ele>
        <time>2022-03-26T11:31:59Z</time>
      </trkpt>
      <trkpt lat="34.32803205948022" lon="108.99804813940361">
        <ele>396.7805744027719</ele>
        <time>2022-03-26T11:32:01Z</time>
      </trkpt>
      <trkpt lat="34.32796928203993" lon="108.99826302297247">
        <ele>396.13125248719007</ele>
        <time>2022-03-26T11:32:05Z</time>
      </trkpt>
      <trkpt lat="34.327962488982195" lon="108.99883145461827">
        <ele>395.33294709119946</ele>
        <time>2022-03-26T11:32:17Z</time>
      </trkpt>
      <trkpt lat="34.32823924677296" lon="108.99780027358534">
        <ele>394.8952333824709</ele>
        <time>2022-03-26T11:32:27Z</time>
      </trkpt>
      <trkpt lat="34.32820581670459" lon="108.99812188337411">
        <ele>395.05027869157493</ele>
        <time>2022-03-26T11:32:31Z</time>
      </trkpt>
      <trkpt lat="34.328217457162665" lon="108.99857819869753">
        <ele>395.305493908003</ele>
        <time>2022-03-26T11:32:37Z</time>
      </trkpt>
      <trkpt lat="34.32819806390522" lon="108.99876956787733">
        <ele>395.2154958983883</ele>
        <time>2022-03-26T11:32:39Z</time>
      </trkpt>
      <trkpt lat="34.328210178068936" lon="108.99890724497041">
        <ele>395.52503176033497</ele>
        <time>2022-03-26T11:32:41Z</time>
      </trkpt>
      <trkpt lat="34.328186594788654" lon="108.9991887008709">
        <ele>395.80907817929983</ele>
        <time>2022-03-26T11:32:45Z</time>
      </trkpt>
      <trkpt lat="34.32818972894714" lon="108.99933768083625">
        <ele>396.3835604423657</ele>
        <time>2022-03-26T11:32:47Z</time>
      </trkpt>
      <trkpt lat="34.32817315347908" lon="108.99950527720492">
        <ele>395.60093816835433</ele>
        <time>2022-03-26T11:32:49Z</time>
      </trkpt>
      <trkpt lat="34.328188493168554" lon="108.99998831712121">
        <ele>394.98032026179135</ele>
        <time>2022-03-26T11:32:55Z</time>
      </trkpt>
      <trkpt lat="34.32816179837926" lon="109.00026710026046">
        <ele>394.7501372573897</ele>
        <time>2022-03-26T11:32:59Z</time>
      </trkpt>
      <trkpt lat="34.328090157503524" lon="109.000643311783">
        <ele>395.25932622421533</ele>
        <time>2022-03-26T11:33:03Z</time>
      </trkpt>
      <trkpt lat="34.32808310327536" lon="109.00083563407878">
        <ele>395.8241113200784</ele>
        <time>2022-03-26T11:33:05Z</time>
      </trkpt>
      <trkpt lat="34.3280468450477" lon="109.00138809190788">
        <ele>395.28944736532867</ele>
        <time>2022-03-26T11:33:13Z</time>
      </trkpt>
      <trkpt lat="34.32802992364405" lon="109.00192377914487">
        <ele>395.7680571191013</ele>
        <time>2022-03-26T11:33:25Z</time>
      </trkpt>
      <trkpt lat="34.327988009400755" lon="109.00220212290117">
        <ele>395.6849590977654</ele>
        <time>2022-03-26T11:33:31Z</time>
      </trkpt>
      <trkpt lat="34.32798837744963" lon="109.00280775155731">
        <ele>395.78547130990773</ele>
        <time>2022-03-26T11:33:45Z</time>
      </trkpt>
      <trkpt lat="34.32795494794596" lon="109.00345832892006">
        <ele>395.3478970574215</ele>
        <time>2022-03-26T11:34:01Z</time>
      </trkpt>
      <trkpt lat="34.32795399111621" lon="109.00361474617672">
        <ele>395.0565854534507</ele>
        <time>2022-03-26T11:34:05Z</time>
      </trkpt>
      <trkpt lat="34.32781065149956" lon="109.00394235706634">
        <ele>392.76745647378266</ele>
        <time>2022-03-26T11:34:17Z</time>
      </trkpt>
      <trkpt lat="34.327799591897225" lon="109.00401988282982">
        <ele>393.10591008141637</ele>
        <time>2022-03-26T11:34:19Z</time>
      </trkpt>
      <trkpt lat="34.32785839713225" lon="109.00429335179471">
        <ele>393.08525525499135</ele>
        <time>2022-03-26T11:34:24Z</time>
      </trkpt>
      <trkpt lat="34.32791278568514" lon="109.00447540148161">
        <ele>393.6670060567558</ele>
        <time>2022-03-26T11:34:28Z</time>
      </trkpt>
      <trkpt lat="34.327893861635886" lon="109.00457433753628">
        <ele>393.3551805084571</ele>
        <time>2022-03-26T11:34:30Z</time>
      </trkpt>
      <trkpt lat="34.327910294799494" lon="109.00469638120022">
        <ele>393.85426698531955</ele>
        <time>2022-03-26T11:34:34Z</time>
      </trkpt>
      <trkpt lat="34.327959644760824" lon="109.0047832133167">
        <ele>395.6433045286685</ele>
        <time>2022-03-26T11:34:36Z</time>
      </trkpt>
      <trkpt lat="34.32793945004896" lon="109.00489175268496">
        <ele>395.114347406663</ele>
        <time>2022-03-26T11:34:38Z</time>
      </trkpt>
      <trkpt lat="34.32795333881128" lon="109.0052664038839">
        <ele>394.6070184884593</ele>
        <time>2022-03-26T11:34:46Z</time>
      </trkpt>
      <trkpt lat="34.327971855691" lon="109.00546163406452">
        <ele>395.1584189478308</ele>
        <time>2022-03-26T11:34:50Z</time>
      </trkpt>
      <trkpt lat="34.32797056799118" lon="109.00596148759598">
        <ele>394.5638062097132</ele>
        <time>2022-03-26T11:35:00Z</time>
      </trkpt>
      <trkpt lat="34.327997467570654" lon="109.00614975381032">
        <ele>394.6719289626926</ele>
        <time>2022-03-26T11:35:04Z</time>
      </trkpt>
      <trkpt lat="34.32798916901943" lon="109.00624380065912">
        <ele>395.24314073845744</ele>
        <time>2022-03-26T11:35:06Z</time>
      </trkpt>
      <trkpt lat="34.32799697651097" lon="109.0064530108685">
        <ele>393.6626299628988</ele>
        <time>2022-03-26T11:35:10Z</time>
      </trkpt>
      <trkpt lat="34.328038005293955" lon="109.0066503862725">
        <ele>393.9108614856377</ele>
        <time>2022-03-26T11:35:14Z</time>
      </trkpt>
      <trkpt lat="34.32797872689" lon="109.00696015750974">
        <ele>393.7069548489526</ele>
        <time>2022-03-26T11:35:20Z</time>
      </trkpt>
      <trkpt lat="34.32795749910043" lon="109.00727937882752">
        <ele>393.19587503373623</ele>
        <time>2022-03-26T11:35:26Z</time>
      </trkpt>
      <trkpt lat="34.32790204330196" lon="109.0077757654938">
        <ele>391.59699117951095</ele>
        <time>2022-03-26T11:35:35Z</time>
      </trkpt>
      <trkpt lat="34.327904318146786" lon="109.00788905730145">
        <ele>391.63196186348796</ele>
        <time>2022-03-26T11:35:37Z</time>
      </trkpt>
      <trkpt lat="34.327888075907715" lon="109.00811397506841">
        <ele>391.80984567292035</ele>
        <time>2022-03-26T11:35:41Z</time>
      </trkpt>
      <trkpt lat="34.32789884285108" lon="109.00843031637528">
        <ele>392.2479476612061</ele>
        <time>2022-03-26T11:35:47Z</time>
      </trkpt>
      <trkpt lat="34.32793387861343" lon="109.00873978533765">
        <ele>392.9862684253603</ele>
        <time>2022-03-26T11:35:53Z</time>
      </trkpt>
      <trkpt lat="34.32792768865505" lon="109.00884834858142">
        <ele>393.12742269877344</ele>
        <time>2022-03-26T11:35:55Z</time>
      </trkpt>
      <trkpt lat="34.3279403493504" lon="109.00896265333891">
        <ele>393.26508441660553</ele>
        <time>2022-03-26T11:35:57Z</time>
      </trkpt>
      <trkpt lat="34.32793067162184" lon="109.0095528763658">
        <ele>389.60965080652386</ele>
        <time>2022-03-26T11:36:07Z</time>
      </trkpt>
      <trkpt lat="34.327931569330026" lon="109.0101203242757">
        <ele>386.6850863993168</ele>
        <time>2022-03-26T11:36:17Z</time>
      </trkpt>
      <trkpt lat="34.32794651433624" lon="109.01024809334804">
        <ele>386.9063943978399</ele>
        <time>2022-03-26T11:36:19Z</time>
      </trkpt>
      <trkpt lat="34.32793483736222" lon="109.01082167179423">
        <ele>386.0154199069366</ele>
        <time>2022-03-26T11:36:29Z</time>
      </trkpt>
      <trkpt lat="34.327930515126354" lon="109.01143077040048">
        <ele>387.576359606348</ele>
        <time>2022-03-26T11:36:41Z</time>
      </trkpt>
      <trkpt lat="34.32794340749159" lon="109.01176333752024">
        <ele>386.9256570925936</ele>
        <time>2022-03-26T11:36:47Z</time>
      </trkpt>
      <trkpt lat="34.32792265718268" lon="109.01229225993613">
        <ele>387.1056522829458</ele>
        <time>2022-03-26T11:36:57Z</time>
      </trkpt>
      <trkpt lat="34.32788658379327" lon="109.01261612563933">
        <ele>386.71287775598466</ele>
        <time>2022-03-26T11:37:03Z</time>
      </trkpt>
      <trkpt lat="34.32788920192582" lon="109.01313753664817">
        <ele>388.6542479172349</ele>
        <time>2022-03-26T11:37:13Z</time>
      </trkpt>
      <trkpt lat="34.327903482101696" lon="109.0135393582144">
        <ele>389.58261847961694</ele>
        <time>2022-03-26T11:37:21Z</time>
      </trkpt>
      <trkpt lat="34.327936989975726" lon="109.01374015821166">
        <ele>389.8104544086382</ele>
        <time>2022-03-26T11:37:25Z</time>
      </trkpt>
      <trkpt lat="34.32793502043423" lon="109.01436008233019">
        <ele>388.1751857884228</ele>
        <time>2022-03-26T11:37:37Z</time>
      </trkpt>
      <trkpt lat="34.32795608667634" lon="109.01490999071504">
        <ele>387.3516387445852</ele>
        <time>2022-03-26T11:37:47Z</time>
      </trkpt>
      <trkpt lat="34.32797519497071" lon="109.01547755492594">
        <ele>387.45112373959273</ele>
        <time>2022-03-26T11:37:57Z</time>
      </trkpt>
      <trkpt lat="34.32800415995571" lon="109.0156680992007">
        <ele>387.9196304557845</ele>
        <time>2022-03-26T11:38:01Z</time>
      </trkpt>
      <trkpt lat="34.327999556417" lon="109.01606911706762">
        <ele>388.27469588723034</ele>
        <time>2022-03-26T11:38:09Z</time>
      </trkpt>
      <trkpt lat="34.3279614063829" lon="109.0162674119432">
        <ele>387.61621435545385</ele>
        <time>2022-03-26T11:38:13Z</time>
      </trkpt>
      <trkpt lat="34.32796147715197" lon="109.01645076404532">
        <ele>387.1020658854395</ele>
        <time>2022-03-26T11:38:17Z</time>
      </trkpt>
      <trkpt lat="34.327869437294076" lon="109.01696356365173">
        <ele>387.8418884985149</ele>
        <time>2022-03-26T11:38:27Z</time>
      </trkpt>
      <trkpt lat="34.32772202270644" lon="109.01754521684533">
        <ele>388.87104910518974</ele>
        <time>2022-03-26T11:38:39Z</time>
      </trkpt>
      <trkpt lat="34.327689506491055" lon="109.01773754355364">
        <ele>388.62295826058835</ele>
        <time>2022-03-26T11:38:43Z</time>
      </trkpt>
      <trkpt lat="34.32770370307198" lon="109.01801127205043">
        <ele>389.7738097785041</ele>
        <time>2022-03-26T11:38:49Z</time>
      </trkpt>
      <trkpt lat="34.3276862472492" lon="109.01839934045269">
        <ele>388.1044750325382</ele>
        <time>2022-03-26T11:38:57Z</time>
      </trkpt>
      <trkpt lat="34.327654100909704" lon="109.01849771123348">
        <ele>387.9182429900393</ele>
        <time>2022-03-26T11:38:59Z</time>
      </trkpt>
      <trkpt lat="34.32750245561769" lon="109.01873281547363">
        <ele>388.02398168854415</ele>
        <time>2022-03-26T11:39:05Z</time>
      </trkpt>
      <trkpt lat="34.32727138195752" lon="109.01916165851695">
        <ele>388.4460686435923</ele>
        <time>2022-03-26T11:39:15Z</time>
      </trkpt>
      <trkpt lat="34.32699829887018" lon="109.0195803816948">
        <ele>388.11598337069154</ele>
        <time>2022-03-26T11:39:25Z</time>
      </trkpt>
      <trkpt lat="34.3266973608784" lon="109.01997611214101">
        <ele>388.12364885024726</ele>
        <time>2022-03-26T11:39:35Z</time>
      </trkpt>
      <trkpt lat="34.32634577588026" lon="109.0204242015119">
        <ele>388.8363400865346</ele>
        <time>2022-03-26T11:39:47Z</time>
      </trkpt>
      <trkpt lat="34.32605706436806" lon="109.02076172088621">
        <ele>388.7933866363019</ele>
        <time>2022-03-26T11:39:57Z</time>
      </trkpt>
      <trkpt lat="34.32565805626791" lon="109.02103310254077">
        <ele>388.1733549311757</ele>
        <time>2022-03-26T11:40:07Z</time>
      </trkpt>
      <trkpt lat="34.3255830906864" lon="109.02109817045482">
        <ele>388.2610536906868</ele>
        <time>2022-03-26T11:40:09Z</time>
      </trkpt>
      <trkpt lat="34.32532654753134" lon="109.02123291851413">
        <ele>387.67651404067874</ele>
        <time>2022-03-26T11:40:15Z</time>
      </trkpt>
      <trkpt lat="34.325260136793084" lon="109.02129033428409">
        <ele>388.26860207505524</ele>
        <time>2022-03-26T11:40:17Z</time>
      </trkpt>
      <trkpt lat="34.32484657491102" lon="109.0214952914563">
        <ele>388.1176795642823</ele>
        <time>2022-03-26T11:40:27Z</time>
      </trkpt>
      <trkpt lat="34.32443641007444" lon="109.0216431092183">
        <ele>388.92752677667886</ele>
        <time>2022-03-26T11:40:37Z</time>
      </trkpt>
      <trkpt lat="34.32400588246113" lon="109.02173551158519">
        <ele>388.29258624091744</ele>
        <time>2022-03-26T11:40:47Z</time>
      </trkpt>
      <trkpt lat="34.32375216167502" lon="109.02179590887786">
        <ele>389.22047849558294</ele>
        <time>2022-03-26T11:40:53Z</time>
      </trkpt>
      <trkpt lat="34.32358210332689" lon="109.02180507680131">
        <ele>390.4127976940945</ele>
        <time>2022-03-26T11:40:57Z</time>
      </trkpt>
      <trkpt lat="34.32350477713168" lon="109.02182745254001">
        <ele>390.25079790409654</ele>
        <time>2022-03-26T11:40:59Z</time>
      </trkpt>
      <trkpt lat="34.32340779078115" lon="109.02181890040954">
        <ele>390.69013413600624</ele>
        <time>2022-03-26T11:41:01Z</time>
      </trkpt>
      <trkpt lat="34.32324665874772" lon="109.02184960321406">
        <ele>390.34732528962195</ele>
        <time>2022-03-26T11:41:05Z</time>
      </trkpt>
      <trkpt lat="34.32274390941507" lon="109.02185595774901">
        <ele>390.4986899951473</ele>
        <time>2022-03-26T11:41:17Z</time>
      </trkpt>
      <trkpt lat="34.322320147482046" lon="109.02183556362074">
        <ele>390.76364124473184</ele>
        <time>2022-03-26T11:41:27Z</time>
      </trkpt>
      <trkpt lat="34.32205323063425" lon="109.02177920328096">
        <ele>389.8968079779297</ele>
        <time>2022-03-26T11:41:33Z</time>
      </trkpt>
      <trkpt lat="34.32154748922174" lon="109.02174324355288">
        <ele>390.3633256992325</ele>
        <time>2022-03-26T11:41:45Z</time>
      </trkpt>
      <trkpt lat="34.3211970600058" lon="109.02171597044656">
        <ele>390.95119736436754</ele>
        <time>2022-03-26T11:41:53Z</time>
      </trkpt>
      <trkpt lat="34.32075921012142" lon="109.02163153772537">
        <ele>391.8087962754071</ele>
        <time>2022-03-26T11:42:03Z</time>
      </trkpt>
      <trkpt lat="34.320493378721274" lon="109.02158100072108">
        <ele>390.9263929380104</ele>
        <time>2022-03-26T11:42:09Z</time>
      </trkpt>
      <trkpt lat="34.32014274802849" lon="109.021550816364">
        <ele>391.2700200518593</ele>
        <time>2022-03-26T11:42:17Z</time>
      </trkpt>
      <trkpt lat="34.31987788510176" lon="109.02150006566298">
        <ele>391.2004395807162</ele>
        <time>2022-03-26T11:42:23Z</time>
      </trkpt>
      <trkpt lat="34.31943801924874" lon="109.02150984961577">
        <ele>391.97581208031625</ele>
        <time>2022-03-26T11:42:33Z</time>
      </trkpt>
      <trkpt lat="34.3189771901886" lon="109.02150158762933">
        <ele>390.8159670699388</ele>
        <time>2022-03-26T11:42:43Z</time>
      </trkpt>
      <trkpt lat="34.31870475580496" lon="109.02150484912251">
        <ele>391.135620912537</ele>
        <time>2022-03-26T11:42:49Z</time>
      </trkpt>
      <trkpt lat="34.318199838571005" lon="109.02157520414892">
        <ele>390.17965022288263</ele>
        <time>2022-03-26T11:43:01Z</time>
      </trkpt>
      <trkpt lat="34.31775022781567" lon="109.02161351843962">
        <ele>390.5945241628215</ele>
        <time>2022-03-26T11:43:11Z</time>
      </trkpt>
      <trkpt lat="34.31730916154255" lon="109.021663293981">
        <ele>392.3639434296638</ele>
        <time>2022-03-26T11:43:21Z</time>
      </trkpt>
      <trkpt lat="34.31680709556505" lon="109.0217467505205">
        <ele>392.25084131676704</ele>
        <time>2022-03-26T11:43:33Z</time>
      </trkpt>
      <trkpt lat="34.31658245264759" lon="109.021782778583">
        <ele>391.96192703116685</ele>
        <time>2022-03-26T11:43:39Z</time>
      </trkpt>
      <trkpt lat="34.31622369456182" lon="109.02192639956">
        <ele>392.2428352199495</ele>
        <time>2022-03-26T11:43:49Z</time>
      </trkpt>
      <trkpt lat="34.316127576396724" lon="109.02194962617202">
        <ele>391.8848049622029</ele>
        <time>2022-03-26T11:43:53Z</time>
      </trkpt>
      <trkpt lat="34.31609869667844" lon="109.02205136543274">
        <ele>391.73853495623916</ele>
        <time>2022-03-26T11:44:03Z</time>
      </trkpt>
      <trkpt lat="34.316048095866584" lon="109.02215768971888">
        <ele>391.49813203699887</ele>
        <time>2022-03-26T11:44:07Z</time>
      </trkpt>
      <trkpt lat="34.31599517764372" lon="109.02222346534934">
        <ele>390.66670865379274</ele>
        <time>2022-03-26T11:44:11Z</time>
      </trkpt>
      <trkpt lat="34.31593188035598" lon="109.02225971372738">
        <ele>389.95978461392224</ele>
        <time>2022-03-26T11:44:21Z</time>
      </trkpt>
      <trkpt lat="34.31583588326596" lon="109.0224082180071">
        <ele>390.25251379143447</ele>
        <time>2022-03-26T11:44:40Z</time>
      </trkpt>
      <trkpt lat="34.315829653350136" lon="109.02258809275912">
        <ele>390.21036352030933</ele>
        <time>2022-03-26T11:44:44Z</time>
      </trkpt>
      <trkpt lat="34.316008546611116" lon="109.02306645701373">
        <ele>388.0791264111176</ele>
        <time>2022-03-26T11:44:54Z</time>
      </trkpt>
      <trkpt lat="34.316028252732316" lon="109.02317429850413">
        <ele>387.939445303753</ele>
        <time>2022-03-26T11:44:56Z</time>
      </trkpt>
      <trkpt lat="34.316175575485566" lon="109.02353160785245">
        <ele>387.89834236726165</ele>
        <time>2022-03-26T11:45:04Z</time>
      </trkpt>
      <trkpt lat="34.31619650465068" lon="109.02361972449616">
        <ele>387.53006079699844</ele>
        <time>2022-03-26T11:45:06Z</time>
      </trkpt>
      <trkpt lat="34.31615971247295" lon="109.02375972761872">
        <ele>389.47546154726297</ele>
        <time>2022-03-26T11:45:10Z</time>
      </trkpt>
      <trkpt lat="34.31597266689133" lon="109.02393215972559">
        <ele>389.6092493282631</ele>
        <time>2022-03-26T11:45:16Z</time>
      </trkpt>
      <trkpt lat="34.31578939229494" lon="109.0239969810129">
        <ele>389.20852144714445</ele>
        <time>2022-03-26T11:45:20Z</time>
      </trkpt>
      <trkpt lat="34.315464170492056" lon="109.02422804614844">
        <ele>390.01985402591527</ele>
        <time>2022-03-26T11:45:30Z</time>
      </trkpt>
      <trkpt lat="34.3150595125606" lon="109.0245981368485">
        <ele>389.9667054787278</ele>
        <time>2022-03-26T11:45:44Z</time>
      </trkpt>
      <trkpt lat="34.314925514695204" lon="109.02470197755798">
        <ele>389.60461876448244</ele>
        <time>2022-03-26T11:45:48Z</time>
      </trkpt>
      <trkpt lat="34.314765044638655" lon="109.02477347721027">
        <ele>390.5409091366455</ele>
        <time>2022-03-26T11:45:52Z</time>
      </trkpt>
      <trkpt lat="34.31464368373306" lon="109.02487056212834">
        <ele>391.12179386708885</ele>
        <time>2022-03-26T11:45:56Z</time>
      </trkpt>
      <trkpt lat="34.314455494423825" lon="109.02506272826841">
        <ele>390.11450955830514</ele>
        <time>2022-03-26T11:46:03Z</time>
      </trkpt>
      <trkpt lat="34.314109405900055" lon="109.02527698264102">
        <ele>389.3213327554986</ele>
        <time>2022-03-26T11:46:11Z</time>
      </trkpt>
      <trkpt lat="34.31364129402328" lon="109.02546842525648">
        <ele>390.9188439268619</ele>
        <time>2022-03-26T11:46:21Z</time>
      </trkpt>
      <trkpt lat="34.313220506416116" lon="109.02570193023324">
        <ele>390.6759402891621</ele>
        <time>2022-03-26T11:46:31Z</time>
      </trkpt>
      <trkpt lat="34.31281235103618" lon="109.02595299239123">
        <ele>391.8781075635925</ele>
        <time>2022-03-26T11:46:41Z</time>
      </trkpt>
      <trkpt lat="34.31272743179873" lon="109.02600409744733">
        <ele>392.3552653128281</ele>
        <time>2022-03-26T11:46:43Z</time>
      </trkpt>
      <trkpt lat="34.3125907790445" lon="109.02615411691619">
        <ele>392.79217336233705</ele>
        <time>2022-03-26T11:46:49Z</time>
      </trkpt>
      <trkpt lat="34.312513924943644" lon="109.02618253966443">
        <ele>392.74616076331586</ele>
        <time>2022-03-26T11:46:51Z</time>
      </trkpt>
      <trkpt lat="34.31258674258577" lon="109.02618028510443">
        <ele>393.4441361054778</ele>
        <time>2022-03-26T11:46:53Z</time>
      </trkpt>
      <trkpt lat="34.31252134510423" lon="109.02630066823323">
        <ele>392.64593882020563</ele>
        <time>2022-03-26T11:46:55Z</time>
      </trkpt>
      <trkpt lat="34.31237037568933" lon="109.02636150955726">
        <ele>392.4001422096044</ele>
        <time>2022-03-26T11:46:57Z</time>
      </trkpt>
      <trkpt lat="34.312210286772654" lon="109.0265072954645">
        <ele>393.53766672778875</ele>
        <time>2022-03-26T11:47:01Z</time>
      </trkpt>
      <trkpt lat="34.31200593485187" lon="109.02664521977357">
        <ele>393.63720325846225</ele>
        <time>2022-03-26T11:47:05Z</time>
      </trkpt>
      <trkpt lat="34.3118326348036" lon="109.02684301750709">
        <ele>392.46767016965896</ele>
        <time>2022-03-26T11:47:11Z</time>
      </trkpt>
      <trkpt lat="34.31165951379451" lon="109.02737700753754">
        <ele>393.02450120728463</ele>
        <time>2022-03-26T11:47:23Z</time>
      </trkpt>
      <trkpt lat="34.311603322683645" lon="109.02766327114526">
        <ele>392.04258107952774</ele>
        <time>2022-03-26T11:47:29Z</time>
      </trkpt>
      <trkpt lat="34.311569961815984" lon="109.02776214550363">
        <ele>391.7717815991491</ele>
        <time>2022-03-26T11:47:31Z</time>
      </trkpt>
      <trkpt lat="34.31154954338608" lon="109.02796656001873">
        <ele>392.0905643105507</ele>
        <time>2022-03-26T11:47:35Z</time>
      </trkpt>
      <trkpt lat="34.31142297300207" lon="109.02848049259258">
        <ele>391.2873138645664</ele>
        <time>2022-03-26T11:47:45Z</time>
      </trkpt>
      <trkpt lat="34.311419183928244" lon="109.0285782541111">
        <ele>391.3573229564354</ele>
        <time>2022-03-26T11:47:47Z</time>
      </trkpt>
      <trkpt lat="34.311362334447985" lon="109.02867358569885">
        <ele>391.5265104062855</ele>
        <time>2022-03-26T11:47:49Z</time>
      </trkpt>
      <trkpt lat="34.311288703598215" lon="109.02875632419679">
        <ele>391.73103971686214</ele>
        <time>2022-03-26T11:47:51Z</time>
      </trkpt>
      <trkpt lat="34.311235018517934" lon="109.02884542021984">
        <ele>390.7081720698625</ele>
        <time>2022-03-26T11:47:53Z</time>
      </trkpt>
      <trkpt lat="34.31084134627738" lon="109.02919973818098">
        <ele>390.24961407855153</ele>
        <time>2022-03-26T11:48:03Z</time>
      </trkpt>
      <trkpt lat="34.31071754865461" lon="109.02933263452091">
        <ele>390.449894904159</ele>
        <time>2022-03-26T11:48:07Z</time>
      </trkpt>
      <trkpt lat="34.3106332942405" lon="109.02939201248496">
        <ele>391.00473226234317</ele>
        <time>2022-03-26T11:48:09Z</time>
      </trkpt>
      <trkpt lat="34.31044597814687" lon="109.02959255763513">
        <ele>390.4673927789554</ele>
        <time>2022-03-26T11:48:15Z</time>
      </trkpt>
      <trkpt lat="34.31028547070492" lon="109.02970831334069">
        <ele>390.6091277319938</ele>
        <time>2022-03-26T11:48:19Z</time>
      </trkpt>
      <trkpt lat="34.30987526139944" lon="109.03007375266304">
        <ele>392.4725496219471</ele>
        <time>2022-03-26T11:48:31Z</time>
      </trkpt>
      <trkpt lat="34.30973451311382" lon="109.03018207218544">
        <ele>392.7359677692875</ele>
        <time>2022-03-26T11:48:35Z</time>
      </trkpt>
      <trkpt lat="34.30957833755941" lon="109.03027239977841">
        <ele>392.7720423704013</ele>
        <time>2022-03-26T11:48:39Z</time>
      </trkpt>
      <trkpt lat="34.3095179326331" lon="109.0303272614589">
        <ele>393.1943983240053</ele>
        <time>2022-03-26T11:48:41Z</time>
      </trkpt>
      <trkpt lat="34.30919322282299" lon="109.03047586370292">
        <ele>393.5284290937707</ele>
        <time>2022-03-26T11:48:49Z</time>
      </trkpt>
      <trkpt lat="34.308767735293706" lon="109.0306197297729">
        <ele>394.04810480587184</ele>
        <time>2022-03-26T11:48:59Z</time>
      </trkpt>
      <trkpt lat="34.308331644686234" lon="109.03071829023582">
        <ele>394.971567414701</ele>
        <time>2022-03-26T11:49:09Z</time>
      </trkpt>
      <trkpt lat="34.30815861242901" lon="109.03074264014819">
        <ele>394.832323317416</ele>
        <time>2022-03-26T11:49:13Z</time>
      </trkpt>
      <trkpt lat="34.307714892175206" lon="109.0307974355251">
        <ele>395.167969211936</ele>
        <time>2022-03-26T11:49:23Z</time>
      </trkpt>
      <trkpt lat="34.307254534017304" lon="109.03086083943919">
        <ele>393.22680309135467</ele>
        <time>2022-03-26T11:49:33Z</time>
      </trkpt>
      <trkpt lat="34.30679224932379" lon="109.03089927541794">
        <ele>392.1530675115064</ele>
        <time>2022-03-26T11:49:43Z</time>
      </trkpt>
      <trkpt lat="34.30670275467449" lon="109.03091075470029">
        <ele>391.8534110672772</ele>
        <time>2022-03-26T11:49:45Z</time>
      </trkpt>
      <trkpt lat="34.30661789236674" lon="109.03089240620096">
        <ele>392.2557661700994</ele>
        <time>2022-03-26T11:49:47Z</time>
      </trkpt>
      <trkpt lat="34.30642376284914" lon="109.03090690166141">
        <ele>392.47059336304665</ele>
        <time>2022-03-26T11:49:53Z</time>
      </trkpt>
      <trkpt lat="34.30623040628166" lon="109.03088971773559">
        <ele>391.84403534885496</ele>
        <time>2022-03-26T11:50:09Z</time>
      </trkpt>
      <trkpt lat="34.3062337051978" lon="109.03102248892638">
        <ele>391.1277186172083</ele>
        <time>2022-03-26T11:50:20Z</time>
      </trkpt>
      <trkpt lat="34.30630726203634" lon="109.03125818488746">
        <ele>391.2273417022079</ele>
        <time>2022-03-26T11:50:25Z</time>
      </trkpt>
      <trkpt lat="34.306354702163" lon="109.0318589975139">
        <ele>390.8108881879598</ele>
        <time>2022-03-26T11:50:37Z</time>
      </trkpt>
      <trkpt lat="34.30640493397406" lon="109.03246733125026">
        <ele>392.07221829425544</ele>
        <time>2022-03-26T11:50:49Z</time>
      </trkpt>
      <trkpt lat="34.306456977935774" lon="109.03266242745087">
        <ele>392.54435351118445</ele>
        <time>2022-03-26T11:50:53Z</time>
      </trkpt>
      <trkpt lat="34.30650083774198" lon="109.03307998751073">
        <ele>391.53542353678495</ele>
        <time>2022-03-26T11:51:01Z</time>
      </trkpt>
      <trkpt lat="34.306531563691365" lon="109.0331831739934">
        <ele>391.7949328292161</ele>
        <time>2022-03-26T11:51:03Z</time>
      </trkpt>
      <trkpt lat="34.30653317544537" lon="109.03338095981671">
        <ele>392.1237545525655</ele>
        <time>2022-03-26T11:51:07Z</time>
      </trkpt>
      <trkpt lat="34.30660132029704" lon="109.03390608394518">
        <ele>392.6102689374238</ele>
        <time>2022-03-26T11:51:17Z</time>
      </trkpt>
      <trkpt lat="34.30662118762842" lon="109.03411840909506">
        <ele>392.5571452183649</ele>
        <time>2022-03-26T11:51:21Z</time>
      </trkpt>
      <trkpt lat="34.30670575638423" lon="109.03452148969181">
        <ele>393.5372117990628</ele>
        <time>2022-03-26T11:51:29Z</time>
      </trkpt>
      <trkpt lat="34.30671356715219" lon="109.03494587104998">
        <ele>392.88192971330136</ele>
        <time>2022-03-26T11:51:37Z</time>
      </trkpt>
      <trkpt lat="34.30674882866237" lon="109.0351479590766">
        <ele>394.18031459860504</ele>
        <time>2022-03-26T11:51:41Z</time>
      </trkpt>
      <trkpt lat="34.3067650045828" lon="109.03557530424364">
        <ele>393.85036715492606</ele>
        <time>2022-03-26T11:51:49Z</time>
      </trkpt>
      <trkpt lat="34.30684046037791" lon="109.03618218355876">
        <ele>393.4874648982659</ele>
        <time>2022-03-26T11:52:01Z</time>
      </trkpt>
      <trkpt lat="34.306857037687145" lon="109.03630107605863">
        <ele>393.4728022944182</ele>
        <time>2022-03-26T11:52:05Z</time>
      </trkpt>
      <trkpt lat="34.3067428736341" lon="109.03637684808133">
        <ele>391.50284571014345</ele>
        <time>2022-03-26T11:52:09Z</time>
      </trkpt>
      <trkpt lat="34.306623022329156" lon="109.03638579489736">
        <ele>392.2168932929635</ele>
        <time>2022-03-26T11:52:17Z</time>
      </trkpt>
      <trkpt lat="34.30662192434073" lon="109.03648292441048">
        <ele>391.6511540124193</ele>
        <time>2022-03-26T11:52:24Z</time>
      </trkpt>
      <trkpt lat="34.30665986180236" lon="109.03677639112554">
        <ele>391.9132836619392</ele>
        <time>2022-03-26T11:52:43Z</time>
      </trkpt>
      <trkpt lat="34.30666520750415" lon="109.03696291309407">
        <ele>391.84972971864045</ele>
        <time>2022-03-26T11:52:55Z</time>
      </trkpt>
      <trkpt lat="34.306574644229876" lon="109.03710292095225">
        <ele>391.86879992764443</ele>
        <time>2022-03-26T11:53:11Z</time>
      </trkpt>
      <trkpt lat="34.306574644229876" lon="109.03710292095225">
        <ele>391.86879992764443</ele>
        <time>2022-03-26T11:53:11Z</time>
      </trkpt>
    </trkseg>
  </trk>
</gpx>