<?xml version="1.0" encoding="UTF-8"?>
<gpx xmlns="http://www.topografix.com/GPX/1/1" xmlns:gpxtpx="http://www.garmin.com/xmlschemas/TrackPointExtension/v1" xmlns:xsi="http://www.w3.org/2001/XMLSchema-instance" xsi:schemaLocation="http://www.topografix.com/GPX/1/1 http://www.topografix.com/GPX/1/1/gpx.xsd" version="1.1" creator="gpx.py -- https://github.com/tkrajina/gpxpy">
  <trk>
    <name>gpx from keep</name>
    <type>Run</type>
    <trkseg>
      <trkpt lat="34.29777759699607" lon="108.71033387936232">
        <ele>394.5650232557319</ele>
        <time>2026-08-31T23:04:24Z</time>
      </trkpt>
      <trkpt lat="34.297676017730716" lon="108.71047147160864">
        <ele>394.067552581666</ele>
        <time>2026-08-31T23:04:40Z</time>
      </trkpt>
      <trkpt lat="34.29767603848179" lon="108.71037068106587">
        <ele>392.203120078147</ele>
        <time>2026-08-31T23:04:52Z</time>
      </trkpt>
      <trkpt lat="34.29772811747921" lon="108.71032254891546">
        <ele>390.98556150703126</ele>
        <time>2026-08-31T23:05:20Z</time>
      </trkpt>
      <trkpt lat="34.29763248947689" lon="108.7103926240431">
        <ele>404.1517562866211</ele>
        <time>2026-08-31T23:05:23Z</time>
      </trkpt>
      <trkpt lat="34.29764658231328" lon="108.71015135737902">
        <ele>386.6889877319336</ele>
        <time>2026-08-31T23:05:31Z</time>
      </trkpt>
      <trkpt lat="34.29769908151336" lon="108.71004489159091">
        <ele>385.5488510131836</ele>
        <time>2026-08-31T23:05:35Z</time>
      </trkpt>
      <trkpt lat="34.2978993383381" lon="108.71004254749528">
        <ele>383.79714238550514</ele>
        <time>2026-08-31T23:05:43Z</time>
      </trkpt>
      <trkpt lat="34.29796591630971" lon="108.71014966584792">
        <ele>381.46572163607925</ele>
        <time>2026-08-31T23:05:47Z</time>
      </trkpt>
      <trkpt lat="34.297982238349796" lon="108.71038276846068">
        <ele>383.2041247067973</ele>
        <time>2026-08-31T23:05:55Z</time>
      </trkpt>
      <trkpt lat="34.29806418880501" lon="108.71051994140103">
        <ele>388.83356319833547</ele>
        <time>2026-08-31T23:05:59Z</time>
      </trkpt>
      <trkpt lat="34.29806933470077" lon="108.71074046953885">
        <ele>389.17393952514976</ele>
        <time>2026-08-31T23:06:09Z</time>
      </trkpt>
      <trkpt lat="34.29813770884776" lon="108.71103209440584">
        <ele>388.7762046921998</ele>
        <time>2026-08-31T23:06:21Z</time>
      </trkpt>
      <trkpt lat="34.298175213103285" lon="108.71137483210704">
        <ele>389.37754732649773</ele>
        <time>2026-08-31T23:06:36Z</time>
      </trkpt>
      <trkpt lat="34.29813165639943" lon="108.71142352192764">
        <ele>389.70335847791284</ele>
        <time>2026-08-31T23:06:39Z</time>
      </trkpt>
      <trkpt lat="34.29783641604758" lon="108.71151969817683">
        <ele>388.8785650227219</ele>
        <time>2026-08-31T23:06:54Z</time>
      </trkpt>
      <trkpt lat="34.29752523357293" lon="108.71164630656028">
        <ele>389.5294430088252</ele>
        <time>2026-08-31T23:07:12Z</time>
      </trkpt>
      <trkpt lat="34.2974278408529" lon="108.7116934996394">
        <ele>390.34214503131807</ele>
        <time>2026-08-31T23:07:18Z</time>
      </trkpt>
      <trkpt lat="34.29731521247197" lon="108.711715814119">
        <ele>390.6438984647393</ele>
        <time>2026-08-31T23:07:24Z</time>
      </trkpt>
      <trkpt lat="34.29726129288938" lon="108.71174815789595">
        <ele>390.0098176309839</ele>
        <time>2026-08-31T23:07:27Z</time>
      </trkpt>
      <trkpt lat="34.297015703959666" lon="108.7118501274316">
        <ele>389.84748976957053</ele>
        <time>2026-08-31T23:07:40Z</time>
      </trkpt>
      <trkpt lat="34.29696816209729" lon="108.71184718514367">
        <ele>389.4536761790514</ele>
        <time>2026-08-31T23:07:43Z</time>
      </trkpt>
      <trkpt lat="34.29666604563254" lon="108.71199642766115">
        <ele>390.3898188015446</ele>
        <time>2026-08-31T23:08:01Z</time>
      </trkpt>
      <trkpt lat="34.296434710678376" lon="108.71209698694702">
        <ele>389.5043912474066</ele>
        <time>2026-08-31T23:08:13Z</time>
      </trkpt>
      <trkpt lat="34.29633501891259" lon="108.71203216225223">
        <ele>388.7206017943099</ele>
        <time>2026-08-31T23:08:19Z</time>
      </trkpt>
      <trkpt lat="34.29625143067284" lon="108.71162908643805">
        <ele>389.68949103727937</ele>
        <time>2026-08-31T23:08:40Z</time>
      </trkpt>
      <trkpt lat="34.29621139922678" lon="108.71127915462687">
        <ele>389.9590217517689</ele>
        <time>2026-08-31T23:09:04Z</time>
      </trkpt>
      <trkpt lat="34.29616553872647" lon="108.71086833405107">
        <ele>391.0219940179959</ele>
        <time>2026-08-31T23:09:25Z</time>
      </trkpt>
      <trkpt lat="34.296096327197695" lon="108.71051572941607">
        <ele>391.5510473018512</ele>
        <time>2026-08-31T23:09:44Z</time>
      </trkpt>
      <trkpt lat="34.2960869047946" lon="108.71043222789933">
        <ele>391.56780406832695</ele>
        <time>2026-08-31T23:09:48Z</time>
      </trkpt>
      <trkpt lat="34.29605720288242" lon="108.7103581575141">
        <ele>391.64321771543473</ele>
        <time>2026-08-31T23:09:52Z</time>
      </trkpt>
      <trkpt lat="34.29603994152592" lon="108.710187263956">
        <ele>391.8152001053095</ele>
        <time>2026-08-31T23:10:02Z</time>
      </trkpt>
      <trkpt lat="34.29599170584586" lon="108.70976278467988">
        <ele>391.0302672367543</ele>
        <time>2026-08-31T23:10:23Z</time>
      </trkpt>
      <trkpt lat="34.29595224648413" lon="108.70946431544218">
        <ele>391.50579345133156</ele>
        <time>2026-08-31T23:10:41Z</time>
      </trkpt>
      <trkpt lat="34.29596569859727" lon="108.70940619313495">
        <ele>390.9214341901243</ele>
        <time>2026-08-31T23:10:44Z</time>
      </trkpt>
      <trkpt lat="34.29593932007826" lon="108.70933600249955">
        <ele>391.3263303088024</ele>
        <time>2026-08-31T23:10:47Z</time>
      </trkpt>
      <trkpt lat="34.29593197190382" lon="108.70919481186475">
        <ele>391.38469337299466</ele>
        <time>2026-08-31T23:10:53Z</time>
      </trkpt>
      <trkpt lat="34.295892641969644" lon="108.70913892362363">
        <ele>391.35178972780704</ele>
        <time>2026-08-31T23:10:56Z</time>
      </trkpt>
      <trkpt lat="34.295850562545624" lon="108.70880363374881">
        <ele>390.91994132101536</ele>
        <time>2026-08-31T23:11:11Z</time>
      </trkpt>
      <trkpt lat="34.295824362673194" lon="108.70863653203172">
        <ele>390.31239366158843</ele>
        <time>2026-08-31T23:11:20Z</time>
      </trkpt>
      <trkpt lat="34.295829979585356" lon="108.70855774732024">
        <ele>391.46914803329855</ele>
        <time>2026-08-31T23:11:23Z</time>
      </trkpt>
      <trkpt lat="34.29581270318001" lon="108.70828193143586">
        <ele>390.7593231154606</ele>
        <time>2026-08-31T23:11:38Z</time>
      </trkpt>
      <trkpt lat="34.29583161073722" lon="108.7082281714967">
        <ele>391.14799078926444</ele>
        <time>2026-08-31T23:11:41Z</time>
      </trkpt>
      <trkpt lat="34.295817345808004" lon="108.70810977418623">
        <ele>390.20311984047294</ele>
        <time>2026-08-31T23:11:48Z</time>
      </trkpt>
      <trkpt lat="34.295826383388956" lon="108.70803292216831">
        <ele>389.5586757734418</ele>
        <time>2026-08-31T23:11:52Z</time>
      </trkpt>
      <trkpt lat="34.2957547503702" lon="108.70771333180994">
        <ele>391.51929111685604</ele>
        <time>2026-08-31T23:12:08Z</time>
      </trkpt>
      <trkpt lat="34.295770566645" lon="108.70745746169376">
        <ele>390.0005205189809</ele>
        <time>2026-08-31T23:12:20Z</time>
      </trkpt>
      <trkpt lat="34.29572127550291" lon="108.70712816730958">
        <ele>389.7856455873698</ele>
        <time>2026-08-31T23:12:38Z</time>
      </trkpt>
      <trkpt lat="34.29568793253378" lon="108.70676875031508">
        <ele>390.17779388837516</ele>
        <time>2026-08-31T23:12:59Z</time>
      </trkpt>
      <trkpt lat="34.2956903882047" lon="108.70670993375167">
        <ele>390.3770497161895</ele>
        <time>2026-08-31T23:13:02Z</time>
      </trkpt>
      <trkpt lat="34.29566282829959" lon="108.70658630133572">
        <ele>389.6547833774239</ele>
        <time>2026-08-31T23:13:08Z</time>
      </trkpt>
      <trkpt lat="34.29567571418453" lon="108.70652189442747">
        <ele>389.80166703555733</ele>
        <time>2026-08-31T23:13:11Z</time>
      </trkpt>
      <trkpt lat="34.29565882442033" lon="108.70639752686438">
        <ele>390.0910554230213</ele>
        <time>2026-08-31T23:13:17Z</time>
      </trkpt>
      <trkpt lat="34.29576754498205" lon="108.70604947364116">
        <ele>390.3147918442264</ele>
        <time>2026-08-31T23:13:35Z</time>
      </trkpt>
      <trkpt lat="34.296062493608154" lon="108.7060300473922">
        <ele>389.5445993812755</ele>
        <time>2026-08-31T23:13:50Z</time>
      </trkpt>
      <trkpt lat="34.29634642493316" lon="108.70595461550478">
        <ele>390.55059946142137</ele>
        <time>2026-08-31T23:14:06Z</time>
      </trkpt>
      <trkpt lat="34.29662251202769" lon="108.70592284040924">
        <ele>388.8015443244949</ele>
        <time>2026-08-31T23:14:21Z</time>
      </trkpt>
      <trkpt lat="34.29692876510541" lon="108.70589452400625">
        <ele>388.31870205234736</ele>
        <time>2026-08-31T23:14:39Z</time>
      </trkpt>
      <trkpt lat="34.297203803110406" lon="108.70583343827163">
        <ele>389.07546577975154</ele>
        <time>2026-08-31T23:14:54Z</time>
      </trkpt>
      <trkpt lat="34.29737864768516" lon="108.7058025170123">
        <ele>388.9413114376366</ele>
        <time>2026-08-31T23:15:03Z</time>
      </trkpt>
      <trkpt lat="34.297478548797855" lon="108.70576553613304">
        <ele>388.4248552247882</ele>
        <time>2026-08-31T23:15:09Z</time>
      </trkpt>
      <trkpt lat="34.29780463696408" lon="108.70574181854624">
        <ele>386.93045291211456</ele>
        <time>2026-08-31T23:15:30Z</time>
      </trkpt>
      <trkpt lat="34.297917234477765" lon="108.7056770923382">
        <ele>388.0739992912859</ele>
        <time>2026-08-31T23:15:42Z</time>
      </trkpt>
      <trkpt lat="34.298007526550556" lon="108.70567115686586">
        <ele>388.13386363722384</ele>
        <time>2026-08-31T23:15:48Z</time>
      </trkpt>
      <trkpt lat="34.29814641209993" lon="108.70563056819856">
        <ele>387.6367490720004</ele>
        <time>2026-08-31T23:16:01Z</time>
      </trkpt>
      <trkpt lat="34.29843744373368" lon="108.70558942364964">
        <ele>388.21684374660254</ele>
        <time>2026-08-31T23:16:21Z</time>
      </trkpt>
      <trkpt lat="34.29864031980269" lon="108.70557733178144">
        <ele>389.48541598115116</ele>
        <time>2026-08-31T23:16:31Z</time>
      </trkpt>
      <trkpt lat="34.298953873176636" lon="108.70548274291933">
        <ele>388.8488671351224</ele>
        <time>2026-08-31T23:16:52Z</time>
      </trkpt>
      <trkpt lat="34.2991866030492" lon="108.70545276144004">
        <ele>390.07539086509496</ele>
        <time>2026-08-31T23:17:13Z</time>
      </trkpt>
      <trkpt lat="34.2992411632736" lon="108.70554725937815">
        <ele>389.51978638302535</ele>
        <time>2026-08-31T23:17:19Z</time>
      </trkpt>
      <trkpt lat="34.299298780853334" lon="108.7055835186597">
        <ele>389.9219610132277</ele>
        <time>2026-08-31T23:17:22Z</time>
      </trkpt>
      <trkpt lat="34.299331303027245" lon="108.70565760043598">
        <ele>389.800793803297</ele>
        <time>2026-08-31T23:17:25Z</time>
      </trkpt>
      <trkpt lat="34.29933667287119" lon="108.70572403803428">
        <ele>389.2811553366482</ele>
        <time>2026-08-31T23:17:28Z</time>
      </trkpt>
      <trkpt lat="34.29935983937975" lon="108.70578197317076">
        <ele>389.8501082584262</ele>
        <time>2026-08-31T23:17:31Z</time>
      </trkpt>
      <trkpt lat="34.2994100969329" lon="108.7061580522675">
        <ele>389.5336392754689</ele>
        <time>2026-08-31T23:17:49Z</time>
      </trkpt>
      <trkpt lat="34.29943778117814" lon="108.70635909269595">
        <ele>389.8368217824027</ele>
        <time>2026-08-31T23:17:58Z</time>
      </trkpt>
      <trkpt lat="34.29944957321883" lon="108.70657683302105">
        <ele>390.71676992531866</ele>
        <time>2026-08-31T23:18:08Z</time>
      </trkpt>
      <trkpt lat="34.29949264850576" lon="108.70671143920107">
        <ele>390.9642368918285</ele>
        <time>2026-08-31T23:18:16Z</time>
      </trkpt>
      <trkpt lat="34.299496994322375" lon="108.70686447321246">
        <ele>390.4637419898063</ele>
        <time>2026-08-31T23:18:24Z</time>
      </trkpt>
      <trkpt lat="34.29953758600226" lon="108.70714555335265">
        <ele>390.679275540635</ele>
        <time>2026-08-31T23:18:50Z</time>
      </trkpt>
      <trkpt lat="34.299525662439734" lon="108.70721099297667">
        <ele>390.5196562325582</ele>
        <time>2026-08-31T23:18:53Z</time>
      </trkpt>
      <trkpt lat="34.29953863953178" lon="108.70727994172091">
        <ele>390.61995008122176</ele>
        <time>2026-08-31T23:18:56Z</time>
      </trkpt>
      <trkpt lat="34.29949526506775" lon="108.70747097995667">
        <ele>389.94517397508025</ele>
        <time>2026-08-31T23:19:05Z</time>
      </trkpt>
      <trkpt lat="34.299518048488615" lon="108.7077388131206">
        <ele>389.85748361237347</ele>
        <time>2026-08-31T23:19:23Z</time>
      </trkpt>
      <trkpt lat="34.299605528827" lon="108.70808149869526">
        <ele>390.1157029727474</ele>
        <time>2026-08-31T23:19:47Z</time>
      </trkpt>
      <trkpt lat="34.299613669456264" lon="108.70814630084145">
        <ele>391.11392893176526</ele>
        <time>2026-08-31T23:19:50Z</time>
      </trkpt>
      <trkpt lat="34.299591068913884" lon="108.70819500876934">
        <ele>391.4400308681652</ele>
        <time>2026-08-31T23:19:53Z</time>
      </trkpt>
      <trkpt lat="34.29963521200595" lon="108.70830405870254">
        <ele>390.6793568097055</ele>
        <time>2026-08-31T23:20:02Z</time>
      </trkpt>
      <trkpt lat="34.299735514023894" lon="108.70832879995858">
        <ele>391.3412911128253</ele>
        <time>2026-08-31T23:20:08Z</time>
      </trkpt>
      <trkpt lat="34.29973266383731" lon="108.70847486761335">
        <ele>390.9385544816032</ele>
        <time>2026-08-31T23:20:15Z</time>
      </trkpt>
      <trkpt lat="34.29969426658717" lon="108.70850790756619">
        <ele>391.13334965892136</ele>
        <time>2026-08-31T23:20:18Z</time>
      </trkpt>
      <trkpt lat="34.299664210034905" lon="108.7085725441479">
        <ele>388.09151497203857</ele>
        <time>2026-08-31T23:20:24Z</time>
      </trkpt>
      <trkpt lat="34.29969313811843" lon="108.70866641577683">
        <ele>389.88417710736394</ele>
        <time>2026-08-31T23:20:30Z</time>
      </trkpt>
      <trkpt lat="34.299689615359206" lon="108.70885009926702">
        <ele>390.0366574684158</ele>
        <time>2026-08-31T23:20:42Z</time>
      </trkpt>
      <trkpt lat="34.29970298854026" lon="108.70890951343402">
        <ele>389.1954268310219</ele>
        <time>2026-08-31T23:20:45Z</time>
      </trkpt>
      <trkpt lat="34.29969075524137" lon="108.70896757601439">
        <ele>389.79161217808723</ele>
        <time>2026-08-31T23:20:48Z</time>
      </trkpt>
      <trkpt lat="34.299690652725424" lon="108.7090893144174">
        <ele>389.5494201174006</ele>
        <time>2026-08-31T23:20:54Z</time>
      </trkpt>
      <trkpt lat="34.29973279210447" lon="108.70926790585568">
        <ele>388.25444313604385</ele>
        <time>2026-08-31T23:21:03Z</time>
      </trkpt>
      <trkpt lat="34.2997281573206" lon="108.70933435817618">
        <ele>388.96003391966224</ele>
        <time>2026-08-31T23:21:06Z</time>
      </trkpt>
      <trkpt lat="34.299746169513256" lon="108.70939129467703">
        <ele>389.21275568846613</ele>
        <time>2026-08-31T23:21:09Z</time>
      </trkpt>
      <trkpt lat="34.299726301256655" lon="108.70944831768585">
        <ele>387.8928417842835</ele>
        <time>2026-08-31T23:21:12Z</time>
      </trkpt>
      <trkpt lat="34.299805744823" lon="108.70956847656001">
        <ele>389.5296079274267</ele>
        <time>2026-08-31T23:21:18Z</time>
      </trkpt>
      <trkpt lat="34.299791037929985" lon="108.70964141695796">
        <ele>390.14714951999485</ele>
        <time>2026-08-31T23:21:21Z</time>
      </trkpt>
      <trkpt lat="34.299812736297845" lon="108.70977668893599">
        <ele>390.0464921351522</ele>
        <time>2026-08-31T23:21:27Z</time>
      </trkpt>
      <trkpt lat="34.299848222996" lon="108.70983531967455">
        <ele>390.0748015111312</ele>
        <time>2026-08-31T23:21:30Z</time>
      </trkpt>
      <trkpt lat="34.29986391936471" lon="108.70996028626729">
        <ele>390.87695652619004</ele>
        <time>2026-08-31T23:21:36Z</time>
      </trkpt>
      <trkpt lat="34.29989855073164" lon="108.71008832160543">
        <ele>390.05343419127166</ele>
        <time>2026-08-31T23:21:42Z</time>
      </trkpt>
      <trkpt lat="34.299937312344476" lon="108.7101524013633">
        <ele>389.5843704883009</ele>
        <time>2026-08-31T23:21:45Z</time>
      </trkpt>
      <trkpt lat="34.29993922180525" lon="108.7102119730378">
        <ele>389.27806318737566</ele>
        <time>2026-08-31T23:21:48Z</time>
      </trkpt>
      <trkpt lat="34.29980802068898" lon="108.71035556336567">
        <ele>390.8594620684162</ele>
        <time>2026-08-31T23:21:57Z</time>
      </trkpt>
      <trkpt lat="34.29977721657805" lon="108.71041531050797">
        <ele>390.50575500074774</ele>
        <time>2026-08-31T23:22:00Z</time>
      </trkpt>
      <trkpt lat="34.299640508687375" lon="108.71052128834748">
        <ele>391.0834161154926</ele>
        <time>2026-08-31T23:22:12Z</time>
      </trkpt>
      <trkpt lat="34.29959561710652" lon="108.71053100334369">
        <ele>390.5742374295369</ele>
        <time>2026-08-31T23:22:15Z</time>
      </trkpt>
      <trkpt lat="34.29949930631582" lon="108.71061463355281">
        <ele>391.0087997149676</ele>
        <time>2026-08-31T23:22:22Z</time>
      </trkpt>
      <trkpt lat="34.299465453265206" lon="108.71081795837678">
        <ele>390.8206111844629</ele>
        <time>2026-08-31T23:22:35Z</time>
      </trkpt>
      <trkpt lat="34.299420058634" lon="108.71085577949759">
        <ele>391.190651897341</ele>
        <time>2026-08-31T23:22:41Z</time>
      </trkpt>
      <trkpt lat="34.299097793441526" lon="108.7109738283963">
        <ele>390.45371829532087</ele>
        <time>2026-08-31T23:23:53Z</time>
      </trkpt>
      <trkpt lat="34.29893215911522" lon="108.7110313878644">
        <ele>389.68677820824087</ele>
        <time>2026-08-31T23:24:05Z</time>
      </trkpt>
      <trkpt lat="34.298751875720136" lon="108.71112337535726">
        <ele>391.25546127092093</ele>
        <time>2026-08-31T23:24:20Z</time>
      </trkpt>
      <trkpt lat="34.298534772642334" lon="108.71120937330016">
        <ele>389.8516405019909</ele>
        <time>2026-08-31T23:24:39Z</time>
      </trkpt>
      <trkpt lat="34.298509096582265" lon="108.71125880246124">
        <ele>390.1688366346061</ele>
        <time>2026-08-31T23:24:42Z</time>
      </trkpt>
      <trkpt lat="34.29828565982687" lon="108.7113409466428">
        <ele>389.17548924684525</ele>
        <time>2026-08-31T23:25:00Z</time>
      </trkpt>
      <trkpt lat="34.29820757428686" lon="108.71128626138564">
        <ele>389.4556808322668</ele>
        <time>2026-08-31T23:25:06Z</time>
      </trkpt>
      <trkpt lat="34.29809778246814" lon="108.71108615100059">
        <ele>389.6622235579416</ele>
        <time>2026-08-31T23:25:18Z</time>
      </trkpt>
      <trkpt lat="34.29809908170705" lon="108.71101045616078">
        <ele>388.94099450297654</ele>
        <time>2026-08-31T23:25:21Z</time>
      </trkpt>
      <trkpt lat="34.298016418205556" lon="108.71089637463606">
        <ele>389.00227100402117</ele>
        <time>2026-08-31T23:25:27Z</time>
      </trkpt>
      <trkpt lat="34.29805287225914" lon="108.7107393131395">
        <ele>389.2951514935121</ele>
        <time>2026-08-31T23:25:36Z</time>
      </trkpt>
      <trkpt lat="34.29803574373625" lon="108.71059054612718">
        <ele>388.6506296908483</ele>
        <time>2026-08-31T23:25:45Z</time>
      </trkpt>
      <trkpt lat="34.29805180908826" lon="108.71051860123879">
        <ele>389.1795034520328</ele>
        <time>2026-08-31T23:25:51Z</time>
      </trkpt>
      <trkpt lat="34.29799693539893" lon="108.71041382057966">
        <ele>388.8760091504082</ele>
        <time>2026-08-31T23:25:57Z</time>
      </trkpt>
      <trkpt lat="34.298036645336225" lon="108.71024839842441">
        <ele>389.0407221931964</ele>
        <time>2026-08-31T23:26:09Z</time>
      </trkpt>
      <trkpt lat="34.29799196489748" lon="108.71016708291361">
        <ele>388.98083687387407</ele>
        <time>2026-08-31T23:26:15Z</time>
      </trkpt>
      <trkpt lat="34.297806941941026" lon="108.71019765500822">
        <ele>387.8689119145274</ele>
        <time>2026-08-31T23:26:27Z</time>
      </trkpt>
      <trkpt lat="34.297757756793025" lon="108.71023997426869">
        <ele>387.7013111319393</ele>
        <time>2026-08-31T23:26:31Z</time>
      </trkpt>
      <trkpt lat="34.297797672008045" lon="108.71050490113288">
        <ele>387.35747410263866</ele>
        <time>2026-08-31T23:26:49Z</time>
      </trkpt>
      <trkpt lat="34.297797672008045" lon="108.71050490113288">
        <ele>387.35747410263866</ele>
        <time>2026-08-31T23:27:02Z</time>
      </trkpt>
    </trkseg>
  </trk>
</gpx>