<?xml version="1.0" encoding="UTF-8"?>
<gpx xmlns="http://www.topografix.com/GPX/1/1" xmlns:gpxtpx="http://www.garmin.com/xmlschemas/TrackPointExtension/v1" xmlns:xsi="http://www.w3.org/2001/XMLSchema-instance" xsi:schemaLocation="http://www.topografix.com/GPX/1/1 http://www.topografix.com/GPX/1/1/gpx.xsd" version="1.1" creator="gpx.py -- https://github.com/tkrajina/gpxpy">
  <trk>
    <name>gpx from keep</name>
    <type>Ride</type>
    <trkseg>
      <trkpt lat="34.328355546172816" lon="108.98039704018059">
        <ele>401.61594581604004</ele>
        <time>2022-03-06T23:27:13Z</time>
      </trkpt>
      <trkpt lat="34.32830438623698" lon="108.98032993266293">
        <ele>402.40344619750977</ele>
        <time>2022-03-06T23:27:32Z</time>
      </trkpt>
      <trkpt lat="34.32828108421979" lon="108.9804218749578">
        <ele>400.83596420288086</ele>
        <time>2022-03-06T23:27:59Z</time>
      </trkpt>
      <trkpt lat="34.328096648470456" lon="108.98045876488828">
        <ele>398.42676544189453</ele>
        <time>2022-03-06T23:28:15Z</time>
      </trkpt>
      <trkpt lat="34.32818271965577" lon="108.98065087458845">
        <ele>397.1114864349365</ele>
        <time>2022-03-06T23:28:23Z</time>
      </trkpt>
      <trkpt lat="34.32828525199648" lon="108.98053030307692">
        <ele>396.0788345336914</ele>
        <time>2022-03-06T23:28:33Z</time>
      </trkpt>
      <trkpt lat="34.328226798027714" lon="108.98065570181642">
        <ele>396.0638484954834</ele>
        <time>2022-03-06T23:28:39Z</time>
      </trkpt>
      <trkpt lat="34.32809147064849" lon="108.9803596292272">
        <ele>397.26770401000977</ele>
        <time>2022-03-06T23:29:21Z</time>
      </trkpt>
      <trkpt lat="34.328120053182985" lon="108.98024625644138">
        <ele>396.77514266967773</ele>
        <time>2022-03-06T23:29:50Z</time>
      </trkpt>
      <trkpt lat="34.328677941255016" lon="108.9804188061001">
        <ele>396.8285827636719</ele>
        <time>2022-03-06T23:29:56Z</time>
      </trkpt>
      <trkpt lat="34.32872997539332" lon="108.98053635686837">
        <ele>396.99292373657227</ele>
        <time>2022-03-06T23:29:57Z</time>
      </trkpt>
      <trkpt lat="34.32880807931755" lon="108.98056531877475">
        <ele>395.84709252724457</ele>
        <time>2022-03-06T23:30:07Z</time>
      </trkpt>
      <trkpt lat="34.328752616286216" lon="108.98063547304132">
        <ele>396.06658049393445</ele>
        <time>2022-03-06T23:30:15Z</time>
      </trkpt>
      <trkpt lat="34.328732998015404" lon="108.98072604501755">
        <ele>396.00095978938043</ele>
        <time>2022-03-06T23:30:19Z</time>
      </trkpt>
      <trkpt lat="34.32867583866271" lon="108.9807927761242">
        <ele>395.9752731816843</ele>
        <time>2022-03-06T23:30:23Z</time>
      </trkpt>
      <trkpt lat="34.328500216556805" lon="108.98084350289054">
        <ele>395.69361379090697</ele>
        <time>2022-03-06T23:30:33Z</time>
      </trkpt>
      <trkpt lat="34.32839093203218" lon="108.98079211646639">
        <ele>395.0373888434842</ele>
        <time>2022-03-06T23:30:39Z</time>
      </trkpt>
      <trkpt lat="34.32827957575785" lon="108.98082162264842">
        <ele>394.4110492570326</ele>
        <time>2022-03-06T23:30:45Z</time>
      </trkpt>
      <trkpt lat="34.328206996352286" lon="108.98078026565528">
        <ele>394.6671672165394</ele>
        <time>2022-03-06T23:30:49Z</time>
      </trkpt>
      <trkpt lat="34.3281543168908" lon="108.98086559630143">
        <ele>394.36897569987923</ele>
        <time>2022-03-06T23:30:55Z</time>
      </trkpt>
      <trkpt lat="34.32815529107046" lon="108.98098561586065">
        <ele>394.6335131274536</ele>
        <time>2022-03-06T23:31:01Z</time>
      </trkpt>
      <trkpt lat="34.328209902140394" lon="108.98117791944385">
        <ele>394.90221957024187</ele>
        <time>2022-03-06T23:31:13Z</time>
      </trkpt>
      <trkpt lat="34.32821173671275" lon="108.98130124211383">
        <ele>394.6926785921678</ele>
        <time>2022-03-06T23:31:17Z</time>
      </trkpt>
      <trkpt lat="34.32823360504625" lon="108.98138757114593">
        <ele>395.09594032075256</ele>
        <time>2022-03-06T23:31:21Z</time>
      </trkpt>
      <trkpt lat="34.32819941818182" lon="108.98136152881074">
        <ele>394.5240403888747</ele>
        <time>2022-03-06T23:31:33Z</time>
      </trkpt>
      <trkpt lat="34.32814398825798" lon="108.98148132436329">
        <ele>393.68049115128815</ele>
        <time>2022-03-06T23:32:35Z</time>
      </trkpt>
      <trkpt lat="34.32816282433375" lon="108.98175533807736">
        <ele>394.80034743528813</ele>
        <time>2022-03-06T23:32:43Z</time>
      </trkpt>
      <trkpt lat="34.32811913204082" lon="108.98188957581246">
        <ele>394.4483297644183</ele>
        <time>2022-03-06T23:32:49Z</time>
      </trkpt>
      <trkpt lat="34.32807747365715" lon="108.98246257630665">
        <ele>394.0105043826625</ele>
        <time>2022-03-06T23:33:03Z</time>
      </trkpt>
      <trkpt lat="34.328079068256045" lon="108.98274026142651">
        <ele>394.0893268175423</ele>
        <time>2022-03-06T23:33:09Z</time>
      </trkpt>
      <trkpt lat="34.328049984304" lon="108.98292916103637">
        <ele>392.9384569590911</ele>
        <time>2022-03-06T23:33:13Z</time>
      </trkpt>
      <trkpt lat="34.32805752603608" lon="108.98308732619091">
        <ele>392.92750408593565</ele>
        <time>2022-03-06T23:33:16Z</time>
      </trkpt>
      <trkpt lat="34.3281363219912" lon="108.98334077556349">
        <ele>392.67011753842235</ele>
        <time>2022-03-06T23:33:20Z</time>
      </trkpt>
      <trkpt lat="34.328133886159094" lon="108.98376577946445">
        <ele>391.61556144990027</ele>
        <time>2022-03-06T23:33:28Z</time>
      </trkpt>
      <trkpt lat="34.32810907174412" lon="108.98397716048552">
        <ele>389.88080818858</ele>
        <time>2022-03-06T23:33:32Z</time>
      </trkpt>
      <trkpt lat="34.32814442406799" lon="108.98441982009106">
        <ele>391.18076355569065</ele>
        <time>2022-03-06T23:33:42Z</time>
      </trkpt>
      <trkpt lat="34.32807936596357" lon="108.9845041398548">
        <ele>391.68707240279764</ele>
        <time>2022-03-06T23:33:52Z</time>
      </trkpt>
      <trkpt lat="34.327978556276" lon="108.98452992064021">
        <ele>391.3066416773945</ele>
        <time>2022-03-06T23:33:56Z</time>
      </trkpt>
      <trkpt lat="34.32788993924636" lon="108.98466501944935">
        <ele>392.0145350228995</ele>
        <time>2022-03-06T23:34:00Z</time>
      </trkpt>
      <trkpt lat="34.32784492250778" lon="108.98483180826045">
        <ele>390.4878309564665</ele>
        <time>2022-03-06T23:34:04Z</time>
      </trkpt>
      <trkpt lat="34.32785200287061" lon="108.98521729169275">
        <ele>391.2042753873393</ele>
        <time>2022-03-06T23:34:12Z</time>
      </trkpt>
      <trkpt lat="34.32790594272469" lon="108.98578956866884">
        <ele>392.096867101267</ele>
        <time>2022-03-06T23:34:23Z</time>
      </trkpt>
      <trkpt lat="34.32793050372952" lon="108.9859871208939">
        <ele>392.7408766904846</ele>
        <time>2022-03-06T23:34:27Z</time>
      </trkpt>
      <trkpt lat="34.32789977582879" lon="108.98651169900829">
        <ele>392.940861960873</ele>
        <time>2022-03-06T23:34:37Z</time>
      </trkpt>
      <trkpt lat="34.32789472932997" lon="108.98670297808415">
        <ele>391.94692656956613</ele>
        <time>2022-03-06T23:34:41Z</time>
      </trkpt>
      <trkpt lat="34.32791307261627" lon="108.98680183333923">
        <ele>392.9791973317042</ele>
        <time>2022-03-06T23:34:43Z</time>
      </trkpt>
      <trkpt lat="34.32789725539686" lon="108.98690781114946">
        <ele>391.71545210760087</ele>
        <time>2022-03-06T23:34:45Z</time>
      </trkpt>
      <trkpt lat="34.327913250696454" lon="108.98731328338857">
        <ele>394.2875846289098</ele>
        <time>2022-03-06T23:34:53Z</time>
      </trkpt>
      <trkpt lat="34.32790096654685" lon="108.98753225569469">
        <ele>392.9802110558376</ele>
        <time>2022-03-06T23:34:57Z</time>
      </trkpt>
      <trkpt lat="34.327919335668334" lon="108.98765159116724">
        <ele>393.69000094756484</ele>
        <time>2022-03-06T23:34:59Z</time>
      </trkpt>
      <trkpt lat="34.32791428257578" lon="108.98776383810763">
        <ele>393.1250263256952</ele>
        <time>2022-03-06T23:35:01Z</time>
      </trkpt>
      <trkpt lat="34.32794951908971" lon="108.98829794723757">
        <ele>393.03092799149454</ele>
        <time>2022-03-06T23:35:11Z</time>
      </trkpt>
      <trkpt lat="34.32792571583435" lon="108.9888203775986">
        <ele>392.6174597097561</ele>
        <time>2022-03-06T23:35:21Z</time>
      </trkpt>
      <trkpt lat="34.327882680284326" lon="108.98934452324796">
        <ele>391.888030459173</ele>
        <time>2022-03-06T23:35:31Z</time>
      </trkpt>
      <trkpt lat="34.32788908473707" lon="108.98955682339177">
        <ele>391.39689550735056</ele>
        <time>2022-03-06T23:35:35Z</time>
      </trkpt>
      <trkpt lat="34.32787197670766" lon="108.98965922863684">
        <ele>390.8838741714135</ele>
        <time>2022-03-06T23:35:37Z</time>
      </trkpt>
      <trkpt lat="34.32787672729865" lon="108.98975853767116">
        <ele>392.340618644841</ele>
        <time>2022-03-06T23:35:39Z</time>
      </trkpt>
      <trkpt lat="34.32784690181131" lon="108.99003410174969">
        <ele>392.3473298884928</ele>
        <time>2022-03-06T23:35:45Z</time>
      </trkpt>
      <trkpt lat="34.32786485428815" lon="108.99023632358607">
        <ele>392.5052591348067</ele>
        <time>2022-03-06T23:35:49Z</time>
      </trkpt>
      <trkpt lat="34.327833396110265" lon="108.99051875130024">
        <ele>392.17087535280734</ele>
        <time>2022-03-06T23:35:55Z</time>
      </trkpt>
      <trkpt lat="34.327831403333334" lon="108.99068492087989">
        <ele>393.1235247803852</ele>
        <time>2022-03-06T23:35:59Z</time>
      </trkpt>
      <trkpt lat="34.32788414488263" lon="108.99086503627565">
        <ele>391.5175968427211</ele>
        <time>2022-03-06T23:36:03Z</time>
      </trkpt>
      <trkpt lat="34.327903463714314" lon="108.99121600616503">
        <ele>392.19793874863535</ele>
        <time>2022-03-06T23:36:09Z</time>
      </trkpt>
      <trkpt lat="34.32785676090652" lon="108.99156227591703">
        <ele>394.088072264567</ele>
        <time>2022-03-06T23:36:15Z</time>
      </trkpt>
      <trkpt lat="34.327850395843036" lon="108.99208625999707">
        <ele>393.7968458402902</ele>
        <time>2022-03-06T23:36:25Z</time>
      </trkpt>
      <trkpt lat="34.32787155609597" lon="108.9926774158288">
        <ele>391.70940811466426</ele>
        <time>2022-03-06T23:36:37Z</time>
      </trkpt>
      <trkpt lat="34.32787376265739" lon="108.99288393799073">
        <ele>392.2926573930308</ele>
        <time>2022-03-06T23:36:41Z</time>
      </trkpt>
      <trkpt lat="34.32785706521309" lon="108.99315739855432">
        <ele>394.48551884572953</ele>
        <time>2022-03-06T23:36:47Z</time>
      </trkpt>
      <trkpt lat="34.3278563671604" lon="108.99369363993668">
        <ele>392.430057532154</ele>
        <time>2022-03-06T23:36:57Z</time>
      </trkpt>
      <trkpt lat="34.32785118001065" lon="108.99391541215567">
        <ele>393.53635999560356</ele>
        <time>2022-03-06T23:37:01Z</time>
      </trkpt>
      <trkpt lat="34.32788488193509" lon="108.99424565984145">
        <ele>395.0450423853472</ele>
        <time>2022-03-06T23:37:07Z</time>
      </trkpt>
      <trkpt lat="34.327875345457585" lon="108.99455433848603">
        <ele>395.58058397937566</ele>
        <time>2022-03-06T23:37:13Z</time>
      </trkpt>
      <trkpt lat="34.32789613632762" lon="108.99468095221921">
        <ele>394.1227698298171</ele>
        <time>2022-03-06T23:37:15Z</time>
      </trkpt>
      <trkpt lat="34.327881516595035" lon="108.99489040014666">
        <ele>394.0455023050308</ele>
        <time>2022-03-06T23:37:19Z</time>
      </trkpt>
      <trkpt lat="34.32789724372226" lon="108.99498666998468">
        <ele>394.59823924303055</ele>
        <time>2022-03-06T23:37:21Z</time>
      </trkpt>
      <trkpt lat="34.327894049249586" lon="108.99553270077725">
        <ele>395.31868103612214</ele>
        <time>2022-03-06T23:37:31Z</time>
      </trkpt>
      <trkpt lat="34.32792659487905" lon="108.99601883287045">
        <ele>394.76342692319304</ele>
        <time>2022-03-06T23:37:39Z</time>
      </trkpt>
      <trkpt lat="34.327895719213146" lon="108.99655503968472">
        <ele>393.6748714670539</ele>
        <time>2022-03-06T23:37:49Z</time>
      </trkpt>
      <trkpt lat="34.32786113611669" lon="108.99711198106634">
        <ele>393.729747235775</ele>
        <time>2022-03-06T23:37:59Z</time>
      </trkpt>
      <trkpt lat="34.32784495087284" lon="108.99768080560435">
        <ele>393.8552250666544</ele>
        <time>2022-03-06T23:38:09Z</time>
      </trkpt>
      <trkpt lat="34.32785717640348" lon="108.99827316506375">
        <ele>394.66384177003056</ele>
        <time>2022-03-06T23:38:19Z</time>
      </trkpt>
      <trkpt lat="34.327846671386204" lon="108.99881462164491">
        <ele>392.76244555879384</ele>
        <time>2022-03-06T23:38:29Z</time>
      </trkpt>
      <trkpt lat="34.3278280742689" lon="108.999379672786">
        <ele>393.10157309286296</ele>
        <time>2022-03-06T23:38:39Z</time>
      </trkpt>
      <trkpt lat="34.327851723158496" lon="108.99991593927862">
        <ele>393.15410058759153</ele>
        <time>2022-03-06T23:38:51Z</time>
      </trkpt>
      <trkpt lat="34.32786658428835" lon="109.00053850236999">
        <ele>393.77179712522775</ele>
        <time>2022-03-06T23:39:01Z</time>
      </trkpt>
      <trkpt lat="34.327856007201234" lon="109.00066127425107">
        <ele>393.9539378574118</ele>
        <time>2022-03-06T23:39:03Z</time>
      </trkpt>
      <trkpt lat="34.32787083687884" lon="109.00128162393814">
        <ele>393.3534500133246</ele>
        <time>2022-03-06T23:39:13Z</time>
      </trkpt>
      <trkpt lat="34.327848990053766" lon="109.00140268070056">
        <ele>392.19831953104585</ele>
        <time>2022-03-06T23:39:15Z</time>
      </trkpt>
      <trkpt lat="34.32786279331993" lon="109.002009929229">
        <ele>393.13797392416745</ele>
        <time>2022-03-06T23:39:25Z</time>
      </trkpt>
      <trkpt lat="34.32786045565638" lon="109.00224250921627">
        <ele>392.91102633811533</ele>
        <time>2022-03-06T23:39:29Z</time>
      </trkpt>
      <trkpt lat="34.32788502871815" lon="109.00235305889068">
        <ele>393.51250982191414</ele>
        <time>2022-03-06T23:39:31Z</time>
      </trkpt>
      <trkpt lat="34.3278499511152" lon="109.00297172022474">
        <ele>393.93701638653874</ele>
        <time>2022-03-06T23:39:43Z</time>
      </trkpt>
      <trkpt lat="34.3278378043577" lon="109.00328759375869">
        <ele>393.9358660597354</ele>
        <time>2022-03-06T23:39:49Z</time>
      </trkpt>
      <trkpt lat="34.32780796283692" lon="109.00348152347931">
        <ele>393.71166182216257</ele>
        <time>2022-03-06T23:39:53Z</time>
      </trkpt>
      <trkpt lat="34.32782099023004" lon="109.00404343222732">
        <ele>393.85132708773017</ele>
        <time>2022-03-06T23:40:05Z</time>
      </trkpt>
      <trkpt lat="34.32780023697371" lon="109.00416790641691">
        <ele>394.4292021403089</ele>
        <time>2022-03-06T23:40:13Z</time>
      </trkpt>
      <trkpt lat="34.32783669412089" lon="109.00441682654893">
        <ele>393.2851263033226</ele>
        <time>2022-03-06T23:40:19Z</time>
      </trkpt>
      <trkpt lat="34.327837747232415" lon="109.00458732661022">
        <ele>392.8593344623223</ele>
        <time>2022-03-06T23:40:23Z</time>
      </trkpt>
      <trkpt lat="34.32780654980512" lon="109.00491066141396">
        <ele>393.9080154839903</ele>
        <time>2022-03-06T23:40:31Z</time>
      </trkpt>
      <trkpt lat="34.327799305649165" lon="109.00544883921557">
        <ele>393.88476381264627</ele>
        <time>2022-03-06T23:40:47Z</time>
      </trkpt>
      <trkpt lat="34.327805493103035" lon="109.00589195781811">
        <ele>393.1718257991597</ele>
        <time>2022-03-06T23:40:55Z</time>
      </trkpt>
      <trkpt lat="34.32777721886644" lon="109.00616540841237">
        <ele>393.91287441924214</ele>
        <time>2022-03-06T23:41:03Z</time>
      </trkpt>
      <trkpt lat="34.32779770926389" lon="109.00632689136489">
        <ele>393.32752983924</ele>
        <time>2022-03-06T23:41:07Z</time>
      </trkpt>
      <trkpt lat="34.32778044557191" lon="109.00655280356216">
        <ele>394.67264044098556</ele>
        <time>2022-03-06T23:41:21Z</time>
      </trkpt>
      <trkpt lat="34.327782847098135" lon="109.00687861653131">
        <ele>394.9503732258454</ele>
        <time>2022-03-06T23:41:34Z</time>
      </trkpt>
      <trkpt lat="34.327825820388924" lon="109.00745188299996">
        <ele>393.5134406229481</ele>
        <time>2022-03-06T23:41:44Z</time>
      </trkpt>
      <trkpt lat="34.327835655713685" lon="109.00797621930299">
        <ele>392.3054766850546</ele>
        <time>2022-03-06T23:41:52Z</time>
      </trkpt>
      <trkpt lat="34.32784465613323" lon="109.00850716954048">
        <ele>391.54280209634453</ele>
        <time>2022-03-06T23:42:00Z</time>
      </trkpt>
      <trkpt lat="34.327887681652555" lon="109.0090733919609">
        <ele>391.0070883668959</ele>
        <time>2022-03-06T23:42:08Z</time>
      </trkpt>
      <trkpt lat="34.327892159017495" lon="109.00965538795039">
        <ele>388.5231017116457</ele>
        <time>2022-03-06T23:42:16Z</time>
      </trkpt>
      <trkpt lat="34.32789193870214" lon="109.01021918408622">
        <ele>386.50849558319896</ele>
        <time>2022-03-06T23:42:24Z</time>
      </trkpt>
      <trkpt lat="34.32784140105043" lon="109.01083945042802">
        <ele>385.59898291993886</ele>
        <time>2022-03-06T23:42:34Z</time>
      </trkpt>
      <trkpt lat="34.3278362706165" lon="109.01142762219202">
        <ele>387.810783136636</ele>
        <time>2022-03-06T23:42:45Z</time>
      </trkpt>
      <trkpt lat="34.32785117957889" lon="109.011755913342">
        <ele>387.5900108041242</ele>
        <time>2022-03-06T23:42:51Z</time>
      </trkpt>
      <trkpt lat="34.327874794365094" lon="109.01197002172789">
        <ele>387.24470724724233</ele>
        <time>2022-03-06T23:42:55Z</time>
      </trkpt>
      <trkpt lat="34.32788354562124" lon="109.01238920336516">
        <ele>387.05816607084125</ele>
        <time>2022-03-06T23:43:03Z</time>
      </trkpt>
      <trkpt lat="34.32783923025543" lon="109.0126978727966">
        <ele>387.39685524906963</ele>
        <time>2022-03-06T23:43:09Z</time>
      </trkpt>
      <trkpt lat="34.32783892561163" lon="109.01322971508816">
        <ele>388.5870405100286</ele>
        <time>2022-03-06T23:43:19Z</time>
      </trkpt>
      <trkpt lat="34.32784220170145" lon="109.01365117777668">
        <ele>390.3069539228454</ele>
        <time>2022-03-06T23:43:27Z</time>
      </trkpt>
      <trkpt lat="34.32786926191898" lon="109.0142146785374">
        <ele>388.312825624831</ele>
        <time>2022-03-06T23:43:37Z</time>
      </trkpt>
      <trkpt lat="34.32786433509029" lon="109.0147579022528">
        <ele>388.0464263148606</ele>
        <time>2022-03-06T23:43:47Z</time>
      </trkpt>
      <trkpt lat="34.327876909558285" lon="109.01531646888864">
        <ele>387.52493412885815</ele>
        <time>2022-03-06T23:43:57Z</time>
      </trkpt>
      <trkpt lat="34.327843348278826" lon="109.01585707684171">
        <ele>386.49680418521166</ele>
        <time>2022-03-06T23:44:07Z</time>
      </trkpt>
      <trkpt lat="34.32784512528648" lon="109.01596039063058">
        <ele>386.78672632575035</ele>
        <time>2022-03-06T23:44:09Z</time>
      </trkpt>
      <trkpt lat="34.32782498615229" lon="109.01606298721181">
        <ele>387.1537877637893</ele>
        <time>2022-03-06T23:44:11Z</time>
      </trkpt>
      <trkpt lat="34.327824608263136" lon="109.01636527012215">
        <ele>387.08418034389615</ele>
        <time>2022-03-06T23:44:17Z</time>
      </trkpt>
      <trkpt lat="34.32777085162167" lon="109.01677877332587">
        <ele>386.7918557934463</ele>
        <time>2022-03-06T23:44:25Z</time>
      </trkpt>
      <trkpt lat="34.327636486922515" lon="109.01727743513314">
        <ele>387.49391387123615</ele>
        <time>2022-03-06T23:44:35Z</time>
      </trkpt>
      <trkpt lat="34.327573627431164" lon="109.01787221223027">
        <ele>388.16993268206716</ele>
        <time>2022-03-06T23:44:47Z</time>
      </trkpt>
      <trkpt lat="34.327615181185145" lon="109.01824448711002">
        <ele>388.1994523219764</ele>
        <time>2022-03-06T23:44:55Z</time>
      </trkpt>
      <trkpt lat="34.327595892666224" lon="109.01845177016288">
        <ele>387.81694998871535</ele>
        <time>2022-03-06T23:44:59Z</time>
      </trkpt>
      <trkpt lat="34.32749687798371" lon="109.0186325541233">
        <ele>388.38708070479333</ele>
        <time>2022-03-06T23:45:03Z</time>
      </trkpt>
      <trkpt lat="34.327441773326846" lon="109.01870317905517">
        <ele>387.5535070532933</ele>
        <time>2022-03-06T23:45:05Z</time>
      </trkpt>
      <trkpt lat="34.327168740684854" lon="109.01919242134817">
        <ele>388.47843881323934</ele>
        <time>2022-03-06T23:45:16Z</time>
      </trkpt>
      <trkpt lat="34.326891932500274" lon="109.01964147471432">
        <ele>387.9571700422093</ele>
        <time>2022-03-06T23:45:26Z</time>
      </trkpt>
      <trkpt lat="34.32677754062946" lon="109.01982319673708">
        <ele>387.63323720823973</ele>
        <time>2022-03-06T23:45:30Z</time>
      </trkpt>
      <trkpt lat="34.32652455467815" lon="109.0201819731901">
        <ele>388.12742680404335</ele>
        <time>2022-03-06T23:45:38Z</time>
      </trkpt>
      <trkpt lat="34.32614082226635" lon="109.0205529605132">
        <ele>387.9339876258746</ele>
        <time>2022-03-06T23:45:48Z</time>
      </trkpt>
      <trkpt lat="34.3260702221468" lon="109.02063016226694">
        <ele>388.0663430672139</ele>
        <time>2022-03-06T23:45:50Z</time>
      </trkpt>
      <trkpt lat="34.325685666344455" lon="109.02094974367093">
        <ele>387.7516552647576</ele>
        <time>2022-03-06T23:46:00Z</time>
      </trkpt>
      <trkpt lat="34.325376876006366" lon="109.02118340960592">
        <ele>387.6183856772259</ele>
        <time>2022-03-06T23:46:08Z</time>
      </trkpt>
      <trkpt lat="34.3249488689598" lon="109.02141223639839">
        <ele>387.9613655768335</ele>
        <time>2022-03-06T23:46:18Z</time>
      </trkpt>
      <trkpt lat="34.32450038175291" lon="109.02157648026785">
        <ele>387.7974121225998</ele>
        <time>2022-03-06T23:46:28Z</time>
      </trkpt>
      <trkpt lat="34.32404038371401" lon="109.0216928340811">
        <ele>387.3950708033517</ele>
        <time>2022-03-06T23:46:38Z</time>
      </trkpt>
      <trkpt lat="34.32355204845176" lon="109.021750581471">
        <ele>388.24430729448795</ele>
        <time>2022-03-06T23:46:48Z</time>
      </trkpt>
      <trkpt lat="34.32303067594709" lon="109.02178796821053">
        <ele>389.0112896133214</ele>
        <time>2022-03-06T23:46:59Z</time>
      </trkpt>
      <trkpt lat="34.32255869690424" lon="109.02179360098742">
        <ele>388.89123529568315</ele>
        <time>2022-03-06T23:47:09Z</time>
      </trkpt>
      <trkpt lat="34.32208859661833" lon="109.02173591054334">
        <ele>388.7690941998735</ele>
        <time>2022-03-06T23:47:19Z</time>
      </trkpt>
      <trkpt lat="34.3216144453701" lon="109.02167379881878">
        <ele>389.0171869089827</ele>
        <time>2022-03-06T23:47:29Z</time>
      </trkpt>
      <trkpt lat="34.32113311233938" lon="109.02162129659986">
        <ele>390.4699908765033</ele>
        <time>2022-03-06T23:47:39Z</time>
      </trkpt>
      <trkpt lat="34.32063505504153" lon="109.02153439237291">
        <ele>389.9680754588917</ele>
        <time>2022-03-06T23:47:49Z</time>
      </trkpt>
      <trkpt lat="34.320131107479035" lon="109.02146613128626">
        <ele>389.69624954555184</ele>
        <time>2022-03-06T23:47:59Z</time>
      </trkpt>
      <trkpt lat="34.31963457477415" lon="109.02140872805488">
        <ele>389.09479829482734</ele>
        <time>2022-03-06T23:48:09Z</time>
      </trkpt>
      <trkpt lat="34.31915763297828" lon="109.02140866613894">
        <ele>389.6459449371323</ele>
        <time>2022-03-06T23:48:19Z</time>
      </trkpt>
      <trkpt lat="34.31868503958243" lon="109.02144061869544">
        <ele>389.72070228215307</ele>
        <time>2022-03-06T23:48:29Z</time>
      </trkpt>
      <trkpt lat="34.3182108532067" lon="109.02149433965191">
        <ele>390.25662338361144</ele>
        <time>2022-03-06T23:48:39Z</time>
      </trkpt>
      <trkpt lat="34.31773160560043" lon="109.0215398398045">
        <ele>390.2630044911057</ele>
        <time>2022-03-06T23:48:49Z</time>
      </trkpt>
      <trkpt lat="34.317249093878246" lon="109.02158872041511">
        <ele>390.0496630417183</ele>
        <time>2022-03-06T23:48:59Z</time>
      </trkpt>
      <trkpt lat="34.31677645108702" lon="109.02167097563324">
        <ele>390.2306647580117</ele>
        <time>2022-03-06T23:49:09Z</time>
      </trkpt>
      <trkpt lat="34.31649617531469" lon="109.02172844649058">
        <ele>390.2936420403421</ele>
        <time>2022-03-06T23:49:15Z</time>
      </trkpt>
      <trkpt lat="34.316229212228194" lon="109.02182066806579">
        <ele>391.386981186457</ele>
        <time>2022-03-06T23:49:21Z</time>
      </trkpt>
      <trkpt lat="34.31608091987473" lon="109.02190953840123">
        <ele>391.5473006302491</ele>
        <time>2022-03-06T23:49:25Z</time>
      </trkpt>
      <trkpt lat="34.31603308078582" lon="109.02198732852862">
        <ele>391.59606833476573</ele>
        <time>2022-03-06T23:49:27Z</time>
      </trkpt>
      <trkpt lat="34.3160143769827" lon="109.02211022005932">
        <ele>391.1200866512954</ele>
        <time>2022-03-06T23:49:31Z</time>
      </trkpt>
      <trkpt lat="34.31595138067514" lon="109.02220022751584">
        <ele>391.4835150176659</ele>
        <time>2022-03-06T23:49:35Z</time>
      </trkpt>
      <trkpt lat="34.31586397073889" lon="109.02226238137027">
        <ele>390.93208400532603</ele>
        <time>2022-03-06T23:49:53Z</time>
      </trkpt>
      <trkpt lat="34.3157657999195" lon="109.02239743551422">
        <ele>391.50842458661646</ele>
        <time>2022-03-06T23:50:22Z</time>
      </trkpt>
      <trkpt lat="34.315746717057934" lon="109.02250186607868">
        <ele>391.03001874219626</ele>
        <time>2022-03-06T23:50:24Z</time>
      </trkpt>
      <trkpt lat="34.315807059936084" lon="109.02272025556199">
        <ele>390.4498791396618</ele>
        <time>2022-03-06T23:50:28Z</time>
      </trkpt>
      <trkpt lat="34.316027692141425" lon="109.02324860055012">
        <ele>388.229058874771</ele>
        <time>2022-03-06T23:50:38Z</time>
      </trkpt>
      <trkpt lat="34.31615901963936" lon="109.02356079378153">
        <ele>388.0058442829177</ele>
        <time>2022-03-06T23:50:44Z</time>
      </trkpt>
      <trkpt lat="34.316183327735764" lon="109.02365588850478">
        <ele>388.2573358528316</ele>
        <time>2022-03-06T23:50:46Z</time>
      </trkpt>
      <trkpt lat="34.31613504685948" lon="109.02372765820981">
        <ele>388.4061514670029</ele>
        <time>2022-03-06T23:50:48Z</time>
      </trkpt>
      <trkpt lat="34.31599179747517" lon="109.0238563477328">
        <ele>388.54834013804793</ele>
        <time>2022-03-06T23:50:52Z</time>
      </trkpt>
      <trkpt lat="34.31557428482274" lon="109.0240760780379">
        <ele>389.11407573428005</ele>
        <time>2022-03-06T23:51:02Z</time>
      </trkpt>
      <trkpt lat="34.315243006669654" lon="109.02428925272005">
        <ele>391.34689629264176</ele>
        <time>2022-03-06T23:51:11Z</time>
      </trkpt>
      <trkpt lat="34.31494593690505" lon="109.02450290260616">
        <ele>390.7192066395655</ele>
        <time>2022-03-06T23:51:19Z</time>
      </trkpt>
      <trkpt lat="34.31488848842034" lon="109.0245681215752">
        <ele>391.16614224854857</ele>
        <time>2022-03-06T23:51:21Z</time>
      </trkpt>
      <trkpt lat="34.3145750344264" lon="109.02475072967393">
        <ele>390.31006073299795</ele>
        <time>2022-03-06T23:51:29Z</time>
      </trkpt>
      <trkpt lat="34.314204849654075" lon="109.0250395008024">
        <ele>390.56298584491014</ele>
        <time>2022-03-06T23:51:39Z</time>
      </trkpt>
      <trkpt lat="34.31413126642751" lon="109.02510721703445">
        <ele>390.10574849229306</ele>
        <time>2022-03-06T23:51:41Z</time>
      </trkpt>
      <trkpt lat="34.3136557704821" lon="109.02531754360113">
        <ele>388.96083671599627</ele>
        <time>2022-03-06T23:51:51Z</time>
      </trkpt>
      <trkpt lat="34.3132055269959" lon="109.02555063179335">
        <ele>390.1165927564725</ele>
        <time>2022-03-06T23:52:01Z</time>
      </trkpt>
      <trkpt lat="34.312778200536044" lon="109.02582477508255">
        <ele>391.95456385891885</ele>
        <time>2022-03-06T23:52:11Z</time>
      </trkpt>
      <trkpt lat="34.31246399457192" lon="109.0260244982208">
        <ele>392.55815893318504</ele>
        <time>2022-03-06T23:52:19Z</time>
      </trkpt>
      <trkpt lat="34.312405348905855" lon="109.02608737741481">
        <ele>392.3371868133545</ele>
        <time>2022-03-06T23:52:21Z</time>
      </trkpt>
      <trkpt lat="34.31231441000887" lon="109.0261409623419">
        <ele>392.3730040676892</ele>
        <time>2022-03-06T23:52:23Z</time>
      </trkpt>
      <trkpt lat="34.31223493960728" lon="109.02622004613313">
        <ele>391.9562145238742</ele>
        <time>2022-03-06T23:52:25Z</time>
      </trkpt>
      <trkpt lat="34.31212136912553" lon="109.02626038222778">
        <ele>391.3186946986243</ele>
        <time>2022-03-06T23:52:27Z</time>
      </trkpt>
      <trkpt lat="34.31204748204109" lon="109.02634538641337">
        <ele>390.7608824633062</ele>
        <time>2022-03-06T23:52:29Z</time>
      </trkpt>
      <trkpt lat="34.311938126401195" lon="109.02639905283925">
        <ele>391.71129454672337</ele>
        <time>2022-03-06T23:52:31Z</time>
      </trkpt>
      <trkpt lat="34.311662320442416" lon="109.02669407509615">
        <ele>391.7171910479665</ele>
        <time>2022-03-06T23:52:39Z</time>
      </trkpt>
      <trkpt lat="34.311465032706444" lon="109.02705847137884">
        <ele>391.08833557739854</ele>
        <time>2022-03-06T23:52:47Z</time>
      </trkpt>
      <trkpt lat="34.311405788652046" lon="109.02713005171894">
        <ele>390.94536126963794</ele>
        <time>2022-03-06T23:52:49Z</time>
      </trkpt>
      <trkpt lat="34.311325713447445" lon="109.02718833394258">
        <ele>390.75438570883125</ele>
        <time>2022-03-06T23:52:51Z</time>
      </trkpt>
      <trkpt lat="34.31126612175847" lon="109.02726109673749">
        <ele>390.6649829354137</ele>
        <time>2022-03-06T23:52:53Z</time>
      </trkpt>
      <trkpt lat="34.311190777987214" lon="109.0274620107527">
        <ele>390.832432217896</ele>
        <time>2022-03-06T23:52:57Z</time>
      </trkpt>
      <trkpt lat="34.311147537269946" lon="109.02778232790024">
        <ele>390.6963111227378</ele>
        <time>2022-03-06T23:53:03Z</time>
      </trkpt>
      <trkpt lat="34.3111935446741" lon="109.0283062630423">
        <ele>389.7296624984592</ele>
        <time>2022-03-06T23:53:13Z</time>
      </trkpt>
      <trkpt lat="34.311189315311154" lon="109.02841128806459">
        <ele>390.1329797934741</ele>
        <time>2022-03-06T23:53:15Z</time>
      </trkpt>
      <trkpt lat="34.311085852025265" lon="109.0287178170286">
        <ele>390.7650922378525</ele>
        <time>2022-03-06T23:53:21Z</time>
      </trkpt>
      <trkpt lat="34.310979320230786" lon="109.02889367193029">
        <ele>391.0776823507622</ele>
        <time>2022-03-06T23:53:25Z</time>
      </trkpt>
      <trkpt lat="34.310595344732114" lon="109.02928714425428">
        <ele>390.1755419392139</ele>
        <time>2022-03-06T23:53:37Z</time>
      </trkpt>
      <trkpt lat="34.31034013178368" lon="109.0295351326185">
        <ele>390.7196569237858</ele>
        <time>2022-03-06T23:53:45Z</time>
      </trkpt>
      <trkpt lat="34.310139553634" lon="109.02954001733801">
        <ele>391.7503616614267</ele>
        <time>2022-03-06T23:53:49Z</time>
      </trkpt>
      <trkpt lat="34.30984148301173" lon="109.0295048939328">
        <ele>390.89508606586605</ele>
        <time>2022-03-06T23:53:55Z</time>
      </trkpt>
      <trkpt lat="34.309565428993984" lon="109.02940116234849">
        <ele>391.2316446863115</ele>
        <time>2022-03-06T23:54:01Z</time>
      </trkpt>
      <trkpt lat="34.309190876777016" lon="109.02906283150526">
        <ele>391.62358376197517</ele>
        <time>2022-03-06T23:54:11Z</time>
      </trkpt>
      <trkpt lat="34.309051155667014" lon="109.02891572523275">
        <ele>390.7831522366032</ele>
        <time>2022-03-06T23:54:15Z</time>
      </trkpt>
      <trkpt lat="34.30888257179419" lon="109.02883179332414">
        <ele>391.9426765870303</ele>
        <time>2022-03-06T23:54:19Z</time>
      </trkpt>
      <trkpt lat="34.30869802620706" lon="109.0288040860605">
        <ele>391.5963736055419</ele>
        <time>2022-03-06T23:54:23Z</time>
      </trkpt>
      <trkpt lat="34.30833233619089" lon="109.02886955296765">
        <ele>390.8609685320407</ele>
        <time>2022-03-06T23:54:31Z</time>
      </trkpt>
      <trkpt lat="34.3082433810461" lon="109.02891427231646">
        <ele>390.3789086602628</ele>
        <time>2022-03-06T23:54:33Z</time>
      </trkpt>
      <trkpt lat="34.308096352635495" lon="109.02905012158428">
        <ele>390.7155831474811</ele>
        <time>2022-03-06T23:54:37Z</time>
      </trkpt>
      <trkpt lat="34.3078187616538" lon="109.02948357419848">
        <ele>391.0551728112623</ele>
        <time>2022-03-06T23:54:47Z</time>
      </trkpt>
      <trkpt lat="34.307511593514654" lon="109.02990275422879">
        <ele>391.44756745547056</ele>
        <time>2022-03-06T23:54:57Z</time>
      </trkpt>
      <trkpt lat="34.307117691711724" lon="109.03022040647579">
        <ele>391.2524261800572</ele>
        <time>2022-03-06T23:55:07Z</time>
      </trkpt>
      <trkpt lat="34.306677334792596" lon="109.03048883046313">
        <ele>390.6135348677635</ele>
        <time>2022-03-06T23:55:17Z</time>
      </trkpt>
      <trkpt lat="34.30624200901023" lon="109.0307301481562">
        <ele>390.70057753659785</ele>
        <time>2022-03-06T23:55:27Z</time>
      </trkpt>
      <trkpt lat="34.30617804499542" lon="109.03080793557304">
        <ele>391.19697655551136</ele>
        <time>2022-03-06T23:55:29Z</time>
      </trkpt>
      <trkpt lat="34.30616988792446" lon="109.03090450507591">
        <ele>391.2608501762152</ele>
        <time>2022-03-06T23:55:31Z</time>
      </trkpt>
      <trkpt lat="34.306196087240636" lon="109.0310114932997">
        <ele>390.4895010255277</ele>
        <time>2022-03-06T23:55:33Z</time>
      </trkpt>
      <trkpt lat="34.3062499186622" lon="109.0311057137257">
        <ele>390.1104312837124</ele>
        <time>2022-03-06T23:55:35Z</time>
      </trkpt>
      <trkpt lat="34.306275450243696" lon="109.03121872342693">
        <ele>389.86442168895155</ele>
        <time>2022-03-06T23:55:37Z</time>
      </trkpt>
      <trkpt lat="34.306321283308996" lon="109.03185369862118">
        <ele>391.01512331608683</ele>
        <time>2022-03-06T23:55:47Z</time>
      </trkpt>
      <trkpt lat="34.30637098469065" lon="109.03248308109413">
        <ele>392.3495891597122</ele>
        <time>2022-03-06T23:55:57Z</time>
      </trkpt>
      <trkpt lat="34.30641452503421" lon="109.03310780236615">
        <ele>391.93000096455216</ele>
        <time>2022-03-06T23:56:07Z</time>
      </trkpt>
      <trkpt lat="34.30646255845262" lon="109.03371531028037">
        <ele>391.36931174248457</ele>
        <time>2022-03-06T23:56:17Z</time>
      </trkpt>
      <trkpt lat="34.30649396572776" lon="109.03406049627131">
        <ele>391.5508660255</ele>
        <time>2022-03-06T23:56:23Z</time>
      </trkpt>
      <trkpt lat="34.30653167203556" lon="109.03464377538249">
        <ele>392.1012451183051</ele>
        <time>2022-03-06T23:56:33Z</time>
      </trkpt>
      <trkpt lat="34.30657216078352" lon="109.03525218560851">
        <ele>392.42507600132376</ele>
        <time>2022-03-06T23:56:43Z</time>
      </trkpt>
      <trkpt lat="34.30661172422422" lon="109.0357881807048">
        <ele>392.02497084531933</ele>
        <time>2022-03-06T23:56:53Z</time>
      </trkpt>
      <trkpt lat="34.30654680969253" lon="109.03597381776733">
        <ele>391.8555616158992</ele>
        <time>2022-03-06T23:57:09Z</time>
      </trkpt>
      <trkpt lat="34.30656223668374" lon="109.03617837236278">
        <ele>391.82413851842284</ele>
        <time>2022-03-06T23:57:25Z</time>
      </trkpt>
      <trkpt lat="34.30654262704971" lon="109.0362971558105">
        <ele>391.5543099604547</ele>
        <time>2022-03-06T23:57:33Z</time>
      </trkpt>
      <trkpt lat="34.30654891566957" lon="109.03654411624234">
        <ele>391.45613863971084</ele>
        <time>2022-03-06T23:57:51Z</time>
      </trkpt>
    </trkseg>
  </trk>
</gpx>