<?xml version="1.0" encoding="UTF-8"?>
<gpx xmlns="http://www.topografix.com/GPX/1/1" xmlns:gpxtpx="http://www.garmin.com/xmlschemas/TrackPointExtension/v1" xmlns:xsi="http://www.w3.org/2001/XMLSchema-instance" xsi:schemaLocation="http://www.topografix.com/GPX/1/1 http://www.topografix.com/GPX/1/1/gpx.xsd" version="1.1" creator="gpx.py -- https://github.com/tkrajina/gpxpy">
  <trk>
    <name>gpx from keep</name>
    <type>Run</type>
    <trkseg>
      <trkpt lat="34.29718063296978" lon="108.71046354068186">
        <ele>392.8537647488596</ele>
        <time>2026-09-17T13:10:32Z</time>
      </trkpt>
      <trkpt lat="34.29727609321775" lon="108.71040487844635">
        <ele>394.305989339935</ele>
        <time>2026-09-17T13:10:38Z</time>
      </trkpt>
      <trkpt lat="34.29762842420767" lon="108.71040823297069">
        <ele>393.8108666916143</ele>
        <time>2026-09-17T13:10:44Z</time>
      </trkpt>
      <trkpt lat="34.29765279962928" lon="108.71045599737649">
        <ele>394.2337720062964</ele>
        <time>2026-09-17T13:10:56Z</time>
      </trkpt>
      <trkpt lat="34.29758293057738" lon="108.71039623745223">
        <ele>392.14620332067415</ele>
        <time>2026-09-17T13:12:06Z</time>
      </trkpt>
      <trkpt lat="34.297752000716976" lon="108.71027593072822">
        <ele>388.1909408569336</ele>
        <time>2026-09-17T13:12:13Z</time>
      </trkpt>
      <trkpt lat="34.29772106178683" lon="108.71019989570036">
        <ele>386.6653060913086</ele>
        <time>2026-09-17T13:12:19Z</time>
      </trkpt>
      <trkpt lat="34.297739865899544" lon="108.71012192078037">
        <ele>386.93904948886484</ele>
        <time>2026-09-17T13:12:22Z</time>
      </trkpt>
      <trkpt lat="34.297959653523066" lon="108.71009620903976">
        <ele>386.4216541228816</ele>
        <time>2026-09-17T13:12:31Z</time>
      </trkpt>
      <trkpt lat="34.29802235998516" lon="108.71014392802738">
        <ele>386.0532459076494</ele>
        <time>2026-09-17T13:12:34Z</time>
      </trkpt>
      <trkpt lat="34.29804109812292" lon="108.71037975731903">
        <ele>390.47279074043036</ele>
        <time>2026-09-17T13:12:40Z</time>
      </trkpt>
      <trkpt lat="34.29801710146961" lon="108.71051741623019">
        <ele>388.87304611038417</ele>
        <time>2026-09-17T13:12:46Z</time>
      </trkpt>
      <trkpt lat="34.29806716142771" lon="108.71057841178543">
        <ele>389.2577118370682</ele>
        <time>2026-09-17T13:12:49Z</time>
      </trkpt>
      <trkpt lat="34.298069133654444" lon="108.71065614864277">
        <ele>388.130568606779</ele>
        <time>2026-09-17T13:12:52Z</time>
      </trkpt>
      <trkpt lat="34.29803658678033" lon="108.7107248898885">
        <ele>389.04521452169865</ele>
        <time>2026-09-17T13:12:55Z</time>
      </trkpt>
      <trkpt lat="34.29803604601621" lon="108.7107832255067">
        <ele>389.0293318685144</ele>
        <time>2026-09-17T13:12:58Z</time>
      </trkpt>
      <trkpt lat="34.29813204490253" lon="108.71099399385008">
        <ele>389.4241197062656</ele>
        <time>2026-09-17T13:13:07Z</time>
      </trkpt>
      <trkpt lat="34.29818525934117" lon="108.71133170434922">
        <ele>387.61201791185886</ele>
        <time>2026-09-17T13:13:22Z</time>
      </trkpt>
      <trkpt lat="34.298168314896095" lon="108.71139827266944">
        <ele>388.19813327211887</ele>
        <time>2026-09-17T13:13:25Z</time>
      </trkpt>
      <trkpt lat="34.2978794654768" lon="108.71151380099809">
        <ele>387.6496202060953</ele>
        <time>2026-09-17T13:13:40Z</time>
      </trkpt>
      <trkpt lat="34.297614348750976" lon="108.71161045579993">
        <ele>388.009173925966</ele>
        <time>2026-09-17T13:13:55Z</time>
      </trkpt>
      <trkpt lat="34.29742011383035" lon="108.71170078462211">
        <ele>390.16612053941935</ele>
        <time>2026-09-17T13:14:10Z</time>
      </trkpt>
      <trkpt lat="34.29720971604956" lon="108.71172999072685">
        <ele>389.01440701354295</ele>
        <time>2026-09-17T13:14:23Z</time>
      </trkpt>
      <trkpt lat="34.296955670642305" lon="108.7118465542936">
        <ele>387.86702917329967</ele>
        <time>2026-09-17T13:14:38Z</time>
      </trkpt>
      <trkpt lat="34.29668906115001" lon="108.71196003992351">
        <ele>387.9066270906478</ele>
        <time>2026-09-17T13:14:53Z</time>
      </trkpt>
      <trkpt lat="34.296423899851256" lon="108.71209595989995">
        <ele>388.2539946064353</ele>
        <time>2026-09-17T13:15:08Z</time>
      </trkpt>
      <trkpt lat="34.296369027249185" lon="108.71208880361121">
        <ele>387.94321429077536</ele>
        <time>2026-09-17T13:15:11Z</time>
      </trkpt>
      <trkpt lat="34.29632634952876" lon="108.71206301175219">
        <ele>387.67221294157207</ele>
        <time>2026-09-17T13:15:14Z</time>
      </trkpt>
      <trkpt lat="34.29627171702441" lon="108.71195520678653">
        <ele>386.90070607326925</ele>
        <time>2026-09-17T13:15:20Z</time>
      </trkpt>
      <trkpt lat="34.29622430703572" lon="108.711587401544">
        <ele>387.55590004846454</ele>
        <time>2026-09-17T13:15:38Z</time>
      </trkpt>
      <trkpt lat="34.29618144885475" lon="108.71123262982562">
        <ele>389.58920599427074</ele>
        <time>2026-09-17T13:15:56Z</time>
      </trkpt>
      <trkpt lat="34.296137056095176" lon="108.71087802330182">
        <ele>389.9143426110968</ele>
        <time>2026-09-17T13:16:14Z</time>
      </trkpt>
      <trkpt lat="34.29606094562961" lon="108.71049718342974">
        <ele>389.95637801196426</ele>
        <time>2026-09-17T13:16:32Z</time>
      </trkpt>
      <trkpt lat="34.29600850573828" lon="108.71015924807271">
        <ele>389.76768082845956</ele>
        <time>2026-09-17T13:16:48Z</time>
      </trkpt>
      <trkpt lat="34.29595640574134" lon="108.70980137020236">
        <ele>389.1380740115419</ele>
        <time>2026-09-17T13:17:06Z</time>
      </trkpt>
      <trkpt lat="34.29593947666353" lon="108.70944352074882">
        <ele>389.83435404952615</ele>
        <time>2026-09-17T13:17:24Z</time>
      </trkpt>
      <trkpt lat="34.295941821130505" lon="108.70938280193738">
        <ele>391.73425530362874</ele>
        <time>2026-09-17T13:17:27Z</time>
      </trkpt>
      <trkpt lat="34.29589302388365" lon="108.70915544965679">
        <ele>389.54389873705804</ele>
        <time>2026-09-17T13:17:39Z</time>
      </trkpt>
      <trkpt lat="34.295880239522226" lon="108.70890666683202">
        <ele>390.54948382731527</ele>
        <time>2026-09-17T13:17:51Z</time>
      </trkpt>
      <trkpt lat="34.295850526492515" lon="108.70885458248999">
        <ele>390.2645105496049</ele>
        <time>2026-09-17T13:17:54Z</time>
      </trkpt>
      <trkpt lat="34.29583987242946" lon="108.70858380628589">
        <ele>390.49901508539915</ele>
        <time>2026-09-17T13:18:06Z</time>
      </trkpt>
      <trkpt lat="34.29585169465365" lon="108.70851808712774">
        <ele>389.8572522206232</ele>
        <time>2026-09-17T13:18:09Z</time>
      </trkpt>
      <trkpt lat="34.295802026932314" lon="108.7082540398938">
        <ele>390.62753251567483</ele>
        <time>2026-09-17T13:18:21Z</time>
      </trkpt>
      <trkpt lat="34.295806663921454" lon="108.70819195251987">
        <ele>390.0705142626539</ele>
        <time>2026-09-17T13:18:24Z</time>
      </trkpt>
      <trkpt lat="34.29578484060211" lon="108.70813117446924">
        <ele>389.88427593838423</ele>
        <time>2026-09-17T13:18:27Z</time>
      </trkpt>
      <trkpt lat="34.29578839723224" lon="108.70788783078035">
        <ele>389.2196603231132</ele>
        <time>2026-09-17T13:18:39Z</time>
      </trkpt>
      <trkpt lat="34.29576456097274" lon="108.70781147410204">
        <ele>390.7525254385546</ele>
        <time>2026-09-17T13:18:43Z</time>
      </trkpt>
      <trkpt lat="34.29575143715992" lon="108.7074462970174">
        <ele>389.35651291068643</ele>
        <time>2026-09-17T13:19:00Z</time>
      </trkpt>
      <trkpt lat="34.29574863717107" lon="108.70732188799364">
        <ele>389.39050682540983</ele>
        <time>2026-09-17T13:19:06Z</time>
      </trkpt>
      <trkpt lat="34.29573005535156" lon="108.70726373379544">
        <ele>389.6373579064384</ele>
        <time>2026-09-17T13:19:09Z</time>
      </trkpt>
      <trkpt lat="34.29569961775489" lon="108.70689861529573">
        <ele>389.1715349853039</ele>
        <time>2026-09-17T13:19:27Z</time>
      </trkpt>
      <trkpt lat="34.295701892716416" lon="108.70677171684405">
        <ele>388.5982698844746</ele>
        <time>2026-09-17T13:19:33Z</time>
      </trkpt>
      <trkpt lat="34.295646112661224" lon="108.70645100070564">
        <ele>388.17317003104836</ele>
        <time>2026-09-17T13:19:48Z</time>
      </trkpt>
      <trkpt lat="34.295636137714595" lon="108.70638630137393">
        <ele>388.6176620023325</ele>
        <time>2026-09-17T13:19:51Z</time>
      </trkpt>
      <trkpt lat="34.29572563906647" lon="108.70615982958394">
        <ele>390.2325238455087</ele>
        <time>2026-09-17T13:20:03Z</time>
      </trkpt>
      <trkpt lat="34.295782592022995" lon="108.70607261692861">
        <ele>388.2358229486272</ele>
        <time>2026-09-17T13:20:09Z</time>
      </trkpt>
      <trkpt lat="34.29604262883776" lon="108.70603445581762">
        <ele>387.72522370144725</ele>
        <time>2026-09-17T13:20:24Z</time>
      </trkpt>
      <trkpt lat="34.296101635185394" lon="108.7060113735711">
        <ele>387.40644313488156</ele>
        <time>2026-09-17T13:20:27Z</time>
      </trkpt>
      <trkpt lat="34.29628032719431" lon="108.70600575712605">
        <ele>387.14564682915807</ele>
        <time>2026-09-17T13:20:37Z</time>
      </trkpt>
      <trkpt lat="34.296555059813294" lon="108.70592883176994">
        <ele>388.07044131681323</ele>
        <time>2026-09-17T13:20:53Z</time>
      </trkpt>
      <trkpt lat="34.296611724889324" lon="108.70594280964073">
        <ele>387.31270349863917</ele>
        <time>2026-09-17T13:20:56Z</time>
      </trkpt>
      <trkpt lat="34.29692017065167" lon="108.70590613821987">
        <ele>386.75424070004374</ele>
        <time>2026-09-17T13:21:14Z</time>
      </trkpt>
      <trkpt lat="34.29702279411813" lon="108.70587016025523">
        <ele>387.8891691919416</ele>
        <time>2026-09-17T13:21:20Z</time>
      </trkpt>
      <trkpt lat="34.297329473570706" lon="108.70580886273554">
        <ele>387.16223087348044</ele>
        <time>2026-09-17T13:21:38Z</time>
      </trkpt>
      <trkpt lat="34.29763212305848" lon="108.7057590712805">
        <ele>387.4164925068617</ele>
        <time>2026-09-17T13:21:56Z</time>
      </trkpt>
      <trkpt lat="34.29794479202445" lon="108.70571055408266">
        <ele>386.1131799183786</ele>
        <time>2026-09-17T13:22:14Z</time>
      </trkpt>
      <trkpt lat="34.29825069639462" lon="108.7056454630262">
        <ele>387.9178847009316</ele>
        <time>2026-09-17T13:22:32Z</time>
      </trkpt>
      <trkpt lat="34.29855120093766" lon="108.70559273347403">
        <ele>387.418792469427</ele>
        <time>2026-09-17T13:22:50Z</time>
      </trkpt>
      <trkpt lat="34.298865745452005" lon="108.70553843842012">
        <ele>388.4983451338485</ele>
        <time>2026-09-17T13:23:09Z</time>
      </trkpt>
      <trkpt lat="34.299183843537485" lon="108.70544802243023">
        <ele>390.58236693777144</ele>
        <time>2026-09-17T13:23:33Z</time>
      </trkpt>
      <trkpt lat="34.29922391157657" lon="108.70550686872646">
        <ele>390.6176835298538</ele>
        <time>2026-09-17T13:23:39Z</time>
      </trkpt>
      <trkpt lat="34.299015799003435" lon="108.70559266413348">
        <ele>389.0853090696037</ele>
        <time>2026-09-17T13:23:54Z</time>
      </trkpt>
      <trkpt lat="34.298741480828895" lon="108.70566029512071">
        <ele>389.31477950606495</ele>
        <time>2026-09-17T13:24:15Z</time>
      </trkpt>
      <trkpt lat="34.29853989649671" lon="108.7056563337876">
        <ele>389.94575036130846</ele>
        <time>2026-09-17T13:24:27Z</time>
      </trkpt>
      <trkpt lat="34.29826282348121" lon="108.70571608303965">
        <ele>388.4431760655716</ele>
        <time>2026-09-17T13:24:45Z</time>
      </trkpt>
      <trkpt lat="34.29795659130079" lon="108.70576785571659">
        <ele>389.15094205364585</ele>
        <time>2026-09-17T13:25:04Z</time>
      </trkpt>
      <trkpt lat="34.29775092997673" lon="108.70581309103083">
        <ele>386.8627305738628</ele>
        <time>2026-09-17T13:25:16Z</time>
      </trkpt>
      <trkpt lat="34.297706503752515" lon="108.70583881605047">
        <ele>387.63968771882355</ele>
        <time>2026-09-17T13:25:19Z</time>
      </trkpt>
      <trkpt lat="34.29741218077679" lon="108.70586529621579">
        <ele>387.56512065418065</ele>
        <time>2026-09-17T13:25:37Z</time>
      </trkpt>
      <trkpt lat="34.297360854205024" lon="108.70588712752232">
        <ele>386.83812980074435</ele>
        <time>2026-09-17T13:25:40Z</time>
      </trkpt>
      <trkpt lat="34.29726077735273" lon="108.70585966669877">
        <ele>386.6319338893518</ele>
        <time>2026-09-17T13:25:46Z</time>
      </trkpt>
      <trkpt lat="34.29703398578751" lon="108.70591411017897">
        <ele>387.49147727619857</ele>
        <time>2026-09-17T13:25:58Z</time>
      </trkpt>
      <trkpt lat="34.29687660050774" lon="108.7059688023838">
        <ele>387.955100171268</ele>
        <time>2026-09-17T13:26:07Z</time>
      </trkpt>
      <trkpt lat="34.296658768125425" lon="108.70602629902011">
        <ele>387.59291833639145</ele>
        <time>2026-09-17T13:26:19Z</time>
      </trkpt>
      <trkpt lat="34.296600426517664" lon="108.70601702515327">
        <ele>388.17675771564245</ele>
        <time>2026-09-17T13:26:22Z</time>
      </trkpt>
      <trkpt lat="34.296283379994215" lon="108.70607586514201">
        <ele>389.13305604364723</ele>
        <time>2026-09-17T13:26:40Z</time>
      </trkpt>
      <trkpt lat="34.296006383518474" lon="108.70611001369018">
        <ele>388.55325649213046</ele>
        <time>2026-09-17T13:26:56Z</time>
      </trkpt>
      <trkpt lat="34.29582013056738" lon="108.7061600041533">
        <ele>388.3641067110002</ele>
        <time>2026-09-17T13:27:08Z</time>
      </trkpt>
      <trkpt lat="34.29574685402232" lon="108.706142822566">
        <ele>389.6066558007151</ele>
        <time>2026-09-17T13:27:14Z</time>
      </trkpt>
      <trkpt lat="34.295761004583525" lon="108.70607760147553">
        <ele>393.0942624481395</ele>
        <time>2026-09-17T13:27:20Z</time>
      </trkpt>
      <trkpt lat="34.29603310423337" lon="108.70601655148596">
        <ele>390.52638624981046</ele>
        <time>2026-09-17T13:27:35Z</time>
      </trkpt>
      <trkpt lat="34.2963432136772" lon="108.70597432181346">
        <ele>388.4777571586892</ele>
        <time>2026-09-17T13:27:53Z</time>
      </trkpt>
      <trkpt lat="34.29655059756736" lon="108.70592470847583">
        <ele>388.95187801122665</ele>
        <time>2026-09-17T13:28:05Z</time>
      </trkpt>
      <trkpt lat="34.296722097660805" lon="108.70590942301101">
        <ele>387.30807683616877</ele>
        <time>2026-09-17T13:28:17Z</time>
      </trkpt>
      <trkpt lat="34.29678527295184" lon="108.70586820262335">
        <ele>388.06138928979635</ele>
        <time>2026-09-17T13:28:23Z</time>
      </trkpt>
      <trkpt lat="34.296876305281366" lon="108.70588267034282">
        <ele>387.2590152239427</ele>
        <time>2026-09-17T13:28:29Z</time>
      </trkpt>
      <trkpt lat="34.297186133892176" lon="108.70582948898253">
        <ele>388.01654416136444</ele>
        <time>2026-09-17T13:28:47Z</time>
      </trkpt>
      <trkpt lat="34.297474026430045" lon="108.70578049190284">
        <ele>387.1143324514851</ele>
        <time>2026-09-17T13:29:04Z</time>
      </trkpt>
      <trkpt lat="34.29771296595164" lon="108.70574181817788">
        <ele>387.1089651109651</ele>
        <time>2026-09-17T13:29:18Z</time>
      </trkpt>
      <trkpt lat="34.29802213109287" lon="108.70568103456172">
        <ele>387.93346046004444</ele>
        <time>2026-09-17T13:29:36Z</time>
      </trkpt>
      <trkpt lat="34.29832630721567" lon="108.70562309746973">
        <ele>386.57557088229805</ele>
        <time>2026-09-17T13:29:54Z</time>
      </trkpt>
      <trkpt lat="34.298664349544346" lon="108.70556714162358">
        <ele>388.1422406574711</ele>
        <time>2026-09-17T13:30:15Z</time>
      </trkpt>
      <trkpt lat="34.29875840051579" lon="108.70553821570215">
        <ele>387.15517424046993</ele>
        <time>2026-09-17T13:30:21Z</time>
      </trkpt>
      <trkpt lat="34.29885782982739" lon="108.70554193839605">
        <ele>387.7121676746756</ele>
        <time>2026-09-17T13:30:27Z</time>
      </trkpt>
      <trkpt lat="34.29909860443215" lon="108.70547276528872">
        <ele>388.6531418086961</ele>
        <time>2026-09-17T13:30:42Z</time>
      </trkpt>
      <trkpt lat="34.299144547362594" lon="108.70547312149478">
        <ele>389.01043653395027</ele>
        <time>2026-09-17T13:30:45Z</time>
      </trkpt>
      <trkpt lat="34.299217316178556" lon="108.70544432520181">
        <ele>388.8684116853401</ele>
        <time>2026-09-17T13:30:51Z</time>
      </trkpt>
      <trkpt lat="34.2992493904042" lon="108.70548992317809">
        <ele>389.2412495370954</ele>
        <time>2026-09-17T13:30:54Z</time>
      </trkpt>
      <trkpt lat="34.29923221616653" lon="108.70554292822506">
        <ele>389.19875885080546</ele>
        <time>2026-09-17T13:30:57Z</time>
      </trkpt>
      <trkpt lat="34.299316006223215" lon="108.70561774126068">
        <ele>389.24542563967407</ele>
        <time>2026-09-17T13:31:03Z</time>
      </trkpt>
      <trkpt lat="34.299377601919815" lon="108.70591562615006">
        <ele>389.0013035284355</ele>
        <time>2026-09-17T13:31:22Z</time>
      </trkpt>
      <trkpt lat="34.299410062971454" lon="108.70624731232364">
        <ele>388.7305408073589</ele>
        <time>2026-09-17T13:31:40Z</time>
      </trkpt>
      <trkpt lat="34.29944522987912" lon="108.70660774962505">
        <ele>388.88612477853894</ele>
        <time>2026-09-17T13:31:58Z</time>
      </trkpt>
      <trkpt lat="34.29951075455539" lon="108.70697732895091">
        <ele>389.9861679673195</ele>
        <time>2026-09-17T13:32:19Z</time>
      </trkpt>
      <trkpt lat="34.29954667864158" lon="108.70703680973143">
        <ele>391.08404956106097</ele>
        <time>2026-09-17T13:32:25Z</time>
      </trkpt>
      <trkpt lat="34.29960080730865" lon="108.70702314246414">
        <ele>391.9741652170196</ele>
        <time>2026-09-17T13:32:31Z</time>
      </trkpt>
      <trkpt lat="34.299635741264105" lon="108.7074027668706">
        <ele>390.80130446329713</ele>
        <time>2026-09-17T13:32:49Z</time>
      </trkpt>
      <trkpt lat="34.299684028291225" lon="108.70778109964603">
        <ele>391.253563279286</ele>
        <time>2026-09-17T13:33:07Z</time>
      </trkpt>
      <trkpt lat="34.29974367850549" lon="108.7081550462386">
        <ele>392.44531336613</ele>
        <time>2026-09-17T13:33:30Z</time>
      </trkpt>
      <trkpt lat="34.29978241101587" lon="108.70848373027404">
        <ele>391.93071709387004</ele>
        <time>2026-09-17T13:33:48Z</time>
      </trkpt>
      <trkpt lat="34.299829367568165" lon="108.7088457781562">
        <ele>391.06197785399854</ele>
        <time>2026-09-17T13:34:06Z</time>
      </trkpt>
      <trkpt lat="34.29985519399047" lon="108.70897483281718">
        <ele>391.547943752259</ele>
        <time>2026-09-17T13:34:12Z</time>
      </trkpt>
      <trkpt lat="34.2999108546391" lon="108.70912265445293">
        <ele>391.4402998480946</ele>
        <time>2026-09-17T13:34:24Z</time>
      </trkpt>
      <trkpt lat="34.29995720806437" lon="108.70942822278654">
        <ele>389.98604331351817</ele>
        <time>2026-09-17T13:34:51Z</time>
      </trkpt>
      <trkpt lat="34.299907173651604" lon="108.70956326423942">
        <ele>389.1888782950118</ele>
        <time>2026-09-17T13:35:22Z</time>
      </trkpt>
      <trkpt lat="34.29987191279594" lon="108.70960319081361">
        <ele>389.07914370670915</ele>
        <time>2026-09-17T13:35:25Z</time>
      </trkpt>
      <trkpt lat="34.29985305293899" lon="108.70977815279862">
        <ele>389.44711104687303</ele>
        <time>2026-09-17T13:35:34Z</time>
      </trkpt>
      <trkpt lat="34.29986653985945" lon="108.70984657963662">
        <ele>389.8502795957029</ele>
        <time>2026-09-17T13:35:37Z</time>
      </trkpt>
      <trkpt lat="34.29984173022309" lon="108.70990878367347">
        <ele>390.69224074389786</ele>
        <time>2026-09-17T13:35:40Z</time>
      </trkpt>
      <trkpt lat="34.29984234429293" lon="108.70996434084087">
        <ele>390.57646645233035</ele>
        <time>2026-09-17T13:35:43Z</time>
      </trkpt>
      <trkpt lat="34.29986288526722" lon="108.71002591656736">
        <ele>391.12971612717956</ele>
        <time>2026-09-17T13:35:46Z</time>
      </trkpt>
      <trkpt lat="34.299902108579076" lon="108.71007715333428">
        <ele>390.74766137450933</ele>
        <time>2026-09-17T13:35:49Z</time>
      </trkpt>
      <trkpt lat="34.29992132085965" lon="108.71025623335494">
        <ele>390.68535218574107</ele>
        <time>2026-09-17T13:35:58Z</time>
      </trkpt>
      <trkpt lat="34.29980965338937" lon="108.71036334219733">
        <ele>389.8475415734574</ele>
        <time>2026-09-17T13:36:04Z</time>
      </trkpt>
      <trkpt lat="34.29974630003487" lon="108.71046736994496">
        <ele>389.5081416666508</ele>
        <time>2026-09-17T13:36:10Z</time>
      </trkpt>
      <trkpt lat="34.29956065504207" lon="108.7105832517346">
        <ele>392.6841151434928</ele>
        <time>2026-09-17T13:36:25Z</time>
      </trkpt>
      <trkpt lat="34.29949711260685" lon="108.71064017613423">
        <ele>391.8878717077896</ele>
        <time>2026-09-17T13:36:31Z</time>
      </trkpt>
      <trkpt lat="34.299472403174406" lon="108.71069502655472">
        <ele>393.42678969632834</ele>
        <time>2026-09-17T13:36:37Z</time>
      </trkpt>
      <trkpt lat="34.299470492106124" lon="108.71078695626468">
        <ele>390.92761558573693</ele>
        <time>2026-09-17T13:36:43Z</time>
      </trkpt>
      <trkpt lat="34.29943343919552" lon="108.71082818352123">
        <ele>390.84246187936515</ele>
        <time>2026-09-17T13:36:46Z</time>
      </trkpt>
      <trkpt lat="34.29911989030942" lon="108.71097060072152">
        <ele>390.03019513282925</ele>
        <time>2026-09-17T13:38:56Z</time>
      </trkpt>
      <trkpt lat="34.299050855505655" lon="108.7110183107467">
        <ele>390.0297036059201</ele>
        <time>2026-09-17T13:39:02Z</time>
      </trkpt>
      <trkpt lat="34.29885628078139" lon="108.71107870453731">
        <ele>389.20215970650315</ele>
        <time>2026-09-17T13:39:17Z</time>
      </trkpt>
      <trkpt lat="34.29855769790293" lon="108.71121344292446">
        <ele>389.67530878353864</ele>
        <time>2026-09-17T13:39:42Z</time>
      </trkpt>
      <trkpt lat="34.29828673105186" lon="108.71129972456964">
        <ele>389.22364335600287</ele>
        <time>2026-09-17T13:40:03Z</time>
      </trkpt>
      <trkpt lat="34.298203373372196" lon="108.7113445155143">
        <ele>389.6626425012946</ele>
        <time>2026-09-17T13:40:09Z</time>
      </trkpt>
      <trkpt lat="34.29816424996341" lon="108.71129746113873">
        <ele>389.3192961337045</ele>
        <time>2026-09-17T13:40:12Z</time>
      </trkpt>
      <trkpt lat="34.29811586420373" lon="108.71101293200645">
        <ele>389.180631021969</ele>
        <time>2026-09-17T13:40:27Z</time>
      </trkpt>
      <trkpt lat="34.29812536573253" lon="108.71089922838225">
        <ele>389.0178779345006</ele>
        <time>2026-09-17T13:40:33Z</time>
      </trkpt>
      <trkpt lat="34.29811527305401" lon="108.71083272413667">
        <ele>388.9428204940632</ele>
        <time>2026-09-17T13:40:36Z</time>
      </trkpt>
      <trkpt lat="34.29813528349502" lon="108.71076956829367">
        <ele>388.9031224809587</ele>
        <time>2026-09-17T13:40:39Z</time>
      </trkpt>
      <trkpt lat="34.29807769610342" lon="108.71067421951211">
        <ele>389.3758134217933</ele>
        <time>2026-09-17T13:40:45Z</time>
      </trkpt>
      <trkpt lat="34.29802103990049" lon="108.7105178699203">
        <ele>387.90528666228056</ele>
        <time>2026-09-17T13:40:57Z</time>
      </trkpt>
      <trkpt lat="34.297984514977585" lon="108.7102447595658">
        <ele>388.04999556206167</ele>
        <time>2026-09-17T13:41:15Z</time>
      </trkpt>
      <trkpt lat="34.29795600820079" lon="108.71017624954047">
        <ele>388.965219036676</ele>
        <time>2026-09-17T13:41:21Z</time>
      </trkpt>
      <trkpt lat="34.29786984126457" lon="108.71017331176621">
        <ele>388.2468103626743</ele>
        <time>2026-09-17T13:41:27Z</time>
      </trkpt>
      <trkpt lat="34.29774667637888" lon="108.71024286222008">
        <ele>387.45099101401865</ele>
        <time>2026-09-17T13:41:37Z</time>
      </trkpt>
      <trkpt lat="34.29775145273441" lon="108.71035350425237">
        <ele>387.879337140359</ele>
        <time>2026-09-17T13:41:45Z</time>
      </trkpt>
      <trkpt lat="34.297854564923895" lon="108.71050581637721">
        <ele>387.2933506881818</ele>
        <time>2026-09-17T13:41:56Z</time>
      </trkpt>
      <trkpt lat="34.297944108177276" lon="108.71056912004927">
        <ele>387.9362164642662</ele>
        <time>2026-09-17T13:42:02Z</time>
      </trkpt>
      <trkpt lat="34.29783757779141" lon="108.71058652605205">
        <ele>393.9463119683787</ele>
        <time>2026-09-17T13:42:05Z</time>
      </trkpt>
      <trkpt lat="34.29774915834352" lon="108.71066264503875">
        <ele>396.4502182174474</ele>
        <time>2026-09-17T13:42:11Z</time>
      </trkpt>
      <trkpt lat="34.29774915834352" lon="108.71066264503875">
        <ele>396.4502182174474</ele>
        <time>2026-09-17T13:42:20Z</time>
      </trkpt>
    </trkseg>
  </trk>
</gpx>