<?xml version="1.0" encoding="UTF-8"?>
<gpx xmlns="http://www.topografix.com/GPX/1/1" xmlns:gpxtpx="http://www.garmin.com/xmlschemas/TrackPointExtension/v1" xmlns:xsi="http://www.w3.org/2001/XMLSchema-instance" xsi:schemaLocation="http://www.topografix.com/GPX/1/1 http://www.topografix.com/GPX/1/1/gpx.xsd" version="1.1" creator="gpx.py -- https://github.com/tkrajina/gpxpy">
  <trk>
    <name>gpx from keep</name>
    <type>Ride</type>
    <trkseg>
      <trkpt lat="34.32853658985639" lon="108.98027783014192">
        <ele>397.19227409362793</ele>
        <time>2022-04-27T23:17:41Z</time>
      </trkpt>
      <trkpt lat="34.32867257782472" lon="108.98030039044255">
        <ele>396.94569206237793</ele>
        <time>2022-04-27T23:17:46Z</time>
      </trkpt>
      <trkpt lat="34.32847422082553" lon="108.9803962926279">
        <ele>396.93684577941895</ele>
        <time>2022-04-27T23:17:52Z</time>
      </trkpt>
      <trkpt lat="34.32858603450479" lon="108.98042045319553">
        <ele>396.9470672607422</ele>
        <time>2022-04-27T23:17:58Z</time>
      </trkpt>
      <trkpt lat="34.328606381968875" lon="108.98050483671204">
        <ele>396.9570503234863</ele>
        <time>2022-04-27T23:18:04Z</time>
      </trkpt>
      <trkpt lat="34.32871356382181" lon="108.98036512106601">
        <ele>397.1102924346924</ele>
        <time>2022-04-27T23:18:10Z</time>
      </trkpt>
      <trkpt lat="34.32865292357875" lon="108.98045521976444">
        <ele>395.8824592090434</ele>
        <time>2022-04-27T23:18:12Z</time>
      </trkpt>
      <trkpt lat="34.32875578902385" lon="108.98061570529676">
        <ele>395.88456116151065</ele>
        <time>2022-04-27T23:18:23Z</time>
      </trkpt>
      <trkpt lat="34.32886887885131" lon="108.9806414402298">
        <ele>395.91204199846834</ele>
        <time>2022-04-27T23:18:27Z</time>
      </trkpt>
      <trkpt lat="34.32881342603305" lon="108.98070797649092">
        <ele>395.84791587572545</ele>
        <time>2022-04-27T23:18:33Z</time>
      </trkpt>
      <trkpt lat="34.32858957335754" lon="108.98085982857447">
        <ele>395.4064072249457</ele>
        <time>2022-04-27T23:18:45Z</time>
      </trkpt>
      <trkpt lat="34.32840337382015" lon="108.98086655699645">
        <ele>394.794287128374</ele>
        <time>2022-04-27T23:18:55Z</time>
      </trkpt>
      <trkpt lat="34.32824987042146" lon="108.98078855740529">
        <ele>394.17812560871243</ele>
        <time>2022-04-27T23:19:05Z</time>
      </trkpt>
      <trkpt lat="34.32817748660101" lon="108.98081709141906">
        <ele>394.7501735165715</ele>
        <time>2022-04-27T23:19:11Z</time>
      </trkpt>
      <trkpt lat="34.3281141743167" lon="108.98087159555672">
        <ele>394.86038107034426</ele>
        <time>2022-04-27T23:19:16Z</time>
      </trkpt>
      <trkpt lat="34.32817388462894" lon="108.98085624227991">
        <ele>395.0160104678944</ele>
        <time>2022-04-27T23:19:22Z</time>
      </trkpt>
      <trkpt lat="34.328212665100686" lon="108.981092778951">
        <ele>394.72656460944563</ele>
        <time>2022-04-27T23:19:54Z</time>
      </trkpt>
      <trkpt lat="34.32817540080157" lon="108.98131110674021">
        <ele>394.36464615073055</ele>
        <time>2022-04-27T23:20:00Z</time>
      </trkpt>
      <trkpt lat="34.32823449907901" lon="108.98153018864116">
        <ele>394.43399917613715</ele>
        <time>2022-04-27T23:20:08Z</time>
      </trkpt>
      <trkpt lat="34.32824721847309" lon="108.98174606990638">
        <ele>394.7691969862208</ele>
        <time>2022-04-27T23:20:13Z</time>
      </trkpt>
      <trkpt lat="34.32822539403451" lon="108.98198040853342">
        <ele>394.8120423220098</ele>
        <time>2022-04-27T23:20:18Z</time>
      </trkpt>
      <trkpt lat="34.32824634659448" lon="108.98210399789912">
        <ele>394.5819863220677</ele>
        <time>2022-04-27T23:20:23Z</time>
      </trkpt>
      <trkpt lat="34.328244497219245" lon="108.98224828582862">
        <ele>395.32863173633814</ele>
        <time>2022-04-27T23:20:27Z</time>
      </trkpt>
      <trkpt lat="34.32818574401882" lon="108.98257044170495">
        <ele>394.8311904342845</ele>
        <time>2022-04-27T23:20:35Z</time>
      </trkpt>
      <trkpt lat="34.32819540644967" lon="108.98271283903857">
        <ele>394.2728287857026</ele>
        <time>2022-04-27T23:20:39Z</time>
      </trkpt>
      <trkpt lat="34.328169387465145" lon="108.98289615907298">
        <ele>394.0056088557467</ele>
        <time>2022-04-27T23:20:43Z</time>
      </trkpt>
      <trkpt lat="34.32818219530553" lon="108.9830603018493">
        <ele>393.0510007906705</ele>
        <time>2022-04-27T23:20:47Z</time>
      </trkpt>
      <trkpt lat="34.32824470793593" lon="108.98320444486116">
        <ele>392.92379716038704</ele>
        <time>2022-04-27T23:20:51Z</time>
      </trkpt>
      <trkpt lat="34.32829997820502" lon="108.98340988375992">
        <ele>392.69983555562794</ele>
        <time>2022-04-27T23:20:55Z</time>
      </trkpt>
      <trkpt lat="34.32830607824582" lon="108.98351840145047">
        <ele>393.16574004665017</ele>
        <time>2022-04-27T23:20:57Z</time>
      </trkpt>
      <trkpt lat="34.328273776834465" lon="108.98375064895401">
        <ele>393.1121017700061</ele>
        <time>2022-04-27T23:21:01Z</time>
      </trkpt>
      <trkpt lat="34.328087951083624" lon="108.98404156031549">
        <ele>391.75810186751187</ele>
        <time>2022-04-27T23:21:07Z</time>
      </trkpt>
      <trkpt lat="34.32804391843109" lon="108.98413777708463">
        <ele>391.3692190106958</ele>
        <time>2022-04-27T23:21:09Z</time>
      </trkpt>
      <trkpt lat="34.328022155798934" lon="108.98427781511961">
        <ele>390.35446536075324</ele>
        <time>2022-04-27T23:21:13Z</time>
      </trkpt>
      <trkpt lat="34.32804966372075" lon="108.98438370436796">
        <ele>390.11553464084864</ele>
        <time>2022-04-27T23:21:17Z</time>
      </trkpt>
      <trkpt lat="34.32804264239662" lon="108.9845330379734">
        <ele>390.0663397805765</ele>
        <time>2022-04-27T23:21:21Z</time>
      </trkpt>
      <trkpt lat="34.328115509330445" lon="108.98514268720963">
        <ele>391.6509181074798</ele>
        <time>2022-04-27T23:21:36Z</time>
      </trkpt>
      <trkpt lat="34.328132595669324" lon="108.98541312496205">
        <ele>392.43655731063336</ele>
        <time>2022-04-27T23:21:42Z</time>
      </trkpt>
      <trkpt lat="34.328099643256536" lon="108.98603323137009">
        <ele>391.0334068266675</ele>
        <time>2022-04-27T23:21:56Z</time>
      </trkpt>
      <trkpt lat="34.32809858025701" lon="108.98613167128974">
        <ele>391.4416763680056</ele>
        <time>2022-04-27T23:21:58Z</time>
      </trkpt>
      <trkpt lat="34.32815846110957" lon="108.98625086229477">
        <ele>390.54188551567495</ele>
        <time>2022-04-27T23:22:02Z</time>
      </trkpt>
      <trkpt lat="34.328196067291934" lon="108.98643109422633">
        <ele>391.8654311876744</ele>
        <time>2022-04-27T23:22:08Z</time>
      </trkpt>
      <trkpt lat="34.328165143251326" lon="108.98653460727178">
        <ele>390.794170005247</ele>
        <time>2022-04-27T23:22:10Z</time>
      </trkpt>
      <trkpt lat="34.32817441098524" lon="108.98669969836384">
        <ele>391.52185352984816</ele>
        <time>2022-04-27T23:22:14Z</time>
      </trkpt>
      <trkpt lat="34.32808622113382" lon="108.98706238362297">
        <ele>392.676891438663</ele>
        <time>2022-04-27T23:22:18Z</time>
      </trkpt>
      <trkpt lat="34.32816545041767" lon="108.98794369282318">
        <ele>394.56322317384183</ele>
        <time>2022-04-27T23:22:22Z</time>
      </trkpt>
      <trkpt lat="34.328181976069004" lon="108.98809361701664">
        <ele>393.7865885812789</ele>
        <time>2022-04-27T23:22:24Z</time>
      </trkpt>
      <trkpt lat="34.32825992219042" lon="108.98809150207096">
        <ele>393.0913591347635</ele>
        <time>2022-04-27T23:22:25Z</time>
      </trkpt>
      <trkpt lat="34.32826815262291" lon="108.98821500156753">
        <ele>392.28877636417747</ele>
        <time>2022-04-27T23:22:27Z</time>
      </trkpt>
      <trkpt lat="34.32816346228359" lon="108.98845194757493">
        <ele>392.5189070813358</ele>
        <time>2022-04-27T23:22:31Z</time>
      </trkpt>
      <trkpt lat="34.32809758141486" lon="108.98884076640071">
        <ele>392.86566235963255</ele>
        <time>2022-04-27T23:22:37Z</time>
      </trkpt>
      <trkpt lat="34.32801784403285" lon="108.9894118972397">
        <ele>391.7179016089067</ele>
        <time>2022-04-27T23:22:45Z</time>
      </trkpt>
      <trkpt lat="34.32795878687529" lon="108.98971108587752">
        <ele>391.8161277854815</ele>
        <time>2022-04-27T23:22:51Z</time>
      </trkpt>
      <trkpt lat="34.32796398156318" lon="108.98980961710558">
        <ele>391.83888871688396</ele>
        <time>2022-04-27T23:22:53Z</time>
      </trkpt>
      <trkpt lat="34.32793593105052" lon="108.98991279632986">
        <ele>391.88126794062555</ele>
        <time>2022-04-27T23:22:55Z</time>
      </trkpt>
      <trkpt lat="34.327951086318095" lon="108.99005799039668">
        <ele>392.0407246062532</ele>
        <time>2022-04-27T23:23:01Z</time>
      </trkpt>
      <trkpt lat="34.32797492242322" lon="108.98997310645211">
        <ele>391.6247197948396</ele>
        <time>2022-04-27T23:23:05Z</time>
      </trkpt>
      <trkpt lat="34.32794076596254" lon="108.99006088647356">
        <ele>391.57140772230923</ele>
        <time>2022-04-27T23:23:09Z</time>
      </trkpt>
      <trkpt lat="34.327878083470644" lon="108.99013778924134">
        <ele>391.32352152932435</ele>
        <time>2022-04-27T23:23:13Z</time>
      </trkpt>
      <trkpt lat="34.32782334423323" lon="108.9906424545783">
        <ele>391.4353680750355</ele>
        <time>2022-04-27T23:23:48Z</time>
      </trkpt>
      <trkpt lat="34.32791389268665" lon="108.99101992416922">
        <ele>391.99588049110025</ele>
        <time>2022-04-27T23:23:58Z</time>
      </trkpt>
      <trkpt lat="34.3279775648895" lon="108.99116365611731">
        <ele>391.77549730520695</ele>
        <time>2022-04-27T23:24:02Z</time>
      </trkpt>
      <trkpt lat="34.327977142353056" lon="108.99126283615755">
        <ele>393.06357845198363</ele>
        <time>2022-04-27T23:24:06Z</time>
      </trkpt>
      <trkpt lat="34.32794674844683" lon="108.99138039468458">
        <ele>393.76383600383997</ele>
        <time>2022-04-27T23:24:10Z</time>
      </trkpt>
      <trkpt lat="34.32793156140603" lon="108.99171713274906">
        <ele>393.5334722381085</ele>
        <time>2022-04-27T23:24:20Z</time>
      </trkpt>
      <trkpt lat="34.327978735608966" lon="108.9920781986563">
        <ele>392.45923366304487</ele>
        <time>2022-04-27T23:24:33Z</time>
      </trkpt>
      <trkpt lat="34.32795171506176" lon="108.99263328138984">
        <ele>393.4412487661466</ele>
        <time>2022-04-27T23:24:47Z</time>
      </trkpt>
      <trkpt lat="34.32792506592284" lon="108.99280399536059">
        <ele>393.9570093052462</ele>
        <time>2022-04-27T23:24:51Z</time>
      </trkpt>
      <trkpt lat="34.32793043080769" lon="108.9930767413557">
        <ele>394.5802578581497</ele>
        <time>2022-04-27T23:24:57Z</time>
      </trkpt>
      <trkpt lat="34.32794883179036" lon="108.99319455667262">
        <ele>394.4814535556361</ele>
        <time>2022-04-27T23:25:01Z</time>
      </trkpt>
      <trkpt lat="34.327940126138365" lon="108.99328935601092">
        <ele>393.7495011743158</ele>
        <time>2022-04-27T23:25:05Z</time>
      </trkpt>
      <trkpt lat="34.327973159706154" lon="108.99340718522029">
        <ele>393.43567766528577</ele>
        <time>2022-04-27T23:25:09Z</time>
      </trkpt>
      <trkpt lat="34.3279626532028" lon="108.99358232908254">
        <ele>393.9721564054489</ele>
        <time>2022-04-27T23:25:13Z</time>
      </trkpt>
      <trkpt lat="34.32796336265552" lon="108.9938819514926">
        <ele>393.8600477129221</ele>
        <time>2022-04-27T23:25:19Z</time>
      </trkpt>
      <trkpt lat="34.32795128711571" lon="108.99399026982817">
        <ele>394.3102962318808</ele>
        <time>2022-04-27T23:25:21Z</time>
      </trkpt>
      <trkpt lat="34.32798912862678" lon="108.99422221860097">
        <ele>394.4208530355245</ele>
        <time>2022-04-27T23:25:27Z</time>
      </trkpt>
      <trkpt lat="34.32804120207903" lon="108.9943664204752">
        <ele>393.5879264790565</ele>
        <time>2022-04-27T23:25:33Z</time>
      </trkpt>
      <trkpt lat="34.32800625530987" lon="108.99445144219636">
        <ele>393.59299531392753</ele>
        <time>2022-04-27T23:25:35Z</time>
      </trkpt>
      <trkpt lat="34.32800466638528" lon="108.99465542849735">
        <ele>393.8874756563455</ele>
        <time>2022-04-27T23:25:39Z</time>
      </trkpt>
      <trkpt lat="34.32803985892577" lon="108.99491131204425">
        <ele>393.4027147414163</ele>
        <time>2022-04-27T23:25:43Z</time>
      </trkpt>
      <trkpt lat="34.328086896085" lon="108.99505396486401">
        <ele>393.6226938897744</ele>
        <time>2022-04-27T23:25:47Z</time>
      </trkpt>
      <trkpt lat="34.328051181424684" lon="108.995268918427">
        <ele>393.53763122018427</ele>
        <time>2022-04-27T23:25:51Z</time>
      </trkpt>
      <trkpt lat="34.328089759572244" lon="108.99535214216233">
        <ele>394.06052542477846</ele>
        <time>2022-04-27T23:25:55Z</time>
      </trkpt>
      <trkpt lat="34.32815783231867" lon="108.99540583605996">
        <ele>394.6488187154755</ele>
        <time>2022-04-27T23:25:59Z</time>
      </trkpt>
      <trkpt lat="34.32809419783773" lon="108.99560195294796">
        <ele>394.96272788662463</ele>
        <time>2022-04-27T23:26:01Z</time>
      </trkpt>
      <trkpt lat="34.328101305519354" lon="108.99569280033667">
        <ele>395.3451485019177</ele>
        <time>2022-04-27T23:26:03Z</time>
      </trkpt>
      <trkpt lat="34.32818337934823" lon="108.99592713617804">
        <ele>394.58614879101515</ele>
        <time>2022-04-27T23:26:11Z</time>
      </trkpt>
      <trkpt lat="34.32816068052866" lon="108.99602910119901">
        <ele>394.9592813057825</ele>
        <time>2022-04-27T23:26:13Z</time>
      </trkpt>
      <trkpt lat="34.32815942094017" lon="108.99616239758952">
        <ele>394.8385190134868</ele>
        <time>2022-04-27T23:26:17Z</time>
      </trkpt>
      <trkpt lat="34.32820419904929" lon="108.99625021844113">
        <ele>394.66374331805855</ele>
        <time>2022-04-27T23:26:21Z</time>
      </trkpt>
      <trkpt lat="34.32816452041829" lon="108.99635326218694">
        <ele>395.0455499300733</ele>
        <time>2022-04-27T23:26:23Z</time>
      </trkpt>
      <trkpt lat="34.32817280488233" lon="108.99662554358115">
        <ele>395.0109876925126</ele>
        <time>2022-04-27T23:26:27Z</time>
      </trkpt>
      <trkpt lat="34.32815933313383" lon="108.99683709507198">
        <ele>395.7361669000238</ele>
        <time>2022-04-27T23:26:31Z</time>
      </trkpt>
      <trkpt lat="34.328183435776204" lon="108.99711926973829">
        <ele>396.3883799854666</ele>
        <time>2022-04-27T23:26:35Z</time>
      </trkpt>
      <trkpt lat="34.32816992872536" lon="108.9975633675259">
        <ele>396.06313856411725</ele>
        <time>2022-04-27T23:26:41Z</time>
      </trkpt>
      <trkpt lat="34.3282086353696" lon="108.99773882626933">
        <ele>394.5714779039845</ele>
        <time>2022-04-27T23:26:45Z</time>
      </trkpt>
      <trkpt lat="34.32820623144937" lon="108.99791646685652">
        <ele>394.0422404995188</ele>
        <time>2022-04-27T23:26:49Z</time>
      </trkpt>
      <trkpt lat="34.32816346580372" lon="108.99802247913748">
        <ele>394.51727981492877</ele>
        <time>2022-04-27T23:26:51Z</time>
      </trkpt>
      <trkpt lat="34.32814294075052" lon="108.99829175967373">
        <ele>394.7213976290077</ele>
        <time>2022-04-27T23:26:55Z</time>
      </trkpt>
      <trkpt lat="34.328176444116814" lon="108.99842339092659">
        <ele>395.1907024551183</ele>
        <time>2022-04-27T23:26:57Z</time>
      </trkpt>
      <trkpt lat="34.32817806287328" lon="108.9988907721355">
        <ele>395.42863880470395</ele>
        <time>2022-04-27T23:27:03Z</time>
      </trkpt>
      <trkpt lat="34.32811134400361" lon="108.99953369258627">
        <ele>394.5094878608361</ele>
        <time>2022-04-27T23:27:11Z</time>
      </trkpt>
      <trkpt lat="34.32816026306996" lon="108.99982595934803">
        <ele>394.9837545007467</ele>
        <time>2022-04-27T23:27:15Z</time>
      </trkpt>
      <trkpt lat="34.32792168252498" lon="109.0008608394914">
        <ele>395.10906821582466</ele>
        <time>2022-04-27T23:27:17Z</time>
      </trkpt>
      <trkpt lat="34.327906428455805" lon="109.00148480802946">
        <ele>394.75452784169465</ele>
        <time>2022-04-27T23:27:25Z</time>
      </trkpt>
      <trkpt lat="34.327883937007435" lon="109.00172403896366">
        <ele>393.8887494979426</ele>
        <time>2022-04-27T23:27:29Z</time>
      </trkpt>
      <trkpt lat="34.32788673019934" lon="109.00203036656389">
        <ele>394.6510897288099</ele>
        <time>2022-04-27T23:27:35Z</time>
      </trkpt>
      <trkpt lat="34.32790907022566" lon="109.0025265551967">
        <ele>395.9085778184235</ele>
        <time>2022-04-27T23:27:47Z</time>
      </trkpt>
      <trkpt lat="34.32789897909625" lon="109.00268339275136">
        <ele>395.5943251000717</ele>
        <time>2022-04-27T23:27:51Z</time>
      </trkpt>
      <trkpt lat="34.32791226607845" lon="109.0028163676047">
        <ele>395.4203598527238</ele>
        <time>2022-04-27T23:27:55Z</time>
      </trkpt>
      <trkpt lat="34.327874287473435" lon="109.003100548659">
        <ele>395.6501724207774</ele>
        <time>2022-04-27T23:28:03Z</time>
      </trkpt>
      <trkpt lat="34.32788126000265" lon="109.0037088482667">
        <ele>395.21268312074244</ele>
        <time>2022-04-27T23:28:17Z</time>
      </trkpt>
      <trkpt lat="34.327865424608" lon="109.00379914605378">
        <ele>395.19018267001957</ele>
        <time>2022-04-27T23:28:19Z</time>
      </trkpt>
      <trkpt lat="34.327876313110174" lon="109.004274282569">
        <ele>395.05311219394207</ele>
        <time>2022-04-27T23:28:29Z</time>
      </trkpt>
      <trkpt lat="34.327941260146396" lon="109.00476306136395">
        <ele>395.1337218694389</ele>
        <time>2022-04-27T23:28:39Z</time>
      </trkpt>
      <trkpt lat="34.327900062043234" lon="109.00493999732204">
        <ele>394.4061082787812</ele>
        <time>2022-04-27T23:28:43Z</time>
      </trkpt>
      <trkpt lat="34.32793222327496" lon="109.00504069160378">
        <ele>394.27276666183025</ele>
        <time>2022-04-27T23:28:45Z</time>
      </trkpt>
      <trkpt lat="34.32789337315934" lon="109.00537150363868">
        <ele>394.899455498904</ele>
        <time>2022-04-27T23:28:53Z</time>
      </trkpt>
      <trkpt lat="34.32792864708301" lon="109.0055444392225">
        <ele>395.0030087400228</ele>
        <time>2022-04-27T23:28:57Z</time>
      </trkpt>
      <trkpt lat="34.327860863438694" lon="109.00582309455858">
        <ele>394.55653203558177</ele>
        <time>2022-04-27T23:29:03Z</time>
      </trkpt>
      <trkpt lat="34.32783208551161" lon="109.0061247982258">
        <ele>394.03978140838444</ele>
        <time>2022-04-27T23:29:11Z</time>
      </trkpt>
      <trkpt lat="34.32786167696972" lon="109.00622710134796">
        <ele>393.8098127199337</ele>
        <time>2022-04-27T23:29:19Z</time>
      </trkpt>
      <trkpt lat="34.32781757114488" lon="109.00670259894602">
        <ele>394.1183275170624</ele>
        <time>2022-04-27T23:29:34Z</time>
      </trkpt>
      <trkpt lat="34.32782263006742" lon="109.00686250682556">
        <ele>394.11047559417784</ele>
        <time>2022-04-27T23:29:38Z</time>
      </trkpt>
      <trkpt lat="34.32785513246781" lon="109.00703505911586">
        <ele>393.8007928067818</ele>
        <time>2022-04-27T23:29:42Z</time>
      </trkpt>
      <trkpt lat="34.3278715373406" lon="109.00767575448785">
        <ele>393.5134081253782</ele>
        <time>2022-04-27T23:29:54Z</time>
      </trkpt>
      <trkpt lat="34.32789772508964" lon="109.00787425244602">
        <ele>393.4240908715874</ele>
        <time>2022-04-27T23:29:58Z</time>
      </trkpt>
      <trkpt lat="34.32788775676567" lon="109.00814218036605">
        <ele>393.205952340737</ele>
        <time>2022-04-27T23:30:02Z</time>
      </trkpt>
      <trkpt lat="34.32794259871263" lon="109.00863354167313">
        <ele>393.11458069924265</ele>
        <time>2022-04-27T23:30:10Z</time>
      </trkpt>
      <trkpt lat="34.32791910120739" lon="109.00918851762127">
        <ele>392.00424601510167</ele>
        <time>2022-04-27T23:30:18Z</time>
      </trkpt>
      <trkpt lat="34.32791564436947" lon="109.00975025873444">
        <ele>387.93547739461064</ele>
        <time>2022-04-27T23:30:26Z</time>
      </trkpt>
      <trkpt lat="34.32793377841088" lon="109.01030672920756">
        <ele>386.1641958588734</ele>
        <time>2022-04-27T23:30:34Z</time>
      </trkpt>
      <trkpt lat="34.3279361696566" lon="109.01064137576212">
        <ele>386.3000103952363</ele>
        <time>2022-04-27T23:30:40Z</time>
      </trkpt>
      <trkpt lat="34.32788928035596" lon="109.01101701085246">
        <ele>387.3088866788894</ele>
        <time>2022-04-27T23:30:48Z</time>
      </trkpt>
      <trkpt lat="34.327879033161565" lon="109.01157666074297">
        <ele>388.1830256320536</ele>
        <time>2022-04-27T23:30:59Z</time>
      </trkpt>
      <trkpt lat="34.32788805187474" lon="109.0121124568976">
        <ele>387.4759644092992</ele>
        <time>2022-04-27T23:31:09Z</time>
      </trkpt>
      <trkpt lat="34.327870930229004" lon="109.01267547180429">
        <ele>388.22808924876153</ele>
        <time>2022-04-27T23:31:19Z</time>
      </trkpt>
      <trkpt lat="34.32787767670425" lon="109.01329633743705">
        <ele>389.9008286036551</ele>
        <time>2022-04-27T23:31:31Z</time>
      </trkpt>
      <trkpt lat="34.32790485036067" lon="109.01382471461343">
        <ele>390.44413787685335</ele>
        <time>2022-04-27T23:31:41Z</time>
      </trkpt>
      <trkpt lat="34.32791283982959" lon="109.01439337307971">
        <ele>389.0527498116717</ele>
        <time>2022-04-27T23:31:52Z</time>
      </trkpt>
      <trkpt lat="34.32791467963788" lon="109.01462060945609">
        <ele>388.23389774467796</ele>
        <time>2022-04-27T23:31:56Z</time>
      </trkpt>
      <trkpt lat="34.327959550279715" lon="109.01495317649471">
        <ele>388.16005821712315</ele>
        <time>2022-04-27T23:32:04Z</time>
      </trkpt>
      <trkpt lat="34.327947558657755" lon="109.01525368300472">
        <ele>388.42938165180385</ele>
        <time>2022-04-27T23:32:10Z</time>
      </trkpt>
      <trkpt lat="34.327948847270704" lon="109.0157436160734">
        <ele>387.901037061587</ele>
        <time>2022-04-27T23:32:22Z</time>
      </trkpt>
      <trkpt lat="34.3279143333697" lon="109.01601266098261">
        <ele>387.6211746111512</ele>
        <time>2022-04-27T23:32:28Z</time>
      </trkpt>
      <trkpt lat="34.327920589706586" lon="109.01615851795418">
        <ele>387.61998763587326</ele>
        <time>2022-04-27T23:32:32Z</time>
      </trkpt>
      <trkpt lat="34.32780831896397" lon="109.01676001632482">
        <ele>388.18292586598545</ele>
        <time>2022-04-27T23:32:46Z</time>
      </trkpt>
      <trkpt lat="34.32778010132969" lon="109.01684377479832">
        <ele>388.1895790407434</ele>
        <time>2022-04-27T23:32:48Z</time>
      </trkpt>
      <trkpt lat="34.32768725295461" lon="109.0173966351709">
        <ele>389.02061598189175</ele>
        <time>2022-04-27T23:32:59Z</time>
      </trkpt>
      <trkpt lat="34.32763471884132" lon="109.01795613245093">
        <ele>389.22320920042694</ele>
        <time>2022-04-27T23:33:11Z</time>
      </trkpt>
      <trkpt lat="34.32764999517417" lon="109.01827427302351">
        <ele>388.9154739305377</ele>
        <time>2022-04-27T23:33:17Z</time>
      </trkpt>
      <trkpt lat="34.32750510115851" lon="109.01876606085533">
        <ele>389.33886220678687</ele>
        <time>2022-04-27T23:33:27Z</time>
      </trkpt>
      <trkpt lat="34.327327103975286" lon="109.01922342663738">
        <ele>389.6109065497294</ele>
        <time>2022-04-27T23:33:37Z</time>
      </trkpt>
      <trkpt lat="34.32719941443718" lon="109.0194317569701">
        <ele>388.64835885260254</ele>
        <time>2022-04-27T23:33:43Z</time>
      </trkpt>
      <trkpt lat="34.327145018009624" lon="109.01956078836729">
        <ele>388.74438893515617</ele>
        <time>2022-04-27T23:33:47Z</time>
      </trkpt>
      <trkpt lat="34.326921698019255" lon="109.0199080536681">
        <ele>388.74817727226764</ele>
        <time>2022-04-27T23:33:59Z</time>
      </trkpt>
      <trkpt lat="34.3265676653327" lon="109.02032493877002">
        <ele>388.9557578554377</ele>
        <time>2022-04-27T23:34:15Z</time>
      </trkpt>
      <trkpt lat="34.32648300242892" lon="109.02040894045297">
        <ele>388.9340743133798</ele>
        <time>2022-04-27T23:34:19Z</time>
      </trkpt>
      <trkpt lat="34.32642722332877" lon="109.02049760330273">
        <ele>388.79754358995706</ele>
        <time>2022-04-27T23:34:23Z</time>
      </trkpt>
      <trkpt lat="34.32608569132945" lon="109.02080395820118">
        <ele>388.8936901772395</ele>
        <time>2022-04-27T23:34:39Z</time>
      </trkpt>
      <trkpt lat="34.32589132838587" lon="109.02093539344338">
        <ele>388.8525624014437</ele>
        <time>2022-04-27T23:34:47Z</time>
      </trkpt>
      <trkpt lat="34.325784429191835" lon="109.02098594271025">
        <ele>388.6901264991611</ele>
        <time>2022-04-27T23:34:51Z</time>
      </trkpt>
      <trkpt lat="34.32532053487339" lon="109.02108579934172">
        <ele>388.4781537950039</ele>
        <time>2022-04-27T23:35:07Z</time>
      </trkpt>
      <trkpt lat="34.32521375318028" lon="109.02109361386745">
        <ele>388.8753965627402</ele>
        <time>2022-04-27T23:35:11Z</time>
      </trkpt>
      <trkpt lat="34.32511140439296" lon="109.0211393456501">
        <ele>389.23706551268697</ele>
        <time>2022-04-27T23:35:15Z</time>
      </trkpt>
      <trkpt lat="34.32486807838946" lon="109.02114941477618">
        <ele>389.60385378357023</ele>
        <time>2022-04-27T23:35:23Z</time>
      </trkpt>
      <trkpt lat="34.32474062174613" lon="109.02111956877076">
        <ele>389.8504181848839</ele>
        <time>2022-04-27T23:35:27Z</time>
      </trkpt>
      <trkpt lat="34.3244976335819" lon="109.02112104844876">
        <ele>389.7301133070141</ele>
        <time>2022-04-27T23:35:35Z</time>
      </trkpt>
      <trkpt lat="34.3243780489517" lon="109.02110183810416">
        <ele>389.62159964069724</ele>
        <time>2022-04-27T23:35:39Z</time>
      </trkpt>
      <trkpt lat="34.32414005222523" lon="109.02115421787293">
        <ele>389.92233238648623</ele>
        <time>2022-04-27T23:35:47Z</time>
      </trkpt>
      <trkpt lat="34.32390821259817" lon="109.02114330750283">
        <ele>391.3524145176634</ele>
        <time>2022-04-27T23:35:55Z</time>
      </trkpt>
      <trkpt lat="34.32379252815052" lon="109.02112134566775">
        <ele>391.2363058393821</ele>
        <time>2022-04-27T23:35:59Z</time>
      </trkpt>
      <trkpt lat="34.32346393103783" lon="109.02111416667763">
        <ele>392.00242321100086</ele>
        <time>2022-04-27T23:36:11Z</time>
      </trkpt>
      <trkpt lat="34.32323948659831" lon="109.021069777588">
        <ele>393.1741756843403</ele>
        <time>2022-04-27T23:36:19Z</time>
      </trkpt>
      <trkpt lat="34.32042481391995" lon="109.02159266513625">
        <ele>390.57177924830467</ele>
        <time>2022-04-27T23:36:23Z</time>
      </trkpt>
      <trkpt lat="34.32005849383536" lon="109.02156625451536">
        <ele>388.3145115543157</ele>
        <time>2022-04-27T23:36:33Z</time>
      </trkpt>
      <trkpt lat="34.319589723079496" lon="109.02148598679052">
        <ele>390.7437430266291</ele>
        <time>2022-04-27T23:36:41Z</time>
      </trkpt>
      <trkpt lat="34.31949758630253" lon="109.0215043363402">
        <ele>390.6945736268535</ele>
        <time>2022-04-27T23:36:43Z</time>
      </trkpt>
      <trkpt lat="34.31936858494911" lon="109.0214598548963">
        <ele>390.67985334433615</ele>
        <time>2022-04-27T23:36:45Z</time>
      </trkpt>
      <trkpt lat="34.31899393933735" lon="109.02144683137541">
        <ele>390.98431601934135</ele>
        <time>2022-04-27T23:36:53Z</time>
      </trkpt>
      <trkpt lat="34.318901723737966" lon="109.02147527078498">
        <ele>391.0931161651388</ele>
        <time>2022-04-27T23:36:55Z</time>
      </trkpt>
      <trkpt lat="34.31845052889106" lon="109.02148406722534">
        <ele>390.8665283098817</ele>
        <time>2022-04-27T23:37:05Z</time>
      </trkpt>
      <trkpt lat="34.31801618082161" lon="109.02155622330729">
        <ele>391.15832570567727</ele>
        <time>2022-04-27T23:37:15Z</time>
      </trkpt>
      <trkpt lat="34.31758893949103" lon="109.02160448085534">
        <ele>390.6167296767235</ele>
        <time>2022-04-27T23:37:25Z</time>
      </trkpt>
      <trkpt lat="34.317497321542675" lon="109.02162973643502">
        <ele>391.57594055775553</ele>
        <time>2022-04-27T23:37:27Z</time>
      </trkpt>
      <trkpt lat="34.31740629248101" lon="109.02163090972671">
        <ele>391.1424414496869</ele>
        <time>2022-04-27T23:37:29Z</time>
      </trkpt>
      <trkpt lat="34.317314575665534" lon="109.02165509379341">
        <ele>390.7528160121292</ele>
        <time>2022-04-27T23:37:31Z</time>
      </trkpt>
      <trkpt lat="34.31723565979995" lon="109.02163305635017">
        <ele>391.0445388285443</ele>
        <time>2022-04-27T23:37:33Z</time>
      </trkpt>
      <trkpt lat="34.31713930237744" lon="109.02167022999433">
        <ele>391.3377302568406</ele>
        <time>2022-04-27T23:37:35Z</time>
      </trkpt>
      <trkpt lat="34.31679642515007" lon="109.02173255361278">
        <ele>391.3265308197588</ele>
        <time>2022-04-27T23:37:43Z</time>
      </trkpt>
      <trkpt lat="34.316624473123355" lon="109.02181368044695">
        <ele>391.75383094791323</ele>
        <time>2022-04-27T23:37:47Z</time>
      </trkpt>
      <trkpt lat="34.31646025068494" lon="109.02183205600576">
        <ele>390.7106189765036</ele>
        <time>2022-04-27T23:37:51Z</time>
      </trkpt>
      <trkpt lat="34.31621102288147" lon="109.0219242595096">
        <ele>391.6642855806276</ele>
        <time>2022-04-27T23:37:57Z</time>
      </trkpt>
      <trkpt lat="34.316150633889" lon="109.02212107411599">
        <ele>390.97992557659745</ele>
        <time>2022-04-27T23:38:05Z</time>
      </trkpt>
      <trkpt lat="34.316050037467136" lon="109.02216554197479">
        <ele>390.8526970837265</ele>
        <time>2022-04-27T23:38:09Z</time>
      </trkpt>
      <trkpt lat="34.31590016436339" lon="109.0222716254933">
        <ele>390.2872069859877</ele>
        <time>2022-04-27T23:38:21Z</time>
      </trkpt>
      <trkpt lat="34.31588860229963" lon="109.02250868127491">
        <ele>391.19461474288255</ele>
        <time>2022-04-27T23:38:29Z</time>
      </trkpt>
      <trkpt lat="34.31592896220086" lon="109.02276833806197">
        <ele>390.3024735674262</ele>
        <time>2022-04-27T23:38:35Z</time>
      </trkpt>
      <trkpt lat="34.316095854933785" lon="109.02325168422593">
        <ele>387.3098335377872</ele>
        <time>2022-04-27T23:38:45Z</time>
      </trkpt>
      <trkpt lat="34.3162217021444" lon="109.02362005653869">
        <ele>387.3240365963429</ele>
        <time>2022-04-27T23:38:53Z</time>
      </trkpt>
      <trkpt lat="34.316181376293244" lon="109.02370659768896">
        <ele>388.64795215893537</ele>
        <time>2022-04-27T23:38:57Z</time>
      </trkpt>
      <trkpt lat="34.31609462091343" lon="109.02382902360661">
        <ele>388.69958549924195</ele>
        <time>2022-04-27T23:39:01Z</time>
      </trkpt>
      <trkpt lat="34.31600556826478" lon="109.02391224254603">
        <ele>389.9174914928153</ele>
        <time>2022-04-27T23:39:05Z</time>
      </trkpt>
      <trkpt lat="34.31572800325104" lon="109.02408601495004">
        <ele>390.46851958241314</ele>
        <time>2022-04-27T23:39:13Z</time>
      </trkpt>
      <trkpt lat="34.31532916748632" lon="109.02438546303746">
        <ele>391.73807278554887</ele>
        <time>2022-04-27T23:39:25Z</time>
      </trkpt>
      <trkpt lat="34.31525520362307" lon="109.02444975763822">
        <ele>391.85959140211344</ele>
        <time>2022-04-27T23:39:27Z</time>
      </trkpt>
      <trkpt lat="34.315175048381285" lon="109.02448691071557">
        <ele>391.5880668060854</ele>
        <time>2022-04-27T23:39:29Z</time>
      </trkpt>
      <trkpt lat="34.31507740249196" lon="109.02458353678631">
        <ele>391.3796694036573</ele>
        <time>2022-04-27T23:39:33Z</time>
      </trkpt>
      <trkpt lat="34.314640844122174" lon="109.02485258145651">
        <ele>391.29811264202</ele>
        <time>2022-04-27T23:39:45Z</time>
      </trkpt>
      <trkpt lat="34.31447813440949" lon="109.0249570676693">
        <ele>390.83720246795565</ele>
        <time>2022-04-27T23:39:49Z</time>
      </trkpt>
      <trkpt lat="34.314168806924165" lon="109.02516927981384">
        <ele>390.9176814677194</ele>
        <time>2022-04-27T23:39:57Z</time>
      </trkpt>
      <trkpt lat="34.31410563879498" lon="109.02523158809399">
        <ele>390.4678882705048</ele>
        <time>2022-04-27T23:39:59Z</time>
      </trkpt>
      <trkpt lat="34.31361713646105" lon="109.02540793341184">
        <ele>390.78840092848986</ele>
        <time>2022-04-27T23:40:09Z</time>
      </trkpt>
      <trkpt lat="34.31333961550168" lon="109.02553066094298">
        <ele>391.3438921701163</ele>
        <time>2022-04-27T23:40:15Z</time>
      </trkpt>
      <trkpt lat="34.312923621065075" lon="109.02578875033532">
        <ele>391.72195091377944</ele>
        <time>2022-04-27T23:40:25Z</time>
      </trkpt>
      <trkpt lat="34.31259155769129" lon="109.02603259186647">
        <ele>392.51190448272973</ele>
        <time>2022-04-27T23:40:35Z</time>
      </trkpt>
      <trkpt lat="34.31258511954361" lon="109.02613957732153">
        <ele>392.56494007632136</ele>
        <time>2022-04-27T23:40:39Z</time>
      </trkpt>
      <trkpt lat="34.31230783480467" lon="109.02632948490528">
        <ele>392.7004076866433</ele>
        <time>2022-04-27T23:40:47Z</time>
      </trkpt>
      <trkpt lat="34.3122380018123" lon="109.02641675112655">
        <ele>393.35505370330065</ele>
        <time>2022-04-27T23:40:49Z</time>
      </trkpt>
      <trkpt lat="34.311943495899925" lon="109.02656968638982">
        <ele>393.82384451758116</ele>
        <time>2022-04-27T23:40:57Z</time>
      </trkpt>
      <trkpt lat="34.31187210687093" lon="109.0266435641308">
        <ele>393.29801987390965</ele>
        <time>2022-04-27T23:41:01Z</time>
      </trkpt>
      <trkpt lat="34.311660566948255" lon="109.02697644080085">
        <ele>392.7954490017146</ele>
        <time>2022-04-27T23:41:11Z</time>
      </trkpt>
      <trkpt lat="34.31147347876758" lon="109.0272582776306">
        <ele>393.43373096268624</ele>
        <time>2022-04-27T23:41:19Z</time>
      </trkpt>
      <trkpt lat="34.31135064195537" lon="109.02763685929293">
        <ele>393.625385674648</ele>
        <time>2022-04-27T23:41:27Z</time>
      </trkpt>
      <trkpt lat="34.31131808814898" lon="109.02793397688978">
        <ele>393.1704883072525</ele>
        <time>2022-04-27T23:41:33Z</time>
      </trkpt>
      <trkpt lat="34.31132868899483" lon="109.02802559019482">
        <ele>392.7811433710158</ele>
        <time>2022-04-27T23:41:35Z</time>
      </trkpt>
      <trkpt lat="34.31130903791939" lon="109.02820993852983">
        <ele>393.00061459001154</ele>
        <time>2022-04-27T23:41:39Z</time>
      </trkpt>
      <trkpt lat="34.31132142265611" lon="109.02837776646483">
        <ele>393.3403505012393</ele>
        <time>2022-04-27T23:41:43Z</time>
      </trkpt>
      <trkpt lat="34.31128678255153" lon="109.02858684302639">
        <ele>393.1845122175291</ele>
        <time>2022-04-27T23:41:47Z</time>
      </trkpt>
      <trkpt lat="34.311203066268774" lon="109.02878579219563">
        <ele>393.0872969981283</ele>
        <time>2022-04-27T23:41:51Z</time>
      </trkpt>
      <trkpt lat="34.31080881058301" lon="109.02915680168756">
        <ele>391.20898750424385</ele>
        <time>2022-04-27T23:42:01Z</time>
      </trkpt>
      <trkpt lat="34.310436326655285" lon="109.02949838313992">
        <ele>391.519933632575</ele>
        <time>2022-04-27T23:42:11Z</time>
      </trkpt>
      <trkpt lat="34.31000411848668" lon="109.02985533172699">
        <ele>392.2550144288689</ele>
        <time>2022-04-27T23:42:23Z</time>
      </trkpt>
      <trkpt lat="34.30960770178836" lon="109.03015141138259">
        <ele>393.2887007696554</ele>
        <time>2022-04-27T23:42:35Z</time>
      </trkpt>
      <trkpt lat="34.30917014264391" lon="109.03039121151899">
        <ele>394.45015535131097</ele>
        <time>2022-04-27T23:42:47Z</time>
      </trkpt>
      <trkpt lat="34.30901247666478" lon="109.03048951386063">
        <ele>393.2463043536991</ele>
        <time>2022-04-27T23:42:53Z</time>
      </trkpt>
      <trkpt lat="34.30893147742907" lon="109.0304680310199">
        <ele>394.47772158589214</ele>
        <time>2022-04-27T23:42:55Z</time>
      </trkpt>
      <trkpt lat="34.308827373410395" lon="109.03052502276115">
        <ele>394.49087961390615</ele>
        <time>2022-04-27T23:42:59Z</time>
      </trkpt>
      <trkpt lat="34.30863515663187" lon="109.03057793626158">
        <ele>393.6596662858501</ele>
        <time>2022-04-27T23:43:07Z</time>
      </trkpt>
      <trkpt lat="34.3085198892181" lon="109.03058493064704">
        <ele>393.9271781453863</ele>
        <time>2022-04-27T23:43:11Z</time>
      </trkpt>
      <trkpt lat="34.30829560360482" lon="109.0306241733883">
        <ele>394.88774003554136</ele>
        <time>2022-04-27T23:43:19Z</time>
      </trkpt>
      <trkpt lat="34.30817778580317" lon="109.03066772482381">
        <ele>394.7311384174973</ele>
        <time>2022-04-27T23:43:23Z</time>
      </trkpt>
      <trkpt lat="34.308059708606905" lon="109.03067445177098">
        <ele>394.66047143097967</ele>
        <time>2022-04-27T23:43:27Z</time>
      </trkpt>
      <trkpt lat="34.30795419407738" lon="109.03065328527813">
        <ele>394.2696262449026</ele>
        <time>2022-04-27T23:43:31Z</time>
      </trkpt>
      <trkpt lat="34.307751251074606" lon="109.03064455386598">
        <ele>394.61478731315583</ele>
        <time>2022-04-27T23:43:39Z</time>
      </trkpt>
      <trkpt lat="34.3076458772169" lon="109.03062189371349">
        <ele>393.98007027618587</ele>
        <time>2022-04-27T23:43:43Z</time>
      </trkpt>
      <trkpt lat="34.30750713773064" lon="109.03063650702165">
        <ele>393.7691429583356</ele>
        <time>2022-04-27T23:43:47Z</time>
      </trkpt>
      <trkpt lat="34.307391002523104" lon="109.03062336411455">
        <ele>394.0193746127188</ele>
        <time>2022-04-27T23:43:49Z</time>
      </trkpt>
      <trkpt lat="34.30720109615472" lon="109.03053998491194">
        <ele>394.2879344942048</ele>
        <time>2022-04-27T23:43:53Z</time>
      </trkpt>
      <trkpt lat="34.307115199793934" lon="109.03055732744066">
        <ele>393.0699347695336</ele>
        <time>2022-04-27T23:43:55Z</time>
      </trkpt>
      <trkpt lat="34.30703701589255" lon="109.03055091826255">
        <ele>392.91592090111226</ele>
        <time>2022-04-27T23:43:57Z</time>
      </trkpt>
      <trkpt lat="34.306834422877365" lon="109.0306771415351">
        <ele>391.76701320987195</ele>
        <time>2022-04-27T23:44:03Z</time>
      </trkpt>
      <trkpt lat="34.30673252787737" lon="109.03068379010135">
        <ele>391.0777498241514</ele>
        <time>2022-04-27T23:44:13Z</time>
      </trkpt>
      <trkpt lat="34.306292059028216" lon="109.03093989423564">
        <ele>390.8304226351902</ele>
        <time>2022-04-27T23:44:30Z</time>
      </trkpt>
      <trkpt lat="34.30635609925623" lon="109.03127815594308">
        <ele>390.7441057851538</ele>
        <time>2022-04-27T23:44:38Z</time>
      </trkpt>
      <trkpt lat="34.306400028955665" lon="109.03185538861685">
        <ele>391.48645511548966</ele>
        <time>2022-04-27T23:44:50Z</time>
      </trkpt>
      <trkpt lat="34.30638857158615" lon="109.03196940676952">
        <ele>392.0715076867491</ele>
        <time>2022-04-27T23:44:52Z</time>
      </trkpt>
      <trkpt lat="34.30643406672661" lon="109.03252328554966">
        <ele>393.22142186388373</ele>
        <time>2022-04-27T23:45:02Z</time>
      </trkpt>
      <trkpt lat="34.30648370067299" lon="109.03308899305523">
        <ele>393.04755511134863</ele>
        <time>2022-04-27T23:45:12Z</time>
      </trkpt>
      <trkpt lat="34.306525008606705" lon="109.03350395435898">
        <ele>392.57707778550684</ele>
        <time>2022-04-27T23:45:20Z</time>
      </trkpt>
      <trkpt lat="34.306559670171055" lon="109.03405090509186">
        <ele>393.4522479688749</ele>
        <time>2022-04-27T23:45:30Z</time>
      </trkpt>
      <trkpt lat="34.306580196373574" lon="109.03431791311439">
        <ele>393.542912597768</ele>
        <time>2022-04-27T23:45:35Z</time>
      </trkpt>
      <trkpt lat="34.3066057253918" lon="109.03441959389612">
        <ele>393.4377038460225</ele>
        <time>2022-04-27T23:45:37Z</time>
      </trkpt>
      <trkpt lat="34.30660965426331" lon="109.03472691903413">
        <ele>392.59939885884523</ele>
        <time>2022-04-27T23:45:43Z</time>
      </trkpt>
      <trkpt lat="34.306563296894154" lon="109.0349129703871">
        <ele>392.6721188267693</ele>
        <time>2022-04-27T23:45:47Z</time>
      </trkpt>
      <trkpt lat="34.306557541703576" lon="109.0351873709157">
        <ele>392.4385274788365</ele>
        <time>2022-04-27T23:45:53Z</time>
      </trkpt>
      <trkpt lat="34.306631415908335" lon="109.03574947768423">
        <ele>393.20742986537516</ele>
        <time>2022-04-27T23:46:05Z</time>
      </trkpt>
      <trkpt lat="34.30671308205078" lon="109.03635463515056">
        <ele>395.2429441763088</ele>
        <time>2022-04-27T23:46:19Z</time>
      </trkpt>
      <trkpt lat="34.306696399814165" lon="109.0365601826512">
        <ele>392.9621799280867</ele>
        <time>2022-04-27T23:46:29Z</time>
      </trkpt>
      <trkpt lat="34.30666676108054" lon="109.03661576907221">
        <ele>392.1112314434722</ele>
        <time>2022-04-27T23:46:33Z</time>
      </trkpt>
      <trkpt lat="34.306640996395934" lon="109.03674453580078">
        <ele>391.9082048134878</ele>
        <time>2022-04-27T23:46:40Z</time>
      </trkpt>
      <trkpt lat="34.30667230233381" lon="109.03683868112368">
        <ele>391.3015017453581</ele>
        <time>2022-04-27T23:46:46Z</time>
      </trkpt>
      <trkpt lat="34.30667373111504" lon="109.03694312188584">
        <ele>391.77070805989206</ele>
        <time>2022-04-27T23:46:52Z</time>
      </trkpt>
      <trkpt lat="34.30662962605408" lon="109.03705046821922">
        <ele>392.4679039781913</ele>
        <time>2022-04-27T23:47:04Z</time>
      </trkpt>
      <trkpt lat="34.306450521905234" lon="109.03714995982689">
        <ele>391.5771913798526</ele>
        <time>2022-04-27T23:47:19Z</time>
      </trkpt>
      <trkpt lat="34.3064282489371" lon="109.03716041275241">
        <ele>391.2564846612513</ele>
        <time>2022-04-27T23:47:23Z</time>
      </trkpt>
    </trkseg>
  </trk>
</gpx>