<?xml version="1.0" encoding="UTF-8"?>
<gpx xmlns="http://www.topografix.com/GPX/1/1" xmlns:gpxtpx="http://www.garmin.com/xmlschemas/TrackPointExtension/v1" xmlns:xsi="http://www.w3.org/2001/XMLSchema-instance" xsi:schemaLocation="http://www.topografix.com/GPX/1/1 http://www.topografix.com/GPX/1/1/gpx.xsd" version="1.1" creator="gpx.py -- https://github.com/tkrajina/gpxpy">
  <trk>
    <name>gpx from keep</name>
    <type>Run</type>
    <trkseg>
      <trkpt lat="34.297777487470896" lon="108.71041864854845">
        <ele>392.1193853496386</ele>
        <time>2026-09-14T23:04:15Z</time>
      </trkpt>
      <trkpt lat="34.29762778117318" lon="108.71060765164017">
        <ele>389.4209213256836</ele>
        <time>2026-09-14T23:04:22Z</time>
      </trkpt>
      <trkpt lat="34.297553388589776" lon="108.71058350820627">
        <ele>389.2137680053711</ele>
        <time>2026-09-14T23:04:26Z</time>
      </trkpt>
      <trkpt lat="34.29757289982825" lon="108.7104378091854">
        <ele>388.5726547241211</ele>
        <time>2026-09-14T23:04:29Z</time>
      </trkpt>
      <trkpt lat="34.29760490466677" lon="108.71032740323402">
        <ele>389.1513900756836</ele>
        <time>2026-09-14T23:04:32Z</time>
      </trkpt>
      <trkpt lat="34.297690397168196" lon="108.7101982427098">
        <ele>392.0949327852577</ele>
        <time>2026-09-14T23:04:38Z</time>
      </trkpt>
      <trkpt lat="34.29792833642619" lon="108.7101694156278">
        <ele>395.8561022756621</ele>
        <time>2026-09-14T23:04:47Z</time>
      </trkpt>
      <trkpt lat="34.29797984225009" lon="108.71019219343091">
        <ele>396.19973018206656</ele>
        <time>2026-09-14T23:04:50Z</time>
      </trkpt>
      <trkpt lat="34.298035559730664" lon="108.71035877145242">
        <ele>388.0051454436034</ele>
        <time>2026-09-14T23:04:56Z</time>
      </trkpt>
      <trkpt lat="34.298054285677786" lon="108.71051146941534">
        <ele>388.3194490028545</ele>
        <time>2026-09-14T23:05:02Z</time>
      </trkpt>
      <trkpt lat="34.298079247498585" lon="108.71057953858325">
        <ele>388.98355180956423</ele>
        <time>2026-09-14T23:05:05Z</time>
      </trkpt>
      <trkpt lat="34.298062563102" lon="108.7107681259982">
        <ele>389.39347118884325</ele>
        <time>2026-09-14T23:05:14Z</time>
      </trkpt>
      <trkpt lat="34.2981342114813" lon="108.71111460243193">
        <ele>390.08885392267257</ele>
        <time>2026-09-14T23:05:29Z</time>
      </trkpt>
      <trkpt lat="34.298154838011754" lon="108.71136609000082">
        <ele>389.26500707678497</ele>
        <time>2026-09-14T23:05:41Z</time>
      </trkpt>
      <trkpt lat="34.29787865188838" lon="108.71149666481664">
        <ele>389.2997956639156</ele>
        <time>2026-09-14T23:05:59Z</time>
      </trkpt>
      <trkpt lat="34.29759849270786" lon="108.71163377020214">
        <ele>389.0230843918398</ele>
        <time>2026-09-14T23:06:17Z</time>
      </trkpt>
      <trkpt lat="34.297493075459194" lon="108.71165397037925">
        <ele>389.30128048639745</ele>
        <time>2026-09-14T23:06:23Z</time>
      </trkpt>
      <trkpt lat="34.29718350120672" lon="108.71176114631031">
        <ele>388.9770763721317</ele>
        <time>2026-09-14T23:06:40Z</time>
      </trkpt>
      <trkpt lat="34.2971111423176" lon="108.71177879184634">
        <ele>388.9724506549537</ele>
        <time>2026-09-14T23:06:44Z</time>
      </trkpt>
      <trkpt lat="34.29697433735902" lon="108.71186677614908">
        <ele>389.5266216956079</ele>
        <time>2026-09-14T23:06:52Z</time>
      </trkpt>
      <trkpt lat="34.296653709054624" lon="108.71198959720707">
        <ele>390.10670083388686</ele>
        <time>2026-09-14T23:07:14Z</time>
      </trkpt>
      <trkpt lat="34.296519440446716" lon="108.7120729469462">
        <ele>390.3054817924276</ele>
        <time>2026-09-14T23:07:23Z</time>
      </trkpt>
      <trkpt lat="34.296427698450415" lon="108.71209942464694">
        <ele>390.01346371043473</ele>
        <time>2026-09-14T23:07:29Z</time>
      </trkpt>
      <trkpt lat="34.296331616900765" lon="108.71207684700491">
        <ele>389.4109426289797</ele>
        <time>2026-09-14T23:07:35Z</time>
      </trkpt>
      <trkpt lat="34.296299900200786" lon="108.71202820281255">
        <ele>389.44361016806215</ele>
        <time>2026-09-14T23:07:38Z</time>
      </trkpt>
      <trkpt lat="34.29626671861885" lon="108.71168026835159">
        <ele>389.58299813233316</ele>
        <time>2026-09-14T23:07:56Z</time>
      </trkpt>
      <trkpt lat="34.29622551375842" lon="108.71129782622154">
        <ele>389.7396676251665</ele>
        <time>2026-09-14T23:08:17Z</time>
      </trkpt>
      <trkpt lat="34.2962082506109" lon="108.71113420885682">
        <ele>390.118305795826</ele>
        <time>2026-09-14T23:08:26Z</time>
      </trkpt>
      <trkpt lat="34.296213417316324" lon="108.7110388608935">
        <ele>390.2593639045954</ele>
        <time>2026-09-14T23:08:32Z</time>
      </trkpt>
      <trkpt lat="34.29617294416009" lon="108.71096694848985">
        <ele>389.88959555421025</ele>
        <time>2026-09-14T23:08:38Z</time>
      </trkpt>
      <trkpt lat="34.29617990403447" lon="108.71084945055424">
        <ele>390.202425327152</ele>
        <time>2026-09-14T23:08:46Z</time>
      </trkpt>
      <trkpt lat="34.29610570511262" lon="108.71051762492935">
        <ele>390.85079558286816</ele>
        <time>2026-09-14T23:09:05Z</time>
      </trkpt>
      <trkpt lat="34.29604928619084" lon="108.71019426076107">
        <ele>391.2284662341699</ele>
        <time>2026-09-14T23:09:23Z</time>
      </trkpt>
      <trkpt lat="34.29599452295772" lon="108.70984132763265">
        <ele>391.56239338591695</ele>
        <time>2026-09-14T23:09:41Z</time>
      </trkpt>
      <trkpt lat="34.29596700815196" lon="108.70948909893505">
        <ele>389.90566156059504</ele>
        <time>2026-09-14T23:09:59Z</time>
      </trkpt>
      <trkpt lat="34.29593035557764" lon="108.70912588827292">
        <ele>389.962204628624</ele>
        <time>2026-09-14T23:10:17Z</time>
      </trkpt>
      <trkpt lat="34.29590742248951" lon="108.7088743408428">
        <ele>390.20901898201555</ele>
        <time>2026-09-14T23:10:29Z</time>
      </trkpt>
      <trkpt lat="34.295837767992" lon="108.70856734898393">
        <ele>390.20875171851367</ele>
        <time>2026-09-14T23:10:48Z</time>
      </trkpt>
      <trkpt lat="34.29581037211362" lon="108.7082048232126">
        <ele>392.6003502961248</ele>
        <time>2026-09-14T23:11:14Z</time>
      </trkpt>
      <trkpt lat="34.29579282019392" lon="108.70786764740065">
        <ele>390.34146612975746</ele>
        <time>2026-09-14T23:11:35Z</time>
      </trkpt>
      <trkpt lat="34.295784920934494" lon="108.7075308327">
        <ele>390.79046903084964</ele>
        <time>2026-09-14T23:11:56Z</time>
      </trkpt>
      <trkpt lat="34.29574918731809" lon="108.7071834542247">
        <ele>390.4121617246419</ele>
        <time>2026-09-14T23:12:17Z</time>
      </trkpt>
      <trkpt lat="34.295728763492356" lon="108.70687495757845">
        <ele>390.1689097220078</ele>
        <time>2026-09-14T23:12:38Z</time>
      </trkpt>
      <trkpt lat="34.29568824437586" lon="108.70670694813093">
        <ele>390.6956147411838</ele>
        <time>2026-09-14T23:12:50Z</time>
      </trkpt>
      <trkpt lat="34.29567350103436" lon="108.70652686075732">
        <ele>389.8395795086399</ele>
        <time>2026-09-14T23:13:02Z</time>
      </trkpt>
      <trkpt lat="34.295649475094145" lon="108.70647357775059">
        <ele>390.2250123778358</ele>
        <time>2026-09-14T23:13:06Z</time>
      </trkpt>
      <trkpt lat="34.29565306272025" lon="108.70640587131786">
        <ele>390.214341616258</ele>
        <time>2026-09-14T23:13:10Z</time>
      </trkpt>
      <trkpt lat="34.29574562468462" lon="108.70617981597127">
        <ele>390.41629806160927</ele>
        <time>2026-09-14T23:13:23Z</time>
      </trkpt>
      <trkpt lat="34.295795326709204" lon="108.70610144680361">
        <ele>388.8266259273514</ele>
        <time>2026-09-14T23:13:29Z</time>
      </trkpt>
      <trkpt lat="34.295991228356634" lon="108.70603212644558">
        <ele>389.667942696251</ele>
        <time>2026-09-14T23:13:50Z</time>
      </trkpt>
      <trkpt lat="34.29613709862319" lon="108.70602091560052">
        <ele>390.782323166728</ele>
        <time>2026-09-14T23:14:02Z</time>
      </trkpt>
      <trkpt lat="34.29623747006296" lon="108.70599295239657">
        <ele>389.7147232182324</ele>
        <time>2026-09-14T23:14:08Z</time>
      </trkpt>
      <trkpt lat="34.2964965898344" lon="108.70596825973229">
        <ele>388.4185940967873</ele>
        <time>2026-09-14T23:14:26Z</time>
      </trkpt>
      <trkpt lat="34.29665361161911" lon="108.70592633807439">
        <ele>389.54405502974987</ele>
        <time>2026-09-14T23:14:38Z</time>
      </trkpt>
      <trkpt lat="34.29689362278564" lon="108.70593370477323">
        <ele>388.48841860331595</ele>
        <time>2026-09-14T23:14:56Z</time>
      </trkpt>
      <trkpt lat="34.29694179193338" lon="108.70590450584297">
        <ele>388.7404196690768</ele>
        <time>2026-09-14T23:15:00Z</time>
      </trkpt>
      <trkpt lat="34.297062228488166" lon="108.70588430667118">
        <ele>389.38379304483533</ele>
        <time>2026-09-14T23:15:08Z</time>
      </trkpt>
      <trkpt lat="34.29712149992014" lon="108.70589969468423">
        <ele>388.839882446453</ele>
        <time>2026-09-14T23:15:12Z</time>
      </trkpt>
      <trkpt lat="34.297361638555465" lon="108.70578782042932">
        <ele>389.126060067676</ele>
        <time>2026-09-14T23:15:33Z</time>
      </trkpt>
      <trkpt lat="34.29763907169044" lon="108.7057768486902">
        <ele>389.0556289870292</ele>
        <time>2026-09-14T23:15:54Z</time>
      </trkpt>
      <trkpt lat="34.297862049089716" lon="108.705715829691">
        <ele>388.50801878608763</ele>
        <time>2026-09-14T23:16:09Z</time>
      </trkpt>
      <trkpt lat="34.29799702057285" lon="108.70572541726034">
        <ele>389.9370649345219</ele>
        <time>2026-09-14T23:16:18Z</time>
      </trkpt>
      <trkpt lat="34.298043358302074" lon="108.70570156025894">
        <ele>390.0923136807978</ele>
        <time>2026-09-14T23:16:21Z</time>
      </trkpt>
      <trkpt lat="34.29823323414903" lon="108.70565727739472">
        <ele>388.6160948742181</ele>
        <time>2026-09-14T23:16:33Z</time>
      </trkpt>
      <trkpt lat="34.298276076100116" lon="108.70563119652013">
        <ele>389.46143789961934</ele>
        <time>2026-09-14T23:16:36Z</time>
      </trkpt>
      <trkpt lat="34.298582365832885" lon="108.70559907202608">
        <ele>389.8263836475089</ele>
        <time>2026-09-14T23:16:57Z</time>
      </trkpt>
      <trkpt lat="34.29870277782212" lon="108.70553379969422">
        <ele>391.2871600147337</ele>
        <time>2026-09-14T23:17:08Z</time>
      </trkpt>
      <trkpt lat="34.29888486443446" lon="108.70549480376505">
        <ele>391.5133394142613</ele>
        <time>2026-09-14T23:17:25Z</time>
      </trkpt>
      <trkpt lat="34.29895032450193" lon="108.70549837066503">
        <ele>390.81228389497846</ele>
        <time>2026-09-14T23:17:31Z</time>
      </trkpt>
      <trkpt lat="34.299246754268964" lon="108.70544135815634">
        <ele>391.95735222660005</ele>
        <time>2026-09-14T23:17:55Z</time>
      </trkpt>
      <trkpt lat="34.29931338300231" lon="108.70547570697606">
        <ele>391.7448542509228</ele>
        <time>2026-09-14T23:18:01Z</time>
      </trkpt>
      <trkpt lat="34.29934789254177" lon="108.7055604103046">
        <ele>391.8084267647937</ele>
        <time>2026-09-14T23:18:07Z</time>
      </trkpt>
      <trkpt lat="34.29936886634144" lon="108.7058605706061">
        <ele>390.7825274532661</ele>
        <time>2026-09-14T23:18:25Z</time>
      </trkpt>
      <trkpt lat="34.29941663265631" lon="108.7062018061382">
        <ele>390.39837387390435</ele>
        <time>2026-09-14T23:18:49Z</time>
      </trkpt>
      <trkpt lat="34.29946006082269" lon="108.70658724421098">
        <ele>391.90568075329065</ele>
        <time>2026-09-14T23:19:11Z</time>
      </trkpt>
      <trkpt lat="34.29951126168274" lon="108.70694666545211">
        <ele>391.00354793667793</ele>
        <time>2026-09-14T23:19:38Z</time>
      </trkpt>
      <trkpt lat="34.29952051327128" lon="108.70713323676244">
        <ele>390.23083165101707</ele>
        <time>2026-09-14T23:19:47Z</time>
      </trkpt>
      <trkpt lat="34.29949721024216" lon="108.70724190378567">
        <ele>390.5025263596326</ele>
        <time>2026-09-14T23:19:53Z</time>
      </trkpt>
      <trkpt lat="34.29951586939234" lon="108.70730652867056">
        <ele>390.8912264313549</ele>
        <time>2026-09-14T23:19:56Z</time>
      </trkpt>
      <trkpt lat="34.29950550946024" lon="108.70759361207847">
        <ele>391.55462274421006</ele>
        <time>2026-09-14T23:20:11Z</time>
      </trkpt>
      <trkpt lat="34.29952245225048" lon="108.7076834271886">
        <ele>391.5212264806032</ele>
        <time>2026-09-14T23:20:17Z</time>
      </trkpt>
      <trkpt lat="34.29953692613934" lon="108.70793590381804">
        <ele>391.22952260728925</ele>
        <time>2026-09-14T23:20:35Z</time>
      </trkpt>
      <trkpt lat="34.299521093176416" lon="108.70800592356188">
        <ele>391.60878197383136</ele>
        <time>2026-09-14T23:20:41Z</time>
      </trkpt>
      <trkpt lat="34.29954019316519" lon="108.70805918909409">
        <ele>391.5015627508983</ele>
        <time>2026-09-14T23:20:44Z</time>
      </trkpt>
      <trkpt lat="34.29951563380987" lon="108.70811344031821">
        <ele>390.8676480827853</ele>
        <time>2026-09-14T23:20:47Z</time>
      </trkpt>
      <trkpt lat="34.2995926776839" lon="108.70825787885114">
        <ele>391.33740584831685</ele>
        <time>2026-09-14T23:20:56Z</time>
      </trkpt>
      <trkpt lat="34.29961381892124" lon="108.70832845016535">
        <ele>391.8554228255525</ele>
        <time>2026-09-14T23:21:02Z</time>
      </trkpt>
      <trkpt lat="34.299571425103174" lon="108.70835188392716">
        <ele>392.5229146024212</ele>
        <time>2026-09-14T23:21:05Z</time>
      </trkpt>
      <trkpt lat="34.29952485180677" lon="108.70834558484131">
        <ele>391.88467061612755</ele>
        <time>2026-09-14T23:21:08Z</time>
      </trkpt>
      <trkpt lat="34.29949790346598" lon="108.70845423894836">
        <ele>390.5833891425282</ele>
        <time>2026-09-14T23:21:14Z</time>
      </trkpt>
      <trkpt lat="34.29951423502611" lon="108.7085078023834">
        <ele>391.5130493575707</ele>
        <time>2026-09-14T23:21:18Z</time>
      </trkpt>
      <trkpt lat="34.29961069385129" lon="108.70846104868133">
        <ele>391.57988350186497</ele>
        <time>2026-09-14T23:21:24Z</time>
      </trkpt>
      <trkpt lat="34.29964033246158" lon="108.70870276010497">
        <ele>391.49372396059334</ele>
        <time>2026-09-14T23:21:39Z</time>
      </trkpt>
      <trkpt lat="34.2996604231132" lon="108.70876050868297">
        <ele>391.20170079544187</ele>
        <time>2026-09-14T23:21:42Z</time>
      </trkpt>
      <trkpt lat="34.299644220639465" lon="108.70881276612037">
        <ele>390.88640305027366</ele>
        <time>2026-09-14T23:21:45Z</time>
      </trkpt>
      <trkpt lat="34.2996744468798" lon="108.70892636447631">
        <ele>390.82838350813836</ele>
        <time>2026-09-14T23:21:51Z</time>
      </trkpt>
      <trkpt lat="34.29969625426794" lon="108.70914778772101">
        <ele>391.2831295244396</ele>
        <time>2026-09-14T23:22:03Z</time>
      </trkpt>
      <trkpt lat="34.29969158521115" lon="108.70924089296334">
        <ele>390.90791834145784</ele>
        <time>2026-09-14T23:22:09Z</time>
      </trkpt>
      <trkpt lat="34.299726832756996" lon="108.70934545580482">
        <ele>391.64450383372605</ele>
        <time>2026-09-14T23:22:15Z</time>
      </trkpt>
      <trkpt lat="34.29970976808997" lon="108.70940691477554">
        <ele>390.89089374709874</ele>
        <time>2026-09-14T23:22:18Z</time>
      </trkpt>
      <trkpt lat="34.29971173380437" lon="108.70946421606754">
        <ele>390.4514961503446</ele>
        <time>2026-09-14T23:22:21Z</time>
      </trkpt>
      <trkpt lat="34.29975630155067" lon="108.70951722845884">
        <ele>391.3663952788338</ele>
        <time>2026-09-14T23:22:24Z</time>
      </trkpt>
      <trkpt lat="34.29978700033031" lon="108.70963128454892">
        <ele>389.25488122180104</ele>
        <time>2026-09-14T23:22:30Z</time>
      </trkpt>
      <trkpt lat="34.29974804487842" lon="108.70976246981024">
        <ele>390.3757219389081</ele>
        <time>2026-09-14T23:22:36Z</time>
      </trkpt>
      <trkpt lat="34.29977898266156" lon="108.70989365112644">
        <ele>390.5958270430565</ele>
        <time>2026-09-14T23:22:42Z</time>
      </trkpt>
      <trkpt lat="34.29975944222142" lon="108.70995364144534">
        <ele>390.63980564754456</ele>
        <time>2026-09-14T23:22:45Z</time>
      </trkpt>
      <trkpt lat="34.299774216103614" lon="108.7100720782913">
        <ele>390.9797808099538</ele>
        <time>2026-09-14T23:22:51Z</time>
      </trkpt>
      <trkpt lat="34.29986443337661" lon="108.71021657762243">
        <ele>391.7194954250008</ele>
        <time>2026-09-14T23:23:00Z</time>
      </trkpt>
      <trkpt lat="34.29982416117354" lon="108.71029797823395">
        <ele>391.8068109350279</ele>
        <time>2026-09-14T23:23:06Z</time>
      </trkpt>
      <trkpt lat="34.299660942789124" lon="108.71048064119091">
        <ele>390.77879725396633</ele>
        <time>2026-09-14T23:23:22Z</time>
      </trkpt>
      <trkpt lat="34.299528700046295" lon="108.71056127907923">
        <ele>391.84253021143377</ele>
        <time>2026-09-14T23:23:32Z</time>
      </trkpt>
      <trkpt lat="34.299500076601326" lon="108.71062065067208">
        <ele>392.8750618165359</ele>
        <time>2026-09-14T23:23:38Z</time>
      </trkpt>
      <trkpt lat="34.299489768537704" lon="108.71072175527704">
        <ele>393.3399231536314</ele>
        <time>2026-09-14T23:23:44Z</time>
      </trkpt>
      <trkpt lat="34.29944217538201" lon="108.71078598043259">
        <ele>391.11603484116495</ele>
        <time>2026-09-14T23:23:50Z</time>
      </trkpt>
      <trkpt lat="34.299420567477114" lon="108.7108743396542">
        <ele>391.8923557186499</ele>
        <time>2026-09-14T23:26:00Z</time>
      </trkpt>
      <trkpt lat="34.29922531085674" lon="108.71090931814155">
        <ele>390.65217566583306</ele>
        <time>2026-09-14T23:26:15Z</time>
      </trkpt>
      <trkpt lat="34.29904930501714" lon="108.71099139257079">
        <ele>390.49942299351096</ele>
        <time>2026-09-14T23:26:27Z</time>
      </trkpt>
      <trkpt lat="34.298916940911404" lon="108.71102503685826">
        <ele>390.59977823123336</ele>
        <time>2026-09-14T23:26:36Z</time>
      </trkpt>
      <trkpt lat="34.29859867956879" lon="108.71119833213106">
        <ele>391.60362235456705</ele>
        <time>2026-09-14T23:26:57Z</time>
      </trkpt>
      <trkpt lat="34.29843921680629" lon="108.71124731330289">
        <ele>390.54513152036816</ele>
        <time>2026-09-14T23:27:09Z</time>
      </trkpt>
      <trkpt lat="34.298295835912114" lon="108.71132892664698">
        <ele>390.23213469050825</ele>
        <time>2026-09-14T23:27:21Z</time>
      </trkpt>
      <trkpt lat="34.29821277660559" lon="108.711315485822">
        <ele>390.432761031203</ele>
        <time>2026-09-14T23:27:27Z</time>
      </trkpt>
      <trkpt lat="34.29817172237902" lon="108.71128776403422">
        <ele>390.4317021239549</ele>
        <time>2026-09-14T23:27:30Z</time>
      </trkpt>
      <trkpt lat="34.29813717538584" lon="108.71114043394275">
        <ele>389.7028461955488</ele>
        <time>2026-09-14T23:27:38Z</time>
      </trkpt>
      <trkpt lat="34.29809811049383" lon="108.7110887777748">
        <ele>388.038441253826</ele>
        <time>2026-09-14T23:27:42Z</time>
      </trkpt>
      <trkpt lat="34.298088225810034" lon="108.7109164499084">
        <ele>388.922213495709</ele>
        <time>2026-09-14T23:27:52Z</time>
      </trkpt>
      <trkpt lat="34.29803623655136" lon="108.71058274225584">
        <ele>389.2642871364951</ele>
        <time>2026-09-14T23:28:13Z</time>
      </trkpt>
      <trkpt lat="34.29805122620188" lon="108.7105197709094">
        <ele>389.9554148847237</ele>
        <time>2026-09-14T23:28:19Z</time>
      </trkpt>
      <trkpt lat="34.2980282521278" lon="108.7104025880268">
        <ele>389.2966409139335</ele>
        <time>2026-09-14T23:28:25Z</time>
      </trkpt>
      <trkpt lat="34.29799371846078" lon="108.71031247347459">
        <ele>388.38342326227576</ele>
        <time>2026-09-14T23:28:31Z</time>
      </trkpt>
      <trkpt lat="34.2980110165708" lon="108.71025688291789">
        <ele>388.1601692670956</ele>
        <time>2026-09-14T23:28:34Z</time>
      </trkpt>
      <trkpt lat="34.29800451152084" lon="108.71018423092043">
        <ele>389.5487104598433</ele>
        <time>2026-09-14T23:28:40Z</time>
      </trkpt>
      <trkpt lat="34.29779174482647" lon="108.71020174340029">
        <ele>388.447303134948</ele>
        <time>2026-09-14T23:28:55Z</time>
      </trkpt>
      <trkpt lat="34.29776283792042" lon="108.71042318904104">
        <ele>387.5064549325034</ele>
        <time>2026-09-14T23:29:13Z</time>
      </trkpt>
      <trkpt lat="34.29781903092225" lon="108.71043354792442">
        <ele>388.5283544464037</ele>
        <time>2026-09-14T23:29:16Z</time>
      </trkpt>
      <trkpt lat="34.2977683382313" lon="108.7103847991521">
        <ele>386.7264036387205</ele>
        <time>2026-09-14T23:29:25Z</time>
      </trkpt>
      <trkpt lat="34.29774646913334" lon="108.71027970314127">
        <ele>393.3686142116785</ele>
        <time>2026-09-14T23:29:34Z</time>
      </trkpt>
    </trkseg>
  </trk>
</gpx>