<?xml version="1.0" encoding="UTF-8"?>
<gpx xmlns="http://www.topografix.com/GPX/1/1" xmlns:gpxtpx="http://www.garmin.com/xmlschemas/TrackPointExtension/v1" xmlns:xsi="http://www.w3.org/2001/XMLSchema-instance" xsi:schemaLocation="http://www.topografix.com/GPX/1/1 http://www.topografix.com/GPX/1/1/gpx.xsd" version="1.1" creator="gpx.py -- https://github.com/tkrajina/gpxpy">
  <trk>
    <name>gpx from keep</name>
    <type>Ride</type>
    <trkseg>
      <trkpt lat="34.32858552650819" lon="108.98034506822458">
        <ele>397.22208976745605</ele>
        <time>2022-04-29T23:48:33Z</time>
      </trkpt>
      <trkpt lat="34.32875320143604" lon="108.98062385700341">
        <ele>397.1926689147949</ele>
        <time>2022-04-29T23:48:39Z</time>
      </trkpt>
      <trkpt lat="34.32867459030088" lon="108.98069485922954">
        <ele>397.2218761444092</ele>
        <time>2022-04-29T23:48:45Z</time>
      </trkpt>
      <trkpt lat="34.328801611938154" lon="108.9806375354049">
        <ele>395.8145287759475</ele>
        <time>2022-04-29T23:48:49Z</time>
      </trkpt>
      <trkpt lat="34.32877585235181" lon="108.98077378784492">
        <ele>395.7211005975133</ele>
        <time>2022-04-29T23:48:51Z</time>
      </trkpt>
      <trkpt lat="34.328540345037176" lon="108.98080134712231">
        <ele>395.6927787077923</ele>
        <time>2022-04-29T23:48:57Z</time>
      </trkpt>
      <trkpt lat="34.32846695869308" lon="108.98086038068905">
        <ele>395.6187089039013</ele>
        <time>2022-04-29T23:49:00Z</time>
      </trkpt>
      <trkpt lat="34.328209233744225" lon="108.98080195460065">
        <ele>395.03373412787914</ele>
        <time>2022-04-29T23:49:08Z</time>
      </trkpt>
      <trkpt lat="34.32814568935166" lon="108.98073962966718">
        <ele>395.082932760939</ele>
        <time>2022-04-29T23:49:11Z</time>
      </trkpt>
      <trkpt lat="34.32810360500331" lon="108.98072619189414">
        <ele>395.11976042669266</ele>
        <time>2022-04-29T23:49:17Z</time>
      </trkpt>
      <trkpt lat="34.32805022554955" lon="108.98052639990571">
        <ele>395.6327811041847</ele>
        <time>2022-04-29T23:49:59Z</time>
      </trkpt>
      <trkpt lat="34.328007879088226" lon="108.98023594342895">
        <ele>396.047198144719</ele>
        <time>2022-04-29T23:50:07Z</time>
      </trkpt>
      <trkpt lat="34.328016356617965" lon="108.98010897484059">
        <ele>396.51583376247436</ele>
        <time>2022-04-29T23:50:11Z</time>
      </trkpt>
      <trkpt lat="34.327970591967166" lon="108.9799093399559">
        <ele>395.71429492067546</ele>
        <time>2022-04-29T23:50:19Z</time>
      </trkpt>
      <trkpt lat="34.32801194208395" lon="108.97963487563486">
        <ele>396.41528582852334</ele>
        <time>2022-04-29T23:50:25Z</time>
      </trkpt>
      <trkpt lat="34.32799137010496" lon="108.97939904204677">
        <ele>396.1562264468521</ele>
        <time>2022-04-29T23:50:29Z</time>
      </trkpt>
      <trkpt lat="34.32800628288541" lon="108.97882923878821">
        <ele>397.1031990358606</ele>
        <time>2022-04-29T23:50:41Z</time>
      </trkpt>
      <trkpt lat="34.328013694977344" lon="108.97847434153539">
        <ele>396.7533788084984</ele>
        <time>2022-04-29T23:50:47Z</time>
      </trkpt>
      <trkpt lat="34.32799054488578" lon="108.97835793069439">
        <ele>396.4632685156539</ele>
        <time>2022-04-29T23:50:49Z</time>
      </trkpt>
      <trkpt lat="34.32800966924272" lon="108.97796802856062">
        <ele>396.28355856612325</ele>
        <time>2022-04-29T23:50:55Z</time>
      </trkpt>
      <trkpt lat="34.32800594521494" lon="108.9776506810992">
        <ele>396.152636885643</ele>
        <time>2022-04-29T23:51:00Z</time>
      </trkpt>
      <trkpt lat="34.32801908670317" lon="108.97751329987716">
        <ele>396.395466234535</ele>
        <time>2022-04-29T23:51:02Z</time>
      </trkpt>
      <trkpt lat="34.32800913288207" lon="108.97699284384966">
        <ele>396.60381485614926</ele>
        <time>2022-04-29T23:51:10Z</time>
      </trkpt>
      <trkpt lat="34.32799653099623" lon="108.97646661655942">
        <ele>396.9077445799485</ele>
        <time>2022-04-29T23:51:18Z</time>
      </trkpt>
      <trkpt lat="34.32802163911245" lon="108.97601732665282">
        <ele>396.1020223116502</ele>
        <time>2022-04-29T23:51:26Z</time>
      </trkpt>
      <trkpt lat="34.328018912763" lon="108.97580453216793">
        <ele>395.7300482811406</ele>
        <time>2022-04-29T23:51:30Z</time>
      </trkpt>
      <trkpt lat="34.32796399474635" lon="108.97518836893215">
        <ele>396.47474142257124</ele>
        <time>2022-04-29T23:51:40Z</time>
      </trkpt>
      <trkpt lat="34.32796520097391" lon="108.97504911056512">
        <ele>396.182979920879</ele>
        <time>2022-04-29T23:51:42Z</time>
      </trkpt>
      <trkpt lat="34.32798521320243" lon="108.97492582295084">
        <ele>396.91988341417164</ele>
        <time>2022-04-29T23:51:44Z</time>
      </trkpt>
      <trkpt lat="34.327964300623194" lon="108.97452583857509">
        <ele>397.77974157594144</ele>
        <time>2022-04-29T23:51:50Z</time>
      </trkpt>
      <trkpt lat="34.32798635211063" lon="108.97410528425948">
        <ele>396.5260516060516</ele>
        <time>2022-04-29T23:51:56Z</time>
      </trkpt>
      <trkpt lat="34.32795189797231" lon="108.973675881646">
        <ele>397.2441142415628</ele>
        <time>2022-04-29T23:52:02Z</time>
      </trkpt>
      <trkpt lat="34.32795645483093" lon="108.97352683799079">
        <ele>395.87419466581196</ele>
        <time>2022-04-29T23:52:04Z</time>
      </trkpt>
      <trkpt lat="34.3279434893852" lon="108.97341320210752">
        <ele>397.00006707105786</ele>
        <time>2022-04-29T23:52:06Z</time>
      </trkpt>
      <trkpt lat="34.32797216898424" lon="108.97310727177988">
        <ele>397.31143564358354</ele>
        <time>2022-04-29T23:52:10Z</time>
      </trkpt>
      <trkpt lat="34.32797167265433" lon="108.97286887158221">
        <ele>396.95213078614324</ele>
        <time>2022-04-29T23:52:14Z</time>
      </trkpt>
      <trkpt lat="34.32799569048473" lon="108.97276220198634">
        <ele>397.48331337049603</ele>
        <time>2022-04-29T23:52:16Z</time>
      </trkpt>
      <trkpt lat="34.327985858043284" lon="108.97263173150229">
        <ele>397.38849076628685</ele>
        <time>2022-04-29T23:52:18Z</time>
      </trkpt>
      <trkpt lat="34.32800752252223" lon="108.97237378309408">
        <ele>397.92300933320075</ele>
        <time>2022-04-29T23:52:22Z</time>
      </trkpt>
      <trkpt lat="34.327987888985426" lon="108.97210074652557">
        <ele>397.00016285665333</ele>
        <time>2022-04-29T23:52:26Z</time>
      </trkpt>
      <trkpt lat="34.32801780833249" lon="108.97153953552132">
        <ele>397.32864056061953</ele>
        <time>2022-04-29T23:52:34Z</time>
      </trkpt>
      <trkpt lat="34.327992160207316" lon="108.97124338713765">
        <ele>397.109486063011</ele>
        <time>2022-04-29T23:52:38Z</time>
      </trkpt>
      <trkpt lat="34.3279956452128" lon="108.97096637313632">
        <ele>396.4720077794045</ele>
        <time>2022-04-29T23:52:42Z</time>
      </trkpt>
      <trkpt lat="34.32801305358759" lon="108.97066467693433">
        <ele>396.43723387643695</ele>
        <time>2022-04-29T23:52:46Z</time>
      </trkpt>
      <trkpt lat="34.32799995178435" lon="108.97053293790886">
        <ele>396.3170778863132</ele>
        <time>2022-04-29T23:52:48Z</time>
      </trkpt>
      <trkpt lat="34.3280108506473" lon="108.97039832803739">
        <ele>396.15363590139896</ele>
        <time>2022-04-29T23:52:50Z</time>
      </trkpt>
      <trkpt lat="34.3279759076361" lon="108.97012118233836">
        <ele>395.6966212140396</ele>
        <time>2022-04-29T23:52:54Z</time>
      </trkpt>
      <trkpt lat="34.32788655938653" lon="108.96975384236246">
        <ele>396.4316670158878</ele>
        <time>2022-04-29T23:53:00Z</time>
      </trkpt>
      <trkpt lat="34.32787330212503" lon="108.96963942062716">
        <ele>397.219596371986</ele>
        <time>2022-04-29T23:53:02Z</time>
      </trkpt>
      <trkpt lat="34.32783035444735" lon="108.96948872725025">
        <ele>397.47282792348415</ele>
        <time>2022-04-29T23:53:04Z</time>
      </trkpt>
      <trkpt lat="34.32784400745978" lon="108.96921758204209">
        <ele>397.61805950291455</ele>
        <time>2022-04-29T23:53:08Z</time>
      </trkpt>
      <trkpt lat="34.327810264046924" lon="108.96892736609335">
        <ele>396.7537995064631</ele>
        <time>2022-04-29T23:53:12Z</time>
      </trkpt>
      <trkpt lat="34.32784624844721" lon="108.96837495603813">
        <ele>397.50074971001595</ele>
        <time>2022-04-29T23:53:20Z</time>
      </trkpt>
      <trkpt lat="34.327852164619316" lon="108.96796272098302">
        <ele>398.0799539387226</ele>
        <time>2022-04-29T23:53:26Z</time>
      </trkpt>
      <trkpt lat="34.32782413473474" lon="108.96783528875774">
        <ele>396.470808589831</ele>
        <time>2022-04-29T23:53:28Z</time>
      </trkpt>
      <trkpt lat="34.327815093470264" lon="108.96768959851215">
        <ele>397.1197141893208</ele>
        <time>2022-04-29T23:53:30Z</time>
      </trkpt>
      <trkpt lat="34.32783272105287" lon="108.96733796274792">
        <ele>395.97426256444305</ele>
        <time>2022-04-29T23:53:36Z</time>
      </trkpt>
      <trkpt lat="34.327809285892116" lon="108.96720254226972">
        <ele>396.2315117502585</ele>
        <time>2022-04-29T23:53:40Z</time>
      </trkpt>
      <trkpt lat="34.3278237936034" lon="108.96710062222563">
        <ele>395.97552737779915</ele>
        <time>2022-04-29T23:53:44Z</time>
      </trkpt>
      <trkpt lat="34.32787273641234" lon="108.96708023386815">
        <ele>396.02684183139354</ele>
        <time>2022-04-29T23:53:54Z</time>
      </trkpt>
      <trkpt lat="34.328053973322284" lon="108.96687540902552">
        <ele>395.9555235467851</ele>
        <time>2022-04-29T23:54:31Z</time>
      </trkpt>
      <trkpt lat="34.328000479890704" lon="108.96645073250406">
        <ele>395.1734802844003</ele>
        <time>2022-04-29T23:54:41Z</time>
      </trkpt>
      <trkpt lat="34.3280002659939" lon="108.96603903514892">
        <ele>395.0456593958661</ele>
        <time>2022-04-29T23:54:49Z</time>
      </trkpt>
      <trkpt lat="34.32792916054452" lon="108.96551393868108">
        <ele>394.8177480669692</ele>
        <time>2022-04-29T23:54:59Z</time>
      </trkpt>
      <trkpt lat="34.32792277809725" lon="108.96489127982873">
        <ele>395.0634086560458</ele>
        <time>2022-04-29T23:55:10Z</time>
      </trkpt>
      <trkpt lat="34.327893732576946" lon="108.9642513308451">
        <ele>396.20771316159517</ele>
        <time>2022-04-29T23:55:20Z</time>
      </trkpt>
      <trkpt lat="34.32786398735315" lon="108.96399035047479">
        <ele>396.2898663105443</ele>
        <time>2022-04-29T23:55:24Z</time>
      </trkpt>
      <trkpt lat="34.32787409221186" lon="108.96384230556767">
        <ele>397.7817846853286</ele>
        <time>2022-04-29T23:55:26Z</time>
      </trkpt>
      <trkpt lat="34.327908945960516" lon="108.96370357669629">
        <ele>396.5219826158136</ele>
        <time>2022-04-29T23:55:28Z</time>
      </trkpt>
      <trkpt lat="34.3279508759383" lon="108.9631086639698">
        <ele>396.37502640485764</ele>
        <time>2022-04-29T23:55:36Z</time>
      </trkpt>
      <trkpt lat="34.32797219493861" lon="108.96280986069061">
        <ele>396.5109661780298</ele>
        <time>2022-04-29T23:55:40Z</time>
      </trkpt>
      <trkpt lat="34.327969773926306" lon="108.9625084985381">
        <ele>396.1028423020616</ele>
        <time>2022-04-29T23:55:44Z</time>
      </trkpt>
      <trkpt lat="34.328024416548445" lon="108.96208447036308">
        <ele>396.2545639630407</ele>
        <time>2022-04-29T23:55:50Z</time>
      </trkpt>
      <trkpt lat="34.32802871250521" lon="108.96155880889718">
        <ele>395.180130106397</ele>
        <time>2022-04-29T23:55:58Z</time>
      </trkpt>
      <trkpt lat="34.32801941780947" lon="108.96101629452973">
        <ele>394.017139993608</ele>
        <time>2022-04-29T23:56:10Z</time>
      </trkpt>
      <trkpt lat="34.32797427890408" lon="108.96076242637797">
        <ele>393.8552167713642</ele>
        <time>2022-04-29T23:56:16Z</time>
      </trkpt>
      <trkpt lat="34.32798692118594" lon="108.96064895858831">
        <ele>393.86589488200843</ele>
        <time>2022-04-29T23:56:18Z</time>
      </trkpt>
      <trkpt lat="34.32796770111399" lon="108.9600794695835">
        <ele>394.6144448155537</ele>
        <time>2022-04-29T23:56:28Z</time>
      </trkpt>
      <trkpt lat="34.32799971787661" lon="108.95970949457984">
        <ele>394.5362915927544</ele>
        <time>2022-04-29T23:56:34Z</time>
      </trkpt>
      <trkpt lat="34.32800214812759" lon="108.95918689932058">
        <ele>395.17035911791027</ele>
        <time>2022-04-29T23:56:42Z</time>
      </trkpt>
      <trkpt lat="34.327996202652955" lon="108.95878479899999">
        <ele>394.8160500107333</ele>
        <time>2022-04-29T23:56:48Z</time>
      </trkpt>
      <trkpt lat="34.327936720053884" lon="108.95868352497396">
        <ele>395.4325592853129</ele>
        <time>2022-04-29T23:56:50Z</time>
      </trkpt>
      <trkpt lat="34.327975258447516" lon="108.958300529789">
        <ele>395.8000019248575</ele>
        <time>2022-04-29T23:56:58Z</time>
      </trkpt>
      <trkpt lat="34.327976832935754" lon="108.95807015094805">
        <ele>395.2874895175919</ele>
        <time>2022-04-29T23:57:02Z</time>
      </trkpt>
      <trkpt lat="34.32797392531842" lon="108.95768258853175">
        <ele>394.56588170677423</ele>
        <time>2022-04-29T23:57:08Z</time>
      </trkpt>
      <trkpt lat="34.328025488679565" lon="108.95714265003562">
        <ele>393.37681284267455</ele>
        <time>2022-04-29T23:57:16Z</time>
      </trkpt>
      <trkpt lat="34.32803796003058" lon="108.9570001423356">
        <ele>394.53544701170176</ele>
        <time>2022-04-29T23:57:18Z</time>
      </trkpt>
      <trkpt lat="34.328071582079346" lon="108.95686330485691">
        <ele>393.5802262015641</ele>
        <time>2022-04-29T23:57:20Z</time>
      </trkpt>
      <trkpt lat="34.3280714898147" lon="108.95624909378122">
        <ele>392.0822826465592</ele>
        <time>2022-04-29T23:57:30Z</time>
      </trkpt>
      <trkpt lat="34.32805176497208" lon="108.95604952093896">
        <ele>392.06777472794056</ele>
        <time>2022-04-29T23:57:36Z</time>
      </trkpt>
      <trkpt lat="34.328075826004316" lon="108.95593670527327">
        <ele>391.8218911886215</ele>
        <time>2022-04-29T23:57:52Z</time>
      </trkpt>
      <trkpt lat="34.32811832601656" lon="108.95573645709449">
        <ele>391.94477124046534</ele>
        <time>2022-04-29T23:58:57Z</time>
      </trkpt>
      <trkpt lat="34.3281055482436" lon="108.95557969923796">
        <ele>391.367916402407</ele>
        <time>2022-04-29T23:59:01Z</time>
      </trkpt>
      <trkpt lat="34.328079489991495" lon="108.95549126962126">
        <ele>391.7447058856487</ele>
        <time>2022-04-29T23:59:03Z</time>
      </trkpt>
      <trkpt lat="34.328064987502195" lon="108.95508563174889">
        <ele>390.2743434784934</ele>
        <time>2022-04-29T23:59:11Z</time>
      </trkpt>
      <trkpt lat="34.327967642609615" lon="108.95462569147624">
        <ele>389.81342293601483</ele>
        <time>2022-04-29T23:59:19Z</time>
      </trkpt>
      <trkpt lat="34.32790938318467" lon="108.9544389309562">
        <ele>389.1862149136141</ele>
        <time>2022-04-29T23:59:22Z</time>
      </trkpt>
      <trkpt lat="34.32784924929374" lon="108.95402122585321">
        <ele>387.65783356223255</ele>
        <time>2022-04-29T23:59:28Z</time>
      </trkpt>
      <trkpt lat="34.32787061154324" lon="108.95364106986973">
        <ele>387.22585135512054</ele>
        <time>2022-04-29T23:59:34Z</time>
      </trkpt>
      <trkpt lat="34.32786685778628" lon="108.95317378330397">
        <ele>387.8722057165578</ele>
        <time>2022-04-29T23:59:42Z</time>
      </trkpt>
      <trkpt lat="34.3277803747011" lon="108.95296525469146">
        <ele>387.31415785010904</ele>
        <time>2022-04-29T23:59:46Z</time>
      </trkpt>
      <trkpt lat="34.32777541713871" lon="108.95255466080242">
        <ele>388.714022250846</ele>
        <time>2022-04-29T23:59:52Z</time>
      </trkpt>
      <trkpt lat="34.32789490616348" lon="108.95203036006977">
        <ele>389.75608922634274</ele>
        <time>2022-04-30T00:00:00Z</time>
      </trkpt>
      <trkpt lat="34.32792806811294" lon="108.95146235221311">
        <ele>391.49466696195304</ele>
        <time>2022-04-30T00:00:10Z</time>
      </trkpt>
      <trkpt lat="34.3279439546317" lon="108.95133663933495">
        <ele>392.84517328999937</ele>
        <time>2022-04-30T00:00:12Z</time>
      </trkpt>
      <trkpt lat="34.32794180294411" lon="108.951096612166">
        <ele>393.7865981189534</ele>
        <time>2022-04-30T00:00:16Z</time>
      </trkpt>
      <trkpt lat="34.32791145317181" lon="108.9509709783689">
        <ele>393.47820417862386</ele>
        <time>2022-04-30T00:00:18Z</time>
      </trkpt>
      <trkpt lat="34.32791372438129" lon="108.95084241133598">
        <ele>393.5786855202168</ele>
        <time>2022-04-30T00:00:20Z</time>
      </trkpt>
      <trkpt lat="34.3279454416918" lon="108.95068787693704">
        <ele>393.49619686231017</ele>
        <time>2022-04-30T00:00:22Z</time>
      </trkpt>
      <trkpt lat="34.327968791872486" lon="108.9501400937679">
        <ele>393.21588667389005</ele>
        <time>2022-04-30T00:00:30Z</time>
      </trkpt>
      <trkpt lat="34.3279598933912" lon="108.94988638686014">
        <ele>393.3517959564924</ele>
        <time>2022-04-30T00:00:34Z</time>
      </trkpt>
      <trkpt lat="34.32797291358169" lon="108.94975426125734">
        <ele>391.8805049704388</ele>
        <time>2022-04-30T00:00:36Z</time>
      </trkpt>
      <trkpt lat="34.32797035785918" lon="108.94922700302506">
        <ele>392.65334420092404</ele>
        <time>2022-04-30T00:00:44Z</time>
      </trkpt>
      <trkpt lat="34.327970973974395" lon="108.94896044070647">
        <ele>392.0317741399631</ele>
        <time>2022-04-30T00:00:48Z</time>
      </trkpt>
      <trkpt lat="34.327986203135616" lon="108.94884736396803">
        <ele>392.01335730869323</ele>
        <time>2022-04-30T00:00:50Z</time>
      </trkpt>
      <trkpt lat="34.327973810748" lon="108.94845926988964">
        <ele>392.4039044510573</ele>
        <time>2022-04-30T00:00:56Z</time>
      </trkpt>
      <trkpt lat="34.32795248623795" lon="108.9483443854448">
        <ele>392.75812303368</ele>
        <time>2022-04-30T00:00:58Z</time>
      </trkpt>
      <trkpt lat="34.32794712413082" lon="108.9479813038065">
        <ele>393.8840434094891</ele>
        <time>2022-04-30T00:01:04Z</time>
      </trkpt>
      <trkpt lat="34.32789902379808" lon="108.94782489323036">
        <ele>394.2731537949294</ele>
        <time>2022-04-30T00:01:06Z</time>
      </trkpt>
      <trkpt lat="34.32787736718265" lon="108.94756725715284">
        <ele>393.08873146772385</ele>
        <time>2022-04-30T00:01:10Z</time>
      </trkpt>
      <trkpt lat="34.32790042008705" lon="108.9471591131074">
        <ele>393.4390244996175</ele>
        <time>2022-04-30T00:01:16Z</time>
      </trkpt>
      <trkpt lat="34.32787129707785" lon="108.94679511574132">
        <ele>393.6075392020866</ele>
        <time>2022-04-30T00:01:22Z</time>
      </trkpt>
      <trkpt lat="34.327893657677045" lon="108.9465678221593">
        <ele>394.4759542774409</ele>
        <time>2022-04-30T00:01:26Z</time>
      </trkpt>
      <trkpt lat="34.32785952067592" lon="108.94632774294027">
        <ele>393.2877248963341</ele>
        <time>2022-04-30T00:01:30Z</time>
      </trkpt>
      <trkpt lat="34.32785472375281" lon="108.94597283396268">
        <ele>394.01170101668686</ele>
        <time>2022-04-30T00:01:36Z</time>
      </trkpt>
      <trkpt lat="34.327833897658266" lon="108.94588477324213">
        <ele>393.3657324453816</ele>
        <time>2022-04-30T00:01:38Z</time>
      </trkpt>
      <trkpt lat="34.32787044612201" lon="108.94564584856379">
        <ele>393.7864687750116</ele>
        <time>2022-04-30T00:01:42Z</time>
      </trkpt>
      <trkpt lat="34.32786745910079" lon="108.94549660624514">
        <ele>394.11761217564344</ele>
        <time>2022-04-30T00:01:44Z</time>
      </trkpt>
      <trkpt lat="34.32788331994607" lon="108.94537125425242">
        <ele>393.4227176345885</ele>
        <time>2022-04-30T00:01:46Z</time>
      </trkpt>
      <trkpt lat="34.32787427401138" lon="108.94511929185288">
        <ele>393.6379902800545</ele>
        <time>2022-04-30T00:01:50Z</time>
      </trkpt>
      <trkpt lat="34.32785451296395" lon="108.9449997547476">
        <ele>393.0245795780793</ele>
        <time>2022-04-30T00:01:52Z</time>
      </trkpt>
      <trkpt lat="34.327844012329116" lon="108.94475278549035">
        <ele>392.97964901663363</ele>
        <time>2022-04-30T00:01:56Z</time>
      </trkpt>
      <trkpt lat="34.32788315999676" lon="108.94447958809474">
        <ele>392.2344186529517</ele>
        <time>2022-04-30T00:02:00Z</time>
      </trkpt>
      <trkpt lat="34.32788720060721" lon="108.9442254463778">
        <ele>392.0530178202316</ele>
        <time>2022-04-30T00:02:04Z</time>
      </trkpt>
      <trkpt lat="34.327948476189604" lon="108.94382360894699">
        <ele>391.11174001637846</ele>
        <time>2022-04-30T00:02:10Z</time>
      </trkpt>
      <trkpt lat="34.32794703055921" lon="108.94368313406086">
        <ele>391.2417926378548</ele>
        <time>2022-04-30T00:02:12Z</time>
      </trkpt>
      <trkpt lat="34.32799493891717" lon="108.9434589714846">
        <ele>391.6678086593747</ele>
        <time>2022-04-30T00:02:16Z</time>
      </trkpt>
      <trkpt lat="34.32797494051958" lon="108.94299033377595">
        <ele>391.24034024588764</ele>
        <time>2022-04-30T00:02:24Z</time>
      </trkpt>
      <trkpt lat="34.328005647732525" lon="108.94265257466036">
        <ele>391.5629109684378</ele>
        <time>2022-04-30T00:02:30Z</time>
      </trkpt>
      <trkpt lat="34.32796906425594" lon="108.94230559406039">
        <ele>390.94395133759826</ele>
        <time>2022-04-30T00:02:36Z</time>
      </trkpt>
      <trkpt lat="34.327984096820224" lon="108.94170896254724">
        <ele>390.98068048991263</ele>
        <time>2022-04-30T00:02:46Z</time>
      </trkpt>
      <trkpt lat="34.32794646261411" lon="108.94147095359855">
        <ele>391.47211121115834</ele>
        <time>2022-04-30T00:02:50Z</time>
      </trkpt>
      <trkpt lat="34.327885312049276" lon="108.94125740650644">
        <ele>393.3943341355771</ele>
        <time>2022-04-30T00:02:54Z</time>
      </trkpt>
      <trkpt lat="34.327905320243765" lon="108.94090987531197">
        <ele>392.36949169356376</ele>
        <time>2022-04-30T00:03:00Z</time>
      </trkpt>
      <trkpt lat="34.327897969082656" lon="108.94079772870232">
        <ele>393.1814044620842</ele>
        <time>2022-04-30T00:03:02Z</time>
      </trkpt>
      <trkpt lat="34.327931640429235" lon="108.94054944079625">
        <ele>392.57679406553507</ele>
        <time>2022-04-30T00:03:06Z</time>
      </trkpt>
      <trkpt lat="34.32791579312432" lon="108.94029214962528">
        <ele>392.10191427823156</ele>
        <time>2022-04-30T00:03:10Z</time>
      </trkpt>
      <trkpt lat="34.327997403522744" lon="108.93973063046695">
        <ele>392.6336408816278</ele>
        <time>2022-04-30T00:03:19Z</time>
      </trkpt>
      <trkpt lat="34.32797519910668" lon="108.93946320158254">
        <ele>392.26145313866436</ele>
        <time>2022-04-30T00:03:23Z</time>
      </trkpt>
      <trkpt lat="34.32800718911939" lon="108.939353748488">
        <ele>392.62828767485917</ele>
        <time>2022-04-30T00:03:25Z</time>
      </trkpt>
      <trkpt lat="34.32790050748231" lon="108.93872810200634">
        <ele>392.1259158011526</ele>
        <time>2022-04-30T00:03:34Z</time>
      </trkpt>
      <trkpt lat="34.32790266219715" lon="108.93861948279157">
        <ele>392.4580208528787</ele>
        <time>2022-04-30T00:03:36Z</time>
      </trkpt>
      <trkpt lat="34.327871623562466" lon="108.93850598906057">
        <ele>393.97688758186996</ele>
        <time>2022-04-30T00:03:40Z</time>
      </trkpt>
      <trkpt lat="34.32781529937818" lon="108.93838667317358">
        <ele>393.12685596290976</ele>
        <time>2022-04-30T00:03:42Z</time>
      </trkpt>
      <trkpt lat="34.32778578838411" lon="108.93826156168463">
        <ele>392.8242055121809</ele>
        <time>2022-04-30T00:03:44Z</time>
      </trkpt>
      <trkpt lat="34.32778052621349" lon="108.9380338941139">
        <ele>392.4046860579401</ele>
        <time>2022-04-30T00:03:48Z</time>
      </trkpt>
      <trkpt lat="34.32782066276296" lon="108.93764533717727">
        <ele>392.0713001685217</ele>
        <time>2022-04-30T00:03:52Z</time>
      </trkpt>
      <trkpt lat="34.32797757510643" lon="108.93703351650737">
        <ele>392.10569567698985</ele>
        <time>2022-04-30T00:04:00Z</time>
      </trkpt>
      <trkpt lat="34.328029090527075" lon="108.93687461212038">
        <ele>391.6126195350662</ele>
        <time>2022-04-30T00:04:02Z</time>
      </trkpt>
      <trkpt lat="34.328112658642794" lon="108.93645052927592">
        <ele>391.6758939148858</ele>
        <time>2022-04-30T00:04:08Z</time>
      </trkpt>
      <trkpt lat="34.32814625961245" lon="108.93616502241557">
        <ele>391.94208874274045</ele>
        <time>2022-04-30T00:04:12Z</time>
      </trkpt>
      <trkpt lat="34.328183677366354" lon="108.93602541087319">
        <ele>391.79097662493587</ele>
        <time>2022-04-30T00:04:14Z</time>
      </trkpt>
      <trkpt lat="34.32822185814956" lon="108.93574841091753">
        <ele>391.54415164887905</ele>
        <time>2022-04-30T00:04:18Z</time>
      </trkpt>
      <trkpt lat="34.32820294042028" lon="108.93561529091637">
        <ele>391.8161719320342</ele>
        <time>2022-04-30T00:04:20Z</time>
      </trkpt>
      <trkpt lat="34.328248727067475" lon="108.93508377859136">
        <ele>391.99816725589335</ele>
        <time>2022-04-30T00:04:28Z</time>
      </trkpt>
      <trkpt lat="34.32827114562007" lon="108.93495271829967">
        <ele>391.9415885908529</ele>
        <time>2022-04-30T00:04:30Z</time>
      </trkpt>
      <trkpt lat="34.32826437729849" lon="108.93438625445285">
        <ele>391.75278928596526</ele>
        <time>2022-04-30T00:04:40Z</time>
      </trkpt>
      <trkpt lat="34.328297002417294" lon="108.93402949634">
        <ele>391.47416302002966</ele>
        <time>2022-04-30T00:04:46Z</time>
      </trkpt>
      <trkpt lat="34.328294078503255" lon="108.9337897857811">
        <ele>392.59965310711414</ele>
        <time>2022-04-30T00:04:50Z</time>
      </trkpt>
      <trkpt lat="34.328306112042995" lon="108.93368251849195">
        <ele>391.4236829262227</ele>
        <time>2022-04-30T00:04:52Z</time>
      </trkpt>
      <trkpt lat="34.328292921220545" lon="108.93355852886587">
        <ele>392.8750087060034</ele>
        <time>2022-04-30T00:04:54Z</time>
      </trkpt>
      <trkpt lat="34.32832555645796" lon="108.93331533216521">
        <ele>392.18998586852103</ele>
        <time>2022-04-30T00:04:58Z</time>
      </trkpt>
      <trkpt lat="34.32828898362696" lon="108.93305947174221">
        <ele>392.89291328098625</ele>
        <time>2022-04-30T00:05:02Z</time>
      </trkpt>
      <trkpt lat="34.328301728129276" lon="108.93293738165585">
        <ele>392.87169605493546</ele>
        <time>2022-04-30T00:05:04Z</time>
      </trkpt>
      <trkpt lat="34.328332005103654" lon="108.93285403517955">
        <ele>392.8680556481704</ele>
        <time>2022-04-30T00:05:06Z</time>
      </trkpt>
      <trkpt lat="34.328316097418366" lon="108.93263263569905">
        <ele>391.64027928188443</ele>
        <time>2022-04-30T00:05:12Z</time>
      </trkpt>
      <trkpt lat="34.32837379051376" lon="108.93243731420552">
        <ele>391.7686652187258</ele>
        <time>2022-04-30T00:05:16Z</time>
      </trkpt>
      <trkpt lat="34.32839028310556" lon="108.93222247502261">
        <ele>391.6666225073859</ele>
        <time>2022-04-30T00:05:20Z</time>
      </trkpt>
      <trkpt lat="34.32842055258382" lon="108.93210237862425">
        <ele>391.6340623991564</ele>
        <time>2022-04-30T00:05:22Z</time>
      </trkpt>
      <trkpt lat="34.328404199837514" lon="108.93151322751001">
        <ele>392.200731350109</ele>
        <time>2022-04-30T00:05:36Z</time>
      </trkpt>
      <trkpt lat="34.32839765093796" lon="108.93137470088082">
        <ele>392.2415821570903</ele>
        <time>2022-04-30T00:05:40Z</time>
      </trkpt>
      <trkpt lat="34.328366203677795" lon="108.93126730313851">
        <ele>391.65580046735704</ele>
        <time>2022-04-30T00:05:44Z</time>
      </trkpt>
      <trkpt lat="34.32836147643338" lon="108.93099332192493">
        <ele>392.3254402419552</ele>
        <time>2022-04-30T00:05:50Z</time>
      </trkpt>
      <trkpt lat="34.328306129527725" lon="108.93078380191847">
        <ele>392.3770184041932</ele>
        <time>2022-04-30T00:05:54Z</time>
      </trkpt>
      <trkpt lat="34.328335470222015" lon="108.93027219848791">
        <ele>392.06239216122776</ele>
        <time>2022-04-30T00:06:04Z</time>
      </trkpt>
      <trkpt lat="34.32839792175795" lon="108.92993937976819">
        <ele>390.69707106240094</ele>
        <time>2022-04-30T00:06:10Z</time>
      </trkpt>
      <trkpt lat="34.328408662966154" lon="108.92936133940998">
        <ele>392.8031159276143</ele>
        <time>2022-04-30T00:06:22Z</time>
      </trkpt>
      <trkpt lat="34.32842797173724" lon="108.92918361707102">
        <ele>393.7242414923385</ele>
        <time>2022-04-30T00:06:26Z</time>
      </trkpt>
      <trkpt lat="34.32843646120572" lon="108.92885713594937">
        <ele>394.53030674532056</ele>
        <time>2022-04-30T00:06:32Z</time>
      </trkpt>
      <trkpt lat="34.32842536839151" lon="108.92872284380753">
        <ele>393.2745690084994</ele>
        <time>2022-04-30T00:06:34Z</time>
      </trkpt>
      <trkpt lat="34.32836981856748" lon="108.92849101191307">
        <ele>393.9530142080039</ele>
        <time>2022-04-30T00:06:38Z</time>
      </trkpt>
      <trkpt lat="34.32834781543117" lon="108.92790127993192">
        <ele>393.7776438081637</ele>
        <time>2022-04-30T00:06:48Z</time>
      </trkpt>
      <trkpt lat="34.32834217608208" lon="108.92777507908673">
        <ele>392.5930480696261</ele>
        <time>2022-04-30T00:06:50Z</time>
      </trkpt>
      <trkpt lat="34.328414162825666" lon="108.92729083323351">
        <ele>394.8279749471694</ele>
        <time>2022-04-30T00:06:58Z</time>
      </trkpt>
      <trkpt lat="34.328399756684234" lon="108.92698149831597">
        <ele>393.5339945293963</ele>
        <time>2022-04-30T00:07:04Z</time>
      </trkpt>
      <trkpt lat="34.32841577259147" lon="108.92687673347402">
        <ele>393.3115771571174</ele>
        <time>2022-04-30T00:07:06Z</time>
      </trkpt>
      <trkpt lat="34.32840563897238" lon="108.92678108878648">
        <ele>392.64840677473694</ele>
        <time>2022-04-30T00:07:08Z</time>
      </trkpt>
      <trkpt lat="34.32841964002919" lon="108.92665919036092">
        <ele>392.4249452613294</ele>
        <time>2022-04-30T00:07:10Z</time>
      </trkpt>
      <trkpt lat="34.32846172171519" lon="108.92657504838684">
        <ele>392.0892647402361</ele>
        <time>2022-04-30T00:07:12Z</time>
      </trkpt>
      <trkpt lat="34.32850507798746" lon="108.92626405400557">
        <ele>390.96616496890783</ele>
        <time>2022-04-30T00:07:18Z</time>
      </trkpt>
      <trkpt lat="34.328488062274225" lon="108.92607250093467">
        <ele>390.6118772504851</ele>
        <time>2022-04-30T00:07:22Z</time>
      </trkpt>
      <trkpt lat="34.32853587121318" lon="108.92571729263466">
        <ele>390.82955197710544</ele>
        <time>2022-04-30T00:07:30Z</time>
      </trkpt>
      <trkpt lat="34.32853583598516" lon="108.92559017233823">
        <ele>391.572345581837</ele>
        <time>2022-04-30T00:07:32Z</time>
      </trkpt>
      <trkpt lat="34.32863923266212" lon="108.92499249532888">
        <ele>390.32932124566287</ele>
        <time>2022-04-30T00:07:42Z</time>
      </trkpt>
      <trkpt lat="34.3286430848295" lon="108.92490391777712">
        <ele>390.13369044009596</ele>
        <time>2022-04-30T00:07:46Z</time>
      </trkpt>
      <trkpt lat="34.328694892402964" lon="108.92486495166388">
        <ele>389.42286799289286</ele>
        <time>2022-04-30T00:08:00Z</time>
      </trkpt>
      <trkpt lat="34.328539437805965" lon="108.92494822364263">
        <ele>389.57737318146974</ele>
        <time>2022-04-30T00:08:13Z</time>
      </trkpt>
      <trkpt lat="34.32841586564327" lon="108.92496584960078">
        <ele>389.68725050985813</ele>
        <time>2022-04-30T00:08:25Z</time>
      </trkpt>
      <trkpt lat="34.32833959921771" lon="108.92498069884101">
        <ele>390.0256024058908</ele>
        <time>2022-04-30T00:08:30Z</time>
      </trkpt>
      <trkpt lat="34.328183039895706" lon="108.92501987215839">
        <ele>390.5183113310486</ele>
        <time>2022-04-30T00:08:36Z</time>
      </trkpt>
      <trkpt lat="34.32772852246567" lon="108.92504636236858">
        <ele>390.08425244130194</ele>
        <time>2022-04-30T00:08:48Z</time>
      </trkpt>
      <trkpt lat="34.32751671377797" lon="108.92509100907505">
        <ele>390.5776399243623</ele>
        <time>2022-04-30T00:08:54Z</time>
      </trkpt>
      <trkpt lat="34.32734094195058" lon="108.92505705764064">
        <ele>390.5340569000691</ele>
        <time>2022-04-30T00:08:58Z</time>
      </trkpt>
      <trkpt lat="34.326976237792465" lon="108.92507635219809">
        <ele>390.6650582673028</ele>
        <time>2022-04-30T00:09:08Z</time>
      </trkpt>
      <trkpt lat="34.326824017335575" lon="108.92506178355131">
        <ele>390.66241541691124</ele>
        <time>2022-04-30T00:09:12Z</time>
      </trkpt>
      <trkpt lat="34.32668387242274" lon="108.92507144373997">
        <ele>390.9335824949667</ele>
        <time>2022-04-30T00:09:16Z</time>
      </trkpt>
      <trkpt lat="34.32646534072619" lon="108.92504529714999">
        <ele>390.8479655701667</ele>
        <time>2022-04-30T00:09:20Z</time>
      </trkpt>
      <trkpt lat="34.32608557923175" lon="108.92503863075903">
        <ele>391.18166533950716</ele>
        <time>2022-04-30T00:09:30Z</time>
      </trkpt>
      <trkpt lat="34.32596771702324" lon="108.92507979902553">
        <ele>390.6748898848891</ele>
        <time>2022-04-30T00:09:34Z</time>
      </trkpt>
      <trkpt lat="34.32585804465194" lon="108.9251445883125">
        <ele>390.36892226245254</ele>
        <time>2022-04-30T00:09:38Z</time>
      </trkpt>
      <trkpt lat="34.32542532207322" lon="108.9251958291287">
        <ele>390.1514471163973</ele>
        <time>2022-04-30T00:09:54Z</time>
      </trkpt>
      <trkpt lat="34.325354351597994" lon="108.92516298728518">
        <ele>389.219437148422</ele>
        <time>2022-04-30T00:09:56Z</time>
      </trkpt>
      <trkpt lat="34.32519233521853" lon="108.92519210377414">
        <ele>389.50042974203825</ele>
        <time>2022-04-30T00:10:00Z</time>
      </trkpt>
      <trkpt lat="34.324955860776434" lon="108.9251794497422">
        <ele>389.91430043336004</ele>
        <time>2022-04-30T00:10:06Z</time>
      </trkpt>
      <trkpt lat="34.32479387783215" lon="108.92521010907235">
        <ele>390.7351874578744</ele>
        <time>2022-04-30T00:10:14Z</time>
      </trkpt>
      <trkpt lat="34.324503809893784" lon="108.92513016781393">
        <ele>390.1756447125226</ele>
        <time>2022-04-30T00:10:22Z</time>
      </trkpt>
      <trkpt lat="34.32434799355011" lon="108.92507564694917">
        <ele>390.4375696172938</ele>
        <time>2022-04-30T00:10:27Z</time>
      </trkpt>
      <trkpt lat="34.32422899856573" lon="108.92506000378766">
        <ele>390.9816594282165</ele>
        <time>2022-04-30T00:10:31Z</time>
      </trkpt>
      <trkpt lat="34.32415331675131" lon="108.9250313292942">
        <ele>390.887505245395</ele>
        <time>2022-04-30T00:10:37Z</time>
      </trkpt>
      <trkpt lat="34.32389019647311" lon="108.92506761231779">
        <ele>391.44914246257395</ele>
        <time>2022-04-30T00:10:49Z</time>
      </trkpt>
      <trkpt lat="34.323442632677455" lon="108.92504093210667">
        <ele>391.9672454530373</ele>
        <time>2022-04-30T00:11:01Z</time>
      </trkpt>
      <trkpt lat="34.32333378159888" lon="108.92503959964762">
        <ele>391.9306339705363</ele>
        <time>2022-04-30T00:11:05Z</time>
      </trkpt>
      <trkpt lat="34.32321665347162" lon="108.92508037543897">
        <ele>391.3368692630902</ele>
        <time>2022-04-30T00:11:09Z</time>
      </trkpt>
      <trkpt lat="34.322864964765586" lon="108.92508615606702">
        <ele>393.10382837057114</ele>
        <time>2022-04-30T00:11:19Z</time>
      </trkpt>
      <trkpt lat="34.32238299256249" lon="108.925039827912">
        <ele>391.1887790057808</ele>
        <time>2022-04-30T00:11:25Z</time>
      </trkpt>
      <trkpt lat="34.322032850939785" lon="108.92498696201751">
        <ele>390.9379706475884</ele>
        <time>2022-04-30T00:11:35Z</time>
      </trkpt>
      <trkpt lat="34.3217906737494" lon="108.92505920203865">
        <ele>391.29713962227106</ele>
        <time>2022-04-30T00:11:43Z</time>
      </trkpt>
      <trkpt lat="34.32138023710652" lon="108.92513620357622">
        <ele>391.38278033584356</ele>
        <time>2022-04-30T00:11:53Z</time>
      </trkpt>
      <trkpt lat="34.32109763380143" lon="108.92510180801007">
        <ele>392.2414873279631</ele>
        <time>2022-04-30T00:11:58Z</time>
      </trkpt>
      <trkpt lat="34.32088242897013" lon="108.92511676627879">
        <ele>392.2786056622863</ele>
        <time>2022-04-30T00:12:02Z</time>
      </trkpt>
      <trkpt lat="34.320552427673" lon="108.92509900521807">
        <ele>392.995599899441</ele>
        <time>2022-04-30T00:12:08Z</time>
      </trkpt>
      <trkpt lat="34.32046204203048" lon="108.92511602992784">
        <ele>392.1622932385653</ele>
        <time>2022-04-30T00:12:10Z</time>
      </trkpt>
      <trkpt lat="34.319994452633566" lon="108.92513311753184">
        <ele>391.7663784176111</ele>
        <time>2022-04-30T00:12:22Z</time>
      </trkpt>
      <trkpt lat="34.31988910776067" lon="108.92512623318498">
        <ele>392.14058618899435</ele>
        <time>2022-04-30T00:12:26Z</time>
      </trkpt>
      <trkpt lat="34.31981580903201" lon="108.92503010411332">
        <ele>393.04627079702914</ele>
        <time>2022-04-30T00:12:36Z</time>
      </trkpt>
      <trkpt lat="34.31955902672232" lon="108.92504366862173">
        <ele>391.70657044649124</ele>
        <time>2022-04-30T00:13:29Z</time>
      </trkpt>
      <trkpt lat="34.319178570144956" lon="108.92506641416524">
        <ele>393.02787766605616</ele>
        <time>2022-04-30T00:13:39Z</time>
      </trkpt>
      <trkpt lat="34.31884757001184" lon="108.92502529363784">
        <ele>393.4957553083077</ele>
        <time>2022-04-30T00:13:47Z</time>
      </trkpt>
      <trkpt lat="34.3186390535619" lon="108.92505225816733">
        <ele>394.11705794744194</ele>
        <time>2022-04-30T00:13:53Z</time>
      </trkpt>
      <trkpt lat="34.31830634133851" lon="108.92503031489221">
        <ele>394.29774789884686</ele>
        <time>2022-04-30T00:14:01Z</time>
      </trkpt>
      <trkpt lat="34.31786745216525" lon="108.92509210431272">
        <ele>393.97981307283044</ele>
        <time>2022-04-30T00:14:12Z</time>
      </trkpt>
      <trkpt lat="34.31776097579797" lon="108.92510248555324">
        <ele>394.19583522807807</ele>
        <time>2022-04-30T00:14:14Z</time>
      </trkpt>
      <trkpt lat="34.317647265529054" lon="108.9250759091632">
        <ele>393.10234296228737</ele>
        <time>2022-04-30T00:14:16Z</time>
      </trkpt>
      <trkpt lat="34.3175384548376" lon="108.92508091617374">
        <ele>393.5798092596233</ele>
        <time>2022-04-30T00:14:20Z</time>
      </trkpt>
      <trkpt lat="34.31711851679448" lon="108.9250250009853">
        <ele>393.5027775838971</ele>
        <time>2022-04-30T00:14:38Z</time>
      </trkpt>
      <trkpt lat="34.3169257924879" lon="108.92504100568277">
        <ele>393.50477261282504</ele>
        <time>2022-04-30T00:14:44Z</time>
      </trkpt>
      <trkpt lat="34.31671375569602" lon="108.92502606799756">
        <ele>393.78975980728865</ele>
        <time>2022-04-30T00:14:50Z</time>
      </trkpt>
      <trkpt lat="34.316616732101764" lon="108.92505019505779">
        <ele>393.6772950151935</ele>
        <time>2022-04-30T00:14:52Z</time>
      </trkpt>
      <trkpt lat="34.31633850769486" lon="108.92504966552362">
        <ele>393.45577376894653</ele>
        <time>2022-04-30T00:15:00Z</time>
      </trkpt>
      <trkpt lat="34.31623230066365" lon="108.92508067568164">
        <ele>393.0683079948649</ele>
        <time>2022-04-30T00:15:04Z</time>
      </trkpt>
      <trkpt lat="34.31610967323864" lon="108.92514632401644">
        <ele>392.95795037504286</ele>
        <time>2022-04-30T00:15:08Z</time>
      </trkpt>
      <trkpt lat="34.31596762943759" lon="108.92514994789354">
        <ele>393.98615992162377</ele>
        <time>2022-04-30T00:15:12Z</time>
      </trkpt>
      <trkpt lat="34.31583577066724" lon="108.92518424972015">
        <ele>392.8205143241212</ele>
        <time>2022-04-30T00:15:16Z</time>
      </trkpt>
      <trkpt lat="34.3154803792175" lon="108.92517697028572">
        <ele>392.50801584031433</ele>
        <time>2022-04-30T00:15:24Z</time>
      </trkpt>
      <trkpt lat="34.315245966900974" lon="108.92521226826295">
        <ele>393.30655099172145</ele>
        <time>2022-04-30T00:15:28Z</time>
      </trkpt>
      <trkpt lat="34.315014203210836" lon="108.92513722087386">
        <ele>391.43713045306504</ele>
        <time>2022-04-30T00:15:32Z</time>
      </trkpt>
      <trkpt lat="34.31456827040724" lon="108.92507436485928">
        <ele>391.67809036932886</ele>
        <time>2022-04-30T00:15:40Z</time>
      </trkpt>
      <trkpt lat="34.31447165614088" lon="108.92508282651706">
        <ele>392.1825244994834</ele>
        <time>2022-04-30T00:15:42Z</time>
      </trkpt>
      <trkpt lat="34.31438160303008" lon="108.92506460619167">
        <ele>392.4774653557688</ele>
        <time>2022-04-30T00:15:44Z</time>
      </trkpt>
      <trkpt lat="34.31430414140005" lon="108.92509807893656">
        <ele>392.4324378585443</ele>
        <time>2022-04-30T00:15:46Z</time>
      </trkpt>
      <trkpt lat="34.314222731776155" lon="108.92510395065351">
        <ele>393.0445941379294</ele>
        <time>2022-04-30T00:15:48Z</time>
      </trkpt>
      <trkpt lat="34.31413112163413" lon="108.92513790176658">
        <ele>392.848614949733</ele>
        <time>2022-04-30T00:15:50Z</time>
      </trkpt>
      <trkpt lat="34.313966995883376" lon="108.92514869432883">
        <ele>393.3642627345398</ele>
        <time>2022-04-30T00:15:54Z</time>
      </trkpt>
      <trkpt lat="34.313890996059584" lon="108.92510802576454">
        <ele>394.2726040063426</ele>
        <time>2022-04-30T00:15:56Z</time>
      </trkpt>
      <trkpt lat="34.31370751355976" lon="108.92510915430229">
        <ele>394.17591712251306</ele>
        <time>2022-04-30T00:16:00Z</time>
      </trkpt>
      <trkpt lat="34.31352858364808" lon="108.92516379201604">
        <ele>394.5136977620423</ele>
        <time>2022-04-30T00:16:04Z</time>
      </trkpt>
      <trkpt lat="34.31319670712236" lon="108.92517241156811">
        <ele>394.669425255619</ele>
        <time>2022-04-30T00:16:12Z</time>
      </trkpt>
      <trkpt lat="34.31302096481646" lon="108.92515038252014">
        <ele>394.41721363645047</ele>
        <time>2022-04-30T00:16:16Z</time>
      </trkpt>
      <trkpt lat="34.31293007363262" lon="108.92511650259725">
        <ele>393.87214933522046</ele>
        <time>2022-04-30T00:16:18Z</time>
      </trkpt>
      <trkpt lat="34.31260127657189" lon="108.92506675607576">
        <ele>393.35838804766536</ele>
        <time>2022-04-30T00:16:24Z</time>
      </trkpt>
      <trkpt lat="34.31230620657512" lon="108.92499592984173">
        <ele>393.6228368151933</ele>
        <time>2022-04-30T00:16:30Z</time>
      </trkpt>
      <trkpt lat="34.312064798738085" lon="108.92496676323731">
        <ele>394.0002291779965</ele>
        <time>2022-04-30T00:16:36Z</time>
      </trkpt>
      <trkpt lat="34.31195907966647" lon="108.92499189367133">
        <ele>393.5177495414391</ele>
        <time>2022-04-30T00:16:40Z</time>
      </trkpt>
      <trkpt lat="34.31193669210906" lon="108.92497954141612">
        <ele>394.2697594370693</ele>
        <time>2022-04-30T00:16:54Z</time>
      </trkpt>
      <trkpt lat="34.31189848703164" lon="108.924796435353">
        <ele>393.74929370358586</ele>
        <time>2022-04-30T00:17:39Z</time>
      </trkpt>
      <trkpt lat="34.311898768192705" lon="108.92470967570092">
        <ele>393.7171645173803</ele>
        <time>2022-04-30T00:17:45Z</time>
      </trkpt>
      <trkpt lat="34.311891721399796" lon="108.9248975825796">
        <ele>395.02318549435586</ele>
        <time>2022-04-30T00:18:16Z</time>
      </trkpt>
      <trkpt lat="34.311871231575225" lon="108.92500335404675">
        <ele>394.28255129233</ele>
        <time>2022-04-30T00:18:24Z</time>
      </trkpt>
      <trkpt lat="34.31149739805652" lon="108.92503388041332">
        <ele>394.6165598751977</ele>
        <time>2022-04-30T00:19:00Z</time>
      </trkpt>
      <trkpt lat="34.31122577031951" lon="108.92500771821396">
        <ele>394.65135607868433</ele>
        <time>2022-04-30T00:19:22Z</time>
      </trkpt>
      <trkpt lat="34.311196668612" lon="108.9247130633851">
        <ele>394.0840910356492</ele>
        <time>2022-04-30T00:19:44Z</time>
      </trkpt>
      <trkpt lat="34.311149833293705" lon="108.92479704899321">
        <ele>394.10983257275075</ele>
        <time>2022-04-30T00:20:02Z</time>
      </trkpt>
      <trkpt lat="34.31112648650283" lon="108.92489418201458">
        <ele>394.8070359863341</ele>
        <time>2022-04-30T00:20:10Z</time>
      </trkpt>
      <trkpt lat="34.311062587716805" lon="108.92495479379461">
        <ele>395.04193437937647</ele>
        <time>2022-04-30T00:20:22Z</time>
      </trkpt>
      <trkpt lat="34.3109824249378" lon="108.92492554736643">
        <ele>394.5201061395928</ele>
        <time>2022-04-30T00:20:30Z</time>
      </trkpt>
      <trkpt lat="34.31091774005759" lon="108.92487035030393">
        <ele>396.1646855091676</ele>
        <time>2022-04-30T00:20:38Z</time>
      </trkpt>
      <trkpt lat="34.31084517865458" lon="108.92484281033808">
        <ele>394.9954973263666</ele>
        <time>2022-04-30T00:20:44Z</time>
      </trkpt>
      <trkpt lat="34.3107536492572" lon="108.92487067734442">
        <ele>395.41205244418234</ele>
        <time>2022-04-30T00:20:52Z</time>
      </trkpt>
      <trkpt lat="34.31067151180586" lon="108.92492604804823">
        <ele>395.3410199312493</ele>
        <time>2022-04-30T00:21:00Z</time>
      </trkpt>
      <trkpt lat="34.31051707771932" lon="108.92494902985024">
        <ele>395.634068983607</ele>
        <time>2022-04-30T00:21:14Z</time>
      </trkpt>
      <trkpt lat="34.310007668305" lon="108.92492791362588">
        <ele>395.13597181253135</ele>
        <time>2022-04-30T00:21:54Z</time>
      </trkpt>
      <trkpt lat="34.309924760505794" lon="108.92495447720478">
        <ele>395.9553854642436</ele>
        <time>2022-04-30T00:22:02Z</time>
      </trkpt>
      <trkpt lat="34.30990630098677" lon="108.92499839550062">
        <ele>395.9169313162565</ele>
        <time>2022-04-30T00:22:12Z</time>
      </trkpt>
      <trkpt lat="34.309915924044724" lon="108.92511230441745">
        <ele>395.6355631221086</ele>
        <time>2022-04-30T00:22:23Z</time>
      </trkpt>
      <trkpt lat="34.309930016961154" lon="108.9252406937064">
        <ele>394.58232418540865</ele>
        <time>2022-04-30T00:22:30Z</time>
      </trkpt>
      <trkpt lat="34.30989030709848" lon="108.92534035790253">
        <ele>394.8794325767085</ele>
        <time>2022-04-30T00:22:36Z</time>
      </trkpt>
      <trkpt lat="34.30989124591015" lon="108.92567488043136">
        <ele>394.6457306733355</ele>
        <time>2022-04-30T00:23:02Z</time>
      </trkpt>
      <trkpt lat="34.30991840344153" lon="108.92595960176759">
        <ele>394.84604476578534</ele>
        <time>2022-04-30T00:23:22Z</time>
      </trkpt>
      <trkpt lat="34.30994546059026" lon="108.92607262482015">
        <ele>394.4812714010477</ele>
        <time>2022-04-30T00:23:30Z</time>
      </trkpt>
      <trkpt lat="34.30994852472281" lon="108.92616758818085">
        <ele>394.6813865164295</ele>
        <time>2022-04-30T00:23:36Z</time>
      </trkpt>
      <trkpt lat="34.30991859488115" lon="108.92627062895137">
        <ele>394.671771091409</ele>
        <time>2022-04-30T00:23:42Z</time>
      </trkpt>
      <trkpt lat="34.30986927586319" lon="108.92635469412855">
        <ele>394.3775969641283</ele>
        <time>2022-04-30T00:23:46Z</time>
      </trkpt>
      <trkpt lat="34.309852685801346" lon="108.92643913697611">
        <ele>393.9434536555782</ele>
        <time>2022-04-30T00:23:52Z</time>
      </trkpt>
      <trkpt lat="34.30983087492426" lon="108.92672446624779">
        <ele>395.51889234781265</ele>
        <time>2022-04-30T00:24:10Z</time>
      </trkpt>
      <trkpt lat="34.3098909217647" lon="108.92725389991934">
        <ele>396.31307904049754</ele>
        <time>2022-04-30T00:24:46Z</time>
      </trkpt>
      <trkpt lat="34.30990773067693" lon="108.92736190734237">
        <ele>396.4096196144819</ele>
        <time>2022-04-30T00:24:54Z</time>
      </trkpt>
      <trkpt lat="34.309888861713226" lon="108.9274618010681">
        <ele>396.8957041557878</ele>
        <time>2022-04-30T00:25:02Z</time>
      </trkpt>
      <trkpt lat="34.30990683070783" lon="108.92757707783656">
        <ele>397.0877479230985</ele>
        <time>2022-04-30T00:25:10Z</time>
      </trkpt>
      <trkpt lat="34.3098884953416" lon="108.9277970199654">
        <ele>397.4756020922214</ele>
        <time>2022-04-30T00:25:22Z</time>
      </trkpt>
      <trkpt lat="34.309915287687616" lon="108.92819749483925">
        <ele>397.3929793005809</ele>
        <time>2022-04-30T00:25:50Z</time>
      </trkpt>
      <trkpt lat="34.30989411968779" lon="108.92883230276014">
        <ele>396.8939200239256</ele>
        <time>2022-04-30T00:26:34Z</time>
      </trkpt>
      <trkpt lat="34.30992621889079" lon="108.92891116260594">
        <ele>396.6153418160975</ele>
        <time>2022-04-30T00:26:42Z</time>
      </trkpt>
      <trkpt lat="34.30992759579891" lon="108.92902535681559">
        <ele>396.78485942818224</ele>
        <time>2022-04-30T00:26:52Z</time>
      </trkpt>
      <trkpt lat="34.30938839160787" lon="108.93000599813642">
        <ele>397.8289317600429</ele>
        <time>2022-04-30T00:28:27Z</time>
      </trkpt>
      <trkpt lat="34.30921317332641" lon="108.93001780300216">
        <ele>396.9093900406733</ele>
        <time>2022-04-30T00:28:41Z</time>
      </trkpt>
      <trkpt lat="34.308951929941394" lon="108.92995838927568">
        <ele>396.5915999300778</ele>
        <time>2022-04-30T00:29:02Z</time>
      </trkpt>
      <trkpt lat="34.308696554185225" lon="108.92999294399809">
        <ele>396.87168416008353</ele>
        <time>2022-04-30T00:29:22Z</time>
      </trkpt>
      <trkpt lat="34.308373763947436" lon="108.92997875595516">
        <ele>397.25507146213204</ele>
        <time>2022-04-30T00:29:52Z</time>
      </trkpt>
      <trkpt lat="34.30828812314305" lon="108.93000079919268">
        <ele>397.5587080307305</ele>
        <time>2022-04-30T00:29:59Z</time>
      </trkpt>
      <trkpt lat="34.308107400248915" lon="108.92997650974151">
        <ele>396.24096256121993</ele>
        <time>2022-04-30T00:30:13Z</time>
      </trkpt>
      <trkpt lat="34.30794615428111" lon="108.92999712461577">
        <ele>397.2690827064216</ele>
        <time>2022-04-30T00:30:25Z</time>
      </trkpt>
      <trkpt lat="34.30784684965167" lon="108.92998933444129">
        <ele>397.54003624245524</ele>
        <time>2022-04-30T00:30:33Z</time>
      </trkpt>
      <trkpt lat="34.30776289861527" lon="108.93000685398408">
        <ele>396.8587560290471</ele>
        <time>2022-04-30T00:30:41Z</time>
      </trkpt>
      <trkpt lat="34.30772504550457" lon="108.92998638934186">
        <ele>397.4153465051204</ele>
        <time>2022-04-30T00:30:52Z</time>
      </trkpt>
      <trkpt lat="34.30758137311205" lon="108.93001398492495">
        <ele>396.7923100646585</ele>
        <time>2022-04-30T00:31:25Z</time>
      </trkpt>
      <trkpt lat="34.30758680255389" lon="108.93001051168554">
        <ele>396.8190840408206</ele>
        <time>2022-04-30T00:31:33Z</time>
      </trkpt>
      <trkpt lat="34.30749455411504" lon="108.93003438702301">
        <ele>397.23949669022113</ele>
        <time>2022-04-30T00:31:50Z</time>
      </trkpt>
      <trkpt lat="34.30740040520037" lon="108.93005914939849">
        <ele>397.55973837710917</ele>
        <time>2022-04-30T00:32:04Z</time>
      </trkpt>
      <trkpt lat="34.307411945161085" lon="108.93014987087946">
        <ele>396.5898990565911</ele>
        <time>2022-04-30T00:32:43Z</time>
      </trkpt>
      <trkpt lat="34.307572567365156" lon="108.93011550610444">
        <ele>396.3987475382164</ele>
        <time>2022-04-30T00:32:47Z</time>
      </trkpt>
      <trkpt lat="34.308057567061766" lon="108.93008171131187">
        <ele>397.5695402044803</ele>
        <time>2022-04-30T00:33:04Z</time>
      </trkpt>
      <trkpt lat="34.308166902722455" lon="108.93009473182904">
        <ele>397.6675938628614</ele>
        <time>2022-04-30T00:33:10Z</time>
      </trkpt>
      <trkpt lat="34.308237988600204" lon="108.93006954361613">
        <ele>397.76342677883804</ele>
        <time>2022-04-30T00:33:14Z</time>
      </trkpt>
      <trkpt lat="34.308352285978124" lon="108.930075880837">
        <ele>397.23341790772974</ele>
        <time>2022-04-30T00:33:30Z</time>
      </trkpt>
      <trkpt lat="34.308459630033845" lon="108.93001840987748">
        <ele>397.58578845579177</ele>
        <time>2022-04-30T00:37:28Z</time>
      </trkpt>
      <trkpt lat="34.30853517531702" lon="108.92998889391893">
        <ele>397.8577459603548</ele>
        <time>2022-04-30T00:37:31Z</time>
      </trkpt>
      <trkpt lat="34.3086309037287" lon="108.93000043710327">
        <ele>397.1124869957566</ele>
        <time>2022-04-30T00:37:34Z</time>
      </trkpt>
      <trkpt lat="34.30891568167601" lon="108.93008882941226">
        <ele>397.1254662126303</ele>
        <time>2022-04-30T00:37:44Z</time>
      </trkpt>
      <trkpt lat="34.308996665350115" lon="108.93004341240974">
        <ele>397.5392282474786</ele>
        <time>2022-04-30T00:37:48Z</time>
      </trkpt>
      <trkpt lat="34.30926175584533" lon="108.93009335235493">
        <ele>397.4794095493853</ele>
        <time>2022-04-30T00:37:56Z</time>
      </trkpt>
      <trkpt lat="34.3093336992631" lon="108.93007246428199">
        <ele>397.5923062665388</ele>
        <time>2022-04-30T00:37:58Z</time>
      </trkpt>
      <trkpt lat="34.309408564275934" lon="108.93008303521624">
        <ele>397.4255179222673</ele>
        <time>2022-04-30T00:38:00Z</time>
      </trkpt>
      <trkpt lat="34.3096182782277" lon="108.93007135633604">
        <ele>397.87530193291605</ele>
        <time>2022-04-30T00:38:06Z</time>
      </trkpt>
      <trkpt lat="34.30973541663349" lon="108.93003748619942">
        <ele>398.2532580755651</ele>
        <time>2022-04-30T00:38:10Z</time>
      </trkpt>
      <trkpt lat="34.30981290609104" lon="108.93006950612687">
        <ele>398.6143644955009</ele>
        <time>2022-04-30T00:38:14Z</time>
      </trkpt>
      <trkpt lat="34.30986035217915" lon="108.93065017814097">
        <ele>398.3628966771066</ele>
        <time>2022-04-30T00:38:26Z</time>
      </trkpt>
      <trkpt lat="34.309900191983495" lon="108.93095372709178">
        <ele>398.9480880526826</ele>
        <time>2022-04-30T00:38:32Z</time>
      </trkpt>
      <trkpt lat="34.3099335753395" lon="108.93104100081035">
        <ele>399.67474133335054</ele>
        <time>2022-04-30T00:38:34Z</time>
      </trkpt>
      <trkpt lat="34.30992787270659" lon="108.93115428529615">
        <ele>398.9382719658315</ele>
        <time>2022-04-30T00:38:36Z</time>
      </trkpt>
      <trkpt lat="34.30997987611365" lon="108.93167230788092">
        <ele>398.75121411588043</ele>
        <time>2022-04-30T00:38:46Z</time>
      </trkpt>
      <trkpt lat="34.30999035687111" lon="108.93176578026707">
        <ele>397.92723654024303</ele>
        <time>2022-04-30T00:38:48Z</time>
      </trkpt>
      <trkpt lat="34.30997880418952" lon="108.93191214896902">
        <ele>398.04375300370157</ele>
        <time>2022-04-30T00:38:52Z</time>
      </trkpt>
      <trkpt lat="34.30994775630417" lon="108.93199935413254">
        <ele>397.81668373849243</ele>
        <time>2022-04-30T00:38:54Z</time>
      </trkpt>
      <trkpt lat="34.30991780964454" lon="108.9321674088488">
        <ele>398.18372321128845</ele>
        <time>2022-04-30T00:38:59Z</time>
      </trkpt>
      <trkpt lat="34.30993106727523" lon="108.9323665318519">
        <ele>397.6731395283714</ele>
        <time>2022-04-30T00:39:02Z</time>
      </trkpt>
      <trkpt lat="34.309958800619555" lon="108.93247011755096">
        <ele>397.317100353539</ele>
        <time>2022-04-30T00:39:05Z</time>
      </trkpt>
      <trkpt lat="34.31006207964548" lon="108.93275735363916">
        <ele>397.18003623373806</ele>
        <time>2022-04-30T00:39:10Z</time>
      </trkpt>
      <trkpt lat="34.30998839385239" lon="108.9327682494206">
        <ele>396.2880261912942</ele>
        <time>2022-04-30T00:39:17Z</time>
      </trkpt>
      <trkpt lat="34.30995566461317" lon="108.93285494815719">
        <ele>396.75496315117925</ele>
        <time>2022-04-30T00:39:21Z</time>
      </trkpt>
      <trkpt lat="34.309972357138854" lon="108.93290250156257">
        <ele>396.697288534604</ele>
        <time>2022-04-30T00:39:22Z</time>
      </trkpt>
      <trkpt lat="34.31006198981543" lon="108.93318384132924">
        <ele>396.5918902158737</ele>
        <time>2022-04-30T00:39:58Z</time>
      </trkpt>
      <trkpt lat="34.31007712375262" lon="108.93329444696597">
        <ele>395.8442588765174</ele>
        <time>2022-04-30T00:40:05Z</time>
      </trkpt>
      <trkpt lat="34.31013383163148" lon="108.93335815812483">
        <ele>396.6742031099275</ele>
        <time>2022-04-30T00:40:08Z</time>
      </trkpt>
      <trkpt lat="34.310218496887636" lon="108.9333785171972">
        <ele>396.35014024656266</ele>
        <time>2022-04-30T00:40:10Z</time>
      </trkpt>
      <trkpt lat="34.31066465459807" lon="108.93335208985657">
        <ele>396.56145909335464</ele>
        <time>2022-04-30T00:40:20Z</time>
      </trkpt>
      <trkpt lat="34.31109731864242" lon="108.93334551781905">
        <ele>395.39759624842554</ele>
        <time>2022-04-30T00:40:28Z</time>
      </trkpt>
      <trkpt lat="34.31150960217182" lon="108.93337794289782">
        <ele>395.6186205353588</ele>
        <time>2022-04-30T00:40:36Z</time>
      </trkpt>
      <trkpt lat="34.31161338218799" lon="108.9334334370162">
        <ele>395.2157358145341</ele>
        <time>2022-04-30T00:40:40Z</time>
      </trkpt>
      <trkpt lat="34.31199427419436" lon="108.9333201453674">
        <ele>395.0256235776469</ele>
        <time>2022-04-30T00:40:44Z</time>
      </trkpt>
      <trkpt lat="34.31222597212553" lon="108.93337708693626">
        <ele>394.345835971646</ele>
        <time>2022-04-30T00:40:48Z</time>
      </trkpt>
      <trkpt lat="34.312745255766366" lon="108.93338037847971">
        <ele>394.8455841774121</ele>
        <time>2022-04-30T00:41:04Z</time>
      </trkpt>
      <trkpt lat="34.31328066818892" lon="108.93335501840494">
        <ele>396.30104158911854</ele>
        <time>2022-04-30T00:41:14Z</time>
      </trkpt>
      <trkpt lat="34.31381042352194" lon="108.93329746963995">
        <ele>395.7212562048808</ele>
        <time>2022-04-30T00:41:24Z</time>
      </trkpt>
      <trkpt lat="34.31424573700307" lon="108.93329727436212">
        <ele>394.65021620038897</ele>
        <time>2022-04-30T00:41:32Z</time>
      </trkpt>
      <trkpt lat="34.314584849035" lon="108.93328856853788">
        <ele>395.4526512539014</ele>
        <time>2022-04-30T00:41:38Z</time>
      </trkpt>
      <trkpt lat="34.31508757579982" lon="108.93325271810215">
        <ele>395.8555765170604</ele>
        <time>2022-04-30T00:41:48Z</time>
      </trkpt>
      <trkpt lat="34.31519003524731" lon="108.93325372255858">
        <ele>395.85066470876336</ele>
        <time>2022-04-30T00:41:52Z</time>
      </trkpt>
      <trkpt lat="34.31523483620184" lon="108.93330874575973">
        <ele>396.0585178108886</ele>
        <time>2022-04-30T00:42:02Z</time>
      </trkpt>
      <trkpt lat="34.31542589198261" lon="108.93327892213591">
        <ele>395.8908471222967</ele>
        <time>2022-04-30T00:42:45Z</time>
      </trkpt>
      <trkpt lat="34.31575816844875" lon="108.93325841365639">
        <ele>394.6500903554261</ele>
        <time>2022-04-30T00:42:51Z</time>
      </trkpt>
      <trkpt lat="34.31584086008302" lon="108.933192945617">
        <ele>394.82785005588084</ele>
        <time>2022-04-30T00:42:53Z</time>
      </trkpt>
      <trkpt lat="34.31591335431548" lon="108.93319112003975">
        <ele>394.3379890108481</ele>
        <time>2022-04-30T00:42:55Z</time>
      </trkpt>
      <trkpt lat="34.315974367611574" lon="108.93324701203171">
        <ele>394.52898941840976</ele>
        <time>2022-04-30T00:42:57Z</time>
      </trkpt>
      <trkpt lat="34.31604895072742" lon="108.93324160546554">
        <ele>395.08580508921295</ele>
        <time>2022-04-30T00:43:00Z</time>
      </trkpt>
      <trkpt lat="34.316116645631645" lon="108.93329038948616">
        <ele>394.8187772370875</ele>
        <time>2022-04-30T00:43:04Z</time>
      </trkpt>
      <trkpt lat="34.31624209331607" lon="108.933328592899">
        <ele>396.17998600937426</ele>
        <time>2022-04-30T00:43:08Z</time>
      </trkpt>
      <trkpt lat="34.31634445601541" lon="108.9333141264986">
        <ele>395.4887762796134</ele>
        <time>2022-04-30T00:43:10Z</time>
      </trkpt>
      <trkpt lat="34.316533839987706" lon="108.93324150124083">
        <ele>396.1973020453006</ele>
        <time>2022-04-30T00:43:14Z</time>
      </trkpt>
      <trkpt lat="34.316741065431906" lon="108.93321926062042">
        <ele>395.5936911199242</ele>
        <time>2022-04-30T00:43:18Z</time>
      </trkpt>
      <trkpt lat="34.3168659799995" lon="108.93324918762424">
        <ele>395.2372752642259</ele>
        <time>2022-04-30T00:43:20Z</time>
      </trkpt>
      <trkpt lat="34.31737246208888" lon="108.9332262416416">
        <ele>396.2501920154318</ele>
        <time>2022-04-30T00:43:30Z</time>
      </trkpt>
      <trkpt lat="34.31746878381673" lon="108.93323779676524">
        <ele>396.4196204096079</ele>
        <time>2022-04-30T00:43:32Z</time>
      </trkpt>
      <trkpt lat="34.317583729023006" lon="108.93321211243732">
        <ele>396.81588464509696</ele>
        <time>2022-04-30T00:43:34Z</time>
      </trkpt>
      <trkpt lat="34.31807779946829" lon="108.9332264248149">
        <ele>397.5397011740133</ele>
        <time>2022-04-30T00:43:44Z</time>
      </trkpt>
      <trkpt lat="34.318256410202956" lon="108.93323659053397">
        <ele>397.74624716024846</ele>
        <time>2022-04-30T00:43:48Z</time>
      </trkpt>
      <trkpt lat="34.318347767852956" lon="108.93322455212156">
        <ele>397.8041052380577</ele>
        <time>2022-04-30T00:43:50Z</time>
      </trkpt>
      <trkpt lat="34.31853847154213" lon="108.933256366493">
        <ele>396.7995078358799</ele>
        <time>2022-04-30T00:43:54Z</time>
      </trkpt>
      <trkpt lat="34.31901681490731" lon="108.93321901743795">
        <ele>396.28583479858935</ele>
        <time>2022-04-30T00:44:04Z</time>
      </trkpt>
      <trkpt lat="34.3192399047686" lon="108.93319714187601">
        <ele>395.10114795994014</ele>
        <time>2022-04-30T00:44:12Z</time>
      </trkpt>
      <trkpt lat="34.31937191107018" lon="108.93323370893876">
        <ele>395.14071140252054</ele>
        <time>2022-04-30T00:44:16Z</time>
      </trkpt>
      <trkpt lat="34.31954404072633" lon="108.93322927378023">
        <ele>394.4914124524221</ele>
        <time>2022-04-30T00:44:20Z</time>
      </trkpt>
      <trkpt lat="34.319664839274026" lon="108.93318671812268">
        <ele>395.19537336938083</ele>
        <time>2022-04-30T00:44:22Z</time>
      </trkpt>
      <trkpt lat="34.320134633753675" lon="108.93320332710938">
        <ele>394.5641642427072</ele>
        <time>2022-04-30T00:44:28Z</time>
      </trkpt>
      <trkpt lat="34.32061462823513" lon="108.93319858080916">
        <ele>392.14506588038057</ele>
        <time>2022-04-30T00:44:34Z</time>
      </trkpt>
      <trkpt lat="34.32111600027322" lon="108.93320266025835">
        <ele>393.04948295746</ele>
        <time>2022-04-30T00:44:40Z</time>
      </trkpt>
      <trkpt lat="34.32166789332455" lon="108.93321144354798">
        <ele>393.13716855831444</ele>
        <time>2022-04-30T00:44:48Z</time>
      </trkpt>
      <trkpt lat="34.321907308581295" lon="108.93317289773147">
        <ele>393.2494480414316</ele>
        <time>2022-04-30T00:44:52Z</time>
      </trkpt>
      <trkpt lat="34.32216655964631" lon="108.93321059287979">
        <ele>393.754808280617</ele>
        <time>2022-04-30T00:44:56Z</time>
      </trkpt>
      <trkpt lat="34.32262230834003" lon="108.93317788057551">
        <ele>394.36172298993915</ele>
        <time>2022-04-30T00:45:04Z</time>
      </trkpt>
      <trkpt lat="34.323116289355674" lon="108.93316955896078">
        <ele>393.0460255872458</ele>
        <time>2022-04-30T00:45:12Z</time>
      </trkpt>
      <trkpt lat="34.323571312673806" lon="108.93318702112668">
        <ele>393.10255565401167</ele>
        <time>2022-04-30T00:45:20Z</time>
      </trkpt>
      <trkpt lat="34.32365178332184" lon="108.93316633214421">
        <ele>392.80752094462514</ele>
        <time>2022-04-30T00:45:22Z</time>
      </trkpt>
      <trkpt lat="34.32401759090706" lon="108.93323266294338">
        <ele>391.6344235576689</ele>
        <time>2022-04-30T00:45:32Z</time>
      </trkpt>
      <trkpt lat="34.32412648977864" lon="108.9332236291541">
        <ele>391.8265524301678</ele>
        <time>2022-04-30T00:45:34Z</time>
      </trkpt>
      <trkpt lat="34.32422490526507" lon="108.93324297042487">
        <ele>392.29333973210305</ele>
        <time>2022-04-30T00:45:36Z</time>
      </trkpt>
      <trkpt lat="34.324664286115386" lon="108.93323362614646">
        <ele>391.816440243274</ele>
        <time>2022-04-30T00:45:44Z</time>
      </trkpt>
      <trkpt lat="34.32489384654328" lon="108.93325846142724">
        <ele>392.16301056277007</ele>
        <time>2022-04-30T00:45:48Z</time>
      </trkpt>
      <trkpt lat="34.32539194054329" lon="108.93324014725361">
        <ele>390.3985697356984</ele>
        <time>2022-04-30T00:45:58Z</time>
      </trkpt>
      <trkpt lat="34.325761848089655" lon="108.93321790985908">
        <ele>391.3065872788429</ele>
        <time>2022-04-30T00:46:04Z</time>
      </trkpt>
      <trkpt lat="34.32606544737309" lon="108.93317758356079">
        <ele>391.4791599959135</ele>
        <time>2022-04-30T00:46:10Z</time>
      </trkpt>
      <trkpt lat="34.326146714522885" lon="108.93315175840331">
        <ele>391.2218458754942</ele>
        <time>2022-04-30T00:46:12Z</time>
      </trkpt>
      <trkpt lat="34.32645520679694" lon="108.9331794125619">
        <ele>390.7093142690137</ele>
        <time>2022-04-30T00:46:20Z</time>
      </trkpt>
      <trkpt lat="34.3266171253937" lon="108.93316193247604">
        <ele>390.9188133487478</ele>
        <time>2022-04-30T00:46:24Z</time>
      </trkpt>
      <trkpt lat="34.326822854856744" lon="108.93318297524063">
        <ele>390.8552562203258</ele>
        <time>2022-04-30T00:46:28Z</time>
      </trkpt>
      <trkpt lat="34.327241633592244" lon="108.93310041909729">
        <ele>392.69341487344354</ele>
        <time>2022-04-30T00:46:36Z</time>
      </trkpt>
      <trkpt lat="34.327351688631445" lon="108.93311075209193">
        <ele>393.538417362608</ele>
        <time>2022-04-30T00:46:38Z</time>
      </trkpt>
      <trkpt lat="34.3275733881646" lon="108.9330735634034">
        <ele>393.32035763468593</ele>
        <time>2022-04-30T00:46:42Z</time>
      </trkpt>
      <trkpt lat="34.32791711760559" lon="108.93313798576143">
        <ele>392.4410984404385</ele>
        <time>2022-04-30T00:46:48Z</time>
      </trkpt>
      <trkpt lat="34.327990104311105" lon="108.93310725623878">
        <ele>392.20261789951473</ele>
        <time>2022-04-30T00:46:50Z</time>
      </trkpt>
      <trkpt lat="34.328107845365714" lon="108.9331148288288">
        <ele>392.7171558206901</ele>
        <time>2022-04-30T00:46:54Z</time>
      </trkpt>
      <trkpt lat="34.3281590846982" lon="108.93322534905722">
        <ele>392.64919488318264</ele>
        <time>2022-04-30T00:46:56Z</time>
      </trkpt>
      <trkpt lat="34.32818343253405" lon="108.93336575589535">
        <ele>392.72991398721933</ele>
        <time>2022-04-30T00:46:58Z</time>
      </trkpt>
      <trkpt lat="34.328176406212904" lon="108.93348045006607">
        <ele>392.4014577968046</ele>
        <time>2022-04-30T00:47:00Z</time>
      </trkpt>
      <trkpt lat="34.328189319756916" lon="108.9336619603842">
        <ele>393.63766479771584</ele>
        <time>2022-04-30T00:47:04Z</time>
      </trkpt>
      <trkpt lat="34.328175121330176" lon="108.93384746334539">
        <ele>391.95231207087636</ele>
        <time>2022-04-30T00:47:08Z</time>
      </trkpt>
      <trkpt lat="34.3282956504855" lon="108.93428010187245">
        <ele>392.51769015565515</ele>
        <time>2022-04-30T00:47:14Z</time>
      </trkpt>
      <trkpt lat="34.32836444394899" lon="108.93484462223263">
        <ele>393.2320182574913</ele>
        <time>2022-04-30T00:47:22Z</time>
      </trkpt>
      <trkpt lat="34.328405095416834" lon="108.93495393262572">
        <ele>393.1296328548342</ele>
        <time>2022-04-30T00:47:24Z</time>
      </trkpt>
      <trkpt lat="34.32838818534005" lon="108.93548383637187">
        <ele>393.20362022984773</ele>
        <time>2022-04-30T00:47:32Z</time>
      </trkpt>
      <trkpt lat="34.328392762068866" lon="108.9356100870562">
        <ele>393.1396652618423</ele>
        <time>2022-04-30T00:47:34Z</time>
      </trkpt>
      <trkpt lat="34.3283656379636" lon="108.93591234093184">
        <ele>392.03104859776795</ele>
        <time>2022-04-30T00:47:38Z</time>
      </trkpt>
      <trkpt lat="34.328357214663264" lon="108.93618217305895">
        <ele>392.8767730910331</ele>
        <time>2022-04-30T00:47:42Z</time>
      </trkpt>
      <trkpt lat="34.32833711896495" lon="108.93631425267235">
        <ele>392.71787540614605</ele>
        <time>2022-04-30T00:47:44Z</time>
      </trkpt>
      <trkpt lat="34.328365431036104" lon="108.936579648613">
        <ele>393.4776552161202</ele>
        <time>2022-04-30T00:47:48Z</time>
      </trkpt>
      <trkpt lat="34.328315990704525" lon="108.93717292497722">
        <ele>392.925213387236</ele>
        <time>2022-04-30T00:47:56Z</time>
      </trkpt>
      <trkpt lat="34.328334104940645" lon="108.93732461326123">
        <ele>393.4760557105765</ele>
        <time>2022-04-30T00:47:58Z</time>
      </trkpt>
      <trkpt lat="34.3283266832579" lon="108.93761828737958">
        <ele>393.01478989608586</ele>
        <time>2022-04-30T00:48:02Z</time>
      </trkpt>
      <trkpt lat="34.32828711399949" lon="108.9377781011787">
        <ele>391.9157234383747</ele>
        <time>2022-04-30T00:48:04Z</time>
      </trkpt>
      <trkpt lat="34.32824217375164" lon="108.93807235421426">
        <ele>391.67927415762097</ele>
        <time>2022-04-30T00:48:08Z</time>
      </trkpt>
      <trkpt lat="34.32824701080975" lon="108.93820548466654">
        <ele>391.4829398347065</ele>
        <time>2022-04-30T00:48:10Z</time>
      </trkpt>
      <trkpt lat="34.32816070586711" lon="108.93880874549545">
        <ele>391.80768540035933</ele>
        <time>2022-04-30T00:48:18Z</time>
      </trkpt>
      <trkpt lat="34.328143720783196" lon="108.93911294456333">
        <ele>391.79978027474135</ele>
        <time>2022-04-30T00:48:22Z</time>
      </trkpt>
      <trkpt lat="34.32816656698031" lon="108.93934759502424">
        <ele>392.4879160001874</ele>
        <time>2022-04-30T00:48:28Z</time>
      </trkpt>
      <trkpt lat="34.32813753356071" lon="108.93945914821877">
        <ele>391.6981091769412</ele>
        <time>2022-04-30T00:48:32Z</time>
      </trkpt>
      <trkpt lat="34.32814284457679" lon="108.93962095022152">
        <ele>392.3008799087256</ele>
        <time>2022-04-30T00:48:36Z</time>
      </trkpt>
      <trkpt lat="34.32817909276491" lon="108.93969811358035">
        <ele>391.8897496405989</ele>
        <time>2022-04-30T00:48:38Z</time>
      </trkpt>
      <trkpt lat="34.32817496008037" lon="108.93986837276348">
        <ele>391.6007071165368</ele>
        <time>2022-04-30T00:48:42Z</time>
      </trkpt>
      <trkpt lat="34.32820086330292" lon="108.9400020219293">
        <ele>390.9339993558824</ele>
        <time>2022-04-30T00:48:44Z</time>
      </trkpt>
      <trkpt lat="34.32816734668434" lon="108.9401259214948">
        <ele>391.2903821915388</ele>
        <time>2022-04-30T00:48:46Z</time>
      </trkpt>
      <trkpt lat="34.32816661553822" lon="108.94051863146194">
        <ele>391.89664833340794</ele>
        <time>2022-04-30T00:48:52Z</time>
      </trkpt>
      <trkpt lat="34.32814299615668" lon="108.94063644388045">
        <ele>391.6594505030662</ele>
        <time>2022-04-30T00:48:54Z</time>
      </trkpt>
      <trkpt lat="34.32812081930068" lon="108.94090446719257">
        <ele>391.3969243047759</ele>
        <time>2022-04-30T00:48:58Z</time>
      </trkpt>
      <trkpt lat="34.32812733095814" lon="108.94102790514401">
        <ele>391.4479325618595</ele>
        <time>2022-04-30T00:49:00Z</time>
      </trkpt>
      <trkpt lat="34.32810166490314" lon="108.94150774769368">
        <ele>391.7281049294397</ele>
        <time>2022-04-30T00:49:08Z</time>
      </trkpt>
      <trkpt lat="34.32816255661619" lon="108.94204911053633">
        <ele>392.1786362519488</ele>
        <time>2022-04-30T00:49:18Z</time>
      </trkpt>
      <trkpt lat="34.328140891533806" lon="108.94220877683814">
        <ele>391.46305403951555</ele>
        <time>2022-04-30T00:49:22Z</time>
      </trkpt>
      <trkpt lat="34.32809170846836" lon="108.9423002263346">
        <ele>390.62896837014705</ele>
        <time>2022-04-30T00:49:26Z</time>
      </trkpt>
      <trkpt lat="34.32801283669734" lon="108.94232148560559">
        <ele>390.6858183387667</ele>
        <time>2022-04-30T00:49:32Z</time>
      </trkpt>
      <trkpt lat="34.327907367180806" lon="108.94266469391788">
        <ele>391.07845144253224</ele>
        <time>2022-04-30T00:50:19Z</time>
      </trkpt>
      <trkpt lat="34.32791077423487" lon="108.94318394559112">
        <ele>390.8907982027158</ele>
        <time>2022-04-30T00:50:25Z</time>
      </trkpt>
      <trkpt lat="34.327967086312434" lon="108.94373529456182">
        <ele>391.5347260199487</ele>
        <time>2022-04-30T00:50:31Z</time>
      </trkpt>
      <trkpt lat="34.32795958455527" lon="108.94438308629645">
        <ele>391.31969491392374</ele>
        <time>2022-04-30T00:50:37Z</time>
      </trkpt>
      <trkpt lat="34.328005971692704" lon="108.94479455837202">
        <ele>391.69653748814017</ele>
        <time>2022-04-30T00:50:41Z</time>
      </trkpt>
      <trkpt lat="34.32798616513862" lon="108.94499224464262">
        <ele>391.56840069592</ele>
        <time>2022-04-30T00:50:43Z</time>
      </trkpt>
      <trkpt lat="34.327999498373856" lon="108.94517490649221">
        <ele>392.18969577923417</ele>
        <time>2022-04-30T00:50:45Z</time>
      </trkpt>
      <trkpt lat="34.32803010833735" lon="108.9453340177149">
        <ele>392.51610726770014</ele>
        <time>2022-04-30T00:50:47Z</time>
      </trkpt>
      <trkpt lat="34.327974123620734" lon="108.94548632043197">
        <ele>392.6188112767413</ele>
        <time>2022-04-30T00:50:49Z</time>
      </trkpt>
      <trkpt lat="34.327980783736834" lon="108.94606045398852">
        <ele>392.1683955453336</ele>
        <time>2022-04-30T00:50:57Z</time>
      </trkpt>
      <trkpt lat="34.327982828370956" lon="108.9463406513614">
        <ele>392.52626344002783</ele>
        <time>2022-04-30T00:51:01Z</time>
      </trkpt>
      <trkpt lat="34.327983917500646" lon="108.946490334548">
        <ele>392.7247951775789</ele>
        <time>2022-04-30T00:51:03Z</time>
      </trkpt>
      <trkpt lat="34.32805072105713" lon="108.94662975731832">
        <ele>392.47090631816536</ele>
        <time>2022-04-30T00:51:05Z</time>
      </trkpt>
      <trkpt lat="34.32802579050424" lon="108.94706978821345">
        <ele>392.0939418245107</ele>
        <time>2022-04-30T00:51:11Z</time>
      </trkpt>
      <trkpt lat="34.32805605718173" lon="108.9474751607024">
        <ele>393.4624662185088</ele>
        <time>2022-04-30T00:51:17Z</time>
      </trkpt>
      <trkpt lat="34.328049809701575" lon="108.94761863815276">
        <ele>392.89833190478384</ele>
        <time>2022-04-30T00:51:19Z</time>
      </trkpt>
      <trkpt lat="34.32802121807681" lon="108.94775698044347">
        <ele>392.8553811600432</ele>
        <time>2022-04-30T00:51:21Z</time>
      </trkpt>
      <trkpt lat="34.32802709602184" lon="108.94802325120135">
        <ele>392.84054976236075</ele>
        <time>2022-04-30T00:51:25Z</time>
      </trkpt>
      <trkpt lat="34.328046981524416" lon="108.94814720580091">
        <ele>393.70852749049664</ele>
        <time>2022-04-30T00:51:27Z</time>
      </trkpt>
      <trkpt lat="34.32806053717573" lon="108.94840744558773">
        <ele>393.318790611811</ele>
        <time>2022-04-30T00:51:31Z</time>
      </trkpt>
      <trkpt lat="34.328085950096096" lon="108.94864281188153">
        <ele>394.0961843440309</ele>
        <time>2022-04-30T00:51:35Z</time>
      </trkpt>
      <trkpt lat="34.32806561567041" lon="108.94883532897401">
        <ele>393.1793622067198</ele>
        <time>2022-04-30T00:51:39Z</time>
      </trkpt>
      <trkpt lat="34.3279880637821" lon="108.94891918483366">
        <ele>391.99305950757116</ele>
        <time>2022-04-30T00:51:49Z</time>
      </trkpt>
      <trkpt lat="34.32796363352763" lon="108.94920968147973">
        <ele>392.2651747809723</ele>
        <time>2022-04-30T00:52:21Z</time>
      </trkpt>
      <trkpt lat="34.32798824081447" lon="108.94942431314236">
        <ele>392.1219376260415</ele>
        <time>2022-04-30T00:52:25Z</time>
      </trkpt>
      <trkpt lat="34.327978798794945" lon="108.9495538320541">
        <ele>392.87553033418953</ele>
        <time>2022-04-30T00:52:27Z</time>
      </trkpt>
      <trkpt lat="34.327998435229766" lon="108.94969276503268">
        <ele>393.6919805826619</ele>
        <time>2022-04-30T00:52:29Z</time>
      </trkpt>
      <trkpt lat="34.32797047435139" lon="108.95027322267336">
        <ele>392.737353220582</ele>
        <time>2022-04-30T00:52:37Z</time>
      </trkpt>
      <trkpt lat="34.32799795224489" lon="108.95082390954151">
        <ele>393.70154772046953</ele>
        <time>2022-04-30T00:52:45Z</time>
      </trkpt>
      <trkpt lat="34.32798447698545" lon="108.95110297840142">
        <ele>393.16925637982786</ele>
        <time>2022-04-30T00:52:49Z</time>
      </trkpt>
      <trkpt lat="34.32800461677473" lon="108.95139523022735">
        <ele>393.5582077167928</ele>
        <time>2022-04-30T00:52:53Z</time>
      </trkpt>
      <trkpt lat="34.32805822606191" lon="108.95168695798006">
        <ele>394.0085598062724</ele>
        <time>2022-04-30T00:52:57Z</time>
      </trkpt>
      <trkpt lat="34.328030059476085" lon="108.95192847944718">
        <ele>392.8278630953282</ele>
        <time>2022-04-30T00:53:01Z</time>
      </trkpt>
      <trkpt lat="34.328061610642386" lon="108.95212429693787">
        <ele>392.03253987804055</ele>
        <time>2022-04-30T00:53:05Z</time>
      </trkpt>
      <trkpt lat="34.32804855028342" lon="108.95226100794575">
        <ele>392.23714652471244</ele>
        <time>2022-04-30T00:53:07Z</time>
      </trkpt>
      <trkpt lat="34.32796287654641" lon="108.95264909400488">
        <ele>389.08654070459306</ele>
        <time>2022-04-30T00:53:13Z</time>
      </trkpt>
      <trkpt lat="34.32794166816779" lon="108.95281089486627">
        <ele>389.671479283832</ele>
        <time>2022-04-30T00:53:15Z</time>
      </trkpt>
      <trkpt lat="34.32796649875744" lon="108.95311281902586">
        <ele>389.44749319553375</ele>
        <time>2022-04-30T00:53:19Z</time>
      </trkpt>
      <trkpt lat="34.327915436217154" lon="108.9535753545099">
        <ele>387.2421280397102</ele>
        <time>2022-04-30T00:53:25Z</time>
      </trkpt>
      <trkpt lat="34.3279266274732" lon="108.95396089535551">
        <ele>387.06992010306567</ele>
        <time>2022-04-30T00:53:33Z</time>
      </trkpt>
      <trkpt lat="34.32786639340313" lon="108.95433712455771">
        <ele>387.26330616883934</ele>
        <time>2022-04-30T00:53:39Z</time>
      </trkpt>
      <trkpt lat="34.3278788273412" lon="108.95458067235168">
        <ele>387.7727674143389</ele>
        <time>2022-04-30T00:53:43Z</time>
      </trkpt>
      <trkpt lat="34.327923081179556" lon="108.95483138686528">
        <ele>388.6653608744964</ele>
        <time>2022-04-30T00:53:49Z</time>
      </trkpt>
      <trkpt lat="34.32792369955698" lon="108.95501105485656">
        <ele>389.54991343896836</ele>
        <time>2022-04-30T00:53:53Z</time>
      </trkpt>
      <trkpt lat="34.32790357576107" lon="108.95510207785938">
        <ele>389.76058103889227</ele>
        <time>2022-04-30T00:53:55Z</time>
      </trkpt>
      <trkpt lat="34.32788968849206" lon="108.9552999951091">
        <ele>389.95161523111165</ele>
        <time>2022-04-30T00:54:00Z</time>
      </trkpt>
      <trkpt lat="34.3278529642223" lon="108.95537897841919">
        <ele>389.5301079452038</ele>
        <time>2022-04-30T00:54:06Z</time>
      </trkpt>
      <trkpt lat="34.32785336794451" lon="108.95591736809223">
        <ele>390.3928516404703</ele>
        <time>2022-04-30T00:54:18Z</time>
      </trkpt>
      <trkpt lat="34.32786645314201" lon="108.95644421967117">
        <ele>391.83699214458466</ele>
        <time>2022-04-30T00:54:26Z</time>
      </trkpt>
      <trkpt lat="34.32788865722817" lon="108.95670089926809">
        <ele>392.879331914708</ele>
        <time>2022-04-30T00:54:30Z</time>
      </trkpt>
      <trkpt lat="34.32792680966744" lon="108.95681732288348">
        <ele>392.45710771530867</ele>
        <time>2022-04-30T00:54:32Z</time>
      </trkpt>
      <trkpt lat="34.32791822177827" lon="108.95696149741839">
        <ele>392.88003215845674</ele>
        <time>2022-04-30T00:54:34Z</time>
      </trkpt>
      <trkpt lat="34.32796909737295" lon="108.95737366020843">
        <ele>392.8421066654846</ele>
        <time>2022-04-30T00:54:40Z</time>
      </trkpt>
      <trkpt lat="34.32797011816952" lon="108.9575137114886">
        <ele>393.90581941604614</ele>
        <time>2022-04-30T00:54:42Z</time>
      </trkpt>
      <trkpt lat="34.328018091116775" lon="108.95799711507159">
        <ele>395.6394572686404</ele>
        <time>2022-04-30T00:54:50Z</time>
      </trkpt>
      <trkpt lat="34.32798468143158" lon="108.95826939474009">
        <ele>395.0278145382181</ele>
        <time>2022-04-30T00:54:54Z</time>
      </trkpt>
      <trkpt lat="34.3279454185243" lon="108.9588317161158">
        <ele>395.393962492235</ele>
        <time>2022-04-30T00:55:02Z</time>
      </trkpt>
      <trkpt lat="34.32797331516403" lon="108.95910057589724">
        <ele>395.40657789446414</ele>
        <time>2022-04-30T00:55:06Z</time>
      </trkpt>
      <trkpt lat="34.32796307080743" lon="108.95965207667368">
        <ele>395.0735228890553</ele>
        <time>2022-04-30T00:55:14Z</time>
      </trkpt>
      <trkpt lat="34.327973038172786" lon="108.96024112402796">
        <ele>394.67420923151076</ele>
        <time>2022-04-30T00:55:22Z</time>
      </trkpt>
      <trkpt lat="34.32797666052847" lon="108.96070736586562">
        <ele>393.50943919084966</ele>
        <time>2022-04-30T00:55:28Z</time>
      </trkpt>
      <trkpt lat="34.32799077281342" lon="108.96086564929452">
        <ele>393.5850609606132</ele>
        <time>2022-04-30T00:55:30Z</time>
      </trkpt>
      <trkpt lat="34.32798808599113" lon="108.96138921734693">
        <ele>393.83230201434344</ele>
        <time>2022-04-30T00:55:36Z</time>
      </trkpt>
      <trkpt lat="34.32798661106618" lon="108.96197283147823">
        <ele>394.2728661093861</ele>
        <time>2022-04-30T00:55:42Z</time>
      </trkpt>
      <trkpt lat="34.32795731622654" lon="108.96218195258928">
        <ele>393.58686160482466</ele>
        <time>2022-04-30T00:55:44Z</time>
      </trkpt>
      <trkpt lat="34.3279655973604" lon="108.96257391738854">
        <ele>395.0752602322027</ele>
        <time>2022-04-30T00:55:48Z</time>
      </trkpt>
      <trkpt lat="34.32794121219864" lon="108.96292130639975">
        <ele>395.4657342294231</ele>
        <time>2022-04-30T00:55:52Z</time>
      </trkpt>
      <trkpt lat="34.32796684060053" lon="108.96352232438085">
        <ele>396.90683490317315</ele>
        <time>2022-04-30T00:56:00Z</time>
      </trkpt>
      <trkpt lat="34.327968371166776" lon="108.96413317775196">
        <ele>397.1808373481035</ele>
        <time>2022-04-30T00:56:08Z</time>
      </trkpt>
      <trkpt lat="34.327962667811136" lon="108.9645598577909">
        <ele>396.41874430608004</ele>
        <time>2022-04-30T00:56:14Z</time>
      </trkpt>
      <trkpt lat="34.32793519546887" lon="108.96512932498796">
        <ele>395.47308787330985</ele>
        <time>2022-04-30T00:56:22Z</time>
      </trkpt>
      <trkpt lat="34.3279285455813" lon="108.96550218156703">
        <ele>395.00081346556544</ele>
        <time>2022-04-30T00:56:28Z</time>
      </trkpt>
      <trkpt lat="34.32794716108102" lon="108.96590900376137">
        <ele>395.29895818512887</ele>
        <time>2022-04-30T00:56:36Z</time>
      </trkpt>
      <trkpt lat="34.32792038785413" lon="108.9664643456703">
        <ele>394.7458282234147</ele>
        <time>2022-04-30T00:56:46Z</time>
      </trkpt>
      <trkpt lat="34.327900929631355" lon="108.9665879419859">
        <ele>394.7006158856675</ele>
        <time>2022-04-30T00:56:50Z</time>
      </trkpt>
      <trkpt lat="34.32787948588695" lon="108.96659671067447">
        <ele>395.0111284200102</ele>
        <time>2022-04-30T00:57:00Z</time>
      </trkpt>
      <trkpt lat="34.327870624847826" lon="108.96678748308753">
        <ele>395.7740004612133</ele>
        <time>2022-04-30T00:58:27Z</time>
      </trkpt>
      <trkpt lat="34.32789795176176" lon="108.96697163591647">
        <ele>395.0447074007243</ele>
        <time>2022-04-30T00:58:31Z</time>
      </trkpt>
      <trkpt lat="34.327889159183826" lon="108.96706704540543">
        <ele>394.8993324590847</ele>
        <time>2022-04-30T00:58:33Z</time>
      </trkpt>
      <trkpt lat="34.32790613569143" lon="108.96749177015488">
        <ele>396.0130296666175</ele>
        <time>2022-04-30T00:58:43Z</time>
      </trkpt>
      <trkpt lat="34.32789887932783" lon="108.96771651538653">
        <ele>396.7456193920225</ele>
        <time>2022-04-30T00:58:47Z</time>
      </trkpt>
      <trkpt lat="34.32793432859318" lon="108.96793516895353">
        <ele>397.7801939956844</ele>
        <time>2022-04-30T00:58:51Z</time>
      </trkpt>
      <trkpt lat="34.32794368119064" lon="108.9681596152441">
        <ele>398.00866047572345</ele>
        <time>2022-04-30T00:58:55Z</time>
      </trkpt>
      <trkpt lat="34.32792721488422" lon="108.96839510600489">
        <ele>397.73118017520756</ele>
        <time>2022-04-30T00:58:59Z</time>
      </trkpt>
      <trkpt lat="34.32790261336647" lon="108.96851106631101">
        <ele>397.7992491349578</ele>
        <time>2022-04-30T00:59:01Z</time>
      </trkpt>
      <trkpt lat="34.327986250350115" lon="108.96904760051143">
        <ele>396.93773853965104</ele>
        <time>2022-04-30T00:59:09Z</time>
      </trkpt>
      <trkpt lat="34.3280057139236" lon="108.96918739714575">
        <ele>398.047875138931</ele>
        <time>2022-04-30T00:59:11Z</time>
      </trkpt>
      <trkpt lat="34.32803789056308" lon="108.96928436762668">
        <ele>397.4964937865734</ele>
        <time>2022-04-30T00:59:13Z</time>
      </trkpt>
      <trkpt lat="34.32805542921874" lon="108.96943629406591">
        <ele>397.6674486948177</ele>
        <time>2022-04-30T00:59:15Z</time>
      </trkpt>
      <trkpt lat="34.327975674156114" lon="108.96972816583582">
        <ele>396.41508994530886</ele>
        <time>2022-04-30T00:59:19Z</time>
      </trkpt>
      <trkpt lat="34.3279299636833" lon="108.97014400786337">
        <ele>396.6248837020248</ele>
        <time>2022-04-30T00:59:25Z</time>
      </trkpt>
      <trkpt lat="34.32792425559857" lon="108.97043861003553">
        <ele>396.43965851701796</ele>
        <time>2022-04-30T00:59:29Z</time>
      </trkpt>
      <trkpt lat="34.3279081484795" lon="108.97055077435598">
        <ele>396.626630092971</ele>
        <time>2022-04-30T00:59:31Z</time>
      </trkpt>
      <trkpt lat="34.327902905485566" lon="108.97091082902902">
        <ele>396.00917369592935</ele>
        <time>2022-04-30T00:59:37Z</time>
      </trkpt>
      <trkpt lat="34.32785719004738" lon="108.97101533587157">
        <ele>395.8138052551076</ele>
        <time>2022-04-30T00:59:39Z</time>
      </trkpt>
      <trkpt lat="34.32785904124555" lon="108.97111940228406">
        <ele>395.5481733167544</ele>
        <time>2022-04-30T00:59:41Z</time>
      </trkpt>
      <trkpt lat="34.32783060829496" lon="108.97120718018432">
        <ele>395.50081668421626</ele>
        <time>2022-04-30T00:59:45Z</time>
      </trkpt>
      <trkpt lat="34.32784066502503" lon="108.97125813996337">
        <ele>395.37484073545784</ele>
        <time>2022-04-30T00:59:49Z</time>
      </trkpt>
      <trkpt lat="34.3278850319469" lon="108.97150119645492">
        <ele>396.98611594736576</ele>
        <time>2022-04-30T00:59:56Z</time>
      </trkpt>
      <trkpt lat="34.3278905054084" lon="108.97169998089475">
        <ele>396.8959066057578</ele>
        <time>2022-04-30T01:00:00Z</time>
      </trkpt>
      <trkpt lat="34.32787214550584" lon="108.97205333021508">
        <ele>397.94165100716054</ele>
        <time>2022-04-30T01:00:08Z</time>
      </trkpt>
      <trkpt lat="34.32789002760235" lon="108.97216114716196">
        <ele>398.63859317451715</ele>
        <time>2022-04-30T01:00:10Z</time>
      </trkpt>
      <trkpt lat="34.327924879948284" lon="108.97225674888738">
        <ele>398.8110413933173</ele>
        <time>2022-04-30T01:00:12Z</time>
      </trkpt>
      <trkpt lat="34.327981776909034" lon="108.97232946014948">
        <ele>398.27266433648765</ele>
        <time>2022-04-30T01:00:14Z</time>
      </trkpt>
      <trkpt lat="34.32795823998858" lon="108.97257235280175">
        <ele>399.01576102524996</ele>
        <time>2022-04-30T01:00:18Z</time>
      </trkpt>
      <trkpt lat="34.32796399740478" lon="108.97281313857242">
        <ele>399.1125070070848</ele>
        <time>2022-04-30T01:00:22Z</time>
      </trkpt>
      <trkpt lat="34.32793711871068" lon="108.97291302053078">
        <ele>398.4280982967466</ele>
        <time>2022-04-30T01:00:24Z</time>
      </trkpt>
      <trkpt lat="34.3279225500423" lon="108.97309832396643">
        <ele>399.134688639082</ele>
        <time>2022-04-30T01:00:28Z</time>
      </trkpt>
      <trkpt lat="34.32793851824243" lon="108.97335174439692">
        <ele>399.2287470642477</ele>
        <time>2022-04-30T01:00:32Z</time>
      </trkpt>
      <trkpt lat="34.32789376030948" lon="108.97355015181888">
        <ele>398.5097953379154</ele>
        <time>2022-04-30T01:00:36Z</time>
      </trkpt>
      <trkpt lat="34.3279423234538" lon="108.97387145163762">
        <ele>397.54594307299703</ele>
        <time>2022-04-30T01:00:40Z</time>
      </trkpt>
      <trkpt lat="34.32803034973635" lon="108.97429536828466">
        <ele>398.3686191858724</ele>
        <time>2022-04-30T01:00:48Z</time>
      </trkpt>
      <trkpt lat="34.32804216692131" lon="108.97464234830085">
        <ele>397.5492426622659</ele>
        <time>2022-04-30T01:00:54Z</time>
      </trkpt>
      <trkpt lat="34.327967283597374" lon="108.9750187260413">
        <ele>397.03496659360826</ele>
        <time>2022-04-30T01:01:00Z</time>
      </trkpt>
      <trkpt lat="34.32791206052303" lon="108.97542247055875">
        <ele>396.90610851626843</ele>
        <time>2022-04-30T01:01:06Z</time>
      </trkpt>
      <trkpt lat="34.327891227728905" lon="108.97567092135057">
        <ele>397.44164967909455</ele>
        <time>2022-04-30T01:01:10Z</time>
      </trkpt>
      <trkpt lat="34.3278798697208" lon="108.97625149971913">
        <ele>396.367580184713</ele>
        <time>2022-04-30T01:01:18Z</time>
      </trkpt>
      <trkpt lat="34.327863421502094" lon="108.97654836587928">
        <ele>396.19965768419206</ele>
        <time>2022-04-30T01:01:22Z</time>
      </trkpt>
      <trkpt lat="34.32791545591025" lon="108.97664843241307">
        <ele>396.4607668360695</ele>
        <time>2022-04-30T01:01:24Z</time>
      </trkpt>
      <trkpt lat="34.327856479111176" lon="108.97676892407021">
        <ele>396.9465987868607</ele>
        <time>2022-04-30T01:01:26Z</time>
      </trkpt>
      <trkpt lat="34.32787367878987" lon="108.97688784596274">
        <ele>396.70722083747387</ele>
        <time>2022-04-30T01:01:28Z</time>
      </trkpt>
      <trkpt lat="34.327883257085645" lon="108.9773015507668">
        <ele>397.4068315522745</ele>
        <time>2022-04-30T01:01:34Z</time>
      </trkpt>
      <trkpt lat="34.32792764458491" lon="108.97781777559032">
        <ele>397.0348591832444</ele>
        <time>2022-04-30T01:01:42Z</time>
      </trkpt>
      <trkpt lat="34.3279256146743" lon="108.97807952499946">
        <ele>396.5469314549118</ele>
        <time>2022-04-30T01:01:46Z</time>
      </trkpt>
      <trkpt lat="34.32789169817806" lon="108.9784072610665">
        <ele>396.6782435812056</ele>
        <time>2022-04-30T01:01:52Z</time>
      </trkpt>
      <trkpt lat="34.327890035888124" lon="108.97858812382522">
        <ele>396.38944700639695</ele>
        <time>2022-04-30T01:01:56Z</time>
      </trkpt>
      <trkpt lat="34.32797888297111" lon="108.97892773632016">
        <ele>396.2389567196369</ele>
        <time>2022-04-30T01:02:04Z</time>
      </trkpt>
      <trkpt lat="34.32795179320415" lon="108.97904075217794">
        <ele>395.8244222840294</ele>
        <time>2022-04-30T01:02:06Z</time>
      </trkpt>
      <trkpt lat="34.32788980832896" lon="108.97912250671665">
        <ele>395.5327969007194</ele>
        <time>2022-04-30T01:02:10Z</time>
      </trkpt>
      <trkpt lat="34.327964685318804" lon="108.97910812486444">
        <ele>396.60371762886643</ele>
        <time>2022-04-30T01:02:18Z</time>
      </trkpt>
      <trkpt lat="34.32803053388327" lon="108.97904457661814">
        <ele>396.73394534830004</ele>
        <time>2022-04-30T01:02:22Z</time>
      </trkpt>
      <trkpt lat="34.328138950410505" lon="108.9790825036833">
        <ele>396.12742073088884</ele>
        <time>2022-04-30T01:02:36Z</time>
      </trkpt>
      <trkpt lat="34.3282672160096" lon="108.9794197928887">
        <ele>397.8877871306613</ele>
        <time>2022-04-30T01:02:59Z</time>
      </trkpt>
      <trkpt lat="34.328315570428146" lon="108.97949004914089">
        <ele>397.4729199912399</ele>
        <time>2022-04-30T01:03:01Z</time>
      </trkpt>
      <trkpt lat="34.32850627317744" lon="108.97946858150493">
        <ele>396.5643175719306</ele>
        <time>2022-04-30T01:03:07Z</time>
      </trkpt>
      <trkpt lat="34.32867385074217" lon="108.97946393085748">
        <ele>396.82284600660205</ele>
        <time>2022-04-30T01:03:11Z</time>
      </trkpt>
      <trkpt lat="34.328751106404646" lon="108.97941775664587">
        <ele>396.4291444737464</ele>
        <time>2022-04-30T01:03:15Z</time>
      </trkpt>
      <trkpt lat="34.32883166288432" lon="108.97940713391412">
        <ele>396.33084805402905</ele>
        <time>2022-04-30T01:03:17Z</time>
      </trkpt>
      <trkpt lat="34.32890638299043" lon="108.97944549811213">
        <ele>396.49644701369107</ele>
        <time>2022-04-30T01:03:19Z</time>
      </trkpt>
      <trkpt lat="34.32895686800373" lon="108.97968974335248">
        <ele>396.341437776573</ele>
        <time>2022-04-30T01:03:23Z</time>
      </trkpt>
      <trkpt lat="34.32900766793791" lon="108.97978941390417">
        <ele>395.05135071557015</ele>
        <time>2022-04-30T01:03:37Z</time>
      </trkpt>
      <trkpt lat="34.329025923197" lon="108.97988652443884">
        <ele>392.9773454107344</ele>
        <time>2022-04-30T01:03:41Z</time>
      </trkpt>
      <trkpt lat="34.32859953950496" lon="108.98009632171163">
        <ele>392.2991943359375</ele>
        <time>2022-04-30T01:04:38Z</time>
      </trkpt>
      <trkpt lat="34.32862426921504" lon="108.9802054803846">
        <ele>392.2950134277344</ele>
        <time>2022-04-30T01:04:56Z</time>
      </trkpt>
      <trkpt lat="34.32866594105988" lon="108.9803038753805">
        <ele>392.2950134277344</ele>
        <time>2022-04-30T01:05:04Z</time>
      </trkpt>
      <trkpt lat="34.32873072414874" lon="108.98054650245798">
        <ele>412.568115234375</ele>
        <time>2022-04-30T01:05:56Z</time>
      </trkpt>
      <trkpt lat="34.328479925503686" lon="108.98063726193755">
        <ele>431.9328308105469</ele>
        <time>2022-04-30T01:06:06Z</time>
      </trkpt>
      <trkpt lat="34.32829991136417" lon="108.98050738316992">
        <ele>456.52728271484375</ele>
        <time>2022-04-30T01:06:20Z</time>
      </trkpt>
      <trkpt lat="34.32845184348047" lon="108.98006282272007">
        <ele>479.6904296875</ele>
        <time>2022-04-30T01:06:32Z</time>
      </trkpt>
      <trkpt lat="34.32834420781444" lon="108.98033761101303">
        <ele>482.17486572265625</ele>
        <time>2022-04-30T01:06:38Z</time>
      </trkpt>
      <trkpt lat="34.32829465896651" lon="108.98025188532728">
        <ele>482.2149658203125</ele>
        <time>2022-04-30T01:06:46Z</time>
      </trkpt>
      <trkpt lat="34.32845184348047" lon="108.98006282272007">
        <ele>484.0849304199219</ele>
        <time>2022-04-30T01:07:12Z</time>
      </trkpt>
      <trkpt lat="34.32820208147354" lon="108.9801865799846">
        <ele>484.0849914550781</ele>
        <time>2022-04-30T01:07:23Z</time>
      </trkpt>
      <trkpt lat="34.328255217018686" lon="108.98021444788489">
        <ele>484.0849914550781</ele>
        <time>2022-04-30T01:07:47Z</time>
      </trkpt>
    </trkseg>
  </trk>
</gpx>