<?xml version="1.0" encoding="UTF-8"?>
<gpx xmlns="http://www.topografix.com/GPX/1/1" xmlns:gpxtpx="http://www.garmin.com/xmlschemas/TrackPointExtension/v1" xmlns:xsi="http://www.w3.org/2001/XMLSchema-instance" xsi:schemaLocation="http://www.topografix.com/GPX/1/1 http://www.topografix.com/GPX/1/1/gpx.xsd" version="1.1" creator="gpx.py -- https://github.com/tkrajina/gpxpy">
  <trk>
    <name>gpx from keep</name>
    <type>Ride</type>
    <trkseg>
      <trkpt lat="34.32829039847187" lon="108.9804653629834">
        <ele>468.0018310546875</ele>
        <time>2022-03-01T23:25:58Z</time>
      </trkpt>
      <trkpt lat="34.32803164516494" lon="108.98065947243535">
        <ele>453.8000183105469</ele>
        <time>2022-03-01T23:26:21Z</time>
      </trkpt>
      <trkpt lat="34.32819802585772" lon="108.980682766238">
        <ele>445.6571960449219</ele>
        <time>2022-03-01T23:26:27Z</time>
      </trkpt>
      <trkpt lat="34.328680731173606" lon="108.98041435812893">
        <ele>419.0367736816406</ele>
        <time>2022-03-01T23:26:56Z</time>
      </trkpt>
      <trkpt lat="34.32874334195523" lon="108.98036499985585">
        <ele>408.87091064453125</ele>
        <time>2022-03-01T23:27:03Z</time>
      </trkpt>
      <trkpt lat="34.32866813754186" lon="108.980457748427">
        <ele>399.7589416503906</ele>
        <time>2022-03-01T23:27:17Z</time>
      </trkpt>
      <trkpt lat="34.32874733763838" lon="108.98055507212051">
        <ele>395.91529301422065</ele>
        <time>2022-03-01T23:27:22Z</time>
      </trkpt>
      <trkpt lat="34.32876583627259" lon="108.98063909853903">
        <ele>395.881164504139</ele>
        <time>2022-03-01T23:27:24Z</time>
      </trkpt>
      <trkpt lat="34.32883899250239" lon="108.98074977497481">
        <ele>395.9255035257471</ele>
        <time>2022-03-01T23:27:28Z</time>
      </trkpt>
      <trkpt lat="34.328814479502164" lon="108.98084906455175">
        <ele>395.91657257452607</ele>
        <time>2022-03-01T23:27:34Z</time>
      </trkpt>
      <trkpt lat="34.32870268374006" lon="108.98085429513684">
        <ele>395.83817450050265</ele>
        <time>2022-03-01T23:27:38Z</time>
      </trkpt>
      <trkpt lat="34.32850650907756" lon="108.98090675423786">
        <ele>395.72970996890217</ele>
        <time>2022-03-01T23:27:50Z</time>
      </trkpt>
      <trkpt lat="34.32842771637834" lon="108.98081853684447">
        <ele>395.0941040413454</ele>
        <time>2022-03-01T23:27:54Z</time>
      </trkpt>
      <trkpt lat="34.32813813938491" lon="108.98083818237652">
        <ele>395.24703278951347</ele>
        <time>2022-03-01T23:28:12Z</time>
      </trkpt>
      <trkpt lat="34.32813062029754" lon="108.98106012617339">
        <ele>394.76248010247946</ele>
        <time>2022-03-01T23:28:26Z</time>
      </trkpt>
      <trkpt lat="34.328195952706146" lon="108.98124603689003">
        <ele>394.9882019245997</ele>
        <time>2022-03-01T23:28:38Z</time>
      </trkpt>
      <trkpt lat="34.32821314135869" lon="108.98134151226363">
        <ele>394.8275715978816</ele>
        <time>2022-03-01T23:28:44Z</time>
      </trkpt>
      <trkpt lat="34.328196900473564" lon="108.98136805140905">
        <ele>394.53212280292064</ele>
        <time>2022-03-01T23:28:56Z</time>
      </trkpt>
      <trkpt lat="34.328208291655045" lon="108.98155724105827">
        <ele>394.4678169135004</ele>
        <time>2022-03-01T23:29:31Z</time>
      </trkpt>
      <trkpt lat="34.3282257865621" lon="108.98165012700522">
        <ele>394.31154139339924</ele>
        <time>2022-03-01T23:29:34Z</time>
      </trkpt>
      <trkpt lat="34.32817524196169" lon="108.98176442678067">
        <ele>395.0255153682083</ele>
        <time>2022-03-01T23:29:37Z</time>
      </trkpt>
      <trkpt lat="34.32816372972174" lon="108.98186674525928">
        <ele>395.3144030775875</ele>
        <time>2022-03-01T23:29:40Z</time>
      </trkpt>
      <trkpt lat="34.328177859942954" lon="108.98195974063371">
        <ele>395.4718880141154</ele>
        <time>2022-03-01T23:29:42Z</time>
      </trkpt>
      <trkpt lat="34.32813433828292" lon="108.98215861795464">
        <ele>394.2990404618904</ele>
        <time>2022-03-01T23:29:46Z</time>
      </trkpt>
      <trkpt lat="34.32814908665685" lon="108.98237816083737">
        <ele>394.2187210349366</ele>
        <time>2022-03-01T23:29:55Z</time>
      </trkpt>
      <trkpt lat="34.32823851522211" lon="108.98261167498534">
        <ele>394.18677505105734</ele>
        <time>2022-03-01T23:30:04Z</time>
      </trkpt>
      <trkpt lat="34.32817387537293" lon="108.98272997669494">
        <ele>393.9836253961548</ele>
        <time>2022-03-01T23:30:08Z</time>
      </trkpt>
      <trkpt lat="34.32810072929339" lon="108.98278928443442">
        <ele>394.05470519606024</ele>
        <time>2022-03-01T23:30:10Z</time>
      </trkpt>
      <trkpt lat="34.32808238543119" lon="108.98292014668239">
        <ele>393.4138407148421</ele>
        <time>2022-03-01T23:30:14Z</time>
      </trkpt>
      <trkpt lat="34.32818918125057" lon="108.98342033928532">
        <ele>392.64132392127067</ele>
        <time>2022-03-01T23:30:22Z</time>
      </trkpt>
      <trkpt lat="34.328127748536424" lon="108.98390056818974">
        <ele>392.9319452261552</ele>
        <time>2022-03-01T23:30:28Z</time>
      </trkpt>
      <trkpt lat="34.328113390063926" lon="108.98409026694014">
        <ele>391.4336835825816</ele>
        <time>2022-03-01T23:30:32Z</time>
      </trkpt>
      <trkpt lat="34.328081261362826" lon="108.9842258736307">
        <ele>391.6733826668933</ele>
        <time>2022-03-01T23:30:36Z</time>
      </trkpt>
      <trkpt lat="34.32816052400365" lon="108.98462238431304">
        <ele>391.75870395079255</ele>
        <time>2022-03-01T23:30:46Z</time>
      </trkpt>
      <trkpt lat="34.328178586412086" lon="108.98478042561322">
        <ele>392.65756414365023</ele>
        <time>2022-03-01T23:30:50Z</time>
      </trkpt>
      <trkpt lat="34.32817240706008" lon="108.98508843000717">
        <ele>392.3544462919235</ele>
        <time>2022-03-01T23:30:58Z</time>
      </trkpt>
      <trkpt lat="34.328209519294795" lon="108.98539596888556">
        <ele>392.1020492175594</ele>
        <time>2022-03-01T23:31:06Z</time>
      </trkpt>
      <trkpt lat="34.32820786759888" lon="108.98564240562322">
        <ele>391.6740249870345</ele>
        <time>2022-03-01T23:31:12Z</time>
      </trkpt>
      <trkpt lat="34.32823949127996" lon="108.98580975351747">
        <ele>390.90971978660673</ele>
        <time>2022-03-01T23:31:16Z</time>
      </trkpt>
      <trkpt lat="34.328245939951" lon="108.98596284565389">
        <ele>391.2773917540908</ele>
        <time>2022-03-01T23:31:20Z</time>
      </trkpt>
      <trkpt lat="34.328193256371804" lon="108.98610664147026">
        <ele>392.0364239830524</ele>
        <time>2022-03-01T23:31:24Z</time>
      </trkpt>
      <trkpt lat="34.328219309574656" lon="108.98639773523284">
        <ele>393.02614908944815</ele>
        <time>2022-03-01T23:31:32Z</time>
      </trkpt>
      <trkpt lat="34.32820645192395" lon="108.98653054731548">
        <ele>393.02878177631646</ele>
        <time>2022-03-01T23:31:36Z</time>
      </trkpt>
      <trkpt lat="34.32800675262054" lon="108.98749964152111">
        <ele>396.8186890576035</ele>
        <time>2022-03-01T23:31:38Z</time>
      </trkpt>
      <trkpt lat="34.32796880704325" lon="108.98809533115174">
        <ele>394.4393304530531</ele>
        <time>2022-03-01T23:31:47Z</time>
      </trkpt>
      <trkpt lat="34.327953046726115" lon="108.98851795065316">
        <ele>393.0665602320805</ele>
        <time>2022-03-01T23:31:53Z</time>
      </trkpt>
      <trkpt lat="34.327949095200935" lon="108.98877266329808">
        <ele>392.86018189787865</ele>
        <time>2022-03-01T23:31:57Z</time>
      </trkpt>
      <trkpt lat="34.328199750273974" lon="108.98825235209488">
        <ele>393.37399408686906</ele>
        <time>2022-03-01T23:32:03Z</time>
      </trkpt>
      <trkpt lat="34.32814849618116" lon="108.9883936388097">
        <ele>392.430281474255</ele>
        <time>2022-03-01T23:32:05Z</time>
      </trkpt>
      <trkpt lat="34.32813432902902" lon="108.98855290029022">
        <ele>392.74472496751696</ele>
        <time>2022-03-01T23:32:07Z</time>
      </trkpt>
      <trkpt lat="34.328089547022486" lon="108.98871181488225">
        <ele>393.31451896205544</ele>
        <time>2022-03-01T23:32:09Z</time>
      </trkpt>
      <trkpt lat="34.327992824260214" lon="108.98934730417298">
        <ele>392.42929828725755</ele>
        <time>2022-03-01T23:32:15Z</time>
      </trkpt>
      <trkpt lat="34.327975710911545" lon="108.98957941805747">
        <ele>392.63048016745597</ele>
        <time>2022-03-01T23:32:17Z</time>
      </trkpt>
      <trkpt lat="34.32794315653505" lon="108.98973996912245">
        <ele>392.62661133427173</ele>
        <time>2022-03-01T23:32:19Z</time>
      </trkpt>
      <trkpt lat="34.32793981612086" lon="108.9902068187563">
        <ele>392.7122909668833</ele>
        <time>2022-03-01T23:32:25Z</time>
      </trkpt>
      <trkpt lat="34.32789239702332" lon="108.99041651584653">
        <ele>393.0766514753923</ele>
        <time>2022-03-01T23:32:29Z</time>
      </trkpt>
      <trkpt lat="34.32788392906077" lon="108.9905223408562">
        <ele>392.6776933260262</ele>
        <time>2022-03-01T23:32:31Z</time>
      </trkpt>
      <trkpt lat="34.32803680055054" lon="108.99081908088162">
        <ele>392.87711282260716</ele>
        <time>2022-03-01T23:32:39Z</time>
      </trkpt>
      <trkpt lat="34.328054158552106" lon="108.99096051871017">
        <ele>391.73151354584843</ele>
        <time>2022-03-01T23:32:41Z</time>
      </trkpt>
      <trkpt lat="34.32808696802862" lon="108.9910442323432">
        <ele>392.065130318515</ele>
        <time>2022-03-01T23:32:43Z</time>
      </trkpt>
      <trkpt lat="34.328039028085534" lon="108.99115717585362">
        <ele>392.41303765773773</ele>
        <time>2022-03-01T23:32:47Z</time>
      </trkpt>
      <trkpt lat="34.328033496973895" lon="108.99134484411424">
        <ele>392.45663029514253</ele>
        <time>2022-03-01T23:32:51Z</time>
      </trkpt>
      <trkpt lat="34.32796680026685" lon="108.99162755625777">
        <ele>392.4863545028493</ele>
        <time>2022-03-01T23:32:59Z</time>
      </trkpt>
      <trkpt lat="34.32795757014794" lon="108.99188131971849">
        <ele>391.60099504143</ele>
        <time>2022-03-01T23:33:07Z</time>
      </trkpt>
      <trkpt lat="34.32803095334297" lon="108.99224743084238">
        <ele>391.9863639185205</ele>
        <time>2022-03-01T23:33:19Z</time>
      </trkpt>
      <trkpt lat="34.327968641474264" lon="108.99280368052615">
        <ele>394.0775990393013</ele>
        <time>2022-03-01T23:33:35Z</time>
      </trkpt>
      <trkpt lat="34.327995201448154" lon="108.99297928774367">
        <ele>394.0779349002987</ele>
        <time>2022-03-01T23:33:39Z</time>
      </trkpt>
      <trkpt lat="34.328023305147205" lon="108.99306868064897">
        <ele>394.06698063388467</ele>
        <time>2022-03-01T23:33:41Z</time>
      </trkpt>
      <trkpt lat="34.32804419152366" lon="108.99336309618441">
        <ele>393.82577930763364</ele>
        <time>2022-03-01T23:33:49Z</time>
      </trkpt>
      <trkpt lat="34.32801071187862" lon="108.99363640935877">
        <ele>393.96655302867293</ele>
        <time>2022-03-01T23:33:57Z</time>
      </trkpt>
      <trkpt lat="34.32806053608031" lon="108.99397212840205">
        <ele>394.4922036649659</ele>
        <time>2022-03-01T23:34:05Z</time>
      </trkpt>
      <trkpt lat="34.328062793346156" lon="108.99415892975836">
        <ele>394.85971832461655</ele>
        <time>2022-03-01T23:34:09Z</time>
      </trkpt>
      <trkpt lat="34.32804990777894" lon="108.99442524799775">
        <ele>395.01647488679737</ele>
        <time>2022-03-01T23:34:15Z</time>
      </trkpt>
      <trkpt lat="34.3280980946619" lon="108.99462557414729">
        <ele>393.7280088113621</ele>
        <time>2022-03-01T23:34:19Z</time>
      </trkpt>
      <trkpt lat="34.32814143341228" lon="108.99469781953394">
        <ele>393.9149805819616</ele>
        <time>2022-03-01T23:34:21Z</time>
      </trkpt>
      <trkpt lat="34.32823689460453" lon="108.99503307142223">
        <ele>393.42818057816476</ele>
        <time>2022-03-01T23:34:31Z</time>
      </trkpt>
      <trkpt lat="34.32828501609767" lon="108.99510831305814">
        <ele>393.10531428828835</ele>
        <time>2022-03-01T23:34:35Z</time>
      </trkpt>
      <trkpt lat="34.32827225993303" lon="108.99526377707701">
        <ele>393.5417530089617</ele>
        <time>2022-03-01T23:34:39Z</time>
      </trkpt>
      <trkpt lat="34.32829818259429" lon="108.99538998925163">
        <ele>393.6567883901298</ele>
        <time>2022-03-01T23:34:43Z</time>
      </trkpt>
      <trkpt lat="34.328364664140935" lon="108.9956025716235">
        <ele>394.13834912795573</ele>
        <time>2022-03-01T23:34:51Z</time>
      </trkpt>
      <trkpt lat="34.32837421769167" lon="108.99571563551807">
        <ele>393.83493609912694</ele>
        <time>2022-03-01T23:34:55Z</time>
      </trkpt>
      <trkpt lat="34.328448694617855" lon="108.99583775354218">
        <ele>393.50368611048907</ele>
        <time>2022-03-01T23:35:01Z</time>
      </trkpt>
      <trkpt lat="34.32851452227653" lon="108.9958878162125">
        <ele>393.45676551386714</ele>
        <time>2022-03-01T23:35:05Z</time>
      </trkpt>
      <trkpt lat="34.328454929069444" lon="108.99596761081781">
        <ele>393.35087800771</ele>
        <time>2022-03-01T23:35:07Z</time>
      </trkpt>
      <trkpt lat="34.32841435941746" lon="108.99612199738179">
        <ele>393.4876397587359</ele>
        <time>2022-03-01T23:35:13Z</time>
      </trkpt>
      <trkpt lat="34.327839601464866" lon="108.99828186119552">
        <ele>395.1784526053816</ele>
        <time>2022-03-01T23:35:38Z</time>
      </trkpt>
      <trkpt lat="34.327858162214056" lon="108.99868611778608">
        <ele>394.3442841656506</ele>
        <time>2022-03-01T23:35:46Z</time>
      </trkpt>
      <trkpt lat="34.32789380123515" lon="108.99899255284645">
        <ele>393.741547643207</ele>
        <time>2022-03-01T23:35:53Z</time>
      </trkpt>
      <trkpt lat="34.327949752333296" lon="108.99927260234591">
        <ele>393.74413841217756</ele>
        <time>2022-03-01T23:36:01Z</time>
      </trkpt>
      <trkpt lat="34.327963458905" lon="108.9994162092016">
        <ele>394.2475996678695</ele>
        <time>2022-03-01T23:36:05Z</time>
      </trkpt>
      <trkpt lat="34.327948641503426" lon="108.99951567593031">
        <ele>393.6313186790794</ele>
        <time>2022-03-01T23:36:11Z</time>
      </trkpt>
      <trkpt lat="34.32797097765527" lon="108.99965773607346">
        <ele>393.45265958085656</ele>
        <time>2022-03-01T23:36:17Z</time>
      </trkpt>
      <trkpt lat="34.327961034895424" lon="108.9999115650312">
        <ele>393.349263750948</ele>
        <time>2022-03-01T23:36:23Z</time>
      </trkpt>
      <trkpt lat="34.3279706971025" lon="109.0001876751035">
        <ele>393.46516879461706</ele>
        <time>2022-03-01T23:36:29Z</time>
      </trkpt>
      <trkpt lat="34.327951461712225" lon="109.00039281026548">
        <ele>393.7636101692915</ele>
        <time>2022-03-01T23:36:33Z</time>
      </trkpt>
      <trkpt lat="34.327963458622904" lon="109.00094163257506">
        <ele>394.7409150386229</ele>
        <time>2022-03-01T23:36:43Z</time>
      </trkpt>
      <trkpt lat="34.327948500692" lon="109.00117303174554">
        <ele>395.18074581213295</ele>
        <time>2022-03-01T23:36:47Z</time>
      </trkpt>
      <trkpt lat="34.3279246489805" lon="109.00127770614323">
        <ele>395.58130684681237</ele>
        <time>2022-03-01T23:36:49Z</time>
      </trkpt>
      <trkpt lat="34.32793373866284" lon="109.00138953240237">
        <ele>394.9865676360205</ele>
        <time>2022-03-01T23:36:51Z</time>
      </trkpt>
      <trkpt lat="34.327910100137096" lon="109.00149835793565">
        <ele>394.46423970442265</ele>
        <time>2022-03-01T23:36:53Z</time>
      </trkpt>
      <trkpt lat="34.32789865588328" lon="109.00165880728062">
        <ele>393.98120441660285</ele>
        <time>2022-03-01T23:36:56Z</time>
      </trkpt>
      <trkpt lat="34.32791666391308" lon="109.00196171521343">
        <ele>395.14573711529374</ele>
        <time>2022-03-01T23:37:02Z</time>
      </trkpt>
      <trkpt lat="34.32790957226527" lon="109.00206435330702">
        <ele>394.54217978939414</ele>
        <time>2022-03-01T23:37:04Z</time>
      </trkpt>
      <trkpt lat="34.327952712394215" lon="109.00226002392496">
        <ele>395.1979040140286</ele>
        <time>2022-03-01T23:37:08Z</time>
      </trkpt>
      <trkpt lat="34.32793423862458" lon="109.00237035072018">
        <ele>395.64810736849904</ele>
        <time>2022-03-01T23:37:10Z</time>
      </trkpt>
      <trkpt lat="34.32794541168905" lon="109.00266296665416">
        <ele>396.12290758267045</ele>
        <time>2022-03-01T23:37:16Z</time>
      </trkpt>
      <trkpt lat="34.32797200708258" lon="109.00274692706668">
        <ele>396.5125197544694</ele>
        <time>2022-03-01T23:37:18Z</time>
      </trkpt>
      <trkpt lat="34.327942835651214" lon="109.00297112604845">
        <ele>395.91938380803913</ele>
        <time>2022-03-01T23:37:22Z</time>
      </trkpt>
      <trkpt lat="34.327967113731034" lon="109.00317084328493">
        <ele>395.9296161206439</ele>
        <time>2022-03-01T23:37:26Z</time>
      </trkpt>
      <trkpt lat="34.32793015462693" lon="109.00355358554386">
        <ele>395.5019161486998</ele>
        <time>2022-03-01T23:37:34Z</time>
      </trkpt>
      <trkpt lat="34.32794190581524" lon="109.00364824764289">
        <ele>395.45394106861204</ele>
        <time>2022-03-01T23:37:36Z</time>
      </trkpt>
      <trkpt lat="34.32793374651923" lon="109.00395090588152">
        <ele>395.3748419266194</ele>
        <time>2022-03-01T23:37:42Z</time>
      </trkpt>
      <trkpt lat="34.327948642679225" lon="109.004061294131">
        <ele>395.16501979064196</ele>
        <time>2022-03-01T23:37:44Z</time>
      </trkpt>
      <trkpt lat="34.32788266259299" lon="109.0043696290568">
        <ele>394.45323917549103</ele>
        <time>2022-03-01T23:37:50Z</time>
      </trkpt>
      <trkpt lat="34.327918610624366" lon="109.00445389976798">
        <ele>394.7496610097587</ele>
        <time>2022-03-01T23:37:52Z</time>
      </trkpt>
      <trkpt lat="34.32788312632557" lon="109.00478032552456">
        <ele>394.9535425072536</ele>
        <time>2022-03-01T23:37:59Z</time>
      </trkpt>
      <trkpt lat="34.327911285302704" lon="109.00496414047915">
        <ele>394.83424255251884</ele>
        <time>2022-03-01T23:38:03Z</time>
      </trkpt>
      <trkpt lat="34.32789024619736" lon="109.00506903538108">
        <ele>395.266356555745</ele>
        <time>2022-03-01T23:38:05Z</time>
      </trkpt>
      <trkpt lat="34.32789321162279" lon="109.00525285255662">
        <ele>395.24827921949327</ele>
        <time>2022-03-01T23:38:09Z</time>
      </trkpt>
      <trkpt lat="34.32787302171524" lon="109.00534683617846">
        <ele>394.4037961354479</ele>
        <time>2022-03-01T23:38:11Z</time>
      </trkpt>
      <trkpt lat="34.32790641326165" lon="109.00562489063819">
        <ele>394.3494071206078</ele>
        <time>2022-03-01T23:38:17Z</time>
      </trkpt>
      <trkpt lat="34.32789923976634" lon="109.0057310154354">
        <ele>393.8523310236633</ele>
        <time>2022-03-01T23:38:19Z</time>
      </trkpt>
      <trkpt lat="34.32798465021029" lon="109.00624061472655">
        <ele>395.26672390662134</ele>
        <time>2022-03-01T23:38:31Z</time>
      </trkpt>
      <trkpt lat="34.32800833290259" lon="109.00676265829605">
        <ele>395.1623859340325</ele>
        <time>2022-03-01T23:38:41Z</time>
      </trkpt>
      <trkpt lat="34.327981470266046" lon="109.00709037405765">
        <ele>394.52825252059847</ele>
        <time>2022-03-01T23:38:47Z</time>
      </trkpt>
      <trkpt lat="34.32793448056753" lon="109.00731686293089">
        <ele>394.161203995347</ele>
        <time>2022-03-01T23:38:51Z</time>
      </trkpt>
      <trkpt lat="34.327937533949495" lon="109.00741961127886">
        <ele>394.03216225933284</ele>
        <time>2022-03-01T23:38:53Z</time>
      </trkpt>
      <trkpt lat="34.32789630122646" lon="109.00766006736623">
        <ele>393.0008311755955</ele>
        <time>2022-03-01T23:38:57Z</time>
      </trkpt>
      <trkpt lat="34.327874805409785" lon="109.00826583362397">
        <ele>392.49188427906483</ele>
        <time>2022-03-01T23:39:07Z</time>
      </trkpt>
      <trkpt lat="34.32788228690517" lon="109.00849666144885">
        <ele>392.5945089245215</ele>
        <time>2022-03-01T23:39:11Z</time>
      </trkpt>
      <trkpt lat="34.32790455207159" lon="109.00860083991923">
        <ele>392.59375487361103</ele>
        <time>2022-03-01T23:39:13Z</time>
      </trkpt>
      <trkpt lat="34.327905576979234" lon="109.00921818948467">
        <ele>391.9549710052088</ele>
        <time>2022-03-01T23:39:23Z</time>
      </trkpt>
      <trkpt lat="34.32791000669663" lon="109.00984830699852">
        <ele>387.2618699427694</ele>
        <time>2022-03-01T23:39:33Z</time>
      </trkpt>
      <trkpt lat="34.32791056675187" lon="109.01045901629038">
        <ele>386.1018480854109</ele>
        <time>2022-03-01T23:39:43Z</time>
      </trkpt>
      <trkpt lat="34.3278618099202" lon="109.01086273512178">
        <ele>385.78297609556466</ele>
        <time>2022-03-01T23:39:51Z</time>
      </trkpt>
      <trkpt lat="34.3278535403113" lon="109.01142587165216">
        <ele>387.2095503527671</ele>
        <time>2022-03-01T23:40:03Z</time>
      </trkpt>
      <trkpt lat="34.32785826874103" lon="109.01172646803644">
        <ele>387.3652277858928</ele>
        <time>2022-03-01T23:40:09Z</time>
      </trkpt>
      <trkpt lat="34.32781078957484" lon="109.01215848002495">
        <ele>387.1352894390002</ele>
        <time>2022-03-01T23:40:17Z</time>
      </trkpt>
      <trkpt lat="34.32780786649013" lon="109.01268490705482">
        <ele>389.00820091273636</ele>
        <time>2022-03-01T23:40:27Z</time>
      </trkpt>
      <trkpt lat="34.32784900501903" lon="109.01319458193102">
        <ele>390.44867676962167</ele>
        <time>2022-03-01T23:40:37Z</time>
      </trkpt>
      <trkpt lat="34.327856776288485" lon="109.01350004601443">
        <ele>389.58574467804283</ele>
        <time>2022-03-01T23:40:43Z</time>
      </trkpt>
      <trkpt lat="34.32788017013605" lon="109.01359116246253">
        <ele>389.92879941593856</ele>
        <time>2022-03-01T23:40:45Z</time>
      </trkpt>
      <trkpt lat="34.32789423780003" lon="109.01388943734895">
        <ele>389.0935930944979</ele>
        <time>2022-03-01T23:40:51Z</time>
      </trkpt>
      <trkpt lat="34.3279123159337" lon="109.01398876737149">
        <ele>389.33356353547424</ele>
        <time>2022-03-01T23:40:53Z</time>
      </trkpt>
      <trkpt lat="34.327929260455896" lon="109.0142864385665">
        <ele>388.1763357007876</ele>
        <time>2022-03-01T23:40:59Z</time>
      </trkpt>
      <trkpt lat="34.327953160509345" lon="109.01436953892357">
        <ele>388.13908010721207</ele>
        <time>2022-03-01T23:41:01Z</time>
      </trkpt>
      <trkpt lat="34.32793679987556" lon="109.01447122573083">
        <ele>388.85009968373924</ele>
        <time>2022-03-01T23:41:03Z</time>
      </trkpt>
      <trkpt lat="34.327987047021615" lon="109.01489080470733">
        <ele>388.2910157619044</ele>
        <time>2022-03-01T23:41:11Z</time>
      </trkpt>
      <trkpt lat="34.32800399604686" lon="109.01512559758557">
        <ele>387.3094437820837</ele>
        <time>2022-03-01T23:41:15Z</time>
      </trkpt>
      <trkpt lat="34.32802613812838" lon="109.01522599209649">
        <ele>387.4061857108027</ele>
        <time>2022-03-01T23:41:17Z</time>
      </trkpt>
      <trkpt lat="34.328021237893715" lon="109.0154535311211">
        <ele>388.00198883842677</ele>
        <time>2022-03-01T23:41:21Z</time>
      </trkpt>
      <trkpt lat="34.32800023229781" lon="109.01564981969204">
        <ele>387.88577526807785</ele>
        <time>2022-03-01T23:41:25Z</time>
      </trkpt>
      <trkpt lat="34.32801268834737" lon="109.01574095791966">
        <ele>388.86245194543153</ele>
        <time>2022-03-01T23:41:27Z</time>
      </trkpt>
      <trkpt lat="34.3279320291982" lon="109.01593601642074">
        <ele>388.64770105388016</ele>
        <time>2022-03-01T23:41:31Z</time>
      </trkpt>
      <trkpt lat="34.32787390870358" lon="109.01654848392711">
        <ele>388.5244045704603</ele>
        <time>2022-03-01T23:41:43Z</time>
      </trkpt>
      <trkpt lat="34.32783121556493" lon="109.01667315913716">
        <ele>387.68130288273096</ele>
        <time>2022-03-01T23:41:45Z</time>
      </trkpt>
      <trkpt lat="34.327760526550975" lon="109.01706558373488">
        <ele>388.17678682040423</ele>
        <time>2022-03-01T23:41:53Z</time>
      </trkpt>
      <trkpt lat="34.32767448223122" lon="109.0172661358056">
        <ele>388.64544283133</ele>
        <time>2022-03-01T23:41:57Z</time>
      </trkpt>
      <trkpt lat="34.327624497675245" lon="109.01783761901082">
        <ele>388.6924879839644</ele>
        <time>2022-03-01T23:42:09Z</time>
      </trkpt>
      <trkpt lat="34.32760976558961" lon="109.01803981366925">
        <ele>389.2553203701973</ele>
        <time>2022-03-01T23:42:13Z</time>
      </trkpt>
      <trkpt lat="34.32760834350592" lon="109.01832744512586">
        <ele>389.2922945385799</ele>
        <time>2022-03-01T23:42:19Z</time>
      </trkpt>
      <trkpt lat="34.32751401164814" lon="109.01861142642699">
        <ele>388.9857148034498</ele>
        <time>2022-03-01T23:42:25Z</time>
      </trkpt>
      <trkpt lat="34.32722647550077" lon="109.01910717039891">
        <ele>389.57826972194016</ele>
        <time>2022-03-01T23:42:37Z</time>
      </trkpt>
      <trkpt lat="34.32708579598464" lon="109.01936743005908">
        <ele>389.19346358813345</ele>
        <time>2022-03-01T23:42:43Z</time>
      </trkpt>
      <trkpt lat="34.32678765127135" lon="109.01980741038348">
        <ele>389.0532194599509</ele>
        <time>2022-03-01T23:42:53Z</time>
      </trkpt>
      <trkpt lat="34.32655580723296" lon="109.02014023009126">
        <ele>389.0404106006026</ele>
        <time>2022-03-01T23:43:01Z</time>
      </trkpt>
      <trkpt lat="34.326288618902836" lon="109.0204472795696">
        <ele>388.2976945368573</ele>
        <time>2022-03-01T23:43:09Z</time>
      </trkpt>
      <trkpt lat="34.3259034851294" lon="109.02077510638739">
        <ele>388.3030554968864</ele>
        <time>2022-03-01T23:43:19Z</time>
      </trkpt>
      <trkpt lat="34.32575855571386" lon="109.02090763630487">
        <ele>388.78975222818553</ele>
        <time>2022-03-01T23:43:23Z</time>
      </trkpt>
      <trkpt lat="34.32535367535812" lon="109.02117628630302">
        <ele>387.8976031690836</ele>
        <time>2022-03-01T23:43:33Z</time>
      </trkpt>
      <trkpt lat="34.324952260988994" lon="109.02138020177064">
        <ele>388.23654906637967</ele>
        <time>2022-03-01T23:43:43Z</time>
      </trkpt>
      <trkpt lat="34.324715130136546" lon="109.0214964817657">
        <ele>388.4252868415788</ele>
        <time>2022-03-01T23:43:49Z</time>
      </trkpt>
      <trkpt lat="34.32428361826762" lon="109.02163394056184">
        <ele>388.5536131830886</ele>
        <time>2022-03-01T23:43:59Z</time>
      </trkpt>
      <trkpt lat="34.32383424833231" lon="109.02173247677852">
        <ele>388.62116454541683</ele>
        <time>2022-03-01T23:44:09Z</time>
      </trkpt>
      <trkpt lat="34.32332924033623" lon="109.02178453667499">
        <ele>390.6810567965731</ele>
        <time>2022-03-01T23:44:21Z</time>
      </trkpt>
      <trkpt lat="34.32314950414061" lon="109.02180489953304">
        <ele>390.09803100209683</ele>
        <time>2022-03-01T23:44:25Z</time>
      </trkpt>
      <trkpt lat="34.32263327611507" lon="109.02180756645411">
        <ele>390.2068081954494</ele>
        <time>2022-03-01T23:44:37Z</time>
      </trkpt>
      <trkpt lat="34.322272113951435" lon="109.0217737423693">
        <ele>389.62543584313244</ele>
        <time>2022-03-01T23:44:45Z</time>
      </trkpt>
      <trkpt lat="34.32192310546552" lon="109.02171283715745">
        <ele>389.6060122586787</ele>
        <time>2022-03-01T23:44:53Z</time>
      </trkpt>
      <trkpt lat="34.321847094958336" lon="109.02172544852556">
        <ele>390.17562963068485</ele>
        <time>2022-03-01T23:44:55Z</time>
      </trkpt>
      <trkpt lat="34.321404388455804" lon="109.02163785410166">
        <ele>390.40463111549616</ele>
        <time>2022-03-01T23:45:05Z</time>
      </trkpt>
      <trkpt lat="34.32095225789887" lon="109.02158413238216">
        <ele>390.6531975325197</ele>
        <time>2022-03-01T23:45:15Z</time>
      </trkpt>
      <trkpt lat="34.320863127597036" lon="109.02156092298476">
        <ele>390.7728863656521</ele>
        <time>2022-03-01T23:45:17Z</time>
      </trkpt>
      <trkpt lat="34.32077756557925" lon="109.0215614575858">
        <ele>391.15881756320596</ele>
        <time>2022-03-01T23:45:19Z</time>
      </trkpt>
      <trkpt lat="34.32068368187217" lon="109.02153023682979">
        <ele>390.94975618924946</ele>
        <time>2022-03-01T23:45:21Z</time>
      </trkpt>
      <trkpt lat="34.320253056593856" lon="109.02147170839706">
        <ele>390.0098494030535</ele>
        <time>2022-03-01T23:45:31Z</time>
      </trkpt>
      <trkpt lat="34.319821621592176" lon="109.02142789598999">
        <ele>390.0012261616066</ele>
        <time>2022-03-01T23:45:41Z</time>
      </trkpt>
      <trkpt lat="34.319314802358214" lon="109.02142084901057">
        <ele>390.6282178265974</ele>
        <time>2022-03-01T23:45:53Z</time>
      </trkpt>
      <trkpt lat="34.31905172902171" lon="109.02141159532208">
        <ele>390.46716511435807</ele>
        <time>2022-03-01T23:45:59Z</time>
      </trkpt>
      <trkpt lat="34.31880500491337" lon="109.0214600103163">
        <ele>390.84114064183086</ele>
        <time>2022-03-01T23:46:05Z</time>
      </trkpt>
      <trkpt lat="34.31863118649219" lon="109.02143965686825">
        <ele>390.25531980395317</ele>
        <time>2022-03-01T23:46:09Z</time>
      </trkpt>
      <trkpt lat="34.31855211312991" lon="109.02146731727746">
        <ele>391.26520782895386</ele>
        <time>2022-03-01T23:46:11Z</time>
      </trkpt>
      <trkpt lat="34.31812831730855" lon="109.02150403983768">
        <ele>390.35470330901444</ele>
        <time>2022-03-01T23:46:21Z</time>
      </trkpt>
      <trkpt lat="34.318052506469144" lon="109.0215307552636">
        <ele>391.3768514562398</ele>
        <time>2022-03-01T23:46:23Z</time>
      </trkpt>
      <trkpt lat="34.317616051753824" lon="109.02156206607755">
        <ele>391.2950532902032</ele>
        <time>2022-03-01T23:46:33Z</time>
      </trkpt>
      <trkpt lat="34.317445191489405" lon="109.02156410724811">
        <ele>391.3498328430578</ele>
        <time>2022-03-01T23:46:37Z</time>
      </trkpt>
      <trkpt lat="34.316855437168186" lon="109.02165617025325">
        <ele>391.3518840270117</ele>
        <time>2022-03-01T23:46:51Z</time>
      </trkpt>
      <trkpt lat="34.31642339294147" lon="109.02173061847391">
        <ele>391.279745076783</ele>
        <time>2022-03-01T23:47:01Z</time>
      </trkpt>
      <trkpt lat="34.31627684649622" lon="109.02180179314479">
        <ele>391.69717583525926</ele>
        <time>2022-03-01T23:47:05Z</time>
      </trkpt>
      <trkpt lat="34.31616235731924" lon="109.02190228411449">
        <ele>391.7172105256468</ele>
        <time>2022-03-01T23:47:09Z</time>
      </trkpt>
      <trkpt lat="34.31615144413517" lon="109.02204086367277">
        <ele>391.68488415982574</ele>
        <time>2022-03-01T23:47:13Z</time>
      </trkpt>
      <trkpt lat="34.31605827623466" lon="109.02214009783341">
        <ele>391.3380962749943</ele>
        <time>2022-03-01T23:47:17Z</time>
      </trkpt>
      <trkpt lat="34.315877108240265" lon="109.02225553994123">
        <ele>390.5190626522526</ele>
        <time>2022-03-01T23:47:33Z</time>
      </trkpt>
      <trkpt lat="34.31585056570418" lon="109.0223490411256">
        <ele>392.00175598915666</ele>
        <time>2022-03-01T23:48:20Z</time>
      </trkpt>
      <trkpt lat="34.315824106959944" lon="109.02244489335047">
        <ele>392.14855759963393</ele>
        <time>2022-03-01T23:48:24Z</time>
      </trkpt>
      <trkpt lat="34.315841111032015" lon="109.02257119940722">
        <ele>391.8028879193589</ele>
        <time>2022-03-01T23:48:27Z</time>
      </trkpt>
      <trkpt lat="34.31601873282465" lon="109.02311879053539">
        <ele>388.0839084032923</ele>
        <time>2022-03-01T23:48:39Z</time>
      </trkpt>
      <trkpt lat="34.316087617301356" lon="109.02343815661065">
        <ele>387.9270052276552</ele>
        <time>2022-03-01T23:48:45Z</time>
      </trkpt>
      <trkpt lat="34.316171183763146" lon="109.02359750554994">
        <ele>388.2309196284041</ele>
        <time>2022-03-01T23:48:49Z</time>
      </trkpt>
      <trkpt lat="34.316146943177564" lon="109.02373297719342">
        <ele>389.7106022974476</ele>
        <time>2022-03-01T23:48:53Z</time>
      </trkpt>
      <trkpt lat="34.316081081442384" lon="109.02382816415916">
        <ele>389.5488769505173</ele>
        <time>2022-03-01T23:48:57Z</time>
      </trkpt>
      <trkpt lat="34.31591738639748" lon="109.0239290614277">
        <ele>389.4869377380237</ele>
        <time>2022-03-01T23:49:01Z</time>
      </trkpt>
      <trkpt lat="34.31577391626184" lon="109.0239865108779">
        <ele>390.82971853856</ele>
        <time>2022-03-01T23:49:05Z</time>
      </trkpt>
      <trkpt lat="34.315368587369754" lon="109.02423423241137">
        <ele>391.4498012838885</ele>
        <time>2022-03-01T23:49:17Z</time>
      </trkpt>
      <trkpt lat="34.31504024371039" lon="109.02448259874723">
        <ele>391.39289250504225</ele>
        <time>2022-03-01T23:49:27Z</time>
      </trkpt>
      <trkpt lat="34.31465788096179" lon="109.0247359041959">
        <ele>391.86304238811135</ele>
        <time>2022-03-01T23:49:39Z</time>
      </trkpt>
      <trkpt lat="34.31455630662372" lon="109.02478564318231">
        <ele>390.99029864836484</ele>
        <time>2022-03-01T23:49:41Z</time>
      </trkpt>
      <trkpt lat="34.31429156250088" lon="109.02500436086048">
        <ele>390.7593399202451</ele>
        <time>2022-03-01T23:49:49Z</time>
      </trkpt>
      <trkpt lat="34.31384262254374" lon="109.02522275064163">
        <ele>390.6886197337881</ele>
        <time>2022-03-01T23:49:59Z</time>
      </trkpt>
      <trkpt lat="34.31365810335712" lon="109.02533055434289">
        <ele>391.2159049632028</ele>
        <time>2022-03-01T23:50:03Z</time>
      </trkpt>
      <trkpt lat="34.313378764195484" lon="109.02545860353476">
        <ele>390.74573006946594</ele>
        <time>2022-03-01T23:50:09Z</time>
      </trkpt>
      <trkpt lat="34.31313731144759" lon="109.0255982919192">
        <ele>390.98140851967037</ele>
        <time>2022-03-01T23:50:15Z</time>
      </trkpt>
      <trkpt lat="34.31286380588792" lon="109.02580734863243">
        <ele>392.38371395599097</ele>
        <time>2022-03-01T23:50:23Z</time>
      </trkpt>
      <trkpt lat="34.312773943418485" lon="109.02585449757967">
        <ele>392.85086649190634</ele>
        <time>2022-03-01T23:50:25Z</time>
      </trkpt>
      <trkpt lat="34.31267414213355" lon="109.02593607080236">
        <ele>392.1758335614577</ele>
        <time>2022-03-01T23:50:29Z</time>
      </trkpt>
      <trkpt lat="34.312673967013694" lon="109.02604785749487">
        <ele>392.55224554240704</ele>
        <time>2022-03-01T23:50:35Z</time>
      </trkpt>
      <trkpt lat="34.312615489372696" lon="109.02618398157074">
        <ele>393.2142642624676</ele>
        <time>2022-03-01T23:50:39Z</time>
      </trkpt>
      <trkpt lat="34.312352316919416" lon="109.0262419755126">
        <ele>392.52823424804956</ele>
        <time>2022-03-01T23:50:45Z</time>
      </trkpt>
      <trkpt lat="34.31203637608713" lon="109.02643445281">
        <ele>393.0633065626025</ele>
        <time>2022-03-01T23:50:51Z</time>
      </trkpt>
      <trkpt lat="34.31184990635226" lon="109.0267574079794">
        <ele>392.4209572710097</ele>
        <time>2022-03-01T23:50:59Z</time>
      </trkpt>
      <trkpt lat="34.3116842863505" lon="109.02697331759734">
        <ele>391.7975250147283</ele>
        <time>2022-03-01T23:51:07Z</time>
      </trkpt>
      <trkpt lat="34.311638744537625" lon="109.02708449760996">
        <ele>391.61836827918887</ele>
        <time>2022-03-01T23:51:11Z</time>
      </trkpt>
      <trkpt lat="34.31160909919364" lon="109.0273487500617">
        <ele>392.3064263286069</ele>
        <time>2022-03-01T23:51:19Z</time>
      </trkpt>
      <trkpt lat="34.31153001508102" lon="109.02762773478152">
        <ele>393.89348240569234</ele>
        <time>2022-03-01T23:51:27Z</time>
      </trkpt>
      <trkpt lat="34.31146173196848" lon="109.02776771542092">
        <ele>393.60597107186913</ele>
        <time>2022-03-01T23:51:31Z</time>
      </trkpt>
      <trkpt lat="34.31143677534936" lon="109.02791169113114">
        <ele>393.604938775301</ele>
        <time>2022-03-01T23:51:35Z</time>
      </trkpt>
      <trkpt lat="34.3115265389479" lon="109.02816787936813">
        <ele>392.45128234196454</ele>
        <time>2022-03-01T23:51:41Z</time>
      </trkpt>
      <trkpt lat="34.31168983629048" lon="109.02851547939328">
        <ele>393.0011285459623</ele>
        <time>2022-03-01T23:51:49Z</time>
      </trkpt>
      <trkpt lat="34.311674711268665" lon="109.02866262111748">
        <ele>392.3836068827659</ele>
        <time>2022-03-01T23:51:53Z</time>
      </trkpt>
      <trkpt lat="34.3117145160752" lon="109.02878437979042">
        <ele>393.36684920825064</ele>
        <time>2022-03-01T23:51:57Z</time>
      </trkpt>
      <trkpt lat="34.311623403967886" lon="109.02886479779539">
        <ele>393.27335943002254</ele>
        <time>2022-03-01T23:52:01Z</time>
      </trkpt>
      <trkpt lat="34.31146785385968" lon="109.02891686649745">
        <ele>393.8081850223243</ele>
        <time>2022-03-01T23:52:05Z</time>
      </trkpt>
      <trkpt lat="34.31138858098963" lon="109.02892245232479">
        <ele>393.503032296896</ele>
        <time>2022-03-01T23:52:07Z</time>
      </trkpt>
      <trkpt lat="34.31121865710175" lon="109.02886599735146">
        <ele>393.6589979464188</ele>
        <time>2022-03-01T23:52:11Z</time>
      </trkpt>
      <trkpt lat="34.311132213916515" lon="109.02886900084273">
        <ele>393.00448177568614</ele>
        <time>2022-03-01T23:52:15Z</time>
      </trkpt>
      <trkpt lat="34.31095519547374" lon="109.0287404311356">
        <ele>392.6731419330463</ele>
        <time>2022-03-01T23:52:21Z</time>
      </trkpt>
      <trkpt lat="34.310735293812776" lon="109.02863435503912">
        <ele>391.6735033420846</ele>
        <time>2022-03-01T23:52:29Z</time>
      </trkpt>
      <trkpt lat="34.310661488493615" lon="109.02864022280832">
        <ele>391.19568251632154</ele>
        <time>2022-03-01T23:52:31Z</time>
      </trkpt>
      <trkpt lat="34.31059342106421" lon="109.0286058375318">
        <ele>391.3547266749665</ele>
        <time>2022-03-01T23:52:33Z</time>
      </trkpt>
      <trkpt lat="34.31048891341108" lon="109.02852006551566">
        <ele>391.0301054092124</ele>
        <time>2022-03-01T23:52:37Z</time>
      </trkpt>
      <trkpt lat="34.31035537253397" lon="109.0285948292562">
        <ele>389.8935266537592</ele>
        <time>2022-03-01T23:52:41Z</time>
      </trkpt>
      <trkpt lat="34.31027108731559" lon="109.02866886232185">
        <ele>389.56079432275146</ele>
        <time>2022-03-01T23:52:43Z</time>
      </trkpt>
      <trkpt lat="34.310098854544776" lon="109.02875796710413">
        <ele>389.13620407599956</ele>
        <time>2022-03-01T23:52:47Z</time>
      </trkpt>
      <trkpt lat="34.309941765239316" lon="109.0288935950138">
        <ele>389.4870534753427</ele>
        <time>2022-03-01T23:52:51Z</time>
      </trkpt>
      <trkpt lat="34.309843454653986" lon="109.02895501697651">
        <ele>389.0176601978019</ele>
        <time>2022-03-01T23:52:53Z</time>
      </trkpt>
      <trkpt lat="34.309636376351904" lon="109.02902781492078">
        <ele>387.7088358644396</ele>
        <time>2022-03-01T23:52:57Z</time>
      </trkpt>
      <trkpt lat="34.309205020272834" lon="109.02921544526741">
        <ele>390.26671966630965</ele>
        <time>2022-03-01T23:53:05Z</time>
      </trkpt>
      <trkpt lat="34.30906622913097" lon="109.02934596202567">
        <ele>392.5751663837582</ele>
        <time>2022-03-01T23:53:09Z</time>
      </trkpt>
      <trkpt lat="34.30884919749845" lon="109.02945002813551">
        <ele>394.6635886002332</ele>
        <time>2022-03-01T23:53:13Z</time>
      </trkpt>
      <trkpt lat="34.30860307271338" lon="109.0295336226793">
        <ele>395.7831406183541</ele>
        <time>2022-03-01T23:53:17Z</time>
      </trkpt>
      <trkpt lat="34.308408883553774" lon="109.02964903132668">
        <ele>396.24004537332803</ele>
        <time>2022-03-01T23:53:21Z</time>
      </trkpt>
      <trkpt lat="34.30810389104545" lon="109.02974552167082">
        <ele>395.5403262814507</ele>
        <time>2022-03-01T23:53:27Z</time>
      </trkpt>
      <trkpt lat="34.307910181302596" lon="109.02993413545319">
        <ele>395.1828721500933</ele>
        <time>2022-03-01T23:53:33Z</time>
      </trkpt>
      <trkpt lat="34.307830760586405" lon="109.02998666749272">
        <ele>395.41914488747716</ele>
        <time>2022-03-01T23:53:35Z</time>
      </trkpt>
      <trkpt lat="34.307645824158435" lon="109.03007361421933">
        <ele>394.78816577605903</ele>
        <time>2022-03-01T23:53:39Z</time>
      </trkpt>
      <trkpt lat="34.30744916552588" lon="109.03011446005425">
        <ele>394.26334059610963</ele>
        <time>2022-03-01T23:53:43Z</time>
      </trkpt>
      <trkpt lat="34.30735065034148" lon="109.03010394711063">
        <ele>394.13419952522963</ele>
        <time>2022-03-01T23:53:45Z</time>
      </trkpt>
      <trkpt lat="34.307158717125624" lon="109.03013455188098">
        <ele>393.40167511533946</ele>
        <time>2022-03-01T23:53:49Z</time>
      </trkpt>
      <trkpt lat="34.30702763278793" lon="109.03029263965198">
        <ele>392.57838976942</ele>
        <time>2022-03-01T23:53:53Z</time>
      </trkpt>
      <trkpt lat="34.30661686629298" lon="109.03044291938853">
        <ele>391.8417806243524</ele>
        <time>2022-03-01T23:54:01Z</time>
      </trkpt>
      <trkpt lat="34.30619405337408" lon="109.03092813159613">
        <ele>390.7502715876326</ele>
        <time>2022-03-01T23:54:40Z</time>
      </trkpt>
      <trkpt lat="34.306201513186515" lon="109.03102510453377">
        <ele>390.6389707000926</ele>
        <time>2022-03-01T23:54:42Z</time>
      </trkpt>
      <trkpt lat="34.3062506974419" lon="109.0311017224532">
        <ele>390.58724081516266</ele>
        <time>2022-03-01T23:54:44Z</time>
      </trkpt>
      <trkpt lat="34.30628981906384" lon="109.03124475077009">
        <ele>390.6374311102554</ele>
        <time>2022-03-01T23:54:47Z</time>
      </trkpt>
      <trkpt lat="34.30629781925694" lon="109.03156765430117">
        <ele>391.3793471781537</ele>
        <time>2022-03-01T23:54:53Z</time>
      </trkpt>
      <trkpt lat="34.30633166205396" lon="109.03166057542049">
        <ele>390.9342407435179</ele>
        <time>2022-03-01T23:54:55Z</time>
      </trkpt>
      <trkpt lat="34.3063957122105" lon="109.03208583496904">
        <ele>392.70301969442517</ele>
        <time>2022-03-01T23:55:03Z</time>
      </trkpt>
      <trkpt lat="34.30640868515181" lon="109.0325468720674">
        <ele>393.22645656298846</ele>
        <time>2022-03-01T23:55:11Z</time>
      </trkpt>
      <trkpt lat="34.306450000066455" lon="109.03274914448542">
        <ele>392.3878916334361</ele>
        <time>2022-03-01T23:55:15Z</time>
      </trkpt>
      <trkpt lat="34.3064414740957" lon="109.03286536748308">
        <ele>392.5803520111367</ele>
        <time>2022-03-01T23:55:17Z</time>
      </trkpt>
      <trkpt lat="34.30648470616667" lon="109.03297304755453">
        <ele>392.20209055859596</ele>
        <time>2022-03-01T23:55:19Z</time>
      </trkpt>
      <trkpt lat="34.30648732442321" lon="109.03319986867318">
        <ele>392.8251641606912</ele>
        <time>2022-03-01T23:55:23Z</time>
      </trkpt>
      <trkpt lat="34.306594541643555" lon="109.03372492853883">
        <ele>392.461243186146</ele>
        <time>2022-03-01T23:55:33Z</time>
      </trkpt>
      <trkpt lat="34.30662306181466" lon="109.03403373180208">
        <ele>392.7989698862657</ele>
        <time>2022-03-01T23:55:39Z</time>
      </trkpt>
      <trkpt lat="34.30660216396834" lon="109.03450416195022">
        <ele>392.91984437871724</ele>
        <time>2022-03-01T23:55:47Z</time>
      </trkpt>
      <trkpt lat="34.306617802912065" lon="109.0346136245628">
        <ele>392.86235170345753</ele>
        <time>2022-03-01T23:55:49Z</time>
      </trkpt>
      <trkpt lat="34.3065500999747" lon="109.03474728504956">
        <ele>392.8326152311638</ele>
        <time>2022-03-01T23:55:53Z</time>
      </trkpt>
      <trkpt lat="34.306581872386296" lon="109.03489673794806">
        <ele>393.5547669120133</ele>
        <time>2022-03-01T23:55:57Z</time>
      </trkpt>
      <trkpt lat="34.306606270907714" lon="109.03532306325178">
        <ele>393.23662338219583</ele>
        <time>2022-03-01T23:56:07Z</time>
      </trkpt>
      <trkpt lat="34.30664166240141" lon="109.03540103822141">
        <ele>393.5023950971663</ele>
        <time>2022-03-01T23:56:09Z</time>
      </trkpt>
      <trkpt lat="34.30670797291983" lon="109.03544780307051">
        <ele>393.7029713578522</ele>
        <time>2022-03-01T23:56:13Z</time>
      </trkpt>
      <trkpt lat="34.306697929321494" lon="109.03601887044319">
        <ele>393.5149711528793</ele>
        <time>2022-03-01T23:56:29Z</time>
      </trkpt>
      <trkpt lat="34.30670171073025" lon="109.03615179931278">
        <ele>392.7587576666847</ele>
        <time>2022-03-01T23:56:33Z</time>
      </trkpt>
      <trkpt lat="34.30672520405145" lon="109.03623668065161">
        <ele>392.4500695569441</ele>
        <time>2022-03-01T23:56:35Z</time>
      </trkpt>
      <trkpt lat="34.30666665183357" lon="109.03632413780278">
        <ele>392.11948823928833</ele>
        <time>2022-03-01T23:56:37Z</time>
      </trkpt>
      <trkpt lat="34.3066454382538" lon="109.03641366507797">
        <ele>392.2998454105109</ele>
        <time>2022-03-01T23:56:41Z</time>
      </trkpt>
      <trkpt lat="34.306630140414065" lon="109.03664448449516">
        <ele>390.69204832892865</ele>
        <time>2022-03-01T23:56:50Z</time>
      </trkpt>
      <trkpt lat="34.3066612660102" lon="109.03673842254585">
        <ele>392.2857673726976</ele>
        <time>2022-03-01T23:56:55Z</time>
      </trkpt>
      <trkpt lat="34.30666744735147" lon="109.03683105314546">
        <ele>392.2876117192209</ele>
        <time>2022-03-01T23:57:01Z</time>
      </trkpt>
      <trkpt lat="34.30665426058497" lon="109.03689217763555">
        <ele>392.28752573393285</ele>
        <time>2022-03-01T23:57:13Z</time>
      </trkpt>
      <trkpt lat="34.30655580954011" lon="109.0370105009598">
        <ele>391.6744361752644</ele>
        <time>2022-03-01T23:57:26Z</time>
      </trkpt>
      <trkpt lat="34.306506046112396" lon="109.03708580036741">
        <ele>391.95869976840913</ele>
        <time>2022-03-01T23:57:36Z</time>
      </trkpt>
      <trkpt lat="34.30634706061346" lon="109.03718362883752">
        <ele>391.8173415651545</ele>
        <time>2022-03-01T23:57:49Z</time>
      </trkpt>
      <trkpt lat="34.3062781828237" lon="109.03724714761415">
        <ele>391.09862048737705</ele>
        <time>2022-03-01T23:57:55Z</time>
      </trkpt>
      <trkpt lat="34.306201377279095" lon="109.0372837622896">
        <ele>390.8721819417551</ele>
        <time>2022-03-01T23:58:07Z</time>
      </trkpt>
    </trkseg>
  </trk>
</gpx>