<?xml version="1.0" encoding="UTF-8"?>
<gpx xmlns="http://www.topografix.com/GPX/1/1" xmlns:gpxtpx="http://www.garmin.com/xmlschemas/TrackPointExtension/v1" xmlns:xsi="http://www.w3.org/2001/XMLSchema-instance" xsi:schemaLocation="http://www.topografix.com/GPX/1/1 http://www.topografix.com/GPX/1/1/gpx.xsd" version="1.1" creator="gpx.py -- https://github.com/tkrajina/gpxpy">
  <trk>
    <name>gpx from keep</name>
    <type>Ride</type>
    <trkseg>
      <trkpt lat="34.30624303838165" lon="109.03530227428736">
        <ele>392.03049967903644</ele>
        <time>2022-03-21T11:43:18Z</time>
      </trkpt>
      <trkpt lat="34.30647487935168" lon="109.03537963027827">
        <ele>391.9111991338432</ele>
        <time>2022-03-21T11:44:02Z</time>
      </trkpt>
      <trkpt lat="34.30648016077476" lon="109.03528689153129">
        <ele>392.10735000576824</ele>
        <time>2022-03-21T11:44:05Z</time>
      </trkpt>
      <trkpt lat="34.30639411223901" lon="109.03499548818706">
        <ele>392.6337437136099</ele>
        <time>2022-03-21T11:44:14Z</time>
      </trkpt>
      <trkpt lat="34.30640107540576" lon="109.03490152875683">
        <ele>392.11452692653984</ele>
        <time>2022-03-21T11:44:17Z</time>
      </trkpt>
      <trkpt lat="34.30645176075725" lon="109.03471411675531">
        <ele>392.6979179531336</ele>
        <time>2022-03-21T11:44:28Z</time>
      </trkpt>
      <trkpt lat="34.306445256495635" lon="109.0345346127978">
        <ele>392.68704580515623</ele>
        <time>2022-03-21T11:44:36Z</time>
      </trkpt>
      <trkpt lat="34.30641428830156" lon="109.03445450333025">
        <ele>392.6608161358163</ele>
        <time>2022-03-21T11:44:40Z</time>
      </trkpt>
      <trkpt lat="34.30634238722674" lon="109.03408069778105">
        <ele>392.28141961060464</ele>
        <time>2022-03-21T11:44:56Z</time>
      </trkpt>
      <trkpt lat="34.3062115564039" lon="109.03387894684184">
        <ele>392.1111536966637</ele>
        <time>2022-03-21T11:45:02Z</time>
      </trkpt>
      <trkpt lat="34.3061671066891" lon="109.03375737630641">
        <ele>392.18281905632466</ele>
        <time>2022-03-21T11:45:05Z</time>
      </trkpt>
      <trkpt lat="34.306159854867055" lon="109.03357939654259">
        <ele>392.2263360032812</ele>
        <time>2022-03-21T11:45:09Z</time>
      </trkpt>
      <trkpt lat="34.306225475109564" lon="109.03324394299919">
        <ele>392.31700507365167</ele>
        <time>2022-03-21T11:45:17Z</time>
      </trkpt>
      <trkpt lat="34.30626579861854" lon="109.03312966689191">
        <ele>392.5838136533275</ele>
        <time>2022-03-21T11:45:20Z</time>
      </trkpt>
      <trkpt lat="34.306272927111365" lon="109.03298240850239">
        <ele>392.89902034867555</ele>
        <time>2022-03-21T11:45:24Z</time>
      </trkpt>
      <trkpt lat="34.306201473918605" lon="109.03281964522446">
        <ele>392.9116201624274</ele>
        <time>2022-03-21T11:45:28Z</time>
      </trkpt>
      <trkpt lat="34.306196688315545" lon="109.0327309706914">
        <ele>393.3895819829777</ele>
        <time>2022-03-21T11:45:30Z</time>
      </trkpt>
      <trkpt lat="34.30621919664882" lon="109.03256207399605">
        <ele>393.0549057237804</ele>
        <time>2022-03-21T11:45:34Z</time>
      </trkpt>
      <trkpt lat="34.30622000679426" lon="109.03239510783908">
        <ele>393.3231400260702</ele>
        <time>2022-03-21T11:45:38Z</time>
      </trkpt>
      <trkpt lat="34.30613022724932" lon="109.03219127674772">
        <ele>393.92743737623096</ele>
        <time>2022-03-21T11:45:42Z</time>
      </trkpt>
      <trkpt lat="34.306407041433864" lon="109.03182769602631">
        <ele>393.64567769132555</ele>
        <time>2022-03-21T11:45:54Z</time>
      </trkpt>
      <trkpt lat="34.30657298983241" lon="109.03153224487384">
        <ele>392.1889296788722</ele>
        <time>2022-03-21T11:46:00Z</time>
      </trkpt>
      <trkpt lat="34.3068974564733" lon="109.03124524646219">
        <ele>391.9338903846219</ele>
        <time>2022-03-21T11:46:08Z</time>
      </trkpt>
      <trkpt lat="34.30718930842119" lon="109.03109519245996">
        <ele>391.9668311132118</ele>
        <time>2022-03-21T11:46:16Z</time>
      </trkpt>
      <trkpt lat="34.3075690730782" lon="109.03097080652843">
        <ele>393.4031502055004</ele>
        <time>2022-03-21T11:46:26Z</time>
      </trkpt>
      <trkpt lat="34.307789813651034" lon="109.03087132794477">
        <ele>394.47515602689236</ele>
        <time>2022-03-21T11:46:32Z</time>
      </trkpt>
      <trkpt lat="34.30825993467333" lon="109.03076741908843">
        <ele>394.8660504873842</ele>
        <time>2022-03-21T11:46:44Z</time>
      </trkpt>
      <trkpt lat="34.30869942501209" lon="109.0306392142777">
        <ele>394.8928162716329</ele>
        <time>2022-03-21T11:46:55Z</time>
      </trkpt>
      <trkpt lat="34.309095375346125" lon="109.03042422742801">
        <ele>394.99739842209965</ele>
        <time>2022-03-21T11:47:08Z</time>
      </trkpt>
      <trkpt lat="34.30926402497928" lon="109.03033773214611">
        <ele>394.43300895392895</ele>
        <time>2022-03-21T11:47:14Z</time>
      </trkpt>
      <trkpt lat="34.30943171955207" lon="109.03021204871318">
        <ele>394.7838356187567</ele>
        <time>2022-03-21T11:47:20Z</time>
      </trkpt>
      <trkpt lat="34.30976189783088" lon="109.02990385905666">
        <ele>394.8094519432634</ele>
        <time>2022-03-21T11:47:32Z</time>
      </trkpt>
      <trkpt lat="34.30993503562137" lon="109.02966419441793">
        <ele>393.9507686160505</ele>
        <time>2022-03-21T11:47:40Z</time>
      </trkpt>
      <trkpt lat="34.30999315035285" lon="109.02954504600133">
        <ele>393.4708309555426</ele>
        <time>2022-03-21T11:47:44Z</time>
      </trkpt>
      <trkpt lat="34.31011398949222" lon="109.02903580535995">
        <ele>391.18944076355547</ele>
        <time>2022-03-21T11:47:58Z</time>
      </trkpt>
      <trkpt lat="34.31017208234119" lon="109.02887932670279">
        <ele>390.2998516028747</ele>
        <time>2022-03-21T11:48:02Z</time>
      </trkpt>
      <trkpt lat="34.31023898611359" lon="109.02877304244069">
        <ele>389.0121391899884</ele>
        <time>2022-03-21T11:48:06Z</time>
      </trkpt>
      <trkpt lat="34.310329246453996" lon="109.02847801435509">
        <ele>388.7124606790021</ele>
        <time>2022-03-21T11:48:14Z</time>
      </trkpt>
      <trkpt lat="34.310451525977484" lon="109.02827795237143">
        <ele>388.74692175909877</ele>
        <time>2022-03-21T11:48:20Z</time>
      </trkpt>
      <trkpt lat="34.310502478172744" lon="109.02810942037038">
        <ele>389.0224078204483</ele>
        <time>2022-03-21T11:48:24Z</time>
      </trkpt>
      <trkpt lat="34.31055758406126" lon="109.02800950140768">
        <ele>388.72962529119104</ele>
        <time>2022-03-21T11:48:28Z</time>
      </trkpt>
      <trkpt lat="34.31063599260794" lon="109.02791460562071">
        <ele>388.32836182042956</ele>
        <time>2022-03-21T11:48:32Z</time>
      </trkpt>
      <trkpt lat="34.310676526357724" lon="109.02783008871751">
        <ele>387.97409159876406</ele>
        <time>2022-03-21T11:48:36Z</time>
      </trkpt>
      <trkpt lat="34.31080203552975" lon="109.02767896011758">
        <ele>388.2270575687289</ele>
        <time>2022-03-21T11:48:44Z</time>
      </trkpt>
      <trkpt lat="34.31081336990166" lon="109.0275297248543">
        <ele>388.28844625595957</ele>
        <time>2022-03-21T11:48:48Z</time>
      </trkpt>
      <trkpt lat="34.31088565964365" lon="109.02740489024394">
        <ele>388.0668819891289</ele>
        <time>2022-03-21T11:48:52Z</time>
      </trkpt>
      <trkpt lat="34.310934969318836" lon="109.02725139490383">
        <ele>388.3797988872975</ele>
        <time>2022-03-21T11:48:56Z</time>
      </trkpt>
      <trkpt lat="34.311097657787656" lon="109.02705405874467">
        <ele>389.08011825662106</ele>
        <time>2022-03-21T11:49:02Z</time>
      </trkpt>
      <trkpt lat="34.31137180024534" lon="109.02686189635315">
        <ele>389.9760080203414</ele>
        <time>2022-03-21T11:49:10Z</time>
      </trkpt>
      <trkpt lat="34.311751800954" lon="109.0265609027252">
        <ele>391.00854032766074</ele>
        <time>2022-03-21T11:49:22Z</time>
      </trkpt>
      <trkpt lat="34.31196448970526" lon="109.02638946663662">
        <ele>391.7112183459103</ele>
        <time>2022-03-21T11:49:28Z</time>
      </trkpt>
      <trkpt lat="34.31208477056421" lon="109.02625444762847">
        <ele>392.4082641787827</ele>
        <time>2022-03-21T11:49:32Z</time>
      </trkpt>
      <trkpt lat="34.314637904824195" lon="109.02493705427807">
        <ele>393.7478043641895</ele>
        <time>2022-03-21T11:49:34Z</time>
      </trkpt>
      <trkpt lat="34.314843769447876" lon="109.02478637947519">
        <ele>392.8658347800374</ele>
        <time>2022-03-21T11:49:38Z</time>
      </trkpt>
      <trkpt lat="34.315285425882344" lon="109.02453513091375">
        <ele>390.2768885809928</ele>
        <time>2022-03-21T11:49:46Z</time>
      </trkpt>
      <trkpt lat="34.31558622745044" lon="109.02436205213353">
        <ele>390.1969461739063</ele>
        <time>2022-03-21T11:49:52Z</time>
      </trkpt>
      <trkpt lat="34.315763265590405" lon="109.02432612598761">
        <ele>390.6949225012213</ele>
        <time>2022-03-21T11:49:54Z</time>
      </trkpt>
      <trkpt lat="34.31618360103037" lon="109.02406949052991">
        <ele>390.70867652911693</ele>
        <time>2022-03-21T11:50:04Z</time>
      </trkpt>
      <trkpt lat="34.31626251520479" lon="109.02404698356347">
        <ele>390.80500334780663</ele>
        <time>2022-03-21T11:50:06Z</time>
      </trkpt>
      <trkpt lat="34.31632479010562" lon="109.02388891910972">
        <ele>391.07694337517023</ele>
        <time>2022-03-21T11:50:10Z</time>
      </trkpt>
      <trkpt lat="34.31634068192863" lon="109.02369245630028">
        <ele>390.66710710246116</ele>
        <time>2022-03-21T11:50:14Z</time>
      </trkpt>
      <trkpt lat="34.31613116747921" lon="109.02315025306034">
        <ele>389.18670007865876</ele>
        <time>2022-03-21T11:50:26Z</time>
      </trkpt>
      <trkpt lat="34.31593666718287" lon="109.02268747249414">
        <ele>388.6267890036106</ele>
        <time>2022-03-21T11:50:36Z</time>
      </trkpt>
      <trkpt lat="34.31583675623614" lon="109.0223930468146">
        <ele>389.2953676311299</ele>
        <time>2022-03-21T11:50:44Z</time>
      </trkpt>
      <trkpt lat="34.31587651616082" lon="109.02216122076912">
        <ele>390.7278196522966</ele>
        <time>2022-03-21T11:50:52Z</time>
      </trkpt>
      <trkpt lat="34.31587869462821" lon="109.02198409326184">
        <ele>391.0510153658688</ele>
        <time>2022-03-21T11:50:56Z</time>
      </trkpt>
      <trkpt lat="34.31593894770121" lon="109.0216073555114">
        <ele>392.3778265649453</ele>
        <time>2022-03-21T11:51:04Z</time>
      </trkpt>
      <trkpt lat="34.3158848179193" lon="109.02096746636013">
        <ele>395.09264173544943</ele>
        <time>2022-03-21T11:51:20Z</time>
      </trkpt>
      <trkpt lat="34.315848768512595" lon="109.02088797178888">
        <ele>395.5873074969277</ele>
        <time>2022-03-21T11:51:24Z</time>
      </trkpt>
      <trkpt lat="34.3158012824301" lon="109.0204706680429">
        <ele>396.2118655545637</ele>
        <time>2022-03-21T11:51:40Z</time>
      </trkpt>
      <trkpt lat="34.31579420607376" lon="109.02018805494869">
        <ele>397.85974051989615</ele>
        <time>2022-03-21T11:51:48Z</time>
      </trkpt>
      <trkpt lat="34.31585719395734" lon="109.01981292960437">
        <ele>399.2544028060511</ele>
        <time>2022-03-21T11:51:56Z</time>
      </trkpt>
      <trkpt lat="34.315871297659825" lon="109.01928510777024">
        <ele>400.19437546655536</ele>
        <time>2022-03-21T11:52:08Z</time>
      </trkpt>
      <trkpt lat="34.31584915344813" lon="109.01897794382641">
        <ele>401.4867388261482</ele>
        <time>2022-03-21T11:52:16Z</time>
      </trkpt>
      <trkpt lat="34.31585069384396" lon="109.01866433333886">
        <ele>401.7853604508564</ele>
        <time>2022-03-21T11:52:24Z</time>
      </trkpt>
      <trkpt lat="34.315795981918185" lon="109.01841776316625">
        <ele>403.11260693799704</ele>
        <time>2022-03-21T11:52:32Z</time>
      </trkpt>
      <trkpt lat="34.315802600693964" lon="109.01829514042443">
        <ele>403.5121868047863</ele>
        <time>2022-03-21T11:52:36Z</time>
      </trkpt>
      <trkpt lat="34.31578500382359" lon="109.01817574457866">
        <ele>403.9574243398383</ele>
        <time>2022-03-21T11:52:40Z</time>
      </trkpt>
      <trkpt lat="34.31579911491487" lon="109.01804463541949">
        <ele>404.3624356817454</ele>
        <time>2022-03-21T11:52:44Z</time>
      </trkpt>
      <trkpt lat="34.31579801424684" lon="109.0177421038163">
        <ele>404.9820545781404</ele>
        <time>2022-03-21T11:52:52Z</time>
      </trkpt>
      <trkpt lat="34.31574587299274" lon="109.01745840214151">
        <ele>405.3149298429489</ele>
        <time>2022-03-21T11:53:00Z</time>
      </trkpt>
      <trkpt lat="34.31575383484468" lon="109.0173062940883">
        <ele>405.53082542400807</ele>
        <time>2022-03-21T11:53:04Z</time>
      </trkpt>
      <trkpt lat="34.315736139419904" lon="109.01715223229878">
        <ele>405.55020748078823</ele>
        <time>2022-03-21T11:53:08Z</time>
      </trkpt>
      <trkpt lat="34.31574561427084" lon="109.01683406473093">
        <ele>406.53911297302693</ele>
        <time>2022-03-21T11:53:16Z</time>
      </trkpt>
      <trkpt lat="34.31565134184813" lon="109.01646447542166">
        <ele>408.1322752190754</ele>
        <time>2022-03-21T11:53:28Z</time>
      </trkpt>
      <trkpt lat="34.31570939220732" lon="109.0159699301299">
        <ele>408.0924123926088</ele>
        <time>2022-03-21T11:53:38Z</time>
      </trkpt>
      <trkpt lat="34.31568394504375" lon="109.0153807187559">
        <ele>408.07885150052607</ele>
        <time>2022-03-21T11:53:50Z</time>
      </trkpt>
      <trkpt lat="34.31568852926103" lon="109.0147794241996">
        <ele>409.012135412544</ele>
        <time>2022-03-21T11:54:00Z</time>
      </trkpt>
      <trkpt lat="34.3156912737653" lon="109.01445896701576">
        <ele>409.364579343237</ele>
        <time>2022-03-21T11:54:06Z</time>
      </trkpt>
      <trkpt lat="34.31570605561528" lon="109.01425281711842">
        <ele>409.19376065488905</ele>
        <time>2022-03-21T11:54:10Z</time>
      </trkpt>
      <trkpt lat="34.31569363971115" lon="109.01414327836056">
        <ele>409.0179416742176</ele>
        <time>2022-03-21T11:54:12Z</time>
      </trkpt>
      <trkpt lat="34.3157156696971" lon="109.01391527100509">
        <ele>408.5417181616649</ele>
        <time>2022-03-21T11:54:16Z</time>
      </trkpt>
      <trkpt lat="34.31571490000694" lon="109.01331950141675">
        <ele>408.46407929994166</ele>
        <time>2022-03-21T11:54:28Z</time>
      </trkpt>
      <trkpt lat="34.31570799234701" lon="109.0131342668831">
        <ele>408.8099373243749</ele>
        <time>2022-03-21T11:54:32Z</time>
      </trkpt>
      <trkpt lat="34.31572706541151" lon="109.0130324319342">
        <ele>409.28311025723815</ele>
        <time>2022-03-21T11:54:34Z</time>
      </trkpt>
      <trkpt lat="34.315692242084054" lon="109.01285676366167">
        <ele>408.9473367659375</ele>
        <time>2022-03-21T11:54:38Z</time>
      </trkpt>
      <trkpt lat="34.315699397600234" lon="109.01241135339595">
        <ele>408.8283790014684</ele>
        <time>2022-03-21T11:54:48Z</time>
      </trkpt>
      <trkpt lat="34.31568080844303" lon="109.01210965743695">
        <ele>408.8974329084158</ele>
        <time>2022-03-21T11:54:56Z</time>
      </trkpt>
      <trkpt lat="34.31569705858221" lon="109.0115888509077">
        <ele>408.68838581070304</ele>
        <time>2022-03-21T11:55:08Z</time>
      </trkpt>
      <trkpt lat="34.31570354155055" lon="109.01146852797945">
        <ele>408.93195556104183</ele>
        <time>2022-03-21T11:55:10Z</time>
      </trkpt>
      <trkpt lat="34.315796631947485" lon="109.01127894734863">
        <ele>409.38508743047714</ele>
        <time>2022-03-21T11:55:14Z</time>
      </trkpt>
      <trkpt lat="34.315908796787355" lon="109.01119185368889">
        <ele>409.4239020375535</ele>
        <time>2022-03-21T11:55:16Z</time>
      </trkpt>
      <trkpt lat="34.31600089445059" lon="109.01115219131897">
        <ele>409.444564441219</ele>
        <time>2022-03-21T11:55:18Z</time>
      </trkpt>
      <trkpt lat="34.31617292852339" lon="109.01090341670775">
        <ele>410.006336084567</ele>
        <time>2022-03-21T11:55:26Z</time>
      </trkpt>
      <trkpt lat="34.31623873802056" lon="109.01083194246463">
        <ele>409.94414145406336</ele>
        <time>2022-03-21T11:55:28Z</time>
      </trkpt>
      <trkpt lat="34.3163770417951" lon="109.010417019745">
        <ele>409.4939753282815</ele>
        <time>2022-03-21T11:55:34Z</time>
      </trkpt>
      <trkpt lat="34.31651880400385" lon="109.01018332877415">
        <ele>409.51281693484634</ele>
        <time>2022-03-21T11:55:38Z</time>
      </trkpt>
      <trkpt lat="34.316668654389396" lon="109.0100681273942">
        <ele>409.2390209985897</ele>
        <time>2022-03-21T11:55:42Z</time>
      </trkpt>
      <trkpt lat="34.316886274064814" lon="109.00995440007712">
        <ele>409.15427605900913</ele>
        <time>2022-03-21T11:55:46Z</time>
      </trkpt>
      <trkpt lat="34.317073310192185" lon="109.00983013887333">
        <ele>409.0276183746755</ele>
        <time>2022-03-21T11:55:50Z</time>
      </trkpt>
      <trkpt lat="34.317440135265464" lon="109.00974228534594">
        <ele>409.4906052676961</ele>
        <time>2022-03-21T11:55:58Z</time>
      </trkpt>
      <trkpt lat="34.31752532323607" lon="109.0097070461184">
        <ele>409.4373548934236</ele>
        <time>2022-03-21T11:56:00Z</time>
      </trkpt>
      <trkpt lat="34.31779772887462" lon="109.00968486453242">
        <ele>409.4789706673473</ele>
        <time>2022-03-21T11:56:06Z</time>
      </trkpt>
      <trkpt lat="34.31789141642961" lon="109.00965518686652">
        <ele>409.9525526687503</ele>
        <time>2022-03-21T11:56:08Z</time>
      </trkpt>
      <trkpt lat="34.31819438455223" lon="109.0094790801063">
        <ele>409.4044301584363</ele>
        <time>2022-03-21T11:56:20Z</time>
      </trkpt>
      <trkpt lat="34.31826253817832" lon="109.00938512471838">
        <ele>408.88020419701934</ele>
        <time>2022-03-21T11:56:24Z</time>
      </trkpt>
      <trkpt lat="34.318341974369694" lon="109.00911747544613">
        <ele>408.5720726624131</ele>
        <time>2022-03-21T11:56:32Z</time>
      </trkpt>
      <trkpt lat="34.31838057583952" lon="109.00868532771761">
        <ele>408.51681883540004</ele>
        <time>2022-03-21T11:56:42Z</time>
      </trkpt>
      <trkpt lat="34.31842587646062" lon="109.00812651231136">
        <ele>408.9235273646191</ele>
        <time>2022-03-21T11:56:54Z</time>
      </trkpt>
      <trkpt lat="34.31845607732628" lon="109.00790701423678">
        <ele>408.5068139107898</ele>
        <time>2022-03-21T11:56:58Z</time>
      </trkpt>
      <trkpt lat="34.3184518591541" lon="109.00723727980505">
        <ele>408.5250554867089</ele>
        <time>2022-03-21T11:57:14Z</time>
      </trkpt>
      <trkpt lat="34.318451934474716" lon="109.00699947195955">
        <ele>408.36887079663575</ele>
        <time>2022-03-21T11:57:20Z</time>
      </trkpt>
      <trkpt lat="34.318415817324244" lon="109.00641464641508">
        <ele>408.8221376137808</ele>
        <time>2022-03-21T11:57:36Z</time>
      </trkpt>
      <trkpt lat="34.31838934032531" lon="109.00615836461567">
        <ele>409.1374182738364</ele>
        <time>2022-03-21T11:57:44Z</time>
      </trkpt>
      <trkpt lat="34.318390103182594" lon="109.00587562004844">
        <ele>409.41311228461564</ele>
        <time>2022-03-21T11:57:52Z</time>
      </trkpt>
      <trkpt lat="34.31835755554336" lon="109.00555919303127">
        <ele>410.123627576977</ele>
        <time>2022-03-21T11:58:00Z</time>
      </trkpt>
      <trkpt lat="34.31849284954599" lon="109.0052343355723">
        <ele>410.2548491563648</ele>
        <time>2022-03-21T11:58:06Z</time>
      </trkpt>
      <trkpt lat="34.31865106161622" lon="109.00460653127767">
        <ele>411.03034748416394</ele>
        <time>2022-03-21T11:58:14Z</time>
      </trkpt>
      <trkpt lat="34.31874187539607" lon="109.00405915032869">
        <ele>409.7820096919313</ele>
        <time>2022-03-21T11:58:20Z</time>
      </trkpt>
      <trkpt lat="34.31876945007739" lon="109.00389454536707">
        <ele>409.55576422810555</ele>
        <time>2022-03-21T11:58:22Z</time>
      </trkpt>
      <trkpt lat="34.31882756860142" lon="109.00373207144611">
        <ele>409.37380961794406</ele>
        <time>2022-03-21T11:58:24Z</time>
      </trkpt>
      <trkpt lat="34.31883153104541" lon="109.00352510311613">
        <ele>409.13882535416633</ele>
        <time>2022-03-21T11:58:28Z</time>
      </trkpt>
      <trkpt lat="34.31880559283758" lon="109.00339440463597">
        <ele>409.1885192748159</ele>
        <time>2022-03-21T11:58:32Z</time>
      </trkpt>
      <trkpt lat="34.31879364207708" lon="109.00317446085208">
        <ele>408.5542905246839</ele>
        <time>2022-03-21T11:58:40Z</time>
      </trkpt>
      <trkpt lat="34.31885417501645" lon="109.00312086193773">
        <ele>408.5773617597297</ele>
        <time>2022-03-21T11:58:48Z</time>
      </trkpt>
      <trkpt lat="34.31891308509017" lon="109.00317497310236">
        <ele>408.6769728315994</ele>
        <time>2022-03-21T11:58:56Z</time>
      </trkpt>
      <trkpt lat="34.318941563026534" lon="109.0032627545525">
        <ele>408.73392925877124</ele>
        <time>2022-03-21T11:59:02Z</time>
      </trkpt>
      <trkpt lat="34.318921066853946" lon="109.00328501931918">
        <ele>409.06353100482374</ele>
        <time>2022-03-21T11:59:12Z</time>
      </trkpt>
      <trkpt lat="34.31886319012486" lon="109.00336247345923">
        <ele>408.6376172853634</ele>
        <time>2022-03-21T12:09:27Z</time>
      </trkpt>
      <trkpt lat="34.3188540027961" lon="109.00345433220053">
        <ele>409.06096163671464</ele>
        <time>2022-03-21T12:09:35Z</time>
      </trkpt>
      <trkpt lat="34.31886558768371" lon="109.00344629479325">
        <ele>409.0034672943875</ele>
        <time>2022-03-21T12:09:43Z</time>
      </trkpt>
    </trkseg>
  </trk>
</gpx>