<?xml version="1.0" encoding="UTF-8"?>
<gpx xmlns="http://www.topografix.com/GPX/1/1" xmlns:gpxtpx="http://www.garmin.com/xmlschemas/TrackPointExtension/v1" xmlns:xsi="http://www.w3.org/2001/XMLSchema-instance" xsi:schemaLocation="http://www.topografix.com/GPX/1/1 http://www.topografix.com/GPX/1/1/gpx.xsd" version="1.1" creator="gpx.py -- https://github.com/tkrajina/gpxpy">
  <trk>
    <name>gpx from keep</name>
    <type>Run</type>
    <trkseg>
      <trkpt lat="34.29768844778541" lon="108.71046337772988">
        <ele>391.9572982788086</ele>
        <time>2026-08-23T22:57:07Z</time>
      </trkpt>
      <trkpt lat="34.297795278392414" lon="108.71048768880777">
        <ele>388.2307357788086</ele>
        <time>2026-08-23T22:57:10Z</time>
      </trkpt>
      <trkpt lat="34.29771535711497" lon="108.71048986844892">
        <ele>387.84774017333984</ele>
        <time>2026-08-23T22:57:14Z</time>
      </trkpt>
      <trkpt lat="34.29770735141181" lon="108.71023496956175">
        <ele>388.27932013664395</ele>
        <time>2026-08-23T22:57:22Z</time>
      </trkpt>
      <trkpt lat="34.297767466614374" lon="108.71015995069602">
        <ele>388.88381225336343</ele>
        <time>2026-08-23T22:57:26Z</time>
      </trkpt>
      <trkpt lat="34.29793469861289" lon="108.71012877240521">
        <ele>390.73903689626604</ele>
        <time>2026-08-23T22:57:34Z</time>
      </trkpt>
      <trkpt lat="34.29801825767939" lon="108.71016058552422">
        <ele>391.8064198102802</ele>
        <time>2026-08-23T22:57:38Z</time>
      </trkpt>
      <trkpt lat="34.298059903388335" lon="108.7103046531635">
        <ele>387.451252435334</ele>
        <time>2026-08-23T22:57:42Z</time>
      </trkpt>
      <trkpt lat="34.29808004660533" lon="108.71047404293634">
        <ele>388.60285101272166</ele>
        <time>2026-08-23T22:57:50Z</time>
      </trkpt>
      <trkpt lat="34.2980309631602" lon="108.71066595482459">
        <ele>388.33366122003645</ele>
        <time>2026-08-23T22:57:58Z</time>
      </trkpt>
      <trkpt lat="34.29805248496133" lon="108.71074902625435">
        <ele>389.09117759298533</ele>
        <time>2026-08-23T22:58:02Z</time>
      </trkpt>
      <trkpt lat="34.298116982014356" lon="108.7108366225095">
        <ele>389.30751789640635</ele>
        <time>2026-08-23T22:58:06Z</time>
      </trkpt>
      <trkpt lat="34.2981103141219" lon="108.71091879751455">
        <ele>389.0039887363091</ele>
        <time>2026-08-23T22:58:10Z</time>
      </trkpt>
      <trkpt lat="34.298145084933296" lon="108.71099909356843">
        <ele>387.98192763421685</ele>
        <time>2026-08-23T22:58:14Z</time>
      </trkpt>
      <trkpt lat="34.29818668590332" lon="108.71129375803756">
        <ele>389.41886336449534</ele>
        <time>2026-08-23T22:58:29Z</time>
      </trkpt>
      <trkpt lat="34.298155482485065" lon="108.71140336905344">
        <ele>388.65332019980997</ele>
        <time>2026-08-23T22:58:35Z</time>
      </trkpt>
      <trkpt lat="34.29785464838967" lon="108.71151647758522">
        <ele>388.2296900274232</ele>
        <time>2026-08-23T22:58:53Z</time>
      </trkpt>
      <trkpt lat="34.29761650461062" lon="108.7116477959173">
        <ele>388.22401184402406</ele>
        <time>2026-08-23T22:59:08Z</time>
      </trkpt>
      <trkpt lat="34.297571066086746" lon="108.71164933898794">
        <ele>388.1214185655117</ele>
        <time>2026-08-23T22:59:11Z</time>
      </trkpt>
      <trkpt lat="34.297306088234784" lon="108.7117498219948">
        <ele>388.9572828505188</ele>
        <time>2026-08-23T22:59:27Z</time>
      </trkpt>
      <trkpt lat="34.297140266890565" lon="108.7117922634373">
        <ele>388.006298889406</ele>
        <time>2026-08-23T22:59:36Z</time>
      </trkpt>
      <trkpt lat="34.297033897313554" lon="108.71186564357937">
        <ele>388.75899712368846</ele>
        <time>2026-08-23T22:59:42Z</time>
      </trkpt>
      <trkpt lat="34.29693100680677" lon="108.71190194581796">
        <ele>388.91117871180177</ele>
        <time>2026-08-23T22:59:48Z</time>
      </trkpt>
      <trkpt lat="34.296881795474114" lon="108.71193716498138">
        <ele>389.26400840561837</ele>
        <time>2026-08-23T22:59:51Z</time>
      </trkpt>
      <trkpt lat="34.296632365384525" lon="108.71202185616714">
        <ele>387.7389373620972</ele>
        <time>2026-08-23T23:00:06Z</time>
      </trkpt>
      <trkpt lat="34.296417300955824" lon="108.71210878749484">
        <ele>388.0699254926294</ele>
        <time>2026-08-23T23:00:18Z</time>
      </trkpt>
      <trkpt lat="34.296362736145376" lon="108.71208783398716">
        <ele>387.9699592059478</ele>
        <time>2026-08-23T23:00:21Z</time>
      </trkpt>
      <trkpt lat="34.296320968312855" lon="108.7120447070333">
        <ele>387.3466580826789</ele>
        <time>2026-08-23T23:00:24Z</time>
      </trkpt>
      <trkpt lat="34.29626107866561" lon="108.71174481611067">
        <ele>388.7908675596118</ele>
        <time>2026-08-23T23:00:42Z</time>
      </trkpt>
      <trkpt lat="34.29623274060898" lon="108.7114115907189">
        <ele>389.1331164240837</ele>
        <time>2026-08-23T23:01:00Z</time>
      </trkpt>
      <trkpt lat="34.29619834188172" lon="108.71104451987351">
        <ele>388.93892789259553</ele>
        <time>2026-08-23T23:01:18Z</time>
      </trkpt>
      <trkpt lat="34.296168344032644" lon="108.71091275763393">
        <ele>389.467384676449</ele>
        <time>2026-08-23T23:01:25Z</time>
      </trkpt>
      <trkpt lat="34.29613308420242" lon="108.71083171175212">
        <ele>390.1398930558935</ele>
        <time>2026-08-23T23:01:31Z</time>
      </trkpt>
      <trkpt lat="34.29613866115847" lon="108.71067650073053">
        <ele>390.64799126330763</ele>
        <time>2026-08-23T23:01:40Z</time>
      </trkpt>
      <trkpt lat="34.296067734541985" lon="108.71029842358686">
        <ele>389.96079233754426</ele>
        <time>2026-08-23T23:01:55Z</time>
      </trkpt>
      <trkpt lat="34.2960144176349" lon="108.70992498131928">
        <ele>389.77448999416083</ele>
        <time>2026-08-23T23:02:10Z</time>
      </trkpt>
      <trkpt lat="34.295970719646114" lon="108.7095635646419">
        <ele>388.70168838929385</ele>
        <time>2026-08-23T23:02:25Z</time>
      </trkpt>
      <trkpt lat="34.29596288764346" lon="108.70941815483415">
        <ele>388.5581827359274</ele>
        <time>2026-08-23T23:02:31Z</time>
      </trkpt>
      <trkpt lat="34.295910225846356" lon="108.70918303879202">
        <ele>390.4965523155406</ele>
        <time>2026-08-23T23:02:46Z</time>
      </trkpt>
      <trkpt lat="34.29590620867491" lon="108.70902002587833">
        <ele>389.9692183258012</ele>
        <time>2026-08-23T23:02:55Z</time>
      </trkpt>
      <trkpt lat="34.29588837731586" lon="108.7089574561061">
        <ele>389.72330151032656</ele>
        <time>2026-08-23T23:02:58Z</time>
      </trkpt>
      <trkpt lat="34.29589528622483" lon="108.7088901115001">
        <ele>390.5424078842625</ele>
        <time>2026-08-23T23:03:01Z</time>
      </trkpt>
      <trkpt lat="34.29585731765822" lon="108.70869666109503">
        <ele>390.36460725031793</ele>
        <time>2026-08-23T23:03:10Z</time>
      </trkpt>
      <trkpt lat="34.295859874845874" lon="108.7084952104768">
        <ele>391.2227844307199</ele>
        <time>2026-08-23T23:03:19Z</time>
      </trkpt>
      <trkpt lat="34.295803054670905" lon="108.70810010780649">
        <ele>390.6619159337133</ele>
        <time>2026-08-23T23:03:40Z</time>
      </trkpt>
      <trkpt lat="34.29577515407253" lon="108.70785834933173">
        <ele>389.68518200702965</ele>
        <time>2026-08-23T23:03:56Z</time>
      </trkpt>
      <trkpt lat="34.29577215481458" lon="108.70763361479621">
        <ele>389.9410758987069</ele>
        <time>2026-08-23T23:04:08Z</time>
      </trkpt>
      <trkpt lat="34.29579723529334" lon="108.70757029420385">
        <ele>391.57682015094906</ele>
        <time>2026-08-23T23:04:11Z</time>
      </trkpt>
      <trkpt lat="34.29578087538466" lon="108.70748433971416">
        <ele>390.42672710772604</ele>
        <time>2026-08-23T23:04:14Z</time>
      </trkpt>
      <trkpt lat="34.29579026480399" lon="108.70733411483214">
        <ele>390.9948706915602</ele>
        <time>2026-08-23T23:04:20Z</time>
      </trkpt>
      <trkpt lat="34.29575998932797" lon="108.70719356851014">
        <ele>390.5206798957661</ele>
        <time>2026-08-23T23:04:26Z</time>
      </trkpt>
      <trkpt lat="34.2957600942464" lon="108.70705848484425">
        <ele>390.15456176549196</ele>
        <time>2026-08-23T23:04:32Z</time>
      </trkpt>
      <trkpt lat="34.29569667883418" lon="108.7067363232358">
        <ele>391.13515869900584</ele>
        <time>2026-08-23T23:04:50Z</time>
      </trkpt>
      <trkpt lat="34.29564422459982" lon="108.70640361817433">
        <ele>390.8034495944157</ele>
        <time>2026-08-23T23:05:11Z</time>
      </trkpt>
      <trkpt lat="34.29578612987396" lon="108.70609519858697">
        <ele>389.0770274717361</ele>
        <time>2026-08-23T23:05:29Z</time>
      </trkpt>
      <trkpt lat="34.296094030450696" lon="108.7060070891696">
        <ele>389.5296212742105</ele>
        <time>2026-08-23T23:05:47Z</time>
      </trkpt>
      <trkpt lat="34.296382653841114" lon="108.70596505636101">
        <ele>388.753397972323</ele>
        <time>2026-08-23T23:06:03Z</time>
      </trkpt>
      <trkpt lat="34.2964553765244" lon="108.70593488342051">
        <ele>388.9346348978579</ele>
        <time>2026-08-23T23:06:09Z</time>
      </trkpt>
      <trkpt lat="34.29674502398496" lon="108.70590537485297">
        <ele>389.5833392413333</ele>
        <time>2026-08-23T23:06:27Z</time>
      </trkpt>
      <trkpt lat="34.29705513193839" lon="108.70584474299672">
        <ele>389.18375983275473</ele>
        <time>2026-08-23T23:06:45Z</time>
      </trkpt>
      <trkpt lat="34.29713994320782" lon="108.70583907771604">
        <ele>388.46353122219443</ele>
        <time>2026-08-23T23:06:51Z</time>
      </trkpt>
      <trkpt lat="34.29726139855559" lon="108.7057933460875">
        <ele>388.81715849693865</ele>
        <time>2026-08-23T23:07:03Z</time>
      </trkpt>
      <trkpt lat="34.29757883226692" lon="108.70577105618341">
        <ele>388.1586900241673</ele>
        <time>2026-08-23T23:07:21Z</time>
      </trkpt>
      <trkpt lat="34.29773412608341" lon="108.70572877444201">
        <ele>388.21790575422347</ele>
        <time>2026-08-23T23:07:30Z</time>
      </trkpt>
      <trkpt lat="34.297805440804744" lon="108.7056881080237">
        <ele>389.69590580742806</ele>
        <time>2026-08-23T23:07:36Z</time>
      </trkpt>
      <trkpt lat="34.297856112376344" lon="108.70572879042778">
        <ele>388.1537621850148</ele>
        <time>2026-08-23T23:07:39Z</time>
      </trkpt>
      <trkpt lat="34.298165483591845" lon="108.70564037190341">
        <ele>388.96260255016387</ele>
        <time>2026-08-23T23:07:58Z</time>
      </trkpt>
      <trkpt lat="34.29845581023047" lon="108.70558974517117">
        <ele>388.94080672226846</ele>
        <time>2026-08-23T23:08:13Z</time>
      </trkpt>
      <trkpt lat="34.29874273873909" lon="108.70553730842228">
        <ele>388.61329915281385</ele>
        <time>2026-08-23T23:08:28Z</time>
      </trkpt>
      <trkpt lat="34.299015004270544" lon="108.70549932682036">
        <ele>388.17207159660757</ele>
        <time>2026-08-23T23:08:43Z</time>
      </trkpt>
      <trkpt lat="34.299194173228535" lon="108.70545485394197">
        <ele>388.9855129439384</ele>
        <time>2026-08-23T23:08:55Z</time>
      </trkpt>
      <trkpt lat="34.29923962983807" lon="108.70546844931638">
        <ele>389.9373018145561</ele>
        <time>2026-08-23T23:08:58Z</time>
      </trkpt>
      <trkpt lat="34.29920094584005" lon="108.70552633691099">
        <ele>389.8820865470916</ele>
        <time>2026-08-23T23:09:01Z</time>
      </trkpt>
      <trkpt lat="34.299050825888266" lon="108.7055719263751">
        <ele>388.7064836844802</ele>
        <time>2026-08-23T23:09:10Z</time>
      </trkpt>
      <trkpt lat="34.298897479889845" lon="108.70559421147472">
        <ele>389.40452011302114</ele>
        <time>2026-08-23T23:09:19Z</time>
      </trkpt>
      <trkpt lat="34.29856162745704" lon="108.70566255765023">
        <ele>388.31121816206723</ele>
        <time>2026-08-23T23:09:40Z</time>
      </trkpt>
      <trkpt lat="34.29832883292754" lon="108.70571285460667">
        <ele>387.5736364768818</ele>
        <time>2026-08-23T23:09:54Z</time>
      </trkpt>
      <trkpt lat="34.298216183787716" lon="108.70570744893868">
        <ele>387.79300903342664</ele>
        <time>2026-08-23T23:10:02Z</time>
      </trkpt>
      <trkpt lat="34.298113269633426" lon="108.70573478427664">
        <ele>388.45620414149016</ele>
        <time>2026-08-23T23:10:08Z</time>
      </trkpt>
      <trkpt lat="34.298047032759904" lon="108.70577369916363">
        <ele>389.77083571627736</ele>
        <time>2026-08-23T23:10:14Z</time>
      </trkpt>
      <trkpt lat="34.29776879727692" lon="108.70580654990596">
        <ele>388.557670481503</ele>
        <time>2026-08-23T23:10:32Z</time>
      </trkpt>
      <trkpt lat="34.29761545204975" lon="108.70584580535174">
        <ele>388.6313507584855</ele>
        <time>2026-08-23T23:10:41Z</time>
      </trkpt>
      <trkpt lat="34.29756650985975" lon="108.70582181464059">
        <ele>388.9626219244674</ele>
        <time>2026-08-23T23:10:44Z</time>
      </trkpt>
      <trkpt lat="34.29745204534936" lon="108.70583774709105">
        <ele>388.24323450401425</ele>
        <time>2026-08-23T23:10:50Z</time>
      </trkpt>
      <trkpt lat="34.29740819364767" lon="108.70587063345418">
        <ele>386.4148946898058</ele>
        <time>2026-08-23T23:10:53Z</time>
      </trkpt>
      <trkpt lat="34.2973454239688" lon="108.70587763648527">
        <ele>388.0036840280518</ele>
        <time>2026-08-23T23:10:56Z</time>
      </trkpt>
      <trkpt lat="34.29715934277919" lon="108.70593107835522">
        <ele>387.8376074619591</ele>
        <time>2026-08-23T23:11:05Z</time>
      </trkpt>
      <trkpt lat="34.29709959257761" lon="108.70593057791615">
        <ele>387.4198699183762</ele>
        <time>2026-08-23T23:11:08Z</time>
      </trkpt>
      <trkpt lat="34.2969301942818" lon="108.70598970550338">
        <ele>387.9362893179059</ele>
        <time>2026-08-23T23:11:17Z</time>
      </trkpt>
      <trkpt lat="34.2966441641409" lon="108.70600425922207">
        <ele>388.1141752060503</ele>
        <time>2026-08-23T23:11:32Z</time>
      </trkpt>
      <trkpt lat="34.29634148894438" lon="108.70606898583392">
        <ele>389.29130139760673</ele>
        <time>2026-08-23T23:11:57Z</time>
      </trkpt>
      <trkpt lat="34.29618667913175" lon="108.70609398886262">
        <ele>388.8802963299677</ele>
        <time>2026-08-23T23:12:05Z</time>
      </trkpt>
      <trkpt lat="34.29611019907326" lon="108.70608943857069">
        <ele>388.8015084238723</ele>
        <time>2026-08-23T23:12:09Z</time>
      </trkpt>
      <trkpt lat="34.295881788828865" lon="108.70615143249248">
        <ele>390.17434373963624</ele>
        <time>2026-08-23T23:12:27Z</time>
      </trkpt>
      <trkpt lat="34.29579145315812" lon="108.70615214430941">
        <ele>389.3445545397699</ele>
        <time>2026-08-23T23:12:33Z</time>
      </trkpt>
      <trkpt lat="34.29579199965964" lon="108.70609018582351">
        <ele>390.3997846348211</ele>
        <time>2026-08-23T23:12:39Z</time>
      </trkpt>
      <trkpt lat="34.296080588007754" lon="108.70602633680419">
        <ele>389.16512268874794</ele>
        <time>2026-08-23T23:12:54Z</time>
      </trkpt>
      <trkpt lat="34.29634619580855" lon="108.70595988346744">
        <ele>389.3358999742195</ele>
        <time>2026-08-23T23:13:09Z</time>
      </trkpt>
      <trkpt lat="34.29653035347043" lon="108.70592274899154">
        <ele>389.7736609587446</ele>
        <time>2026-08-23T23:13:21Z</time>
      </trkpt>
      <trkpt lat="34.29676051941321" lon="108.70592548758378">
        <ele>388.34463458508253</ele>
        <time>2026-08-23T23:13:36Z</time>
      </trkpt>
      <trkpt lat="34.29695761978674" lon="108.7058852322638">
        <ele>388.20370293874294</ele>
        <time>2026-08-23T23:13:48Z</time>
      </trkpt>
      <trkpt lat="34.29724355172812" lon="108.70584177170946">
        <ele>387.50106572918594</ele>
        <time>2026-08-23T23:14:05Z</time>
      </trkpt>
      <trkpt lat="34.29748317530872" lon="108.70576588431162">
        <ele>389.44676620606333</ele>
        <time>2026-08-23T23:14:22Z</time>
      </trkpt>
      <trkpt lat="34.29757722173764" lon="108.70576540422637">
        <ele>389.9594861920923</ele>
        <time>2026-08-23T23:14:31Z</time>
      </trkpt>
      <trkpt lat="34.29788012301554" lon="108.7056995286455">
        <ele>389.57412477210164</ele>
        <time>2026-08-23T23:14:55Z</time>
      </trkpt>
      <trkpt lat="34.29809110547147" lon="108.70566485691384">
        <ele>388.71705829072744</ele>
        <time>2026-08-23T23:15:07Z</time>
      </trkpt>
      <trkpt lat="34.29814761022337" lon="108.70567558930425">
        <ele>389.5543322917074</ele>
        <time>2026-08-23T23:15:10Z</time>
      </trkpt>
      <trkpt lat="34.29846078109084" lon="108.70561362618763">
        <ele>388.4387043546885</ele>
        <time>2026-08-23T23:15:28Z</time>
      </trkpt>
      <trkpt lat="34.29878303891064" lon="108.70554276894461">
        <ele>390.4855464268476</ele>
        <time>2026-08-23T23:15:46Z</time>
      </trkpt>
      <trkpt lat="34.298943741965324" lon="108.7055174232364">
        <ele>388.6337344367057</ele>
        <time>2026-08-23T23:15:55Z</time>
      </trkpt>
      <trkpt lat="34.29901454357562" lon="108.70548156932504">
        <ele>390.3468652125448</ele>
        <time>2026-08-23T23:16:01Z</time>
      </trkpt>
      <trkpt lat="34.29919893759099" lon="108.70545479067795">
        <ele>390.6508028563112</ele>
        <time>2026-08-23T23:16:16Z</time>
      </trkpt>
      <trkpt lat="34.299256958253025" lon="108.70548519109953">
        <ele>390.65390034299344</ele>
        <time>2026-08-23T23:16:20Z</time>
      </trkpt>
      <trkpt lat="34.29931863598162" lon="108.70557317830738">
        <ele>390.29787760507315</ele>
        <time>2026-08-23T23:16:26Z</time>
      </trkpt>
      <trkpt lat="34.29935591801839" lon="108.70582619412612">
        <ele>390.3888026373461</ele>
        <time>2026-08-23T23:16:38Z</time>
      </trkpt>
      <trkpt lat="34.29938518302069" lon="108.70591984659588">
        <ele>391.74284217786044</ele>
        <time>2026-08-23T23:16:44Z</time>
      </trkpt>
      <trkpt lat="34.29938767978349" lon="108.70600780108326">
        <ele>390.4539248496294</ele>
        <time>2026-08-23T23:16:50Z</time>
      </trkpt>
      <trkpt lat="34.299418173724135" lon="108.70608655515545">
        <ele>390.61763142980635</ele>
        <time>2026-08-23T23:16:56Z</time>
      </trkpt>
      <trkpt lat="34.29944117656665" lon="108.70644666543663">
        <ele>389.81935251969844</ele>
        <time>2026-08-23T23:17:14Z</time>
      </trkpt>
      <trkpt lat="34.299456562176175" lon="108.70651964674232">
        <ele>389.7147806957364</ele>
        <time>2026-08-23T23:17:17Z</time>
      </trkpt>
      <trkpt lat="34.29944914980943" lon="108.70658949396866">
        <ele>390.50720925070345</ele>
        <time>2026-08-23T23:17:20Z</time>
      </trkpt>
      <trkpt lat="34.29948269188439" lon="108.70678638869985">
        <ele>390.7311917152256</ele>
        <time>2026-08-23T23:17:29Z</time>
      </trkpt>
      <trkpt lat="34.299511505245974" lon="108.70686888071543">
        <ele>390.50338757317513</ele>
        <time>2026-08-23T23:17:35Z</time>
      </trkpt>
      <trkpt lat="34.299521171291445" lon="108.70697256951583">
        <ele>391.01097080111504</ele>
        <time>2026-08-23T23:17:45Z</time>
      </trkpt>
      <trkpt lat="34.299602221687664" lon="108.7070979324288">
        <ele>390.6501316986978</ele>
        <time>2026-08-23T23:17:54Z</time>
      </trkpt>
      <trkpt lat="34.29956876012451" lon="108.70719088410264">
        <ele>390.8129843091592</ele>
        <time>2026-08-23T23:18:00Z</time>
      </trkpt>
      <trkpt lat="34.29953592716474" lon="108.70723712848066">
        <ele>390.4198872651905</ele>
        <time>2026-08-23T23:18:03Z</time>
      </trkpt>
      <trkpt lat="34.29951562279767" lon="108.70736204653747">
        <ele>390.9402370490134</ele>
        <time>2026-08-23T23:18:09Z</time>
      </trkpt>
      <trkpt lat="34.29951317465653" lon="108.70751080063937">
        <ele>390.78266808670014</ele>
        <time>2026-08-23T23:18:17Z</time>
      </trkpt>
      <trkpt lat="34.29953716314356" lon="108.70759409081198">
        <ele>391.7636951673776</ele>
        <time>2026-08-23T23:18:23Z</time>
      </trkpt>
      <trkpt lat="34.29954874048956" lon="108.7079458328286">
        <ele>391.1906005833298</ele>
        <time>2026-08-23T23:18:47Z</time>
      </trkpt>
      <trkpt lat="34.29955985414816" lon="108.70813251336891">
        <ele>391.23819292802364</ele>
        <time>2026-08-23T23:18:56Z</time>
      </trkpt>
      <trkpt lat="34.29957982255621" lon="108.7081963073027">
        <ele>390.24808178283274</ele>
        <time>2026-08-23T23:18:59Z</time>
      </trkpt>
      <trkpt lat="34.29962096314319" lon="108.7082406797119">
        <ele>391.37543649598956</ele>
        <time>2026-08-23T23:19:02Z</time>
      </trkpt>
      <trkpt lat="34.299621192826365" lon="108.70832699665793">
        <ele>390.23304618522525</ele>
        <time>2026-08-23T23:19:08Z</time>
      </trkpt>
      <trkpt lat="34.299565197553186" lon="108.70835098215038">
        <ele>389.80288311559707</ele>
        <time>2026-08-23T23:19:14Z</time>
      </trkpt>
      <trkpt lat="34.299520113771564" lon="108.70839300181811">
        <ele>391.67281923629344</ele>
        <time>2026-08-23T23:19:20Z</time>
      </trkpt>
      <trkpt lat="34.299504421048844" lon="108.70849227823362">
        <ele>391.65781266056</ele>
        <time>2026-08-23T23:19:26Z</time>
      </trkpt>
      <trkpt lat="34.29957215327412" lon="108.70850727726344">
        <ele>389.92962079308927</ele>
        <time>2026-08-23T23:19:32Z</time>
      </trkpt>
      <trkpt lat="34.29964572679129" lon="108.70848217134613">
        <ele>390.3280301000923</ele>
        <time>2026-08-23T23:19:38Z</time>
      </trkpt>
      <trkpt lat="34.299686418761496" lon="108.7087769150969">
        <ele>390.99687797855586</ele>
        <time>2026-08-23T23:19:56Z</time>
      </trkpt>
      <trkpt lat="34.299701206588274" lon="108.70908420057715">
        <ele>389.83939042221755</ele>
        <time>2026-08-23T23:20:11Z</time>
      </trkpt>
      <trkpt lat="34.29971872653034" lon="108.70915144274913">
        <ele>391.53591414820403</ele>
        <time>2026-08-23T23:20:14Z</time>
      </trkpt>
      <trkpt lat="34.29973541452771" lon="108.70944343045859">
        <ele>390.32001668587327</ele>
        <time>2026-08-23T23:20:30Z</time>
      </trkpt>
      <trkpt lat="34.29977181563161" lon="108.70951846180267">
        <ele>390.6255176085979</ele>
        <time>2026-08-23T23:20:36Z</time>
      </trkpt>
      <trkpt lat="34.29981035514388" lon="108.70976116341045">
        <ele>393.8858403740451</ele>
        <time>2026-08-23T23:20:48Z</time>
      </trkpt>
      <trkpt lat="34.299793393420586" lon="108.7100468865352">
        <ele>390.18760345783085</ele>
        <time>2026-08-23T23:21:03Z</time>
      </trkpt>
      <trkpt lat="34.2998302447933" lon="108.71022691615246">
        <ele>390.3252584338188</ele>
        <time>2026-08-23T23:21:15Z</time>
      </trkpt>
      <trkpt lat="34.29980716270083" lon="108.71031189319156">
        <ele>389.7693166146055</ele>
        <time>2026-08-23T23:21:21Z</time>
      </trkpt>
      <trkpt lat="34.299729037881384" lon="108.71044547996465">
        <ele>389.877191898413</ele>
        <time>2026-08-23T23:21:30Z</time>
      </trkpt>
      <trkpt lat="34.29961703444823" lon="108.7105616080369">
        <ele>391.30179886706173</ele>
        <time>2026-08-23T23:21:39Z</time>
      </trkpt>
      <trkpt lat="34.29953164203771" lon="108.7106078930066">
        <ele>390.47005084715784</ele>
        <time>2026-08-23T23:21:45Z</time>
      </trkpt>
      <trkpt lat="34.299498345449734" lon="108.71064879173682">
        <ele>390.34704698622227</ele>
        <time>2026-08-23T23:21:48Z</time>
      </trkpt>
      <trkpt lat="34.29947305729589" lon="108.71072322705649">
        <ele>391.0385707328096</ele>
        <time>2026-08-23T23:21:54Z</time>
      </trkpt>
      <trkpt lat="34.299482874290575" lon="108.71079404066137">
        <ele>392.4842324210331</ele>
        <time>2026-08-23T23:22:00Z</time>
      </trkpt>
      <trkpt lat="34.29944011920352" lon="108.71082298927479">
        <ele>391.6463397992775</ele>
        <time>2026-08-23T23:22:03Z</time>
      </trkpt>
      <trkpt lat="34.29940628332066" lon="108.71087575765681">
        <ele>391.5001968452707</ele>
        <time>2026-08-23T23:22:49Z</time>
      </trkpt>
      <trkpt lat="34.29933835871882" lon="108.71088109733445">
        <ele>390.8581777717918</ele>
        <time>2026-08-23T23:22:55Z</time>
      </trkpt>
      <trkpt lat="34.29915640704227" lon="108.7109571042692">
        <ele>389.79240797273815</ele>
        <time>2026-08-23T23:23:10Z</time>
      </trkpt>
      <trkpt lat="34.299108739379875" lon="108.71096062497818">
        <ele>388.9274112051353</ele>
        <time>2026-08-23T23:23:13Z</time>
      </trkpt>
      <trkpt lat="34.299060680394" lon="108.7109912949944">
        <ele>389.00933732744306</ele>
        <time>2026-08-23T23:23:16Z</time>
      </trkpt>
      <trkpt lat="34.29878017362551" lon="108.71110532010614">
        <ele>389.65791059378535</ele>
        <time>2026-08-23T23:23:31Z</time>
      </trkpt>
      <trkpt lat="34.29850141170044" lon="108.711242531947">
        <ele>389.5429713241756</ele>
        <time>2026-08-23T23:23:55Z</time>
      </trkpt>
      <trkpt lat="34.29827090398095" lon="108.71132327562556">
        <ele>388.9695317167789</ele>
        <time>2026-08-23T23:24:13Z</time>
      </trkpt>
      <trkpt lat="34.29819916061911" lon="108.71131781931578">
        <ele>389.57070773560554</ele>
        <time>2026-08-23T23:24:19Z</time>
      </trkpt>
      <trkpt lat="34.298103533375745" lon="108.71112225721347">
        <ele>388.9842101857066</ele>
        <time>2026-08-23T23:24:32Z</time>
      </trkpt>
      <trkpt lat="34.298078184783265" lon="108.71103790680654">
        <ele>389.8571221223101</ele>
        <time>2026-08-23T23:24:38Z</time>
      </trkpt>
      <trkpt lat="34.2980728340396" lon="108.71095020466478">
        <ele>389.2889097398147</ele>
        <time>2026-08-23T23:24:44Z</time>
      </trkpt>
      <trkpt lat="34.29803262520635" lon="108.71077135075343">
        <ele>389.1410725489259</ele>
        <time>2026-08-23T23:24:56Z</time>
      </trkpt>
      <trkpt lat="34.29798366376093" lon="108.71063377374419">
        <ele>388.6425055023283</ele>
        <time>2026-08-23T23:25:05Z</time>
      </trkpt>
      <trkpt lat="34.29794026000128" lon="108.71026529723">
        <ele>388.15924080926925</ele>
        <time>2026-08-23T23:25:29Z</time>
      </trkpt>
      <trkpt lat="34.29795531911548" lon="108.71017541130949">
        <ele>388.6122507452965</ele>
        <time>2026-08-23T23:25:35Z</time>
      </trkpt>
      <trkpt lat="34.29790450693383" lon="108.71016265600824">
        <ele>389.93546441104263</ele>
        <time>2026-08-23T23:25:41Z</time>
      </trkpt>
      <trkpt lat="34.29776145666866" lon="108.71024614222303">
        <ele>388.13433225173503</ele>
        <time>2026-08-23T23:25:53Z</time>
      </trkpt>
      <trkpt lat="34.29777570977355" lon="108.71033187081049">
        <ele>387.94328723475337</ele>
        <time>2026-08-23T23:25:59Z</time>
      </trkpt>
      <trkpt lat="34.29781451920182" lon="108.71037094215059">
        <ele>386.6178925745189</ele>
        <time>2026-08-23T23:26:05Z</time>
      </trkpt>
      <trkpt lat="34.29781367704082" lon="108.71045401193041">
        <ele>387.6703953715041</ele>
        <time>2026-08-23T23:26:11Z</time>
      </trkpt>
      <trkpt lat="34.29756624412863" lon="108.71049984443317">
        <ele>394.1773910680786</ele>
        <time>2026-08-23T23:26:29Z</time>
      </trkpt>
      <trkpt lat="34.297784073926586" lon="108.71050218926734">
        <ele>409.3342555286512</ele>
        <time>2026-08-23T23:26:42Z</time>
      </trkpt>
    </trkseg>
  </trk>
</gpx>