<?xml version="1.0" encoding="UTF-8"?>
<gpx xmlns="http://www.topografix.com/GPX/1/1" xmlns:gpxtpx="http://www.garmin.com/xmlschemas/TrackPointExtension/v1" xmlns:xsi="http://www.w3.org/2001/XMLSchema-instance" xsi:schemaLocation="http://www.topografix.com/GPX/1/1 http://www.topografix.com/GPX/1/1/gpx.xsd" version="1.1" creator="gpx.py -- https://github.com/tkrajina/gpxpy">
  <trk>
    <name>gpx from keep</name>
    <type>Ride</type>
    <trkseg>
      <trkpt lat="34.306457667327415" lon="109.03687782333881">
        <ele>391.4105215584859</ele>
        <time>2022-03-02T12:52:55Z</time>
      </trkpt>
      <trkpt lat="34.30653868061802" lon="109.03686977063599">
        <ele>391.3306213254109</ele>
        <time>2022-03-02T12:52:58Z</time>
      </trkpt>
      <trkpt lat="34.30648105771302" lon="109.03678776857345">
        <ele>391.4485056595877</ele>
        <time>2022-03-02T12:53:02Z</time>
      </trkpt>
      <trkpt lat="34.306483710744814" lon="109.036689726685">
        <ele>391.355467681773</ele>
        <time>2022-03-02T12:53:09Z</time>
      </trkpt>
      <trkpt lat="34.30654125252735" lon="109.03663192008061">
        <ele>391.6794596295804</ele>
        <time>2022-03-02T12:53:14Z</time>
      </trkpt>
      <trkpt lat="34.3064744474" lon="109.03647645528102">
        <ele>391.69629824720323</ele>
        <time>2022-03-02T12:53:26Z</time>
      </trkpt>
      <trkpt lat="34.30646368812258" lon="109.0363756476747">
        <ele>391.5789511082694</ele>
        <time>2022-03-02T12:53:33Z</time>
      </trkpt>
      <trkpt lat="34.306494113914745" lon="109.03629126213121">
        <ele>391.14074128493667</ele>
        <time>2022-03-02T12:53:39Z</time>
      </trkpt>
      <trkpt lat="34.30654421440199" lon="109.03622478107404">
        <ele>391.2581695038825</ele>
        <time>2022-03-02T12:53:46Z</time>
      </trkpt>
      <trkpt lat="34.30654237733233" lon="109.03612734354547">
        <ele>391.50297980289906</ele>
        <time>2022-03-02T12:54:04Z</time>
      </trkpt>
      <trkpt lat="34.306509127307386" lon="109.03604959796337">
        <ele>391.94733911100775</ele>
        <time>2022-03-02T12:54:16Z</time>
      </trkpt>
      <trkpt lat="34.306435532935744" lon="109.03607036363773">
        <ele>392.97149641253054</ele>
        <time>2022-03-02T12:55:36Z</time>
      </trkpt>
      <trkpt lat="34.30645249480086" lon="109.03569496811248">
        <ele>392.49881166405976</ele>
        <time>2022-03-02T12:55:44Z</time>
      </trkpt>
      <trkpt lat="34.306468109537654" lon="109.0356082912448">
        <ele>392.0479307407513</ele>
        <time>2022-03-02T12:55:46Z</time>
      </trkpt>
      <trkpt lat="34.306447940602" lon="109.03540667319568">
        <ele>391.88333852309734</ele>
        <time>2022-03-02T12:55:50Z</time>
      </trkpt>
      <trkpt lat="34.30645710826166" lon="109.03527896193799">
        <ele>392.4593973029405</ele>
        <time>2022-03-02T12:55:54Z</time>
      </trkpt>
      <trkpt lat="34.306421758296565" lon="109.03515180230836">
        <ele>391.62530854158103</ele>
        <time>2022-03-02T12:55:56Z</time>
      </trkpt>
      <trkpt lat="34.3064187707709" lon="109.03502088783313">
        <ele>392.78604104649276</ele>
        <time>2022-03-02T12:55:58Z</time>
      </trkpt>
      <trkpt lat="34.3064493467842" lon="109.03487351934577">
        <ele>391.71367872226983</ele>
        <time>2022-03-02T12:56:00Z</time>
      </trkpt>
      <trkpt lat="34.306383878378284" lon="109.03440481019199">
        <ele>391.8952055973932</ele>
        <time>2022-03-02T12:56:10Z</time>
      </trkpt>
      <trkpt lat="34.30629475012552" lon="109.03408718881761">
        <ele>391.76915566716343</ele>
        <time>2022-03-02T12:56:18Z</time>
      </trkpt>
      <trkpt lat="34.30616980712437" lon="109.03382485655">
        <ele>392.4259652029723</ele>
        <time>2022-03-02T12:56:27Z</time>
      </trkpt>
      <trkpt lat="34.30619510360326" lon="109.03373246779796">
        <ele>392.5312827024609</ele>
        <time>2022-03-02T12:56:29Z</time>
      </trkpt>
      <trkpt lat="34.30627629643412" lon="109.03364748373055">
        <ele>392.2676070285961</ele>
        <time>2022-03-02T12:56:31Z</time>
      </trkpt>
      <trkpt lat="34.30631092894631" lon="109.03336579352477">
        <ele>391.9560055118054</ele>
        <time>2022-03-02T12:56:36Z</time>
      </trkpt>
      <trkpt lat="34.30640052936542" lon="109.0332131346306">
        <ele>391.6051818523556</ele>
        <time>2022-03-02T12:56:39Z</time>
      </trkpt>
      <trkpt lat="34.306399900169794" lon="109.03296467919769">
        <ele>394.15916291996837</ele>
        <time>2022-03-02T12:56:45Z</time>
      </trkpt>
      <trkpt lat="34.30637890412187" lon="109.03283274681462">
        <ele>393.31508802901953</ele>
        <time>2022-03-02T12:56:48Z</time>
      </trkpt>
      <trkpt lat="34.30636311872996" lon="109.03239871319187">
        <ele>393.62256859615445</ele>
        <time>2022-03-02T12:56:56Z</time>
      </trkpt>
      <trkpt lat="34.30634336125229" lon="109.03223235863531">
        <ele>393.36103173717856</ele>
        <time>2022-03-02T12:56:59Z</time>
      </trkpt>
      <trkpt lat="34.30635506087803" lon="109.03190990619403">
        <ele>393.29297518450767</ele>
        <time>2022-03-02T12:57:04Z</time>
      </trkpt>
      <trkpt lat="34.30627343421504" lon="109.0315212280392">
        <ele>392.04016803670675</ele>
        <time>2022-03-02T12:57:12Z</time>
      </trkpt>
      <trkpt lat="34.30627922131629" lon="109.03130867557296">
        <ele>391.4471845962107</ele>
        <time>2022-03-02T12:57:16Z</time>
      </trkpt>
      <trkpt lat="34.3064132254563" lon="109.03111587380404">
        <ele>391.9933360926807</ele>
        <time>2022-03-02T12:57:20Z</time>
      </trkpt>
      <trkpt lat="34.306504481151876" lon="109.031062435256">
        <ele>391.87908332329243</ele>
        <time>2022-03-02T12:57:22Z</time>
      </trkpt>
      <trkpt lat="34.30679353717406" lon="109.030998849135">
        <ele>391.57900413591415</ele>
        <time>2022-03-02T12:57:28Z</time>
      </trkpt>
      <trkpt lat="34.30707987626813" lon="109.03091290669732">
        <ele>391.8807883253321</ele>
        <time>2022-03-02T12:57:34Z</time>
      </trkpt>
      <trkpt lat="34.30753378305177" lon="109.03084921250115">
        <ele>392.37363786809146</ele>
        <time>2022-03-02T12:57:44Z</time>
      </trkpt>
      <trkpt lat="34.30780525137031" lon="109.03080470124868">
        <ele>394.16680540982634</ele>
        <time>2022-03-02T12:57:50Z</time>
      </trkpt>
      <trkpt lat="34.30788483523428" lon="109.03077533970021">
        <ele>394.08677922096103</ele>
        <time>2022-03-02T12:57:52Z</time>
      </trkpt>
      <trkpt lat="34.30833831898301" lon="109.03072788939484">
        <ele>393.8337965607643</ele>
        <time>2022-03-02T12:58:02Z</time>
      </trkpt>
      <trkpt lat="34.30878172537605" lon="109.03067836796122">
        <ele>394.0709765739739</ele>
        <time>2022-03-02T12:58:12Z</time>
      </trkpt>
      <trkpt lat="34.309225448860055" lon="109.03052798821066">
        <ele>393.34505837596953</ele>
        <time>2022-03-02T12:58:22Z</time>
      </trkpt>
      <trkpt lat="34.30948476711049" lon="109.03039443774945">
        <ele>393.05362517386675</ele>
        <time>2022-03-02T12:58:28Z</time>
      </trkpt>
      <trkpt lat="34.30956921228928" lon="109.03032923212761">
        <ele>393.0674008978531</ele>
        <time>2022-03-02T12:58:30Z</time>
      </trkpt>
      <trkpt lat="34.30975423991413" lon="109.03023199561868">
        <ele>393.1081429142505</ele>
        <time>2022-03-02T12:58:34Z</time>
      </trkpt>
      <trkpt lat="34.309916563087036" lon="109.03008522193895">
        <ele>392.77759771514684</ele>
        <time>2022-03-02T12:58:38Z</time>
      </trkpt>
      <trkpt lat="34.31000687115618" lon="109.03003049853704">
        <ele>393.8381026852876</ele>
        <time>2022-03-02T12:58:40Z</time>
      </trkpt>
      <trkpt lat="34.31041386585156" lon="109.0296558631088">
        <ele>392.8814737871289</ele>
        <time>2022-03-02T12:58:50Z</time>
      </trkpt>
      <trkpt lat="34.310802484987484" lon="109.02928699842806">
        <ele>391.4502756455913</ele>
        <time>2022-03-02T12:59:00Z</time>
      </trkpt>
      <trkpt lat="34.31115986315318" lon="109.02891028950046">
        <ele>391.32664462644607</ele>
        <time>2022-03-02T12:59:08Z</time>
      </trkpt>
      <trkpt lat="34.3112867182957" lon="109.02870575729347">
        <ele>391.1219550957903</ele>
        <time>2022-03-02T12:59:12Z</time>
      </trkpt>
      <trkpt lat="34.31141651250378" lon="109.02839458482559">
        <ele>391.84809025283903</ele>
        <time>2022-03-02T12:59:18Z</time>
      </trkpt>
      <trkpt lat="34.31149797233135" lon="109.02784346467031">
        <ele>393.00321273785084</ele>
        <time>2022-03-02T12:59:28Z</time>
      </trkpt>
      <trkpt lat="34.311488775292425" lon="109.02751440949021">
        <ele>393.378269540146</ele>
        <time>2022-03-02T12:59:34Z</time>
      </trkpt>
      <trkpt lat="34.3115788125463" lon="109.02714559771803">
        <ele>393.091950237751</ele>
        <time>2022-03-02T12:59:40Z</time>
      </trkpt>
      <trkpt lat="34.31172951000398" lon="109.0268140795762">
        <ele>392.38434708863497</ele>
        <time>2022-03-02T12:59:46Z</time>
      </trkpt>
      <trkpt lat="34.31189005926154" lon="109.02661781194395">
        <ele>392.5258073322475</ele>
        <time>2022-03-02T12:59:50Z</time>
      </trkpt>
      <trkpt lat="34.31199966663881" lon="109.02655213085866">
        <ele>392.7037941934541</ele>
        <time>2022-03-02T12:59:52Z</time>
      </trkpt>
      <trkpt lat="34.312089686737956" lon="109.02645322884825">
        <ele>392.4791846284643</ele>
        <time>2022-03-02T12:59:54Z</time>
      </trkpt>
      <trkpt lat="34.31218902729115" lon="109.02638682729753">
        <ele>392.39506480190903</ele>
        <time>2022-03-02T12:59:56Z</time>
      </trkpt>
      <trkpt lat="34.31237979580849" lon="109.02616540411243">
        <ele>392.97552333399653</ele>
        <time>2022-03-02T13:00:02Z</time>
      </trkpt>
      <trkpt lat="34.31258949269689" lon="109.02608860627315">
        <ele>392.6692200554535</ele>
        <time>2022-03-02T13:00:06Z</time>
      </trkpt>
      <trkpt lat="34.31268206255886" lon="109.02600066069232">
        <ele>392.77449635602534</ele>
        <time>2022-03-02T13:00:08Z</time>
      </trkpt>
      <trkpt lat="34.312735585057034" lon="109.02589948316471">
        <ele>392.91276676766574</ele>
        <time>2022-03-02T13:00:10Z</time>
      </trkpt>
      <trkpt lat="34.31281126652081" lon="109.02584709924142">
        <ele>392.1953692352399</ele>
        <time>2022-03-02T13:00:12Z</time>
      </trkpt>
      <trkpt lat="34.31292788719652" lon="109.02582063226393">
        <ele>392.8167618736625</ele>
        <time>2022-03-02T13:00:14Z</time>
      </trkpt>
      <trkpt lat="34.31310996368286" lon="109.02574695536914">
        <ele>392.0721607301384</ele>
        <time>2022-03-02T13:00:18Z</time>
      </trkpt>
      <trkpt lat="34.313322232952586" lon="109.02566871744988">
        <ele>392.3308003908023</ele>
        <time>2022-03-02T13:00:24Z</time>
      </trkpt>
      <trkpt lat="34.31341305221592" lon="109.02565579928846">
        <ele>392.0831214841455</ele>
        <time>2022-03-02T13:00:26Z</time>
      </trkpt>
      <trkpt lat="34.31358676355829" lon="109.02557305924944">
        <ele>392.1085415268317</ele>
        <time>2022-03-02T13:00:30Z</time>
      </trkpt>
      <trkpt lat="34.313764750016496" lon="109.02550815851716">
        <ele>392.2127507524565</ele>
        <time>2022-03-02T13:00:34Z</time>
      </trkpt>
      <trkpt lat="34.31395631981806" lon="109.0254662301141">
        <ele>391.3322257511318</ele>
        <time>2022-03-02T13:00:38Z</time>
      </trkpt>
      <trkpt lat="34.31420533528672" lon="109.02533658714228">
        <ele>391.05620502401143</ele>
        <time>2022-03-02T13:00:44Z</time>
      </trkpt>
      <trkpt lat="34.314612954893086" lon="109.0250755366168">
        <ele>390.7539924159646</ele>
        <time>2022-03-02T13:00:54Z</time>
      </trkpt>
      <trkpt lat="34.3150072743385" lon="109.02476669783323">
        <ele>390.1292772507295</ele>
        <time>2022-03-02T13:01:04Z</time>
      </trkpt>
      <trkpt lat="34.3154303467189" lon="109.02449253789771">
        <ele>390.2036875784397</ele>
        <time>2022-03-02T13:01:14Z</time>
      </trkpt>
      <trkpt lat="34.315856008644346" lon="109.02424364682552">
        <ele>389.7470165239647</ele>
        <time>2022-03-02T13:01:24Z</time>
      </trkpt>
      <trkpt lat="34.3161091947546" lon="109.02412118059775">
        <ele>390.46924756560475</ele>
        <time>2022-03-02T13:01:30Z</time>
      </trkpt>
      <trkpt lat="34.316149760252735" lon="109.0240399682286">
        <ele>390.3990171691403</ele>
        <time>2022-03-02T13:01:32Z</time>
      </trkpt>
      <trkpt lat="34.31617155311882" lon="109.0239382114053">
        <ele>390.7631682995707</ele>
        <time>2022-03-02T13:01:34Z</time>
      </trkpt>
      <trkpt lat="34.31626928671739" lon="109.0237466776137">
        <ele>390.3841032758355</ele>
        <time>2022-03-02T13:01:38Z</time>
      </trkpt>
      <trkpt lat="34.31629103209809" lon="109.02354327289665">
        <ele>389.9764230279252</ele>
        <time>2022-03-02T13:01:42Z</time>
      </trkpt>
      <trkpt lat="34.3160700998838" lon="109.02299537971683">
        <ele>388.3090276103467</ele>
        <time>2022-03-02T13:01:54Z</time>
      </trkpt>
      <trkpt lat="34.31582837871284" lon="109.02244146412852">
        <ele>389.82191220950335</ele>
        <time>2022-03-02T13:02:08Z</time>
      </trkpt>
      <trkpt lat="34.315823105575426" lon="109.02233706298327">
        <ele>389.862133897841</ele>
        <time>2022-03-02T13:02:12Z</time>
      </trkpt>
      <trkpt lat="34.31588502937863" lon="109.02213271195369">
        <ele>391.270070056431</ele>
        <time>2022-03-02T13:02:24Z</time>
      </trkpt>
      <trkpt lat="34.31592219059896" lon="109.02177370619638">
        <ele>392.03183356299996</ele>
        <time>2022-03-02T13:02:32Z</time>
      </trkpt>
      <trkpt lat="34.31587565711422" lon="109.02113398763291">
        <ele>393.6352290539071</ele>
        <time>2022-03-02T13:02:52Z</time>
      </trkpt>
      <trkpt lat="34.31584277170201" lon="109.02069274533686">
        <ele>395.52294647786766</ele>
        <time>2022-03-02T13:03:04Z</time>
      </trkpt>
      <trkpt lat="34.31587681399637" lon="109.02052306381832">
        <ele>394.493914950639</ele>
        <time>2022-03-02T13:03:08Z</time>
      </trkpt>
      <trkpt lat="34.31588468952489" lon="109.01987447529187">
        <ele>397.3786560902372</ele>
        <time>2022-03-02T13:03:24Z</time>
      </trkpt>
      <trkpt lat="34.31587265495317" lon="109.01962314620891">
        <ele>398.5517075965181</ele>
        <time>2022-03-02T13:03:30Z</time>
      </trkpt>
      <trkpt lat="34.31591166779145" lon="109.01905811324903">
        <ele>400.1889501269907</ele>
        <time>2022-03-02T13:03:44Z</time>
      </trkpt>
      <trkpt lat="34.315892341442705" lon="109.01890690563573">
        <ele>401.14692931436</ele>
        <time>2022-03-02T13:03:48Z</time>
      </trkpt>
      <trkpt lat="34.31591767841963" lon="109.01867136521315">
        <ele>401.18009208887815</ele>
        <time>2022-03-02T13:03:54Z</time>
      </trkpt>
      <trkpt lat="34.31591014145535" lon="109.01853455453428">
        <ele>401.44578101299703</ele>
        <time>2022-03-02T13:03:58Z</time>
      </trkpt>
      <trkpt lat="34.3158645372" lon="109.01825415817801">
        <ele>402.7809118060395</ele>
        <time>2022-03-02T13:04:06Z</time>
      </trkpt>
      <trkpt lat="34.315816040715774" lon="109.01818673120385">
        <ele>404.1577573036775</ele>
        <time>2022-03-02T13:04:08Z</time>
      </trkpt>
      <trkpt lat="34.315831719798126" lon="109.01753612693628">
        <ele>404.62392423208803</ele>
        <time>2022-03-02T13:04:24Z</time>
      </trkpt>
      <trkpt lat="34.31585183240795" lon="109.01737514288996">
        <ele>405.6938786683604</ele>
        <time>2022-03-02T13:04:28Z</time>
      </trkpt>
      <trkpt lat="34.31583113224908" lon="109.01689687794796">
        <ele>405.5096157612279</ele>
        <time>2022-03-02T13:04:40Z</time>
      </trkpt>
      <trkpt lat="34.315854038591105" lon="109.016703833039">
        <ele>406.53857703879476</ele>
        <time>2022-03-02T13:04:44Z</time>
      </trkpt>
      <trkpt lat="34.3157657104632" lon="109.01634530950236">
        <ele>407.78628140781075</ele>
        <time>2022-03-02T13:04:52Z</time>
      </trkpt>
      <trkpt lat="34.315778213234005" lon="109.0157559885187">
        <ele>408.08306402899325</ele>
        <time>2022-03-02T13:05:06Z</time>
      </trkpt>
      <trkpt lat="34.31578523878328" lon="109.01559113684831">
        <ele>407.97077436745167</ele>
        <time>2022-03-02T13:05:10Z</time>
      </trkpt>
      <trkpt lat="34.31574194519331" lon="109.01530494751775">
        <ele>407.54981948714703</ele>
        <time>2022-03-02T13:05:18Z</time>
      </trkpt>
      <trkpt lat="34.31575178538865" lon="109.01504608987395">
        <ele>408.0911557553336</ele>
        <time>2022-03-02T13:05:24Z</time>
      </trkpt>
      <trkpt lat="34.31572589578712" lon="109.01476552554452">
        <ele>408.5535273626447</ele>
        <time>2022-03-02T13:05:32Z</time>
      </trkpt>
      <trkpt lat="34.31573166391011" lon="109.01444990712824">
        <ele>408.4419550895691</ele>
        <time>2022-03-02T13:05:40Z</time>
      </trkpt>
      <trkpt lat="34.315622502915176" lon="109.01420516182267">
        <ele>407.89002005010843</ele>
        <time>2022-03-02T13:05:48Z</time>
      </trkpt>
      <trkpt lat="34.31562938933032" lon="109.01394837024924">
        <ele>408.64355236198753</ele>
        <time>2022-03-02T13:05:56Z</time>
      </trkpt>
      <trkpt lat="34.3155366981179" lon="109.01353839143506">
        <ele>408.4118050802499</ele>
        <time>2022-03-02T13:06:08Z</time>
      </trkpt>
      <trkpt lat="34.3155270297376" lon="109.01343235228322">
        <ele>407.83906196337193</ele>
        <time>2022-03-02T13:06:12Z</time>
      </trkpt>
      <trkpt lat="34.3154928589611" lon="109.0133067596828">
        <ele>407.93217057641596</ele>
        <time>2022-03-02T13:06:16Z</time>
      </trkpt>
      <trkpt lat="34.315498244567685" lon="109.01316473870259">
        <ele>407.58378624822944</ele>
        <time>2022-03-02T13:06:20Z</time>
      </trkpt>
      <trkpt lat="34.31540564264854" lon="109.01274465699512">
        <ele>407.8206270141527</ele>
        <time>2022-03-02T13:06:32Z</time>
      </trkpt>
      <trkpt lat="34.315520546769676" lon="109.01261038430638">
        <ele>408.3143632048741</ele>
        <time>2022-03-02T13:06:36Z</time>
      </trkpt>
      <trkpt lat="34.315703680859556" lon="109.01250111349674">
        <ele>408.87795528769493</ele>
        <time>2022-03-02T13:06:40Z</time>
      </trkpt>
      <trkpt lat="34.31608851302679" lon="109.01205022836749">
        <ele>410.09660076070577</ele>
        <time>2022-03-02T13:06:56Z</time>
      </trkpt>
      <trkpt lat="34.31616986585419" lon="109.01186224441842">
        <ele>410.6912818029523</ele>
        <time>2022-03-02T13:07:00Z</time>
      </trkpt>
      <trkpt lat="34.31622951613091" lon="109.01178552150722">
        <ele>410.9332272754982</ele>
        <time>2022-03-02T13:07:02Z</time>
      </trkpt>
      <trkpt lat="34.316351828373094" lon="109.01147915734613">
        <ele>411.56049712374806</ele>
        <time>2022-03-02T13:07:08Z</time>
      </trkpt>
      <trkpt lat="34.3164638014282" lon="109.01128613721973">
        <ele>410.8154328651726</ele>
        <time>2022-03-02T13:07:12Z</time>
      </trkpt>
      <trkpt lat="34.31658258645296" lon="109.01114843264519">
        <ele>411.2624515360221</ele>
        <time>2022-03-02T13:07:16Z</time>
      </trkpt>
      <trkpt lat="34.31664989918107" lon="109.01103760647159">
        <ele>410.84189400076866</ele>
        <time>2022-03-02T13:07:18Z</time>
      </trkpt>
      <trkpt lat="34.31672301191415" lon="109.01095339950659">
        <ele>411.0792399039492</ele>
        <time>2022-03-02T13:07:20Z</time>
      </trkpt>
      <trkpt lat="34.316882473221774" lon="109.01082883976034">
        <ele>411.3922257348895</ele>
        <time>2022-03-02T13:07:24Z</time>
      </trkpt>
      <trkpt lat="34.317001279947675" lon="109.01067821291099">
        <ele>410.8045289386064</ele>
        <time>2022-03-02T13:07:28Z</time>
      </trkpt>
      <trkpt lat="34.31719175902566" lon="109.01059896396376">
        <ele>411.3765530651435</ele>
        <time>2022-03-02T13:07:34Z</time>
      </trkpt>
      <trkpt lat="34.31726905463348" lon="109.01061155822927">
        <ele>411.50263345986605</ele>
        <time>2022-03-02T13:07:36Z</time>
      </trkpt>
      <trkpt lat="34.31766398642133" lon="109.0105448588377">
        <ele>410.73026403877884</ele>
        <time>2022-03-02T13:07:46Z</time>
      </trkpt>
      <trkpt lat="34.317819084903824" lon="109.01057942610294">
        <ele>411.0193349365145</ele>
        <time>2022-03-02T13:07:48Z</time>
      </trkpt>
      <trkpt lat="34.31820214704516" lon="109.01052973374017">
        <ele>410.4437552122399</ele>
        <time>2022-03-02T13:07:52Z</time>
      </trkpt>
      <trkpt lat="34.31842307862425" lon="109.01054101340114">
        <ele>410.41060620639473</ele>
        <time>2022-03-02T13:07:54Z</time>
      </trkpt>
      <trkpt lat="34.318615955638016" lon="109.01052755578067">
        <ele>409.98483956512064</ele>
        <time>2022-03-02T13:07:56Z</time>
      </trkpt>
      <trkpt lat="34.31876360381315" lon="109.01047996870923">
        <ele>408.89128245506436</ele>
        <time>2022-03-02T13:07:58Z</time>
      </trkpt>
      <trkpt lat="34.31895430720455" lon="109.01048125787892">
        <ele>408.9155047638342</ele>
        <time>2022-03-02T13:08:00Z</time>
      </trkpt>
      <trkpt lat="34.31947460417777" lon="109.01039785910513">
        <ele>408.35762067325413</ele>
        <time>2022-03-02T13:08:06Z</time>
      </trkpt>
      <trkpt lat="34.320083663406336" lon="109.01037979719415">
        <ele>407.5616783667356</ele>
        <time>2022-03-02T13:08:12Z</time>
      </trkpt>
      <trkpt lat="34.32030370169605" lon="109.01038362182895">
        <ele>406.6024149991572</ele>
        <time>2022-03-02T13:08:14Z</time>
      </trkpt>
      <trkpt lat="34.320534559131545" lon="109.01034483704312">
        <ele>406.2700589830056</ele>
        <time>2022-03-02T13:08:16Z</time>
      </trkpt>
      <trkpt lat="34.32077819366398" lon="109.01034149410852">
        <ele>405.78865494485945</ele>
        <time>2022-03-02T13:08:18Z</time>
      </trkpt>
      <trkpt lat="34.32100550507187" lon="109.01030281062997">
        <ele>405.5655120322481</ele>
        <time>2022-03-02T13:08:20Z</time>
      </trkpt>
      <trkpt lat="34.32152758580338" lon="109.01012190786678">
        <ele>402.9373381556943</ele>
        <time>2022-03-02T13:08:24Z</time>
      </trkpt>
      <trkpt lat="34.32177963005784" lon="109.00997872270314">
        <ele>402.52682267222553</ele>
        <time>2022-03-02T13:08:26Z</time>
      </trkpt>
      <trkpt lat="34.3220467690852" lon="109.00985202298718">
        <ele>401.7384561812505</ele>
        <time>2022-03-02T13:08:28Z</time>
      </trkpt>
      <trkpt lat="34.322514295700145" lon="109.00972763397482">
        <ele>400.567717843689</ele>
        <time>2022-03-02T13:08:32Z</time>
      </trkpt>
      <trkpt lat="34.32273139212389" lon="109.00967027586753">
        <ele>400.0060172043741</ele>
        <time>2022-03-02T13:08:34Z</time>
      </trkpt>
      <trkpt lat="34.32288306807276" lon="109.00959230966315">
        <ele>399.47973007615656</ele>
        <time>2022-03-02T13:08:36Z</time>
      </trkpt>
      <trkpt lat="34.323343284426784" lon="109.00948828603828">
        <ele>397.82531763613224</ele>
        <time>2022-03-02T13:08:42Z</time>
      </trkpt>
      <trkpt lat="34.32380640639446" lon="109.00938742917246">
        <ele>396.5983954286203</ele>
        <time>2022-03-02T13:08:50Z</time>
      </trkpt>
      <trkpt lat="34.3242874835641" lon="109.00922264882156">
        <ele>396.5475835027173</ele>
        <time>2022-03-02T13:09:00Z</time>
      </trkpt>
      <trkpt lat="34.32473971860912" lon="109.00904613511152">
        <ele>394.9983689719811</ele>
        <time>2022-03-02T13:09:10Z</time>
      </trkpt>
      <trkpt lat="34.32523305931614" lon="109.00882809611755">
        <ele>394.9818503437564</ele>
        <time>2022-03-02T13:09:20Z</time>
      </trkpt>
      <trkpt lat="34.325601069688425" lon="109.00865764738728">
        <ele>394.83616105187684</ele>
        <time>2022-03-02T13:09:28Z</time>
      </trkpt>
      <trkpt lat="34.32596735331237" lon="109.00844579180917">
        <ele>395.1594462459907</ele>
        <time>2022-03-02T13:09:36Z</time>
      </trkpt>
      <trkpt lat="34.32605150492814" lon="109.0083818930331">
        <ele>395.1139196436852</ele>
        <time>2022-03-02T13:09:38Z</time>
      </trkpt>
      <trkpt lat="34.3261404417996" lon="109.00834270672813">
        <ele>394.86180682387203</ele>
        <time>2022-03-02T13:09:40Z</time>
      </trkpt>
      <trkpt lat="34.32658911854911" lon="109.00805373552018">
        <ele>394.47183677367866</ele>
        <time>2022-03-02T13:09:50Z</time>
      </trkpt>
      <trkpt lat="34.326747413956" lon="109.00793732699067">
        <ele>394.5708901723847</ele>
        <time>2022-03-02T13:09:54Z</time>
      </trkpt>
      <trkpt lat="34.326837818479945" lon="109.0078999403765">
        <ele>394.2053025299683</ele>
        <time>2022-03-02T13:09:56Z</time>
      </trkpt>
      <trkpt lat="34.32699693717543" lon="109.00776914800397">
        <ele>394.00565951969475</ele>
        <time>2022-03-02T13:10:00Z</time>
      </trkpt>
      <trkpt lat="34.327083932763536" lon="109.00772259832434">
        <ele>394.0238662241027</ele>
        <time>2022-03-02T13:10:02Z</time>
      </trkpt>
      <trkpt lat="34.32729526825028" lon="109.00753195234017">
        <ele>394.41338799055666</ele>
        <time>2022-03-02T13:10:08Z</time>
      </trkpt>
      <trkpt lat="34.327532552477294" lon="109.0073593790426">
        <ele>394.26582469418645</ele>
        <time>2022-03-02T13:10:14Z</time>
      </trkpt>
      <trkpt lat="34.32760413833026" lon="109.00728641928193">
        <ele>394.06382879428566</ele>
        <time>2022-03-02T13:10:16Z</time>
      </trkpt>
      <trkpt lat="34.32809126007076" lon="109.00700716807096">
        <ele>394.0137456934899</ele>
        <time>2022-03-02T13:10:30Z</time>
      </trkpt>
      <trkpt lat="34.328106274684735" lon="109.0070103031271">
        <ele>394.11067975871265</ele>
        <time>2022-03-02T13:10:40Z</time>
      </trkpt>
      <trkpt lat="34.32815687276789" lon="109.00681856145934">
        <ele>395.22528140153736</ele>
        <time>2022-03-02T13:11:27Z</time>
      </trkpt>
      <trkpt lat="34.32808888005371" lon="109.00634247656832">
        <ele>394.4897101800889</ele>
        <time>2022-03-02T13:11:37Z</time>
      </trkpt>
      <trkpt lat="34.32804986335892" lon="109.006217659444">
        <ele>394.7893791599199</ele>
        <time>2022-03-02T13:11:41Z</time>
      </trkpt>
      <trkpt lat="34.32801865423264" lon="109.00590381248625">
        <ele>393.6483252653852</ele>
        <time>2022-03-02T13:11:47Z</time>
      </trkpt>
      <trkpt lat="34.32785105245081" lon="109.00534071331789">
        <ele>395.2207438526675</ele>
        <time>2022-03-02T13:11:58Z</time>
      </trkpt>
      <trkpt lat="34.32781141052898" lon="109.00525475855856">
        <ele>395.2426918996498</ele>
        <time>2022-03-02T13:12:00Z</time>
      </trkpt>
      <trkpt lat="34.32780468889031" lon="109.00515476106668">
        <ele>395.36716753430665</ele>
        <time>2022-03-02T13:12:02Z</time>
      </trkpt>
      <trkpt lat="34.327744580651874" lon="109.00497271945325">
        <ele>395.87190309911966</ele>
        <time>2022-03-02T13:12:06Z</time>
      </trkpt>
      <trkpt lat="34.32773789838521" lon="109.00484758460405">
        <ele>395.20548858772963</ele>
        <time>2022-03-02T13:12:08Z</time>
      </trkpt>
      <trkpt lat="34.327752911531036" lon="109.00472233700542">
        <ele>395.08371094055474</ele>
        <time>2022-03-02T13:12:10Z</time>
      </trkpt>
      <trkpt lat="34.32774799676045" lon="109.00461137323454">
        <ele>395.1161840343848</ele>
        <time>2022-03-02T13:12:12Z</time>
      </trkpt>
      <trkpt lat="34.32779606068523" lon="109.00439060641867">
        <ele>395.1659462163225</ele>
        <time>2022-03-02T13:12:16Z</time>
      </trkpt>
      <trkpt lat="34.32784394204046" lon="109.00426723270283">
        <ele>395.17958435136825</ele>
        <time>2022-03-02T13:12:18Z</time>
      </trkpt>
      <trkpt lat="34.32788620290835" lon="109.0040490553573">
        <ele>394.66645004507154</ele>
        <time>2022-03-02T13:12:22Z</time>
      </trkpt>
      <trkpt lat="34.32784860093974" lon="109.00341329018626">
        <ele>395.3390233675018</ele>
        <time>2022-03-02T13:12:34Z</time>
      </trkpt>
      <trkpt lat="34.327825751594325" lon="109.003011196745">
        <ele>395.23748134821653</ele>
        <time>2022-03-02T13:12:40Z</time>
      </trkpt>
      <trkpt lat="34.32782513264816" lon="109.00274926103752">
        <ele>395.5818451764062</ele>
        <time>2022-03-02T13:12:44Z</time>
      </trkpt>
      <trkpt lat="34.32779839347177" lon="109.00255345426729">
        <ele>396.02102301828563</ele>
        <time>2022-03-02T13:12:48Z</time>
      </trkpt>
      <trkpt lat="34.32782697154523" lon="109.00219064065493">
        <ele>396.2187215620652</ele>
        <time>2022-03-02T13:12:54Z</time>
      </trkpt>
      <trkpt lat="34.327776092082296" lon="109.00180935778434">
        <ele>398.6721585150808</ele>
        <time>2022-03-02T13:13:02Z</time>
      </trkpt>
      <trkpt lat="34.327776172755314" lon="109.0016976139418">
        <ele>398.483544094488</ele>
        <time>2022-03-02T13:13:04Z</time>
      </trkpt>
      <trkpt lat="34.327724217430564" lon="109.00130769162102">
        <ele>395.9689749618992</ele>
        <time>2022-03-02T13:13:10Z</time>
      </trkpt>
      <trkpt lat="34.32774199904225" lon="109.00117243924855">
        <ele>396.5024928357452</ele>
        <time>2022-03-02T13:13:12Z</time>
      </trkpt>
      <trkpt lat="34.327693916485174" lon="109.00092741589964">
        <ele>396.21589298173785</ele>
        <time>2022-03-02T13:13:16Z</time>
      </trkpt>
      <trkpt lat="34.32771006796929" lon="109.00064482872114">
        <ele>396.04323920048773</ele>
        <time>2022-03-02T13:13:20Z</time>
      </trkpt>
      <trkpt lat="34.32774706543914" lon="109.00052815842612">
        <ele>396.9280420662835</ele>
        <time>2022-03-02T13:13:22Z</time>
      </trkpt>
      <trkpt lat="34.32780686872035" lon="109.00004616043027">
        <ele>396.92408229224384</ele>
        <time>2022-03-02T13:13:30Z</time>
      </trkpt>
      <trkpt lat="34.32780837464298" lon="108.9996561101533">
        <ele>396.01532869413495</ele>
        <time>2022-03-02T13:13:37Z</time>
      </trkpt>
      <trkpt lat="34.32783769559748" lon="108.99922395780739">
        <ele>394.6255205562338</ele>
        <time>2022-03-02T13:13:43Z</time>
      </trkpt>
      <trkpt lat="34.32782679936302" lon="108.99891081577063">
        <ele>393.8188920300454</ele>
        <time>2022-03-02T13:13:47Z</time>
      </trkpt>
      <trkpt lat="34.32783726901569" lon="108.99834204618745">
        <ele>395.1137432968244</ele>
        <time>2022-03-02T13:13:56Z</time>
      </trkpt>
      <trkpt lat="34.32791795308441" lon="108.99797946616796">
        <ele>395.7854593368247</ele>
        <time>2022-03-02T13:14:02Z</time>
      </trkpt>
      <trkpt lat="34.32791657023472" lon="108.99777878526608">
        <ele>395.6060988502577</ele>
        <time>2022-03-02T13:14:06Z</time>
      </trkpt>
      <trkpt lat="34.327897115415205" lon="108.99768480358055">
        <ele>395.06942531932145</ele>
        <time>2022-03-02T13:14:08Z</time>
      </trkpt>
      <trkpt lat="34.32790168244795" lon="108.99745392091977">
        <ele>394.96530190110207</ele>
        <time>2022-03-02T13:14:12Z</time>
      </trkpt>
      <trkpt lat="34.3278706059827" lon="108.9971646624239">
        <ele>394.64955621771514</ele>
        <time>2022-03-02T13:14:18Z</time>
      </trkpt>
      <trkpt lat="34.327918268618745" lon="108.99664199946021">
        <ele>395.21452019922435</ele>
        <time>2022-03-02T13:14:26Z</time>
      </trkpt>
      <trkpt lat="34.32794882048904" lon="108.99637695717023">
        <ele>394.62594928592443</ele>
        <time>2022-03-02T13:14:30Z</time>
      </trkpt>
      <trkpt lat="34.32798319548159" lon="108.99624503615047">
        <ele>394.0366718573496</ele>
        <time>2022-03-02T13:14:32Z</time>
      </trkpt>
      <trkpt lat="34.327974407260776" lon="108.99604925750903">
        <ele>394.00132641009986</ele>
        <time>2022-03-02T13:14:36Z</time>
      </trkpt>
      <trkpt lat="34.32795072439712" lon="108.9959394650747">
        <ele>394.382993186824</ele>
        <time>2022-03-02T13:14:40Z</time>
      </trkpt>
      <trkpt lat="34.32797985910666" lon="108.995752605792">
        <ele>395.31922931130975</ele>
        <time>2022-03-02T13:14:44Z</time>
      </trkpt>
      <trkpt lat="34.3279922146858" lon="108.99549864312655">
        <ele>394.929300644435</ele>
        <time>2022-03-02T13:14:48Z</time>
      </trkpt>
      <trkpt lat="34.32798517045879" lon="108.99489718298426">
        <ele>394.80226771719754</ele>
        <time>2022-03-02T13:14:58Z</time>
      </trkpt>
      <trkpt lat="34.32798060735017" lon="108.99452783002815">
        <ele>394.9003645479679</ele>
        <time>2022-03-02T13:15:04Z</time>
      </trkpt>
      <trkpt lat="34.32800015785949" lon="108.99416661031061">
        <ele>393.8773149456829</ele>
        <time>2022-03-02T13:15:10Z</time>
      </trkpt>
      <trkpt lat="34.32799368520572" lon="108.99381735018093">
        <ele>393.9951029988006</ele>
        <time>2022-03-02T13:15:16Z</time>
      </trkpt>
      <trkpt lat="34.32796827307686" lon="108.99372308316111">
        <ele>393.7131873778999</ele>
        <time>2022-03-02T13:15:18Z</time>
      </trkpt>
      <trkpt lat="34.32798190552788" lon="108.99336529644796">
        <ele>393.67829205002636</ele>
        <time>2022-03-02T13:15:24Z</time>
      </trkpt>
      <trkpt lat="34.32796571818168" lon="108.9932650027266">
        <ele>394.3388802334666</ele>
        <time>2022-03-02T13:15:26Z</time>
      </trkpt>
      <trkpt lat="34.32798472902631" lon="108.9927698390001">
        <ele>394.6889240955934</ele>
        <time>2022-03-02T13:15:34Z</time>
      </trkpt>
      <trkpt lat="34.327949208690235" lon="108.99220007794317">
        <ele>393.919063847512</ele>
        <time>2022-03-02T13:15:44Z</time>
      </trkpt>
      <trkpt lat="34.32794512358364" lon="108.99195296129864">
        <ele>394.3474422432482</ele>
        <time>2022-03-02T13:15:48Z</time>
      </trkpt>
      <trkpt lat="34.32797754953167" lon="108.99139496323662">
        <ele>392.69667709991336</ele>
        <time>2022-03-02T13:15:56Z</time>
      </trkpt>
      <trkpt lat="34.32799583387496" lon="108.9909777186581">
        <ele>392.81910095736384</ele>
        <time>2022-03-02T13:16:02Z</time>
      </trkpt>
      <trkpt lat="34.327979184176165" lon="108.99086867197933">
        <ele>392.16487254109234</ele>
        <time>2022-03-02T13:16:04Z</time>
      </trkpt>
      <trkpt lat="34.32798166175497" lon="108.99075491799402">
        <ele>392.23417791258544</ele>
        <time>2022-03-02T13:16:06Z</time>
      </trkpt>
      <trkpt lat="34.32795483374614" lon="108.99066595750641">
        <ele>391.79527811240405</ele>
        <time>2022-03-02T13:16:08Z</time>
      </trkpt>
      <trkpt lat="34.327939921565005" lon="108.99053507151658">
        <ele>391.8798837279901</ele>
        <time>2022-03-02T13:16:10Z</time>
      </trkpt>
      <trkpt lat="34.327992049520404" lon="108.99006191014814">
        <ele>392.12364359386265</ele>
        <time>2022-03-02T13:16:18Z</time>
      </trkpt>
      <trkpt lat="34.32796725856551" lon="108.98957704466366">
        <ele>392.12830386217684</ele>
        <time>2022-03-02T13:16:26Z</time>
      </trkpt>
      <trkpt lat="34.32790510972592" lon="108.9892416897071">
        <ele>392.5968748489395</ele>
        <time>2022-03-02T13:16:34Z</time>
      </trkpt>
      <trkpt lat="34.327869915051586" lon="108.9886867730324">
        <ele>392.4016327280551</ele>
        <time>2022-03-02T13:16:42Z</time>
      </trkpt>
      <trkpt lat="34.32787721961737" lon="108.98843411364744">
        <ele>392.6595507748425</ele>
        <time>2022-03-02T13:16:46Z</time>
      </trkpt>
      <trkpt lat="34.32783413780397" lon="108.98828809044738">
        <ele>393.74886050168425</ele>
        <time>2022-03-02T13:16:50Z</time>
      </trkpt>
      <trkpt lat="34.32786488385133" lon="108.98803404828563">
        <ele>393.77943538315594</ele>
        <time>2022-03-02T13:16:54Z</time>
      </trkpt>
      <trkpt lat="34.3278280552504" lon="108.98784139065283">
        <ele>394.3477928834036</ele>
        <time>2022-03-02T13:17:00Z</time>
      </trkpt>
      <trkpt lat="34.32778360493386" lon="108.98771051377489">
        <ele>394.5368634723127</ele>
        <time>2022-03-02T13:17:02Z</time>
      </trkpt>
      <trkpt lat="34.327807052720246" lon="108.98757877451762">
        <ele>394.95072077121586</ele>
        <time>2022-03-02T13:17:04Z</time>
      </trkpt>
      <trkpt lat="34.327806059920114" lon="108.98731634517084">
        <ele>394.9455460999161</ele>
        <time>2022-03-02T13:17:08Z</time>
      </trkpt>
      <trkpt lat="34.3277829369526" lon="108.98722027546683">
        <ele>394.5950124906376</ele>
        <time>2022-03-02T13:17:10Z</time>
      </trkpt>
      <trkpt lat="34.327822141054305" lon="108.98677780384813">
        <ele>396.3116850685328</ele>
        <time>2022-03-02T13:17:18Z</time>
      </trkpt>
      <trkpt lat="34.32781977151453" lon="108.98651549734608">
        <ele>394.5713024539873</ele>
        <time>2022-03-02T13:17:22Z</time>
      </trkpt>
      <trkpt lat="34.32779338826602" lon="108.98638746041975">
        <ele>393.6276967888698</ele>
        <time>2022-03-02T13:17:24Z</time>
      </trkpt>
      <trkpt lat="34.32789258656477" lon="108.98576676805651">
        <ele>392.16700215265155</ele>
        <time>2022-03-02T13:17:32Z</time>
      </trkpt>
      <trkpt lat="34.3279760181644" lon="108.98540655448684">
        <ele>392.7711465805769</ele>
        <time>2022-03-02T13:17:38Z</time>
      </trkpt>
      <trkpt lat="34.328017331632296" lon="108.98490943407822">
        <ele>392.41136943362653</ele>
        <time>2022-03-02T13:17:46Z</time>
      </trkpt>
      <trkpt lat="34.32800859813762" lon="108.9847843738316">
        <ele>392.0214376049116</ele>
        <time>2022-03-02T13:17:48Z</time>
      </trkpt>
      <trkpt lat="34.32804145335655" lon="108.98465196876982">
        <ele>392.15907107759267</ele>
        <time>2022-03-02T13:17:50Z</time>
      </trkpt>
      <trkpt lat="34.32801115673857" lon="108.98444294746915">
        <ele>392.50765595957637</ele>
        <time>2022-03-02T13:17:54Z</time>
      </trkpt>
      <trkpt lat="34.32802624162369" lon="108.98419282887316">
        <ele>391.84308181516826</ele>
        <time>2022-03-02T13:17:58Z</time>
      </trkpt>
      <trkpt lat="34.3280843148852" lon="108.98363520882526">
        <ele>392.43879980873317</ele>
        <time>2022-03-02T13:18:08Z</time>
      </trkpt>
      <trkpt lat="34.328058793974755" lon="108.98319524398525">
        <ele>393.8436942715198</ele>
        <time>2022-03-02T13:18:18Z</time>
      </trkpt>
      <trkpt lat="34.32806753008942" lon="108.98309779743128">
        <ele>393.560827662237</ele>
        <time>2022-03-02T13:18:20Z</time>
      </trkpt>
      <trkpt lat="34.32800173390788" lon="108.98267241615005">
        <ele>395.0779831530526</ele>
        <time>2022-03-02T13:18:30Z</time>
      </trkpt>
      <trkpt lat="34.327998027675065" lon="108.9825142168107">
        <ele>394.36842052824795</ele>
        <time>2022-03-02T13:18:32Z</time>
      </trkpt>
      <trkpt lat="34.327976216425775" lon="108.98238155388087">
        <ele>394.35363758541644</ele>
        <time>2022-03-02T13:18:34Z</time>
      </trkpt>
      <trkpt lat="34.328011771996735" lon="108.9818939876782">
        <ele>395.4656469896436</ele>
        <time>2022-03-02T13:18:42Z</time>
      </trkpt>
      <trkpt lat="34.327995116786916" lon="108.98156309974584">
        <ele>394.8557272395119</ele>
        <time>2022-03-02T13:18:48Z</time>
      </trkpt>
      <trkpt lat="34.32801838381349" lon="108.98146957902708">
        <ele>395.05279739107937</ele>
        <time>2022-03-02T13:18:50Z</time>
      </trkpt>
      <trkpt lat="34.32798758298678" lon="108.98135811974676">
        <ele>395.1939893430099</ele>
        <time>2022-03-02T13:18:54Z</time>
      </trkpt>
      <trkpt lat="34.328037301996496" lon="108.98126691664979">
        <ele>395.04893843177706</ele>
        <time>2022-03-02T13:19:02Z</time>
      </trkpt>
      <trkpt lat="34.328094320174195" lon="108.98118529036172">
        <ele>395.0285222707316</ele>
        <time>2022-03-02T13:19:09Z</time>
      </trkpt>
      <trkpt lat="34.32813057665175" lon="108.9811260761255">
        <ele>394.5608845297247</ele>
        <time>2022-03-02T13:19:15Z</time>
      </trkpt>
      <trkpt lat="34.32816729410722" lon="108.98099005401983">
        <ele>395.5173436673358</ele>
        <time>2022-03-02T13:19:28Z</time>
      </trkpt>
      <trkpt lat="34.32818108457861" lon="108.9808943734761">
        <ele>394.79303319286555</ele>
        <time>2022-03-02T13:19:34Z</time>
      </trkpt>
      <trkpt lat="34.3283273147118" lon="108.98074909159502">
        <ele>395.5242078555748</ele>
        <time>2022-03-02T13:19:53Z</time>
      </trkpt>
      <trkpt lat="34.32839072894345" lon="108.98074532446863">
        <ele>395.91782364435494</ele>
        <time>2022-03-02T13:20:06Z</time>
      </trkpt>
      <trkpt lat="34.328465175210006" lon="108.98070243973214">
        <ele>395.71746631525457</ele>
        <time>2022-03-02T13:20:12Z</time>
      </trkpt>
      <trkpt lat="34.328465175210006" lon="108.98070243973214">
        <ele>395.71746631525457</ele>
        <time>2022-03-02T13:20:16Z</time>
      </trkpt>
    </trkseg>
  </trk>
</gpx>