<?xml version="1.0" encoding="UTF-8"?>
<gpx xmlns="http://www.topografix.com/GPX/1/1" xmlns:gpxtpx="http://www.garmin.com/xmlschemas/TrackPointExtension/v1" xmlns:xsi="http://www.w3.org/2001/XMLSchema-instance" xsi:schemaLocation="http://www.topografix.com/GPX/1/1 http://www.topografix.com/GPX/1/1/gpx.xsd" version="1.1" creator="gpx.py -- https://github.com/tkrajina/gpxpy">
  <trk>
    <name>gpx from keep</name>
    <type>Ride</type>
    <trkseg>
      <trkpt lat="34.32826488636208" lon="108.9805043624447">
        <ele>398.2648468017578</ele>
        <time>2022-03-07T23:31:13Z</time>
      </trkpt>
      <trkpt lat="34.32870938570406" lon="108.98039252077851">
        <ele>397.5367546081543</ele>
        <time>2022-03-07T23:31:49Z</time>
      </trkpt>
      <trkpt lat="34.32842379047743" lon="108.9804535220511">
        <ele>397.1939468383789</ele>
        <time>2022-03-07T23:31:55Z</time>
      </trkpt>
      <trkpt lat="34.328448139093396" lon="108.98035781836283">
        <ele>396.970890045166</ele>
        <time>2022-03-07T23:32:01Z</time>
      </trkpt>
      <trkpt lat="34.328630710247886" lon="108.980348200999">
        <ele>396.94104385375977</ele>
        <time>2022-03-07T23:32:07Z</time>
      </trkpt>
      <trkpt lat="34.32864476556664" lon="108.98049825197928">
        <ele>396.8748588562012</ele>
        <time>2022-03-07T23:32:19Z</time>
      </trkpt>
      <trkpt lat="34.32854007994719" lon="108.98059383826008">
        <ele>396.8987274169922</ele>
        <time>2022-03-07T23:32:27Z</time>
      </trkpt>
      <trkpt lat="34.32850694353773" lon="108.98075253909268">
        <ele>396.87552642822266</ele>
        <time>2022-03-07T23:32:33Z</time>
      </trkpt>
      <trkpt lat="34.32860604363142" lon="108.9807757048417">
        <ele>395.58443817126783</ele>
        <time>2022-03-07T23:32:44Z</time>
      </trkpt>
      <trkpt lat="34.32851767084212" lon="108.98076382668746">
        <ele>395.7184055909524</ele>
        <time>2022-03-07T23:32:45Z</time>
      </trkpt>
      <trkpt lat="34.32836766465181" lon="108.9807785759695">
        <ele>395.53474840987474</ele>
        <time>2022-03-07T23:32:51Z</time>
      </trkpt>
      <trkpt lat="34.32827186999412" lon="108.98082690345629">
        <ele>395.21970774792135</ele>
        <time>2022-03-07T23:32:55Z</time>
      </trkpt>
      <trkpt lat="34.328188982594" lon="108.98082562840112">
        <ele>394.92548720166087</ele>
        <time>2022-03-07T23:33:01Z</time>
      </trkpt>
      <trkpt lat="34.328116303524354" lon="108.98084617880838">
        <ele>394.75753944553435</ele>
        <time>2022-03-07T23:33:07Z</time>
      </trkpt>
      <trkpt lat="34.32816808179735" lon="108.98094411112915">
        <ele>394.7848267285153</ele>
        <time>2022-03-07T23:33:13Z</time>
      </trkpt>
      <trkpt lat="34.328226328731226" lon="108.98122577457562">
        <ele>394.6511770617217</ele>
        <time>2022-03-07T23:33:33Z</time>
      </trkpt>
      <trkpt lat="34.32818600323097" lon="108.98128147225833">
        <ele>394.2501612426713</ele>
        <time>2022-03-07T23:33:45Z</time>
      </trkpt>
      <trkpt lat="34.32811981299007" lon="108.98153397306531">
        <ele>395.2369425743818</ele>
        <time>2022-03-07T23:34:26Z</time>
      </trkpt>
      <trkpt lat="34.328146684236295" lon="108.98168720258619">
        <ele>395.4416869105771</ele>
        <time>2022-03-07T23:34:30Z</time>
      </trkpt>
      <trkpt lat="34.32813783081603" lon="108.98209659867365">
        <ele>394.13199693895876</ele>
        <time>2022-03-07T23:34:38Z</time>
      </trkpt>
      <trkpt lat="34.32815021320744" lon="108.9821963860505">
        <ele>394.9576664706692</ele>
        <time>2022-03-07T23:34:40Z</time>
      </trkpt>
      <trkpt lat="34.32811612710053" lon="108.98230112924296">
        <ele>394.6665078504011</ele>
        <time>2022-03-07T23:34:44Z</time>
      </trkpt>
      <trkpt lat="34.32812387670606" lon="108.98242488146748">
        <ele>393.1229762835428</ele>
        <time>2022-03-07T23:34:48Z</time>
      </trkpt>
      <trkpt lat="34.3280802496357" lon="108.98255948570012">
        <ele>392.95692465640604</ele>
        <time>2022-03-07T23:34:52Z</time>
      </trkpt>
      <trkpt lat="34.32808088306899" lon="108.98302016049803">
        <ele>392.51201755180955</ele>
        <time>2022-03-07T23:35:04Z</time>
      </trkpt>
      <trkpt lat="34.32813919436854" lon="108.98315842238324">
        <ele>391.2702429126948</ele>
        <time>2022-03-07T23:35:08Z</time>
      </trkpt>
      <trkpt lat="34.328080106582824" lon="108.9833009761667">
        <ele>392.1636787103489</ele>
        <time>2022-03-07T23:35:12Z</time>
      </trkpt>
      <trkpt lat="34.32798614577436" lon="108.98365944877169">
        <ele>393.590042100288</ele>
        <time>2022-03-07T23:35:18Z</time>
      </trkpt>
      <trkpt lat="34.32802018676238" lon="108.98374957794988">
        <ele>394.1226993240416</ele>
        <time>2022-03-07T23:35:22Z</time>
      </trkpt>
      <trkpt lat="34.32804733802462" lon="108.98394419364404">
        <ele>393.289911609143</ele>
        <time>2022-03-07T23:35:26Z</time>
      </trkpt>
      <trkpt lat="34.32804357049743" lon="108.98403474923998">
        <ele>393.11033018957824</ele>
        <time>2022-03-07T23:35:28Z</time>
      </trkpt>
      <trkpt lat="34.3280831606935" lon="108.98424280637971">
        <ele>392.26436524745077</ele>
        <time>2022-03-07T23:35:32Z</time>
      </trkpt>
      <trkpt lat="34.3278932494514" lon="108.9851795854117">
        <ele>391.70772441104054</ele>
        <time>2022-03-07T23:35:34Z</time>
      </trkpt>
      <trkpt lat="34.32790144966076" lon="108.98575990932608">
        <ele>391.97578627895564</ele>
        <time>2022-03-07T23:35:44Z</time>
      </trkpt>
      <trkpt lat="34.327933035607934" lon="108.98626296133617">
        <ele>391.62077117245644</ele>
        <time>2022-03-07T23:35:52Z</time>
      </trkpt>
      <trkpt lat="34.32807292971183" lon="108.98609177411915">
        <ele>393.9308278299868</ele>
        <time>2022-03-07T23:35:54Z</time>
      </trkpt>
      <trkpt lat="34.328076050068184" lon="108.98627671466087">
        <ele>394.6120428983122</ele>
        <time>2022-03-07T23:35:56Z</time>
      </trkpt>
      <trkpt lat="34.3280514261206" lon="108.98646084029495">
        <ele>394.9224519105628</ele>
        <time>2022-03-07T23:35:58Z</time>
      </trkpt>
      <trkpt lat="34.327948683469714" lon="108.98677175813529">
        <ele>393.92976695485413</ele>
        <time>2022-03-07T23:36:02Z</time>
      </trkpt>
      <trkpt lat="34.32797063758733" lon="108.98731727969756">
        <ele>394.4123372910544</ele>
        <time>2022-03-07T23:36:10Z</time>
      </trkpt>
      <trkpt lat="34.32796440324071" lon="108.98745172284396">
        <ele>395.50516780558974</ele>
        <time>2022-03-07T23:36:12Z</time>
      </trkpt>
      <trkpt lat="34.32797785465543" lon="108.9875933226531">
        <ele>395.0347015224397</ele>
        <time>2022-03-07T23:36:14Z</time>
      </trkpt>
      <trkpt lat="34.327930233590834" lon="108.98810489755385">
        <ele>395.15838687401265</ele>
        <time>2022-03-07T23:36:22Z</time>
      </trkpt>
      <trkpt lat="34.32797144341958" lon="108.98872689680712">
        <ele>393.6531266439706</ele>
        <time>2022-03-07T23:36:32Z</time>
      </trkpt>
      <trkpt lat="34.327975702833356" lon="108.9888404231215">
        <ele>393.80741113238037</ele>
        <time>2022-03-07T23:36:34Z</time>
      </trkpt>
      <trkpt lat="34.32795035951631" lon="108.9889467658132">
        <ele>392.59564909432083</ele>
        <time>2022-03-07T23:36:36Z</time>
      </trkpt>
      <trkpt lat="34.327913236047905" lon="108.98951429556388">
        <ele>392.3203419884667</ele>
        <time>2022-03-07T23:36:46Z</time>
      </trkpt>
      <trkpt lat="34.32789924028696" lon="108.99008315556702">
        <ele>390.937593693845</ele>
        <time>2022-03-07T23:36:56Z</time>
      </trkpt>
      <trkpt lat="34.32785469774812" lon="108.99031339266048">
        <ele>391.8055474385619</ele>
        <time>2022-03-07T23:37:10Z</time>
      </trkpt>
      <trkpt lat="34.32783602568329" lon="108.99055893615618">
        <ele>391.6153283677995</ele>
        <time>2022-03-07T23:37:27Z</time>
      </trkpt>
      <trkpt lat="34.32783507384867" lon="108.99071324174885">
        <ele>391.88944223336875</ele>
        <time>2022-03-07T23:37:31Z</time>
      </trkpt>
      <trkpt lat="34.327885193569415" lon="108.99089366767764">
        <ele>394.6747515993193</ele>
        <time>2022-03-07T23:37:35Z</time>
      </trkpt>
      <trkpt lat="34.32789977844623" lon="108.9910052845033">
        <ele>392.8425399493426</ele>
        <time>2022-03-07T23:37:37Z</time>
      </trkpt>
      <trkpt lat="34.32787408014601" lon="108.99144033957381">
        <ele>391.1528070550412</ele>
        <time>2022-03-07T23:37:45Z</time>
      </trkpt>
      <trkpt lat="34.327878752896694" lon="108.99196148734006">
        <ele>395.09534664452076</ele>
        <time>2022-03-07T23:37:55Z</time>
      </trkpt>
      <trkpt lat="34.32787535584614" lon="108.9925704129321">
        <ele>393.64972501341254</ele>
        <time>2022-03-07T23:38:09Z</time>
      </trkpt>
      <trkpt lat="34.32787410746759" lon="108.9931601153945">
        <ele>393.8453650716692</ele>
        <time>2022-03-07T23:38:21Z</time>
      </trkpt>
      <trkpt lat="34.3279088591433" lon="108.99370125619019">
        <ele>392.52228369377553</ele>
        <time>2022-03-07T23:38:29Z</time>
      </trkpt>
      <trkpt lat="34.327917432009144" lon="108.99432057318117">
        <ele>393.9220655905083</ele>
        <time>2022-03-07T23:38:41Z</time>
      </trkpt>
      <trkpt lat="34.32791402811497" lon="108.99483428011204">
        <ele>394.6576779577881</ele>
        <time>2022-03-07T23:38:51Z</time>
      </trkpt>
      <trkpt lat="34.32787707807229" lon="108.99515813588002">
        <ele>395.44872771576047</ele>
        <time>2022-03-07T23:38:57Z</time>
      </trkpt>
      <trkpt lat="34.32791806778634" lon="108.99558281398194">
        <ele>393.87068731244653</ele>
        <time>2022-03-07T23:39:04Z</time>
      </trkpt>
      <trkpt lat="34.32794477749364" lon="108.99595249538723">
        <ele>394.2472483003512</ele>
        <time>2022-03-07T23:39:10Z</time>
      </trkpt>
      <trkpt lat="34.32791596789309" lon="108.99632031263634">
        <ele>393.91189045645297</ele>
        <time>2022-03-07T23:39:16Z</time>
      </trkpt>
      <trkpt lat="34.32790148711889" lon="108.99689638012053">
        <ele>394.35610315203667</ele>
        <time>2022-03-07T23:39:26Z</time>
      </trkpt>
      <trkpt lat="34.32788319702843" lon="108.9970116595186">
        <ele>395.028651708737</ele>
        <time>2022-03-07T23:39:28Z</time>
      </trkpt>
      <trkpt lat="34.32787387279567" lon="108.99759998177663">
        <ele>395.71864728815854</ele>
        <time>2022-03-07T23:39:38Z</time>
      </trkpt>
      <trkpt lat="34.32789328037494" lon="108.99799643351041">
        <ele>394.50121981371194</ele>
        <time>2022-03-07T23:39:44Z</time>
      </trkpt>
      <trkpt lat="34.327857455294044" lon="108.99825388488492">
        <ele>393.8455988895148</ele>
        <time>2022-03-07T23:39:48Z</time>
      </trkpt>
      <trkpt lat="34.32789054037379" lon="108.99850498684312">
        <ele>395.29163586255163</ele>
        <time>2022-03-07T23:39:52Z</time>
      </trkpt>
      <trkpt lat="34.32788521985678" lon="108.99862863719054">
        <ele>394.40585016366094</ele>
        <time>2022-03-07T23:39:54Z</time>
      </trkpt>
      <trkpt lat="34.327860507790966" lon="108.99872984646422">
        <ele>393.2870423393324</ele>
        <time>2022-03-07T23:39:56Z</time>
      </trkpt>
      <trkpt lat="34.327876732665054" lon="108.99884376699788">
        <ele>394.0758370514959</ele>
        <time>2022-03-07T23:39:58Z</time>
      </trkpt>
      <trkpt lat="34.3278658214765" lon="108.9991868468497">
        <ele>394.03655578009784</ele>
        <time>2022-03-07T23:40:04Z</time>
      </trkpt>
      <trkpt lat="34.32784921713672" lon="108.99930102221218">
        <ele>392.96284926030785</ele>
        <time>2022-03-07T23:40:06Z</time>
      </trkpt>
      <trkpt lat="34.32788151617726" lon="108.99987251506504">
        <ele>393.34079547133297</ele>
        <time>2022-03-07T23:40:16Z</time>
      </trkpt>
      <trkpt lat="34.32789215565604" lon="109.00000640593879">
        <ele>394.700736053288</ele>
        <time>2022-03-07T23:40:18Z</time>
      </trkpt>
      <trkpt lat="34.32788287774663" lon="109.00058309466083">
        <ele>393.5624840958044</ele>
        <time>2022-03-07T23:40:28Z</time>
      </trkpt>
      <trkpt lat="34.32788902610089" lon="109.00070998109135">
        <ele>392.6514999354258</ele>
        <time>2022-03-07T23:40:30Z</time>
      </trkpt>
      <trkpt lat="34.327921322239945" lon="109.00085096908504">
        <ele>393.45727541297674</ele>
        <time>2022-03-07T23:40:32Z</time>
      </trkpt>
      <trkpt lat="34.32790484979275" lon="109.00144848617454">
        <ele>396.38696319796145</ele>
        <time>2022-03-07T23:40:42Z</time>
      </trkpt>
      <trkpt lat="34.327903757406006" lon="109.00157379940234">
        <ele>396.02569451835006</ele>
        <time>2022-03-07T23:40:44Z</time>
      </trkpt>
      <trkpt lat="34.32787334249387" lon="109.00169591374583">
        <ele>393.0673886490986</ele>
        <time>2022-03-07T23:40:46Z</time>
      </trkpt>
      <trkpt lat="34.32784035611892" lon="109.00213112806489">
        <ele>395.24308635573834</ele>
        <time>2022-03-07T23:40:54Z</time>
      </trkpt>
      <trkpt lat="34.32786088737218" lon="109.00238129413098">
        <ele>394.94651336502284</ele>
        <time>2022-03-07T23:40:58Z</time>
      </trkpt>
      <trkpt lat="34.3278670840517" lon="109.00268282655568">
        <ele>396.5940711479634</ele>
        <time>2022-03-07T23:41:04Z</time>
      </trkpt>
      <trkpt lat="34.3278102695738" lon="109.00324812775455">
        <ele>395.00230335164815</ele>
        <time>2022-03-07T23:41:14Z</time>
      </trkpt>
      <trkpt lat="34.32780328282993" lon="109.00382793348935">
        <ele>394.7198941297829</ele>
        <time>2022-03-07T23:41:24Z</time>
      </trkpt>
      <trkpt lat="34.327839632965485" lon="109.00413313150705">
        <ele>395.46208458486944</ele>
        <time>2022-03-07T23:41:30Z</time>
      </trkpt>
      <trkpt lat="34.327858103008005" lon="109.00446303422746">
        <ele>395.85617000143975</ele>
        <time>2022-03-07T23:41:36Z</time>
      </trkpt>
      <trkpt lat="34.32783717762205" lon="109.00456556434449">
        <ele>394.6709070317447</ele>
        <time>2022-03-07T23:41:38Z</time>
      </trkpt>
      <trkpt lat="34.32784618514677" lon="109.0051577209973">
        <ele>394.66992618050426</ele>
        <time>2022-03-07T23:41:50Z</time>
      </trkpt>
      <trkpt lat="34.32784786281271" lon="109.00526557080813">
        <ele>394.6415611868724</ele>
        <time>2022-03-07T23:41:52Z</time>
      </trkpt>
      <trkpt lat="34.32788897780725" lon="109.0055071610039">
        <ele>394.7541475119069</ele>
        <time>2022-03-07T23:41:56Z</time>
      </trkpt>
      <trkpt lat="34.327890358354765" lon="109.00595499026682">
        <ele>395.34411278087646</ele>
        <time>2022-03-07T23:42:04Z</time>
      </trkpt>
      <trkpt lat="34.327868347571055" lon="109.0063733129943">
        <ele>394.04991329740733</ele>
        <time>2022-03-07T23:42:12Z</time>
      </trkpt>
      <trkpt lat="34.327840500313826" lon="109.00639488618066">
        <ele>394.74443341232836</ele>
        <time>2022-03-07T23:42:29Z</time>
      </trkpt>
      <trkpt lat="34.32787090736994" lon="109.00653889581501">
        <ele>393.8833326147869</ele>
        <time>2022-03-07T23:42:34Z</time>
      </trkpt>
      <trkpt lat="34.32789454502442" lon="109.00662495520336">
        <ele>394.40430366713554</ele>
        <time>2022-03-07T23:42:38Z</time>
      </trkpt>
      <trkpt lat="34.32784755225482" lon="109.00666307079693">
        <ele>393.9341756971553</ele>
        <time>2022-03-07T23:42:48Z</time>
      </trkpt>
      <trkpt lat="34.327800169895504" lon="109.00683654229009">
        <ele>394.0321420505643</ele>
        <time>2022-03-07T23:42:59Z</time>
      </trkpt>
      <trkpt lat="34.32778830686531" lon="109.00701830152298">
        <ele>395.31066611688584</ele>
        <time>2022-03-07T23:43:03Z</time>
      </trkpt>
      <trkpt lat="34.32784450893623" lon="109.00734648550035">
        <ele>393.9701123870909</ele>
        <time>2022-03-07T23:43:09Z</time>
      </trkpt>
      <trkpt lat="34.32784588982278" lon="109.00792890746673">
        <ele>393.15765782259405</ele>
        <time>2022-03-07T23:43:18Z</time>
      </trkpt>
      <trkpt lat="34.32783571437371" lon="109.00819599407966">
        <ele>392.2237722920254</ele>
        <time>2022-03-07T23:43:22Z</time>
      </trkpt>
      <trkpt lat="34.3278730164204" lon="109.00873260965892">
        <ele>392.07255547400564</ele>
        <time>2022-03-07T23:43:30Z</time>
      </trkpt>
      <trkpt lat="34.327871274356454" lon="109.00936238085995">
        <ele>390.27276386041194</ele>
        <time>2022-03-07T23:43:40Z</time>
      </trkpt>
      <trkpt lat="34.32787279523053" lon="109.00976054908108">
        <ele>387.1930271657184</ele>
        <time>2022-03-07T23:43:46Z</time>
      </trkpt>
      <trkpt lat="34.32788483755483" lon="109.0102322898121">
        <ele>386.2794032311067</ele>
        <time>2022-03-07T23:43:54Z</time>
      </trkpt>
      <trkpt lat="34.32784443125014" lon="109.0107935650149">
        <ele>387.6821689447388</ele>
        <time>2022-03-07T23:44:04Z</time>
      </trkpt>
      <trkpt lat="34.32782934552806" lon="109.01101259151577">
        <ele>387.26116883568466</ele>
        <time>2022-03-07T23:44:08Z</time>
      </trkpt>
      <trkpt lat="34.32785262414533" lon="109.01155269036836">
        <ele>388.67071252223104</ele>
        <time>2022-03-07T23:44:18Z</time>
      </trkpt>
      <trkpt lat="34.32785439765553" lon="109.01210678801188">
        <ele>387.85121731553227</ele>
        <time>2022-03-07T23:44:28Z</time>
      </trkpt>
      <trkpt lat="34.32784126646166" lon="109.01265348079149">
        <ele>388.6932043246925</ele>
        <time>2022-03-07T23:44:38Z</time>
      </trkpt>
      <trkpt lat="34.32785568902092" lon="109.01323811387691">
        <ele>389.6922059683129</ele>
        <time>2022-03-07T23:44:48Z</time>
      </trkpt>
      <trkpt lat="34.327888010629245" lon="109.01380746892403">
        <ele>390.1619964875281</ele>
        <time>2022-03-07T23:44:58Z</time>
      </trkpt>
      <trkpt lat="34.3278974463867" lon="109.01440515720233">
        <ele>387.6797750312835</ele>
        <time>2022-03-07T23:45:08Z</time>
      </trkpt>
      <trkpt lat="34.32789329642081" lon="109.01484617264065">
        <ele>387.47133846767247</ele>
        <time>2022-03-07T23:45:16Z</time>
      </trkpt>
      <trkpt lat="34.32790540956568" lon="109.01497699833294">
        <ele>387.4784955345094</ele>
        <time>2022-03-07T23:45:18Z</time>
      </trkpt>
      <trkpt lat="34.32790571636593" lon="109.01558902325304">
        <ele>386.97105218376964</ele>
        <time>2022-03-07T23:45:28Z</time>
      </trkpt>
      <trkpt lat="34.32787863779453" lon="109.01614788301035">
        <ele>387.53900065645576</ele>
        <time>2022-03-07T23:45:38Z</time>
      </trkpt>
      <trkpt lat="34.32783184376038" lon="109.01669754935983">
        <ele>388.1497535100207</ele>
        <time>2022-03-07T23:45:48Z</time>
      </trkpt>
      <trkpt lat="34.327695379192846" lon="109.01725008643416">
        <ele>388.4791030045599</ele>
        <time>2022-03-07T23:45:58Z</time>
      </trkpt>
      <trkpt lat="34.327621783280804" lon="109.01769181531205">
        <ele>389.35799381975085</ele>
        <time>2022-03-07T23:46:06Z</time>
      </trkpt>
      <trkpt lat="34.32762154497973" lon="109.01802154516369">
        <ele>389.09343965910375</ele>
        <time>2022-03-07T23:46:12Z</time>
      </trkpt>
      <trkpt lat="34.32764643734973" lon="109.01824085142556">
        <ele>388.850501883775</ele>
        <time>2022-03-07T23:46:16Z</time>
      </trkpt>
      <trkpt lat="34.327638003061836" lon="109.01836173124371">
        <ele>388.2616455545649</ele>
        <time>2022-03-07T23:46:18Z</time>
      </trkpt>
      <trkpt lat="34.32760979631347" lon="109.01847465904089">
        <ele>388.4581262571737</ele>
        <time>2022-03-07T23:46:20Z</time>
      </trkpt>
      <trkpt lat="34.32733512576362" lon="109.01891802911081">
        <ele>389.686880979687</ele>
        <time>2022-03-07T23:46:30Z</time>
      </trkpt>
      <trkpt lat="34.32709445549344" lon="109.0192790796681">
        <ele>389.1390817593783</ele>
        <time>2022-03-07T23:46:38Z</time>
      </trkpt>
      <trkpt lat="34.32683441658167" lon="109.01978060479655">
        <ele>390.6213752338663</ele>
        <time>2022-03-07T23:46:48Z</time>
      </trkpt>
      <trkpt lat="34.32651519986289" lon="109.02023913520627">
        <ele>390.8536345567554</ele>
        <time>2022-03-07T23:46:58Z</time>
      </trkpt>
      <trkpt lat="34.32612093544673" lon="109.02063284804466">
        <ele>390.16395187936723</ele>
        <time>2022-03-07T23:47:08Z</time>
      </trkpt>
      <trkpt lat="34.32588180073037" lon="109.02085880786422">
        <ele>389.18502512108535</ele>
        <time>2022-03-07T23:47:14Z</time>
      </trkpt>
      <trkpt lat="34.325414154624546" lon="109.02115864728744">
        <ele>388.67032936401665</ele>
        <time>2022-03-07T23:47:24Z</time>
      </trkpt>
      <trkpt lat="34.32494840641749" lon="109.02140905092072">
        <ele>388.5054695624858</ele>
        <time>2022-03-07T23:47:34Z</time>
      </trkpt>
      <trkpt lat="34.32445834064471" lon="109.021597796948">
        <ele>389.00738515052944</ele>
        <time>2022-03-07T23:47:44Z</time>
      </trkpt>
      <trkpt lat="34.323962239972374" lon="109.0217189694752">
        <ele>387.85586313251406</ele>
        <time>2022-03-07T23:47:54Z</time>
      </trkpt>
      <trkpt lat="34.323468219548936" lon="109.02178067817256">
        <ele>389.52604015078396</ele>
        <time>2022-03-07T23:48:04Z</time>
      </trkpt>
      <trkpt lat="34.32296282476888" lon="109.02181528691345">
        <ele>390.12802999000996</ele>
        <time>2022-03-07T23:48:14Z</time>
      </trkpt>
      <trkpt lat="34.32266980163972" lon="109.02181405575934">
        <ele>389.7313584815711</ele>
        <time>2022-03-07T23:48:20Z</time>
      </trkpt>
      <trkpt lat="34.32216425184369" lon="109.02175725963502">
        <ele>389.05526565387845</ele>
        <time>2022-03-07T23:48:30Z</time>
      </trkpt>
      <trkpt lat="34.321669569557905" lon="109.02169390425466">
        <ele>389.2252325778827</ele>
        <time>2022-03-07T23:48:40Z</time>
      </trkpt>
      <trkpt lat="34.32117600662673" lon="109.02164798399996">
        <ele>389.81837554834783</ele>
        <time>2022-03-07T23:48:50Z</time>
      </trkpt>
      <trkpt lat="34.32088322259374" lon="109.02159355868353">
        <ele>390.15996118821204</ele>
        <time>2022-03-07T23:48:56Z</time>
      </trkpt>
      <trkpt lat="34.32039544720335" lon="109.02153924585285">
        <ele>389.6873262124136</ele>
        <time>2022-03-07T23:49:06Z</time>
      </trkpt>
      <trkpt lat="34.31990652852925" lon="109.02147923173277">
        <ele>390.4514374686405</ele>
        <time>2022-03-07T23:49:16Z</time>
      </trkpt>
      <trkpt lat="34.319405157448664" lon="109.02144165146794">
        <ele>389.59278343990445</ele>
        <time>2022-03-07T23:49:26Z</time>
      </trkpt>
      <trkpt lat="34.3189109856135" lon="109.02145764316887">
        <ele>389.9259230401367</ele>
        <time>2022-03-07T23:49:36Z</time>
      </trkpt>
      <trkpt lat="34.318434365464064" lon="109.02149783182703">
        <ele>390.3393720779568</ele>
        <time>2022-03-07T23:49:46Z</time>
      </trkpt>
      <trkpt lat="34.317961545071675" lon="109.0215441879913">
        <ele>390.380576454103</ele>
        <time>2022-03-07T23:49:56Z</time>
      </trkpt>
      <trkpt lat="34.31746594782423" lon="109.02158967780329">
        <ele>391.3413608716801</ele>
        <time>2022-03-07T23:50:06Z</time>
      </trkpt>
      <trkpt lat="34.316984966654054" lon="109.02163120756879">
        <ele>390.1312962155789</ele>
        <time>2022-03-07T23:50:16Z</time>
      </trkpt>
      <trkpt lat="34.316500917322465" lon="109.02174460538684">
        <ele>391.6365076592192</ele>
        <time>2022-03-07T23:50:26Z</time>
      </trkpt>
      <trkpt lat="34.316034082217186" lon="109.0219120736542">
        <ele>391.5819717710838</ele>
        <time>2022-03-07T23:50:36Z</time>
      </trkpt>
      <trkpt lat="34.31585589599023" lon="109.02198904763739">
        <ele>390.5443766321987</ele>
        <time>2022-03-07T23:50:40Z</time>
      </trkpt>
      <trkpt lat="34.31566777284476" lon="109.02205159001512">
        <ele>390.64808448124677</ele>
        <time>2022-03-07T23:50:44Z</time>
      </trkpt>
      <trkpt lat="34.31552119720303" lon="109.02214606707692">
        <ele>390.7861158903688</ele>
        <time>2022-03-07T23:50:48Z</time>
      </trkpt>
      <trkpt lat="34.31547861017565" lon="109.02220731947509">
        <ele>391.26787407603115</ele>
        <time>2022-03-07T23:51:00Z</time>
      </trkpt>
      <trkpt lat="34.31563322354686" lon="109.0223425648253">
        <ele>391.9748665485531</ele>
        <time>2022-03-07T23:51:13Z</time>
      </trkpt>
      <trkpt lat="34.31579019063932" lon="109.02261180068889">
        <ele>390.7492811717093</ele>
        <time>2022-03-07T23:51:19Z</time>
      </trkpt>
      <trkpt lat="34.31603001238107" lon="109.02313323192638">
        <ele>388.6139608826488</ele>
        <time>2022-03-07T23:51:29Z</time>
      </trkpt>
      <trkpt lat="34.316205676158525" lon="109.02367275000523">
        <ele>388.6306219762191</ele>
        <time>2022-03-07T23:51:38Z</time>
      </trkpt>
      <trkpt lat="34.316165804368794" lon="109.02374837449491">
        <ele>389.42333274148405</ele>
        <time>2022-03-07T23:51:40Z</time>
      </trkpt>
      <trkpt lat="34.31607353351142" lon="109.02379993086635">
        <ele>389.4351344490424</ele>
        <time>2022-03-07T23:51:42Z</time>
      </trkpt>
      <trkpt lat="34.31599252130572" lon="109.02387163403516">
        <ele>389.57091151736677</ele>
        <time>2022-03-07T23:51:44Z</time>
      </trkpt>
      <trkpt lat="34.315628410706395" lon="109.0240531834787">
        <ele>390.24775300733745</ele>
        <time>2022-03-07T23:51:52Z</time>
      </trkpt>
      <trkpt lat="34.31531428940486" lon="109.02427952500784">
        <ele>391.04439897090197</ele>
        <time>2022-03-07T23:52:00Z</time>
      </trkpt>
      <trkpt lat="34.31523575448468" lon="109.02435222228927">
        <ele>391.02250744588673</ele>
        <time>2022-03-07T23:52:02Z</time>
      </trkpt>
      <trkpt lat="34.314914644190786" lon="109.02461143706887">
        <ele>391.29313245788217</ele>
        <time>2022-03-07T23:52:10Z</time>
      </trkpt>
      <trkpt lat="34.314629013654475" lon="109.02476404816043">
        <ele>390.9804079690948</ele>
        <time>2022-03-07T23:52:16Z</time>
      </trkpt>
      <trkpt lat="34.31430223609756" lon="109.02502498074165">
        <ele>390.5272758696228</ele>
        <time>2022-03-07T23:52:24Z</time>
      </trkpt>
      <trkpt lat="34.31403655166797" lon="109.02519498905683">
        <ele>390.97363398224115</ele>
        <time>2022-03-07T23:52:30Z</time>
      </trkpt>
      <trkpt lat="34.31353237154029" lon="109.02541868941677">
        <ele>391.42474548332393</ele>
        <time>2022-03-07T23:52:40Z</time>
      </trkpt>
      <trkpt lat="34.31302373725005" lon="109.02565288875078">
        <ele>391.0274281129241</ele>
        <time>2022-03-07T23:52:50Z</time>
      </trkpt>
      <trkpt lat="34.31267449554184" lon="109.02587552224496">
        <ele>392.3491884339601</ele>
        <time>2022-03-07T23:52:58Z</time>
      </trkpt>
      <trkpt lat="34.31258648552783" lon="109.02599754507746">
        <ele>392.9979314384982</ele>
        <time>2022-03-07T23:53:02Z</time>
      </trkpt>
      <trkpt lat="34.31230030602665" lon="109.02620273782827">
        <ele>392.95157658401877</ele>
        <time>2022-03-07T23:53:10Z</time>
      </trkpt>
      <trkpt lat="34.3121264262363" lon="109.02628318550956">
        <ele>393.1206343891099</ele>
        <time>2022-03-07T23:53:12Z</time>
      </trkpt>
      <trkpt lat="34.311906349818564" lon="109.02642499398743">
        <ele>392.39045696519315</ele>
        <time>2022-03-07T23:53:16Z</time>
      </trkpt>
      <trkpt lat="34.311745114312" lon="109.02658537332428">
        <ele>391.061936265789</ele>
        <time>2022-03-07T23:53:20Z</time>
      </trkpt>
      <trkpt lat="34.311446323865475" lon="109.02705173435297">
        <ele>389.94742721971124</ele>
        <time>2022-03-07T23:53:30Z</time>
      </trkpt>
      <trkpt lat="34.311257234464684" lon="109.02731855562658">
        <ele>390.53401992842555</ele>
        <time>2022-03-07T23:53:36Z</time>
      </trkpt>
      <trkpt lat="34.311202822632985" lon="109.0275388947467">
        <ele>391.0163017390296</ele>
        <time>2022-03-07T23:53:40Z</time>
      </trkpt>
      <trkpt lat="34.3112149995737" lon="109.02811651910868">
        <ele>391.110006807372</ele>
        <time>2022-03-07T23:53:50Z</time>
      </trkpt>
      <trkpt lat="34.31122383682188" lon="109.02846570301907">
        <ele>391.06582407746464</ele>
        <time>2022-03-07T23:53:56Z</time>
      </trkpt>
      <trkpt lat="34.31113176389234" lon="109.02878861641638">
        <ele>391.8777221655473</ele>
        <time>2022-03-07T23:54:02Z</time>
      </trkpt>
      <trkpt lat="34.310936091347756" lon="109.0290706692018">
        <ele>390.5704377768561</ele>
        <time>2022-03-07T23:54:08Z</time>
      </trkpt>
      <trkpt lat="34.31057672636525" lon="109.02942321767834">
        <ele>391.4238653052598</ele>
        <time>2022-03-07T23:54:18Z</time>
      </trkpt>
      <trkpt lat="34.3105137178812" lon="109.02949224449915">
        <ele>392.9496892616153</ele>
        <time>2022-03-07T23:54:20Z</time>
      </trkpt>
      <trkpt lat="34.31041509601131" lon="109.02953682867796">
        <ele>392.5304430508986</ele>
        <time>2022-03-07T23:54:22Z</time>
      </trkpt>
      <trkpt lat="34.31018790802437" lon="109.02955391569091">
        <ele>392.18355313688517</ele>
        <time>2022-03-07T23:54:26Z</time>
      </trkpt>
      <trkpt lat="34.309842693157464" lon="109.02950823633829">
        <ele>392.0376466093585</ele>
        <time>2022-03-07T23:54:32Z</time>
      </trkpt>
      <trkpt lat="34.30961161081743" lon="109.02944551952054">
        <ele>392.2083862386644</ele>
        <time>2022-03-07T23:54:36Z</time>
      </trkpt>
      <trkpt lat="34.30951500414096" lon="109.02939281916143">
        <ele>392.60553295444697</ele>
        <time>2022-03-07T23:54:38Z</time>
      </trkpt>
      <trkpt lat="34.30917746294191" lon="109.0290770955537">
        <ele>393.5636336589232</ele>
        <time>2022-03-07T23:54:46Z</time>
      </trkpt>
      <trkpt lat="34.309023623212084" lon="109.02891459222964">
        <ele>393.5649906527251</ele>
        <time>2022-03-07T23:54:50Z</time>
      </trkpt>
      <trkpt lat="34.30883996625894" lon="109.02882506693925">
        <ele>394.2709386004135</ele>
        <time>2022-03-07T23:54:54Z</time>
      </trkpt>
      <trkpt lat="34.308648423004335" lon="109.02881214659078">
        <ele>393.12369067780674</ele>
        <time>2022-03-07T23:54:58Z</time>
      </trkpt>
      <trkpt lat="34.308275757323585" lon="109.02891818564709">
        <ele>392.9022052027285</ele>
        <time>2022-03-07T23:55:06Z</time>
      </trkpt>
      <trkpt lat="34.308089859582445" lon="109.0291381997086">
        <ele>393.02400318253785</ele>
        <time>2022-03-07T23:55:12Z</time>
      </trkpt>
      <trkpt lat="34.3078376395005" lon="109.02959423165426">
        <ele>394.2821326479316</ele>
        <time>2022-03-07T23:55:22Z</time>
      </trkpt>
      <trkpt lat="34.30761308143563" lon="109.02985285121163">
        <ele>394.1067638248205</ele>
        <time>2022-03-07T23:55:28Z</time>
      </trkpt>
      <trkpt lat="34.30752960825888" lon="109.02990839159654">
        <ele>393.6881019193679</ele>
        <time>2022-03-07T23:55:30Z</time>
      </trkpt>
      <trkpt lat="34.307326386079424" lon="109.0301408913438">
        <ele>394.632892023772</ele>
        <time>2022-03-07T23:55:36Z</time>
      </trkpt>
      <trkpt lat="34.306890334141634" lon="109.03044793378089">
        <ele>393.4978229254484</ele>
        <time>2022-03-07T23:55:46Z</time>
      </trkpt>
      <trkpt lat="34.30650423460865" lon="109.03067741880126">
        <ele>392.1455332580954</ele>
        <time>2022-03-07T23:55:54Z</time>
      </trkpt>
      <trkpt lat="34.30629133005049" lon="109.03072859200293">
        <ele>391.04165496863425</ele>
        <time>2022-03-07T23:55:58Z</time>
      </trkpt>
      <trkpt lat="34.306238948881145" lon="109.03098831915513">
        <ele>390.91942010167986</ele>
        <time>2022-03-07T23:56:04Z</time>
      </trkpt>
      <trkpt lat="34.30629412081262" lon="109.03118736382666">
        <ele>390.92196292523295</ele>
        <time>2022-03-07T23:56:08Z</time>
      </trkpt>
      <trkpt lat="34.30635712880153" lon="109.03178038615343">
        <ele>392.0112906154245</ele>
        <time>2022-03-07T23:56:18Z</time>
      </trkpt>
      <trkpt lat="34.30640465828327" lon="109.03238708914891">
        <ele>393.78956390172243</ele>
        <time>2022-03-07T23:56:28Z</time>
      </trkpt>
      <trkpt lat="34.30646454854911" lon="109.03299624466564">
        <ele>393.42061713151634</ele>
        <time>2022-03-07T23:56:38Z</time>
      </trkpt>
      <trkpt lat="34.30650582637958" lon="109.03356280519863">
        <ele>393.4854006161913</ele>
        <time>2022-03-07T23:56:48Z</time>
      </trkpt>
      <trkpt lat="34.30655579148104" lon="109.03419220833881">
        <ele>392.87705949507654</ele>
        <time>2022-03-07T23:56:58Z</time>
      </trkpt>
      <trkpt lat="34.30655028401067" lon="109.03431128244819">
        <ele>393.3014297010377</ele>
        <time>2022-03-07T23:57:00Z</time>
      </trkpt>
      <trkpt lat="34.30659514556886" lon="109.03454583918814">
        <ele>394.7357390811667</ele>
        <time>2022-03-07T23:57:04Z</time>
      </trkpt>
      <trkpt lat="34.30662564466246" lon="109.03493322089103">
        <ele>393.98079634457827</ele>
        <time>2022-03-07T23:57:10Z</time>
      </trkpt>
      <trkpt lat="34.306644145682014" lon="109.03553309442871">
        <ele>393.7803324330598</ele>
        <time>2022-03-07T23:57:20Z</time>
      </trkpt>
      <trkpt lat="34.306635146715955" lon="109.0357468428541">
        <ele>393.1575940940529</ele>
        <time>2022-03-07T23:57:24Z</time>
      </trkpt>
      <trkpt lat="34.30660315511026" lon="109.03580576420755">
        <ele>392.0259886197746</ele>
        <time>2022-03-07T23:57:34Z</time>
      </trkpt>
      <trkpt lat="34.30661601617172" lon="109.03619813488066">
        <ele>392.45242822449654</ele>
        <time>2022-03-07T23:57:59Z</time>
      </trkpt>
      <trkpt lat="34.306658707776194" lon="109.03641309303977">
        <ele>393.9170929864049</ele>
        <time>2022-03-07T23:58:12Z</time>
      </trkpt>
      <trkpt lat="34.30664266714459" lon="109.03652110446467">
        <ele>392.1462302841246</ele>
        <time>2022-03-07T23:58:18Z</time>
      </trkpt>
      <trkpt lat="34.30665825785585" lon="109.0366184128567">
        <ele>391.739428544417</ele>
        <time>2022-03-07T23:58:24Z</time>
      </trkpt>
      <trkpt lat="34.30663149309474" lon="109.03695044877065">
        <ele>391.9109974959865</ele>
        <time>2022-03-07T23:58:44Z</time>
      </trkpt>
      <trkpt lat="34.306545508375706" lon="109.0369954870903">
        <ele>391.74387500807643</ele>
        <time>2022-03-07T23:58:50Z</time>
      </trkpt>
      <trkpt lat="34.30645250270209" lon="109.03699734331443">
        <ele>392.0038247751072</ele>
        <time>2022-03-07T23:59:02Z</time>
      </trkpt>
      <trkpt lat="34.30631001416948" lon="109.03713861291371">
        <ele>391.766862061806</ele>
        <time>2022-03-07T23:59:22Z</time>
      </trkpt>
      <trkpt lat="34.30624676306708" lon="109.03717959587979">
        <ele>391.24510058760643</ele>
        <time>2022-03-07T23:59:27Z</time>
      </trkpt>
      <trkpt lat="34.30616814000296" lon="109.03721910570121">
        <ele>391.2573344921693</ele>
        <time>2022-03-07T23:59:35Z</time>
      </trkpt>
      <trkpt lat="34.306204694580934" lon="109.03713246249731">
        <ele>390.9401517957449</ele>
        <time>2022-03-07T23:59:36Z</time>
      </trkpt>
      <trkpt lat="34.306228754146375" lon="109.03749071642119">
        <ele>396.10904121398926</ele>
        <time>2022-03-07T23:59:50Z</time>
      </trkpt>
      <trkpt lat="34.306228754146375" lon="109.03749071642119">
        <ele>396.10904121398926</ele>
        <time>2022-03-07T23:59:55Z</time>
      </trkpt>
    </trkseg>
  </trk>
</gpx>