<?xml version="1.0" encoding="UTF-8"?>
<gpx xmlns="http://www.topografix.com/GPX/1/1" xmlns:gpxtpx="http://www.garmin.com/xmlschemas/TrackPointExtension/v1" xmlns:xsi="http://www.w3.org/2001/XMLSchema-instance" xsi:schemaLocation="http://www.topografix.com/GPX/1/1 http://www.topografix.com/GPX/1/1/gpx.xsd" version="1.1" creator="gpx.py -- https://github.com/tkrajina/gpxpy">
  <trk>
    <name>gpx from keep</name>
    <type>Ride</type>
    <trkseg>
      <trkpt lat="34.32815142120868" lon="108.9808619760394">
        <ele>394.8046594168991</ele>
        <time>2022-03-16T23:39:45Z</time>
      </trkpt>
      <trkpt lat="34.32809809681836" lon="108.98095561838346">
        <ele>394.8610676564276</ele>
        <time>2022-03-16T23:39:53Z</time>
      </trkpt>
      <trkpt lat="34.32819590185759" lon="108.98105387639433">
        <ele>394.5292814159766</ele>
        <time>2022-03-16T23:40:03Z</time>
      </trkpt>
      <trkpt lat="34.328231866312436" lon="108.98105087291182">
        <ele>394.6135856267065</ele>
        <time>2022-03-16T23:40:05Z</time>
      </trkpt>
      <trkpt lat="34.32821353835841" lon="108.98103386562917">
        <ele>394.77510787639767</ele>
        <time>2022-03-16T23:40:08Z</time>
      </trkpt>
      <trkpt lat="34.32822027474029" lon="108.98103398329059">
        <ele>394.67313152644783</ele>
        <time>2022-03-16T23:40:13Z</time>
      </trkpt>
      <trkpt lat="34.328249906648324" lon="108.98137532155167">
        <ele>395.5525526953861</ele>
        <time>2022-03-16T23:40:52Z</time>
      </trkpt>
      <trkpt lat="34.328253120786904" lon="108.98148267788044">
        <ele>394.9455956723541</ele>
        <time>2022-03-16T23:40:54Z</time>
      </trkpt>
      <trkpt lat="34.32814894313289" lon="108.98145501068912">
        <ele>395.291667166166</ele>
        <time>2022-03-16T23:40:56Z</time>
      </trkpt>
      <trkpt lat="34.328110867771834" lon="108.98153006626848">
        <ele>394.6957618659362</ele>
        <time>2022-03-16T23:40:58Z</time>
      </trkpt>
      <trkpt lat="34.328161249185335" lon="108.98168636153933">
        <ele>394.0475667119026</ele>
        <time>2022-03-16T23:41:00Z</time>
      </trkpt>
      <trkpt lat="34.32816945573581" lon="108.981928500775">
        <ele>395.1534451013431</ele>
        <time>2022-03-16T23:41:04Z</time>
      </trkpt>
      <trkpt lat="34.32814747547852" lon="108.98246761002046">
        <ele>394.27008803281933</ele>
        <time>2022-03-16T23:41:16Z</time>
      </trkpt>
      <trkpt lat="34.32815157447465" lon="108.982569301136">
        <ele>393.799771649763</ele>
        <time>2022-03-16T23:41:18Z</time>
      </trkpt>
      <trkpt lat="34.328134670600335" lon="108.98267449160075">
        <ele>393.88216225337237</ele>
        <time>2022-03-16T23:41:20Z</time>
      </trkpt>
      <trkpt lat="34.328162928422884" lon="108.98287571012546">
        <ele>393.83399204164743</ele>
        <time>2022-03-16T23:41:24Z</time>
      </trkpt>
      <trkpt lat="34.32812960205956" lon="108.98305776123298">
        <ele>393.4539206987247</ele>
        <time>2022-03-16T23:41:28Z</time>
      </trkpt>
      <trkpt lat="34.32815317555333" lon="108.98324489590574">
        <ele>392.80848524253815</ele>
        <time>2022-03-16T23:41:32Z</time>
      </trkpt>
      <trkpt lat="34.32815241196393" lon="108.98337452405364">
        <ele>393.7896175859496</ele>
        <time>2022-03-16T23:41:34Z</time>
      </trkpt>
      <trkpt lat="34.32816990643629" lon="108.9834922301821">
        <ele>394.81872357148677</ele>
        <time>2022-03-16T23:41:36Z</time>
      </trkpt>
      <trkpt lat="34.32816561106855" lon="108.98361006979731">
        <ele>393.1054499614984</ele>
        <time>2022-03-16T23:41:38Z</time>
      </trkpt>
      <trkpt lat="34.328111842265315" lon="108.9837123387609">
        <ele>392.2063262425363</ele>
        <time>2022-03-16T23:41:40Z</time>
      </trkpt>
      <trkpt lat="34.32805361297633" lon="108.98377788708424">
        <ele>391.6506133498624</ele>
        <time>2022-03-16T23:41:42Z</time>
      </trkpt>
      <trkpt lat="34.3279783099489" lon="108.9839810080233">
        <ele>392.8514124164358</ele>
        <time>2022-03-16T23:41:46Z</time>
      </trkpt>
      <trkpt lat="34.32797350413489" lon="108.98411878303709">
        <ele>393.74717486370355</ele>
        <time>2022-03-16T23:41:48Z</time>
      </trkpt>
      <trkpt lat="34.32792574247358" lon="108.98424393972324">
        <ele>392.11874321009964</ele>
        <time>2022-03-16T23:41:50Z</time>
      </trkpt>
      <trkpt lat="34.32790254682342" lon="108.98436003864403">
        <ele>391.5594028076157</ele>
        <time>2022-03-16T23:41:52Z</time>
      </trkpt>
      <trkpt lat="34.32789861255974" lon="108.98447062606009">
        <ele>392.0875096330419</ele>
        <time>2022-03-16T23:41:54Z</time>
      </trkpt>
      <trkpt lat="34.32792779434282" lon="108.98477221625683">
        <ele>393.0232728952542</ele>
        <time>2022-03-16T23:42:00Z</time>
      </trkpt>
      <trkpt lat="34.3279009917957" lon="108.985008562195">
        <ele>393.2096320511773</ele>
        <time>2022-03-16T23:42:04Z</time>
      </trkpt>
      <trkpt lat="34.32790631188649" lon="108.98513583083006">
        <ele>392.08051702193916</ele>
        <time>2022-03-16T23:42:07Z</time>
      </trkpt>
      <trkpt lat="34.32793375190674" lon="108.98523423330886">
        <ele>393.0831191735342</ele>
        <time>2022-03-16T23:42:09Z</time>
      </trkpt>
      <trkpt lat="34.32793114409213" lon="108.98532419810329">
        <ele>391.33983196504414</ele>
        <time>2022-03-16T23:42:11Z</time>
      </trkpt>
      <trkpt lat="34.327980213194294" lon="108.98572546472383">
        <ele>394.0788429537788</ele>
        <time>2022-03-16T23:42:19Z</time>
      </trkpt>
      <trkpt lat="34.327930649877544" lon="108.9862102573373">
        <ele>391.6021667746827</ele>
        <time>2022-03-16T23:42:27Z</time>
      </trkpt>
      <trkpt lat="34.327948551807104" lon="108.9863331769674">
        <ele>392.59766605496407</ele>
        <time>2022-03-16T23:42:29Z</time>
      </trkpt>
      <trkpt lat="34.32793121252188" lon="108.9865534281561">
        <ele>392.2100196685642</ele>
        <time>2022-03-16T23:42:33Z</time>
      </trkpt>
      <trkpt lat="34.327974094498465" lon="108.98684271696013">
        <ele>393.31651854049414</ele>
        <time>2022-03-16T23:42:38Z</time>
      </trkpt>
      <trkpt lat="34.327964955028" lon="108.98740583988989">
        <ele>394.24238205328584</ele>
        <time>2022-03-16T23:42:48Z</time>
      </trkpt>
      <trkpt lat="34.32795459898855" lon="108.9879864529971">
        <ele>394.0658605620265</ele>
        <time>2022-03-16T23:42:58Z</time>
      </trkpt>
      <trkpt lat="34.32792358152523" lon="108.98821089935875">
        <ele>392.9093485297635</ele>
        <time>2022-03-16T23:43:02Z</time>
      </trkpt>
      <trkpt lat="34.32793452235185" lon="108.98875700196419">
        <ele>393.1265501761809</ele>
        <time>2022-03-16T23:43:12Z</time>
      </trkpt>
      <trkpt lat="34.32793642704903" lon="108.98917683317661">
        <ele>392.8017158554867</ele>
        <time>2022-03-16T23:43:20Z</time>
      </trkpt>
      <trkpt lat="34.32795079746379" lon="108.98926411464245">
        <ele>392.8270856300369</ele>
        <time>2022-03-16T23:43:22Z</time>
      </trkpt>
      <trkpt lat="34.327893765321136" lon="108.98971736341105">
        <ele>392.6481384318322</ele>
        <time>2022-03-16T23:43:30Z</time>
      </trkpt>
      <trkpt lat="34.3278787345782" lon="108.99028690331332">
        <ele>392.68483270984143</ele>
        <time>2022-03-16T23:43:44Z</time>
      </trkpt>
      <trkpt lat="34.32785340733153" lon="108.99034517225593">
        <ele>392.05716801434755</ele>
        <time>2022-03-16T23:43:56Z</time>
      </trkpt>
      <trkpt lat="34.32784704763661" lon="108.99068401097288">
        <ele>391.6454011313617</ele>
        <time>2022-03-16T23:44:11Z</time>
      </trkpt>
      <trkpt lat="34.32787308761105" lon="108.99079626303721">
        <ele>391.4738112334162</ele>
        <time>2022-03-16T23:44:13Z</time>
      </trkpt>
      <trkpt lat="34.327866720668766" lon="108.99091977617906">
        <ele>392.09980819094926</ele>
        <time>2022-03-16T23:44:15Z</time>
      </trkpt>
      <trkpt lat="34.32789412655975" lon="108.99103337194742">
        <ele>392.64784098416567</ele>
        <time>2022-03-16T23:44:17Z</time>
      </trkpt>
      <trkpt lat="34.32794678360119" lon="108.99112813984615">
        <ele>391.1033232649788</ele>
        <time>2022-03-16T23:44:19Z</time>
      </trkpt>
      <trkpt lat="34.327917547928536" lon="108.9912289334949">
        <ele>391.3560769306496</ele>
        <time>2022-03-16T23:44:21Z</time>
      </trkpt>
      <trkpt lat="34.32798835723677" lon="108.99153576337218">
        <ele>395.7806668644771</ele>
        <time>2022-03-16T23:44:29Z</time>
      </trkpt>
      <trkpt lat="34.32796564533789" lon="108.99167609108736">
        <ele>395.6691428972408</ele>
        <time>2022-03-16T23:44:31Z</time>
      </trkpt>
      <trkpt lat="34.32797730656251" lon="108.99180844729968">
        <ele>396.4482010938227</ele>
        <time>2022-03-16T23:44:33Z</time>
      </trkpt>
      <trkpt lat="34.32794779172997" lon="108.99192823140773">
        <ele>396.2291377596557</ele>
        <time>2022-03-16T23:44:35Z</time>
      </trkpt>
      <trkpt lat="34.3279518197851" lon="108.99224812681585">
        <ele>395.35421787481755</ele>
        <time>2022-03-16T23:44:41Z</time>
      </trkpt>
      <trkpt lat="34.32800964192732" lon="108.9923858238855">
        <ele>393.25726176798344</ele>
        <time>2022-03-16T23:44:45Z</time>
      </trkpt>
      <trkpt lat="34.328032377840266" lon="108.99259245575601">
        <ele>393.74847976863384</ele>
        <time>2022-03-16T23:44:49Z</time>
      </trkpt>
      <trkpt lat="34.32799978371363" lon="108.99284100183789">
        <ele>394.8351298253983</ele>
        <time>2022-03-16T23:44:53Z</time>
      </trkpt>
      <trkpt lat="34.32801086726729" lon="108.9934039943622">
        <ele>396.33878093771636</ele>
        <time>2022-03-16T23:45:03Z</time>
      </trkpt>
      <trkpt lat="34.327995397000045" lon="108.99351520649871">
        <ele>396.4475818788633</ele>
        <time>2022-03-16T23:45:05Z</time>
      </trkpt>
      <trkpt lat="34.32802214316601" lon="108.99377076494781">
        <ele>396.7186414236203</ele>
        <time>2022-03-16T23:45:09Z</time>
      </trkpt>
      <trkpt lat="34.32804672864463" lon="108.9938725175322">
        <ele>396.26800716575235</ele>
        <time>2022-03-16T23:45:11Z</time>
      </trkpt>
      <trkpt lat="34.32804286360292" lon="108.99407341474473">
        <ele>396.8537817783654</ele>
        <time>2022-03-16T23:45:15Z</time>
      </trkpt>
      <trkpt lat="34.328073359585815" lon="108.99419281600578">
        <ele>395.34072836861014</ele>
        <time>2022-03-16T23:45:19Z</time>
      </trkpt>
      <trkpt lat="34.32806687506673" lon="108.99432231283221">
        <ele>395.58281497471035</ele>
        <time>2022-03-16T23:45:23Z</time>
      </trkpt>
      <trkpt lat="34.328093340528525" lon="108.99450614309072">
        <ele>395.02747411467135</ele>
        <time>2022-03-16T23:45:27Z</time>
      </trkpt>
      <trkpt lat="34.32807695554093" lon="108.99462262779666">
        <ele>396.24167001992464</ele>
        <time>2022-03-16T23:45:31Z</time>
      </trkpt>
      <trkpt lat="34.32809770529005" lon="108.99490528209827">
        <ele>394.95601801015437</ele>
        <time>2022-03-16T23:45:39Z</time>
      </trkpt>
      <trkpt lat="34.32809375482832" lon="108.99503889213095">
        <ele>394.3297969587147</ele>
        <time>2022-03-16T23:45:43Z</time>
      </trkpt>
      <trkpt lat="34.32820970401518" lon="108.99544123985943">
        <ele>392.8632301110774</ele>
        <time>2022-03-16T23:45:53Z</time>
      </trkpt>
      <trkpt lat="34.328224917668635" lon="108.99570652356518">
        <ele>391.77441762480885</ele>
        <time>2022-03-16T23:46:00Z</time>
      </trkpt>
      <trkpt lat="34.328213629168474" lon="108.99588155283398">
        <ele>392.270768834278</ele>
        <time>2022-03-16T23:46:04Z</time>
      </trkpt>
      <trkpt lat="34.32817690613112" lon="108.9960614646513">
        <ele>392.1323368521407</ele>
        <time>2022-03-16T23:46:08Z</time>
      </trkpt>
      <trkpt lat="34.32817636469266" lon="108.99651770294246">
        <ele>392.56628253217787</ele>
        <time>2022-03-16T23:46:20Z</time>
      </trkpt>
      <trkpt lat="34.32814803445279" lon="108.99660203684626">
        <ele>393.41594673413783</ele>
        <time>2022-03-16T23:46:22Z</time>
      </trkpt>
      <trkpt lat="34.328103873192056" lon="108.99711356402497">
        <ele>397.0789429936558</ele>
        <time>2022-03-16T23:46:36Z</time>
      </trkpt>
      <trkpt lat="34.32811307017164" lon="108.99723141422362">
        <ele>397.23649539332837</ele>
        <time>2022-03-16T23:46:40Z</time>
      </trkpt>
      <trkpt lat="34.32805831945774" lon="108.99752631567456">
        <ele>397.42124131601304</ele>
        <time>2022-03-16T23:46:48Z</time>
      </trkpt>
      <trkpt lat="34.32807502875707" lon="108.997870939055">
        <ele>395.9849504567683</ele>
        <time>2022-03-16T23:47:00Z</time>
      </trkpt>
      <trkpt lat="34.328037895504146" lon="108.99811029902283">
        <ele>398.7034204993397</ele>
        <time>2022-03-16T23:47:08Z</time>
      </trkpt>
      <trkpt lat="34.32805574306304" lon="108.99859261583248">
        <ele>397.3934897547588</ele>
        <time>2022-03-16T23:47:22Z</time>
      </trkpt>
      <trkpt lat="34.328029602970965" lon="108.99900094655516">
        <ele>397.59040819387883</ele>
        <time>2022-03-16T23:47:34Z</time>
      </trkpt>
      <trkpt lat="34.32804509876199" lon="108.9992594356421">
        <ele>396.02076190616935</ele>
        <time>2022-03-16T23:47:42Z</time>
      </trkpt>
      <trkpt lat="34.32810210127827" lon="108.9995999709953">
        <ele>397.228625876829</ele>
        <time>2022-03-16T23:47:52Z</time>
      </trkpt>
      <trkpt lat="34.32808412963861" lon="108.99971057389574">
        <ele>395.91228214185685</ele>
        <time>2022-03-16T23:47:56Z</time>
      </trkpt>
      <trkpt lat="34.32810986081516" lon="108.99985857007036">
        <ele>394.79019359499216</ele>
        <time>2022-03-16T23:48:00Z</time>
      </trkpt>
      <trkpt lat="34.32810046139857" lon="108.99996222050521">
        <ele>396.3826711187139</ele>
        <time>2022-03-16T23:48:04Z</time>
      </trkpt>
      <trkpt lat="34.3281649670976" lon="109.00021568940392">
        <ele>396.0471970345825</ele>
        <time>2022-03-16T23:48:12Z</time>
      </trkpt>
      <trkpt lat="34.32772318681647" lon="109.0036376805392">
        <ele>395.18858761060983</ele>
        <time>2022-03-16T23:48:16Z</time>
      </trkpt>
      <trkpt lat="34.327765204438776" lon="109.004014206492">
        <ele>395.231068149209</ele>
        <time>2022-03-16T23:48:22Z</time>
      </trkpt>
      <trkpt lat="34.32776390982919" lon="109.00410598600713">
        <ele>395.2542820079252</ele>
        <time>2022-03-16T23:48:24Z</time>
      </trkpt>
      <trkpt lat="34.32780225550763" lon="109.00422577773612">
        <ele>394.94830316863954</ele>
        <time>2022-03-16T23:48:26Z</time>
      </trkpt>
      <trkpt lat="34.32780952585556" lon="109.00437021108038">
        <ele>394.69623118732125</ele>
        <time>2022-03-16T23:48:28Z</time>
      </trkpt>
      <trkpt lat="34.327776746092496" lon="109.0045049010881">
        <ele>394.5418747747317</ele>
        <time>2022-03-16T23:48:30Z</time>
      </trkpt>
      <trkpt lat="34.32777938419124" lon="109.00464646333126">
        <ele>394.2470139237121</ele>
        <time>2022-03-16T23:48:32Z</time>
      </trkpt>
      <trkpt lat="34.32781007623178" lon="109.00477080263097">
        <ele>394.2536999126896</ele>
        <time>2022-03-16T23:48:34Z</time>
      </trkpt>
      <trkpt lat="34.32784661213549" lon="109.00529963665005">
        <ele>394.3412300609052</ele>
        <time>2022-03-16T23:48:42Z</time>
      </trkpt>
      <trkpt lat="34.32786563561719" lon="109.00551456481058">
        <ele>395.40748264361173</ele>
        <time>2022-03-16T23:48:46Z</time>
      </trkpt>
      <trkpt lat="34.32784811515842" lon="109.00560463498167">
        <ele>395.0318099753931</ele>
        <time>2022-03-16T23:48:48Z</time>
      </trkpt>
      <trkpt lat="34.3278754621904" lon="109.00591776684401">
        <ele>395.10885019320995</ele>
        <time>2022-03-16T23:48:54Z</time>
      </trkpt>
      <trkpt lat="34.327859389135185" lon="109.00602014082622">
        <ele>394.9082127576694</ele>
        <time>2022-03-16T23:48:56Z</time>
      </trkpt>
      <trkpt lat="34.32788659681302" lon="109.00635537904373">
        <ele>395.24235796928406</ele>
        <time>2022-03-16T23:49:02Z</time>
      </trkpt>
      <trkpt lat="34.32788313296721" lon="109.00647212905118">
        <ele>394.80129496287555</ele>
        <time>2022-03-16T23:49:04Z</time>
      </trkpt>
      <trkpt lat="34.327913841874754" lon="109.00658361996491">
        <ele>394.40896569006145</ele>
        <time>2022-03-16T23:49:06Z</time>
      </trkpt>
      <trkpt lat="34.327896902325094" lon="109.00684321161692">
        <ele>394.5046809874475</ele>
        <time>2022-03-16T23:49:10Z</time>
      </trkpt>
      <trkpt lat="34.32788622489488" lon="109.00721952696532">
        <ele>394.44763117842376</ele>
        <time>2022-03-16T23:49:16Z</time>
      </trkpt>
      <trkpt lat="34.327834060304404" lon="109.00759358929194">
        <ele>393.3126897914335</ele>
        <time>2022-03-16T23:49:22Z</time>
      </trkpt>
      <trkpt lat="34.32782941538519" lon="109.00813408079235">
        <ele>392.5264377333224</ele>
        <time>2022-03-16T23:49:30Z</time>
      </trkpt>
      <trkpt lat="34.32784255513063" lon="109.00840923130923">
        <ele>392.226333681494</ele>
        <time>2022-03-16T23:49:34Z</time>
      </trkpt>
      <trkpt lat="34.32787025507748" lon="109.00865556366729">
        <ele>393.67707432061434</ele>
        <time>2022-03-16T23:49:38Z</time>
      </trkpt>
      <trkpt lat="34.32786502467325" lon="109.00920635944613">
        <ele>391.63345012348145</ele>
        <time>2022-03-16T23:49:46Z</time>
      </trkpt>
      <trkpt lat="34.32788645154127" lon="109.00934940216588">
        <ele>391.08003777451813</ele>
        <time>2022-03-16T23:49:48Z</time>
      </trkpt>
      <trkpt lat="34.327883449425734" lon="109.00991094361109">
        <ele>387.9271001908928</ele>
        <time>2022-03-16T23:49:56Z</time>
      </trkpt>
      <trkpt lat="34.32787547159639" lon="109.01004251128796">
        <ele>387.1274547819048</ele>
        <time>2022-03-16T23:49:58Z</time>
      </trkpt>
      <trkpt lat="34.32790238158961" lon="109.01028226052347">
        <ele>386.98217566963285</ele>
        <time>2022-03-16T23:50:02Z</time>
      </trkpt>
      <trkpt lat="34.32785557113821" lon="109.01094533144311">
        <ele>386.5128824580461</ele>
        <time>2022-03-16T23:50:14Z</time>
      </trkpt>
      <trkpt lat="34.32790283120674" lon="109.01153604545995">
        <ele>388.2129515474662</ele>
        <time>2022-03-16T23:50:26Z</time>
      </trkpt>
      <trkpt lat="34.327885724540735" lon="109.01208843196281">
        <ele>387.0713319433853</ele>
        <time>2022-03-16T23:50:36Z</time>
      </trkpt>
      <trkpt lat="34.32787648637545" lon="109.01230449766688">
        <ele>387.8037515040487</ele>
        <time>2022-03-16T23:50:40Z</time>
      </trkpt>
      <trkpt lat="34.327885642723615" lon="109.0124180142125">
        <ele>387.53989201411605</ele>
        <time>2022-03-16T23:50:42Z</time>
      </trkpt>
      <trkpt lat="34.327873838399135" lon="109.01253427636424">
        <ele>388.12097343895584</ele>
        <time>2022-03-16T23:50:44Z</time>
      </trkpt>
      <trkpt lat="34.32787101153817" lon="109.01306967601721">
        <ele>390.12890838924795</ele>
        <time>2022-03-16T23:50:54Z</time>
      </trkpt>
      <trkpt lat="34.327898945641635" lon="109.01361523657488">
        <ele>390.63056432269514</ele>
        <time>2022-03-16T23:51:04Z</time>
      </trkpt>
      <trkpt lat="34.32792963405311" lon="109.01397251332696">
        <ele>390.8487359834835</ele>
        <time>2022-03-16T23:51:10Z</time>
      </trkpt>
      <trkpt lat="34.32791736205993" lon="109.01450240331572">
        <ele>388.6281729126349</ele>
        <time>2022-03-16T23:51:20Z</time>
      </trkpt>
      <trkpt lat="34.32794787785326" lon="109.01509298468407">
        <ele>388.209623767063</ele>
        <time>2022-03-16T23:51:30Z</time>
      </trkpt>
      <trkpt lat="34.327953243157545" lon="109.015321875422">
        <ele>387.83137487247586</ele>
        <time>2022-03-16T23:51:34Z</time>
      </trkpt>
      <trkpt lat="34.327977269576934" lon="109.01554978847881">
        <ele>388.78268885985017</ele>
        <time>2022-03-16T23:51:38Z</time>
      </trkpt>
      <trkpt lat="34.32796630239966" lon="109.01577085826236">
        <ele>387.44811811018735</ele>
        <time>2022-03-16T23:51:44Z</time>
      </trkpt>
      <trkpt lat="34.32780816215024" lon="109.01631523624127">
        <ele>387.61866336036474</ele>
        <time>2022-03-16T23:51:58Z</time>
      </trkpt>
      <trkpt lat="34.32774481081956" lon="109.01687069298221">
        <ele>389.0878272522241</ele>
        <time>2022-03-16T23:52:10Z</time>
      </trkpt>
      <trkpt lat="34.32768670326144" lon="109.0171979174002">
        <ele>389.38541059941053</ele>
        <time>2022-03-16T23:52:18Z</time>
      </trkpt>
      <trkpt lat="34.327613442735704" lon="109.01741467889202">
        <ele>389.9417384406552</ele>
        <time>2022-03-16T23:52:24Z</time>
      </trkpt>
      <trkpt lat="34.32761567397989" lon="109.01757008930133">
        <ele>389.1536627886817</ele>
        <time>2022-03-16T23:52:28Z</time>
      </trkpt>
      <trkpt lat="34.327560936780486" lon="109.01813594685756">
        <ele>388.9598821140826</ele>
        <time>2022-03-16T23:52:40Z</time>
      </trkpt>
      <trkpt lat="34.32754635624547" lon="109.01849008706833">
        <ele>388.99008252937347</ele>
        <time>2022-03-16T23:52:48Z</time>
      </trkpt>
      <trkpt lat="34.32749394909232" lon="109.01879734202782">
        <ele>389.637821206823</ele>
        <time>2022-03-16T23:52:56Z</time>
      </trkpt>
      <trkpt lat="34.327422745307686" lon="109.01906283452045">
        <ele>390.2353913281113</ele>
        <time>2022-03-16T23:53:04Z</time>
      </trkpt>
      <trkpt lat="34.32732490967352" lon="109.01923678926093">
        <ele>388.88841514475644</ele>
        <time>2022-03-16T23:53:08Z</time>
      </trkpt>
      <trkpt lat="34.32730366106682" lon="109.01932156999604">
        <ele>388.722344934009</ele>
        <time>2022-03-16T23:53:10Z</time>
      </trkpt>
      <trkpt lat="34.327252459338474" lon="109.01940069017347">
        <ele>388.2586018759757</ele>
        <time>2022-03-16T23:53:12Z</time>
      </trkpt>
      <trkpt lat="34.327211958466776" lon="109.01955987385034">
        <ele>388.2705053528771</ele>
        <time>2022-03-16T23:53:16Z</time>
      </trkpt>
      <trkpt lat="34.327148857824305" lon="109.01962367880299">
        <ele>388.03551476448774</ele>
        <time>2022-03-16T23:53:18Z</time>
      </trkpt>
      <trkpt lat="34.32696700605041" lon="109.01995380167847">
        <ele>387.90298379957676</ele>
        <time>2022-03-16T23:53:28Z</time>
      </trkpt>
      <trkpt lat="34.32687360209353" lon="109.02007236966455">
        <ele>388.8318663928658</ele>
        <time>2022-03-16T23:53:32Z</time>
      </trkpt>
      <trkpt lat="34.32660109802215" lon="109.02033026180567">
        <ele>389.06974288541824</ele>
        <time>2022-03-16T23:53:42Z</time>
      </trkpt>
      <trkpt lat="34.32619530202501" lon="109.02057936111241">
        <ele>389.2127755302936</ele>
        <time>2022-03-16T23:53:54Z</time>
      </trkpt>
      <trkpt lat="34.3261186180308" lon="109.02062889130859">
        <ele>389.8428211482242</ele>
        <time>2022-03-16T23:53:56Z</time>
      </trkpt>
      <trkpt lat="34.32589932835777" lon="109.02068721900267">
        <ele>389.84848189819604</ele>
        <time>2022-03-16T23:54:02Z</time>
      </trkpt>
      <trkpt lat="34.32575210835906" lon="109.02076432097718">
        <ele>389.3379308292642</ele>
        <time>2022-03-16T23:54:06Z</time>
      </trkpt>
      <trkpt lat="34.325440742272576" lon="109.02083863378057">
        <ele>389.60149059817195</ele>
        <time>2022-03-16T23:54:14Z</time>
      </trkpt>
      <trkpt lat="34.325243234003686" lon="109.0209410748061">
        <ele>390.2304080873728</ele>
        <time>2022-03-16T23:54:20Z</time>
      </trkpt>
      <trkpt lat="34.32492192521734" lon="109.02096943159019">
        <ele>389.56177129782736</ele>
        <time>2022-03-16T23:54:30Z</time>
      </trkpt>
      <trkpt lat="34.32472129506873" lon="109.02112735174528">
        <ele>389.81139542814344</ele>
        <time>2022-03-16T23:54:38Z</time>
      </trkpt>
      <trkpt lat="34.32451408074688" lon="109.02119385550048">
        <ele>389.384097000584</ele>
        <time>2022-03-16T23:54:46Z</time>
      </trkpt>
      <trkpt lat="34.32428949523219" lon="109.0213191561678">
        <ele>390.80883960891515</ele>
        <time>2022-03-16T23:54:54Z</time>
      </trkpt>
      <trkpt lat="34.32405819792898" lon="109.02138352156453">
        <ele>391.445761536248</ele>
        <time>2022-03-16T23:55:02Z</time>
      </trkpt>
      <trkpt lat="34.32373560210029" lon="109.02155859776202">
        <ele>392.5702155418694</ele>
        <time>2022-03-16T23:55:14Z</time>
      </trkpt>
      <trkpt lat="34.323642711245675" lon="109.02157877026711">
        <ele>392.7517890948802</ele>
        <time>2022-03-16T23:55:18Z</time>
      </trkpt>
      <trkpt lat="34.320632875256344" lon="109.02164458011451">
        <ele>391.68672920949757</ele>
        <time>2022-03-16T23:55:26Z</time>
      </trkpt>
      <trkpt lat="34.320534770201206" lon="109.0215915492066">
        <ele>392.23911315761507</ele>
        <time>2022-03-16T23:55:28Z</time>
      </trkpt>
      <trkpt lat="34.320187120162856" lon="109.02152450987194">
        <ele>391.51264917943627</ele>
        <time>2022-03-16T23:55:34Z</time>
      </trkpt>
      <trkpt lat="34.31987357064986" lon="109.02148937928045">
        <ele>390.9047361779958</ele>
        <time>2022-03-16T23:55:40Z</time>
      </trkpt>
      <trkpt lat="34.31957005140453" lon="109.02148214671786">
        <ele>391.1147546824068</ele>
        <time>2022-03-16T23:55:46Z</time>
      </trkpt>
      <trkpt lat="34.319438235425764" lon="109.02144338498464">
        <ele>390.9090265929699</ele>
        <time>2022-03-16T23:55:48Z</time>
      </trkpt>
      <trkpt lat="34.319248423247664" lon="109.0214549143979">
        <ele>391.06117640808225</ele>
        <time>2022-03-16T23:55:52Z</time>
      </trkpt>
      <trkpt lat="34.31905143589729" lon="109.02143534337769">
        <ele>391.22921900171787</ele>
        <time>2022-03-16T23:55:56Z</time>
      </trkpt>
      <trkpt lat="34.31856861239427" lon="109.02145048794534">
        <ele>390.617076151073</ele>
        <time>2022-03-16T23:56:06Z</time>
      </trkpt>
      <trkpt lat="34.318109527130765" lon="109.02151329710742">
        <ele>390.8082245448604</ele>
        <time>2022-03-16T23:56:16Z</time>
      </trkpt>
      <trkpt lat="34.31772077969017" lon="109.02154799934698">
        <ele>391.87301257811487</ele>
        <time>2022-03-16T23:56:24Z</time>
      </trkpt>
      <trkpt lat="34.317222953020476" lon="109.02162600749094">
        <ele>391.8742899047211</ele>
        <time>2022-03-16T23:56:34Z</time>
      </trkpt>
      <trkpt lat="34.31671382512212" lon="109.021670738879">
        <ele>391.8547208048403</ele>
        <time>2022-03-16T23:56:44Z</time>
      </trkpt>
      <trkpt lat="34.31643236986491" lon="109.02175992765291">
        <ele>392.04056052770466</ele>
        <time>2022-03-16T23:56:50Z</time>
      </trkpt>
      <trkpt lat="34.31632392455966" lon="109.0217788589685">
        <ele>391.6128347115591</ele>
        <time>2022-03-16T23:56:52Z</time>
      </trkpt>
      <trkpt lat="34.31624380713974" lon="109.02182727151536">
        <ele>391.76813072897494</ele>
        <time>2022-03-16T23:56:54Z</time>
      </trkpt>
      <trkpt lat="34.3161514980379" lon="109.02185077567984">
        <ele>392.19363345671445</ele>
        <time>2022-03-16T23:56:56Z</time>
      </trkpt>
      <trkpt lat="34.31589059137593" lon="109.0220052785334">
        <ele>392.5864309919998</ele>
        <time>2022-03-16T23:57:02Z</time>
      </trkpt>
      <trkpt lat="34.315802710863515" lon="109.0220832124927">
        <ele>391.7898744009435</ele>
        <time>2022-03-16T23:57:04Z</time>
      </trkpt>
      <trkpt lat="34.31571446890084" lon="109.02225749703338">
        <ele>391.43915691878647</ele>
        <time>2022-03-16T23:57:08Z</time>
      </trkpt>
      <trkpt lat="34.31577783208246" lon="109.02257842961845">
        <ele>391.91636031027883</ele>
        <time>2022-03-16T23:57:16Z</time>
      </trkpt>
      <trkpt lat="34.315984725552305" lon="109.023144460581">
        <ele>389.2517853239551</ele>
        <time>2022-03-16T23:57:26Z</time>
      </trkpt>
      <trkpt lat="34.31616633550946" lon="109.02356781124114">
        <ele>388.5872776256874</ele>
        <time>2022-03-16T23:57:34Z</time>
      </trkpt>
      <trkpt lat="34.31619172770394" lon="109.02366239013867">
        <ele>388.2109304117039</ele>
        <time>2022-03-16T23:57:36Z</time>
      </trkpt>
      <trkpt lat="34.316073087368345" lon="109.02385585778565">
        <ele>390.85674067772925</ele>
        <time>2022-03-16T23:57:42Z</time>
      </trkpt>
      <trkpt lat="34.31599985437552" lon="109.02391095163051">
        <ele>390.6663868082687</ele>
        <time>2022-03-16T23:57:44Z</time>
      </trkpt>
      <trkpt lat="34.31578876806784" lon="109.02397258072354">
        <ele>389.51884392276406</ele>
        <time>2022-03-16T23:57:48Z</time>
      </trkpt>
      <trkpt lat="34.31570993136951" lon="109.02402280088701">
        <ele>389.096108706668</ele>
        <time>2022-03-16T23:57:50Z</time>
      </trkpt>
      <trkpt lat="34.31564697822866" lon="109.02408689296522">
        <ele>389.87637387402356</ele>
        <time>2022-03-16T23:57:52Z</time>
      </trkpt>
      <trkpt lat="34.31532507166244" lon="109.02429332382937">
        <ele>390.1253584763035</ele>
        <time>2022-03-16T23:58:00Z</time>
      </trkpt>
      <trkpt lat="34.31508431943479" lon="109.02446058831372">
        <ele>392.9981264928356</ele>
        <time>2022-03-16T23:58:06Z</time>
      </trkpt>
      <trkpt lat="34.314959252978255" lon="109.02457617402638">
        <ele>391.77073026727885</ele>
        <time>2022-03-16T23:58:10Z</time>
      </trkpt>
      <trkpt lat="34.31468376429533" lon="109.02474563582587">
        <ele>391.02905967179686</ele>
        <time>2022-03-16T23:58:16Z</time>
      </trkpt>
      <trkpt lat="34.31458721601694" lon="109.02477919876083">
        <ele>390.9708803277463</ele>
        <time>2022-03-16T23:58:18Z</time>
      </trkpt>
      <trkpt lat="34.31452425614002" lon="109.02485504675953">
        <ele>390.4699598001316</ele>
        <time>2022-03-16T23:58:20Z</time>
      </trkpt>
      <trkpt lat="34.31424104083562" lon="109.02505051626608">
        <ele>389.4932231931016</ele>
        <time>2022-03-16T23:58:26Z</time>
      </trkpt>
      <trkpt lat="34.314143255549844" lon="109.02509219626295">
        <ele>389.8096029218286</ele>
        <time>2022-03-16T23:58:28Z</time>
      </trkpt>
      <trkpt lat="34.31406053866119" lon="109.02516361053738">
        <ele>390.50790861435235</ele>
        <time>2022-03-16T23:58:30Z</time>
      </trkpt>
      <trkpt lat="34.31364218558539" lon="109.02534332653079">
        <ele>390.1375737050548</ele>
        <time>2022-03-16T23:58:38Z</time>
      </trkpt>
      <trkpt lat="34.313453778604455" lon="109.02544457085061">
        <ele>390.47154266014695</ele>
        <time>2022-03-16T23:58:42Z</time>
      </trkpt>
      <trkpt lat="34.313346093383664" lon="109.02548367737586">
        <ele>389.8070922680199</ele>
        <time>2022-03-16T23:58:44Z</time>
      </trkpt>
      <trkpt lat="34.3129747168087" lon="109.02569215619727">
        <ele>391.22535668406636</ele>
        <time>2022-03-16T23:58:52Z</time>
      </trkpt>
      <trkpt lat="34.31271326316211" lon="109.02587930067637">
        <ele>392.368575790897</ele>
        <time>2022-03-16T23:58:58Z</time>
      </trkpt>
      <trkpt lat="34.31252274298481" lon="109.02598336062952">
        <ele>392.5602823123336</ele>
        <time>2022-03-16T23:59:02Z</time>
      </trkpt>
      <trkpt lat="34.312583312896436" lon="109.02606958474107">
        <ele>392.79398999456316</ele>
        <time>2022-03-16T23:59:04Z</time>
      </trkpt>
      <trkpt lat="34.31260444904634" lon="109.02621716026502">
        <ele>393.3187995115295</ele>
        <time>2022-03-16T23:59:08Z</time>
      </trkpt>
      <trkpt lat="34.31242316943294" lon="109.02633739827627">
        <ele>393.04306446388364</ele>
        <time>2022-03-16T23:59:10Z</time>
      </trkpt>
      <trkpt lat="34.31231002592741" lon="109.02633226458455">
        <ele>393.2486504437402</ele>
        <time>2022-03-16T23:59:12Z</time>
      </trkpt>
      <trkpt lat="34.312313046830624" lon="109.02642414467478">
        <ele>392.78748393803835</ele>
        <time>2022-03-16T23:59:14Z</time>
      </trkpt>
      <trkpt lat="34.312028439172465" lon="109.02654066360704">
        <ele>394.9708233708516</ele>
        <time>2022-03-16T23:59:18Z</time>
      </trkpt>
      <trkpt lat="34.31193788833735" lon="109.02661191778368">
        <ele>394.14512369967997</ele>
        <time>2022-03-16T23:59:20Z</time>
      </trkpt>
      <trkpt lat="34.31170564221815" lon="109.02696951169838">
        <ele>393.9619760606438</ele>
        <time>2022-03-16T23:59:28Z</time>
      </trkpt>
      <trkpt lat="34.311647622587365" lon="109.02718776835135">
        <ele>394.1314231492579</ele>
        <time>2022-03-16T23:59:32Z</time>
      </trkpt>
      <trkpt lat="34.311579986277806" lon="109.0277227588888">
        <ele>392.8005978045985</ele>
        <time>2022-03-16T23:59:42Z</time>
      </trkpt>
      <trkpt lat="34.311528491798626" lon="109.02817443226178">
        <ele>393.1928255436942</ele>
        <time>2022-03-16T23:59:50Z</time>
      </trkpt>
      <trkpt lat="34.311484425916035" lon="109.02828840292798">
        <ele>393.1623141709715</ele>
        <time>2022-03-16T23:59:52Z</time>
      </trkpt>
      <trkpt lat="34.31146313605724" lon="109.02839459635629">
        <ele>393.6218725675717</ele>
        <time>2022-03-16T23:59:54Z</time>
      </trkpt>
      <trkpt lat="34.31147773674203" lon="109.02865797336918">
        <ele>394.7292626854032</ele>
        <time>2022-03-16T23:59:58Z</time>
      </trkpt>
      <trkpt lat="34.311444569111" lon="109.02877459537254">
        <ele>394.4722636565566</ele>
        <time>2022-03-17T00:00:00Z</time>
      </trkpt>
      <trkpt lat="34.31136392341381" lon="109.02884431431639">
        <ele>393.23534627538174</ele>
        <time>2022-03-17T00:00:02Z</time>
      </trkpt>
      <trkpt lat="34.31124284134769" lon="109.02900955458126">
        <ele>393.12503913696855</ele>
        <time>2022-03-17T00:00:06Z</time>
      </trkpt>
      <trkpt lat="34.311031617944465" lon="109.02913212869655">
        <ele>392.10269172210246</ele>
        <time>2022-03-17T00:00:10Z</time>
      </trkpt>
      <trkpt lat="34.31095682709151" lon="109.02921238622945">
        <ele>392.04512243065983</ele>
        <time>2022-03-17T00:00:12Z</time>
      </trkpt>
      <trkpt lat="34.31060750510728" lon="109.02945581926501">
        <ele>392.54468519892544</ele>
        <time>2022-03-17T00:00:20Z</time>
      </trkpt>
      <trkpt lat="34.31021973952487" lon="109.0297760013779">
        <ele>392.3552947342396</ele>
        <time>2022-03-17T00:00:30Z</time>
      </trkpt>
      <trkpt lat="34.30982318430908" lon="109.0300797717155">
        <ele>393.35052074305713</ele>
        <time>2022-03-17T00:00:40Z</time>
      </trkpt>
      <trkpt lat="34.309399742842324" lon="109.03031453016555">
        <ele>394.6829579016194</ele>
        <time>2022-03-17T00:00:50Z</time>
      </trkpt>
      <trkpt lat="34.30915101976902" lon="109.0304349481469">
        <ele>393.7841399619356</ele>
        <time>2022-03-17T00:00:56Z</time>
      </trkpt>
      <trkpt lat="34.30895618524395" lon="109.03047642854604">
        <ele>393.970757169649</ele>
        <time>2022-03-17T00:01:00Z</time>
      </trkpt>
      <trkpt lat="34.30857299073169" lon="109.03059326615237">
        <ele>393.86007833480835</ele>
        <time>2022-03-17T00:01:08Z</time>
      </trkpt>
      <trkpt lat="34.30806063876387" lon="109.030626430996">
        <ele>394.8612199621275</ele>
        <time>2022-03-17T00:01:18Z</time>
      </trkpt>
      <trkpt lat="34.30758739355484" lon="109.03068808298582">
        <ele>393.9570093713701</ele>
        <time>2022-03-17T00:01:28Z</time>
      </trkpt>
      <trkpt lat="34.307067732788724" lon="109.0307334905108">
        <ele>392.1162424357608</ele>
        <time>2022-03-17T00:01:38Z</time>
      </trkpt>
      <trkpt lat="34.30654843028325" lon="109.03077574798279">
        <ele>391.4168498199433</ele>
        <time>2022-03-17T00:01:48Z</time>
      </trkpt>
      <trkpt lat="34.30635188367663" lon="109.0307927266868">
        <ele>390.36186102218926</ele>
        <time>2022-03-17T00:01:52Z</time>
      </trkpt>
      <trkpt lat="34.30619454819921" lon="109.03082749781193">
        <ele>391.79895919561386</ele>
        <time>2022-03-17T00:01:56Z</time>
      </trkpt>
      <trkpt lat="34.3061989463978" lon="109.0309472132424">
        <ele>391.48610733635724</ele>
        <time>2022-03-17T00:02:00Z</time>
      </trkpt>
      <trkpt lat="34.306267927251824" lon="109.03110163276831">
        <ele>391.04551706276834</ele>
        <time>2022-03-17T00:02:04Z</time>
      </trkpt>
      <trkpt lat="34.306267475025635" lon="109.03120112878558">
        <ele>391.13522377610207</ele>
        <time>2022-03-17T00:02:06Z</time>
      </trkpt>
      <trkpt lat="34.30629358560028" lon="109.03138716442596">
        <ele>392.0144865149632</ele>
        <time>2022-03-17T00:02:10Z</time>
      </trkpt>
      <trkpt lat="34.30628007162421" lon="109.0314862919282">
        <ele>390.90633513685316</ele>
        <time>2022-03-17T00:02:12Z</time>
      </trkpt>
      <trkpt lat="34.30635958174257" lon="109.0318327065941">
        <ele>391.67755979765207</ele>
        <time>2022-03-17T00:02:20Z</time>
      </trkpt>
      <trkpt lat="34.30640686040989" lon="109.03226701224331">
        <ele>393.1591180320829</ele>
        <time>2022-03-17T00:02:28Z</time>
      </trkpt>
      <trkpt lat="34.30642971094751" lon="109.03274840119849">
        <ele>393.7026603631675</ele>
        <time>2022-03-17T00:02:36Z</time>
      </trkpt>
      <trkpt lat="34.30645023587268" lon="109.03286243903109">
        <ele>393.0793078299612</ele>
        <time>2022-03-17T00:02:38Z</time>
      </trkpt>
      <trkpt lat="34.306452308835205" lon="109.03298935165766">
        <ele>392.9661854188889</ele>
        <time>2022-03-17T00:02:40Z</time>
      </trkpt>
      <trkpt lat="34.30650843874476" lon="109.03321814763167">
        <ele>392.93546245153993</ele>
        <time>2022-03-17T00:02:44Z</time>
      </trkpt>
      <trkpt lat="34.306530416550466" lon="109.03378447083996">
        <ele>393.2015253845602</ele>
        <time>2022-03-17T00:02:54Z</time>
      </trkpt>
      <trkpt lat="34.306516291699516" lon="109.03401937279185">
        <ele>393.0363023998216</ele>
        <time>2022-03-17T00:02:58Z</time>
      </trkpt>
      <trkpt lat="34.306531705234775" lon="109.03414035134394">
        <ele>393.6279430994764</ele>
        <time>2022-03-17T00:03:00Z</time>
      </trkpt>
      <trkpt lat="34.3065118205737" lon="109.03423535499088">
        <ele>392.8539962666109</ele>
        <time>2022-03-17T00:03:02Z</time>
      </trkpt>
      <trkpt lat="34.30657048815496" lon="109.03471713115476">
        <ele>393.4277175506577</ele>
        <time>2022-03-17T00:03:10Z</time>
      </trkpt>
      <trkpt lat="34.30656639132929" lon="109.03482885547005">
        <ele>392.5570066925138</ele>
        <time>2022-03-17T00:03:12Z</time>
      </trkpt>
      <trkpt lat="34.30662926120807" lon="109.03542935342226">
        <ele>392.7624142272398</ele>
        <time>2022-03-17T00:03:22Z</time>
      </trkpt>
      <trkpt lat="34.30665204924132" lon="109.03580601133005">
        <ele>392.5625479212031</ele>
        <time>2022-03-17T00:03:28Z</time>
      </trkpt>
      <trkpt lat="34.30667640527171" lon="109.03590939633919">
        <ele>392.97024752758443</ele>
        <time>2022-03-17T00:03:30Z</time>
      </trkpt>
      <trkpt lat="34.306721278392004" lon="109.03600759857378">
        <ele>393.68503251485527</ele>
        <time>2022-03-17T00:03:32Z</time>
      </trkpt>
      <trkpt lat="34.30673108003484" lon="109.03609564570073">
        <ele>392.91626952495426</ele>
        <time>2022-03-17T00:03:34Z</time>
      </trkpt>
      <trkpt lat="34.30665362268254" lon="109.03615382558499">
        <ele>392.8506663944572</ele>
        <time>2022-03-17T00:03:40Z</time>
      </trkpt>
      <trkpt lat="34.306573954736116" lon="109.0361550048788">
        <ele>392.11900623049587</ele>
        <time>2022-03-17T00:03:46Z</time>
      </trkpt>
      <trkpt lat="34.30659535777489" lon="109.03638058056958">
        <ele>391.287176287733</ele>
        <time>2022-03-17T00:03:58Z</time>
      </trkpt>
      <trkpt lat="34.30661962194434" lon="109.03646485101471">
        <ele>391.0729161314666</ele>
        <time>2022-03-17T00:04:04Z</time>
      </trkpt>
      <trkpt lat="34.30663060961711" lon="109.03658120870199">
        <ele>390.82305586896837</ele>
        <time>2022-03-17T00:04:10Z</time>
      </trkpt>
      <trkpt lat="34.30661462924377" lon="109.03687196620591">
        <ele>392.0840712999925</ele>
        <time>2022-03-17T00:04:28Z</time>
      </trkpt>
      <trkpt lat="34.30662209543626" lon="109.03696561843007">
        <ele>391.9103722330183</ele>
        <time>2022-03-17T00:04:32Z</time>
      </trkpt>
      <trkpt lat="34.306543635171394" lon="109.03699253982325">
        <ele>392.08046708256006</ele>
        <time>2022-03-17T00:04:38Z</time>
      </trkpt>
      <trkpt lat="34.30648929250301" lon="109.03704020331905">
        <ele>391.7181485099718</ele>
        <time>2022-03-17T00:04:48Z</time>
      </trkpt>
      <trkpt lat="34.30628279218364" lon="109.03711967064633">
        <ele>391.1300362776965</ele>
        <time>2022-03-17T00:04:59Z</time>
      </trkpt>
      <trkpt lat="34.30617659294407" lon="109.03740875921224">
        <ele>391.0849923742935</ele>
        <time>2022-03-17T00:05:21Z</time>
      </trkpt>
      <trkpt lat="34.30602839593211" lon="109.03764488562705">
        <ele>370.0927734375</ele>
        <time>2022-03-17T00:05:39Z</time>
      </trkpt>
      <trkpt lat="34.30627201678531" lon="109.03710835242599">
        <ele>369.6888122558594</ele>
        <time>2022-03-17T00:05:55Z</time>
      </trkpt>
      <trkpt lat="34.306099919754104" lon="109.03720250735226">
        <ele>369.6882019042969</ele>
        <time>2022-03-17T00:06:02Z</time>
      </trkpt>
      <trkpt lat="34.306099919754104" lon="109.03720250735226">
        <ele>369.6882019042969</ele>
        <time>2022-03-17T00:06:06Z</time>
      </trkpt>
    </trkseg>
  </trk>
</gpx>