<?xml version="1.0" encoding="UTF-8"?>
<gpx xmlns="http://www.topografix.com/GPX/1/1" xmlns:gpxtpx="http://www.garmin.com/xmlschemas/TrackPointExtension/v1" xmlns:xsi="http://www.w3.org/2001/XMLSchema-instance" xsi:schemaLocation="http://www.topografix.com/GPX/1/1 http://www.topografix.com/GPX/1/1/gpx.xsd" version="1.1" creator="gpx.py -- https://github.com/tkrajina/gpxpy">
  <trk>
    <name>gpx from keep</name>
    <type>Ride</type>
    <trkseg>
      <trkpt lat="34.32834828747878" lon="108.980440536206">
        <ele>454.0776672363281</ele>
        <time>2022-03-14T23:32:04Z</time>
      </trkpt>
      <trkpt lat="34.32841272480765" lon="108.98055896300329">
        <ele>438.3003234863281</ele>
        <time>2022-03-14T23:32:15Z</time>
      </trkpt>
      <trkpt lat="34.328560856656374" lon="108.98044933921952">
        <ele>380.3060302734375</ele>
        <time>2022-03-14T23:32:48Z</time>
      </trkpt>
      <trkpt lat="34.3287127961573" lon="108.98044135432285">
        <ele>371.8039855957031</ele>
        <time>2022-03-14T23:32:53Z</time>
      </trkpt>
      <trkpt lat="34.32873512028269" lon="108.98033808179443">
        <ele>367.5775451660156</ele>
        <time>2022-03-14T23:33:05Z</time>
      </trkpt>
      <trkpt lat="34.328669922830876" lon="108.9801257505298">
        <ele>366.9686584472656</ele>
        <time>2022-03-14T23:33:11Z</time>
      </trkpt>
      <trkpt lat="34.328636201203814" lon="108.98044965351393">
        <ele>395.6445106462638</ele>
        <time>2022-03-14T23:33:21Z</time>
      </trkpt>
      <trkpt lat="34.32869257983964" lon="108.98054952096287">
        <ele>396.2180092196856</ele>
        <time>2022-03-14T23:33:24Z</time>
      </trkpt>
      <trkpt lat="34.32869639638791" lon="108.98065930722316">
        <ele>396.5235102325678</ele>
        <time>2022-03-14T23:33:30Z</time>
      </trkpt>
      <trkpt lat="34.32854253082522" lon="108.98066468567245">
        <ele>396.53546195011586</ele>
        <time>2022-03-14T23:33:40Z</time>
      </trkpt>
      <trkpt lat="34.32845079767321" lon="108.98064742539877">
        <ele>396.1773925181478</ele>
        <time>2022-03-14T23:33:45Z</time>
      </trkpt>
      <trkpt lat="34.32836600218033" lon="108.98067953379173">
        <ele>395.96404062304646</ele>
        <time>2022-03-14T23:33:49Z</time>
      </trkpt>
      <trkpt lat="34.32833005135318" lon="108.98078719388504">
        <ele>395.7903393469751</ele>
        <time>2022-03-14T23:33:50Z</time>
      </trkpt>
      <trkpt lat="34.328198021900164" lon="108.9809298796686">
        <ele>394.9658596608788</ele>
        <time>2022-03-14T23:34:06Z</time>
      </trkpt>
      <trkpt lat="34.32821014137315" lon="108.98111302703398">
        <ele>395.1113532567397</ele>
        <time>2022-03-14T23:34:20Z</time>
      </trkpt>
      <trkpt lat="34.32819628432746" lon="108.98108878306762">
        <ele>394.82490181550384</ele>
        <time>2022-03-14T23:34:28Z</time>
      </trkpt>
      <trkpt lat="34.328239426974164" lon="108.98133136066096">
        <ele>394.8605036595836</ele>
        <time>2022-03-14T23:35:19Z</time>
      </trkpt>
      <trkpt lat="34.3283023281576" lon="108.98144643977236">
        <ele>394.4448490329087</ele>
        <time>2022-03-14T23:35:23Z</time>
      </trkpt>
      <trkpt lat="34.328245954802306" lon="108.98160359959566">
        <ele>394.1532130530104</ele>
        <time>2022-03-14T23:35:25Z</time>
      </trkpt>
      <trkpt lat="34.3282287605515" lon="108.98171688758758">
        <ele>394.3620846774429</ele>
        <time>2022-03-14T23:35:27Z</time>
      </trkpt>
      <trkpt lat="34.32825686227017" lon="108.98191206187131">
        <ele>394.8806253261864</ele>
        <time>2022-03-14T23:35:35Z</time>
      </trkpt>
      <trkpt lat="34.3281800273652" lon="108.98221759108829">
        <ele>394.3894280679524</ele>
        <time>2022-03-14T23:35:43Z</time>
      </trkpt>
      <trkpt lat="34.32817289518287" lon="108.98254559989306">
        <ele>394.03622464928776</ele>
        <time>2022-03-14T23:35:55Z</time>
      </trkpt>
      <trkpt lat="34.328053791293925" lon="108.98265633728028">
        <ele>393.56769665237516</ele>
        <time>2022-03-14T23:35:59Z</time>
      </trkpt>
      <trkpt lat="34.328025719960024" lon="108.98277603866454">
        <ele>393.3079820582643</ele>
        <time>2022-03-14T23:36:03Z</time>
      </trkpt>
      <trkpt lat="34.3281379467453" lon="108.98300025663615">
        <ele>392.81987626384944</ele>
        <time>2022-03-14T23:36:07Z</time>
      </trkpt>
      <trkpt lat="34.32816780099647" lon="108.98312577391353">
        <ele>392.49666781537235</ele>
        <time>2022-03-14T23:36:15Z</time>
      </trkpt>
      <trkpt lat="34.32806840740425" lon="108.98404932040732">
        <ele>393.0673794876784</ele>
        <time>2022-03-14T23:36:56Z</time>
      </trkpt>
      <trkpt lat="34.327980142797166" lon="108.98420527811">
        <ele>393.2606797879562</ele>
        <time>2022-03-14T23:37:00Z</time>
      </trkpt>
      <trkpt lat="34.32798838831553" lon="108.98430437512211">
        <ele>393.0672695739195</ele>
        <time>2022-03-14T23:37:02Z</time>
      </trkpt>
      <trkpt lat="34.327932191235156" lon="108.98459900063203">
        <ele>392.2457587365061</ele>
        <time>2022-03-14T23:37:08Z</time>
      </trkpt>
      <trkpt lat="34.327927109988245" lon="108.98497194425154">
        <ele>391.9300081403926</ele>
        <time>2022-03-14T23:37:18Z</time>
      </trkpt>
      <trkpt lat="34.32795675364477" lon="108.98511874806255">
        <ele>392.9724081642926</ele>
        <time>2022-03-14T23:37:22Z</time>
      </trkpt>
      <trkpt lat="34.32794703950147" lon="108.985529435843">
        <ele>393.2137716682628</ele>
        <time>2022-03-14T23:37:34Z</time>
      </trkpt>
      <trkpt lat="34.32800373156093" lon="108.98597136970974">
        <ele>393.1493006814271</ele>
        <time>2022-03-14T23:37:45Z</time>
      </trkpt>
      <trkpt lat="34.327974892799126" lon="108.98640263881612">
        <ele>393.41311897616833</ele>
        <time>2022-03-14T23:37:57Z</time>
      </trkpt>
      <trkpt lat="34.32810379068409" lon="108.98690697572613">
        <ele>393.3066587941721</ele>
        <time>2022-03-14T23:38:11Z</time>
      </trkpt>
      <trkpt lat="34.32819688012001" lon="108.98748551266358">
        <ele>395.40686903707683</ele>
        <time>2022-03-14T23:38:25Z</time>
      </trkpt>
      <trkpt lat="34.32818569508763" lon="108.98799287158265">
        <ele>392.7531696036458</ele>
        <time>2022-03-14T23:38:39Z</time>
      </trkpt>
      <trkpt lat="34.32811254769762" lon="108.98826771422108">
        <ele>392.8834610981867</ele>
        <time>2022-03-14T23:38:47Z</time>
      </trkpt>
      <trkpt lat="34.32811588410306" lon="108.98860765023854">
        <ele>392.44534436333925</ele>
        <time>2022-03-14T23:38:55Z</time>
      </trkpt>
      <trkpt lat="34.32814752308315" lon="108.98874369405429">
        <ele>392.454110192135</ele>
        <time>2022-03-14T23:38:59Z</time>
      </trkpt>
      <trkpt lat="34.3280702937973" lon="108.98899579952851">
        <ele>391.5464515965432</ele>
        <time>2022-03-14T23:39:07Z</time>
      </trkpt>
      <trkpt lat="34.32801246087946" lon="108.98941006164759">
        <ele>391.80287882406265</ele>
        <time>2022-03-14T23:39:15Z</time>
      </trkpt>
      <trkpt lat="34.32804455378428" lon="108.98986349861312">
        <ele>391.70795973483473</ele>
        <time>2022-03-14T23:39:19Z</time>
      </trkpt>
      <trkpt lat="34.328186196478974" lon="108.99022563531321">
        <ele>391.1683022705838</ele>
        <time>2022-03-14T23:39:27Z</time>
      </trkpt>
      <trkpt lat="34.32820208430812" lon="108.99039092077894">
        <ele>391.5885611427948</ele>
        <time>2022-03-14T23:39:29Z</time>
      </trkpt>
      <trkpt lat="34.32818786892688" lon="108.99058502414584">
        <ele>392.0186387207359</ele>
        <time>2022-03-14T23:39:31Z</time>
      </trkpt>
      <trkpt lat="34.3281298527879" lon="108.99088849610727">
        <ele>392.3978304686025</ele>
        <time>2022-03-14T23:39:35Z</time>
      </trkpt>
      <trkpt lat="34.3280633259407" lon="108.99139204043614">
        <ele>392.5537027241662</ele>
        <time>2022-03-14T23:39:45Z</time>
      </trkpt>
      <trkpt lat="34.32805692246167" lon="108.99166760620152">
        <ele>393.33037585485727</ele>
        <time>2022-03-14T23:39:53Z</time>
      </trkpt>
      <trkpt lat="34.328079441907015" lon="108.99180814838455">
        <ele>392.4047110658139</ele>
        <time>2022-03-14T23:39:57Z</time>
      </trkpt>
      <trkpt lat="34.32807143700092" lon="108.9920440766625">
        <ele>393.1871587820351</ele>
        <time>2022-03-14T23:40:05Z</time>
      </trkpt>
      <trkpt lat="34.328004133573494" lon="108.99229867351698">
        <ele>392.19196010101587</ele>
        <time>2022-03-14T23:40:13Z</time>
      </trkpt>
      <trkpt lat="34.32799046435284" lon="108.99241141007771">
        <ele>392.7587154265493</ele>
        <time>2022-03-14T23:40:15Z</time>
      </trkpt>
      <trkpt lat="34.328054268915835" lon="108.99299639517126">
        <ele>394.57259565684944</ele>
        <time>2022-03-14T23:40:29Z</time>
      </trkpt>
      <trkpt lat="34.32806128500169" lon="108.99315858958894">
        <ele>394.37906736601144</ele>
        <time>2022-03-14T23:40:33Z</time>
      </trkpt>
      <trkpt lat="34.32812703580912" lon="108.99352857788898">
        <ele>394.92761773150414</ele>
        <time>2022-03-14T23:40:41Z</time>
      </trkpt>
      <trkpt lat="34.328048667657065" lon="108.99370400729906">
        <ele>394.37276985216886</ele>
        <time>2022-03-14T23:40:45Z</time>
      </trkpt>
      <trkpt lat="34.32801236800364" lon="108.9938385624138">
        <ele>394.2424564547837</ele>
        <time>2022-03-14T23:40:49Z</time>
      </trkpt>
      <trkpt lat="34.32811664137116" lon="108.99413648365405">
        <ele>394.2146040108055</ele>
        <time>2022-03-14T23:40:55Z</time>
      </trkpt>
      <trkpt lat="34.32811018637058" lon="108.99423560447097">
        <ele>394.08921093307436</ele>
        <time>2022-03-14T23:40:57Z</time>
      </trkpt>
      <trkpt lat="34.32821719622417" lon="108.99450823204329">
        <ele>393.3990411441773</ele>
        <time>2022-03-14T23:41:03Z</time>
      </trkpt>
      <trkpt lat="34.32827737056054" lon="108.99493954427301">
        <ele>393.7276126360521</ele>
        <time>2022-03-14T23:41:15Z</time>
      </trkpt>
      <trkpt lat="34.328330520190605" lon="108.99503284191091">
        <ele>393.4760207645595</ele>
        <time>2022-03-14T23:41:19Z</time>
      </trkpt>
      <trkpt lat="34.32838784283754" lon="108.99508524811765">
        <ele>393.3194442819804</ele>
        <time>2022-03-14T23:41:23Z</time>
      </trkpt>
      <trkpt lat="34.32840616915804" lon="108.99556664192683">
        <ele>394.94752727262676</ele>
        <time>2022-03-14T23:41:35Z</time>
      </trkpt>
      <trkpt lat="34.32843176690978" lon="108.99570822507275">
        <ele>394.3337204819545</ele>
        <time>2022-03-14T23:41:41Z</time>
      </trkpt>
      <trkpt lat="34.32839386073894" lon="108.99583190288304">
        <ele>393.90446030534804</ele>
        <time>2022-03-14T23:41:45Z</time>
      </trkpt>
      <trkpt lat="34.327918428264034" lon="108.99842331332427">
        <ele>396.7005972750485</ele>
        <time>2022-03-14T23:41:47Z</time>
      </trkpt>
      <trkpt lat="34.327920774397626" lon="108.99869905981076">
        <ele>395.5726459659636</ele>
        <time>2022-03-14T23:41:51Z</time>
      </trkpt>
      <trkpt lat="34.327906052183266" lon="108.99907446737248">
        <ele>394.1972615001723</ele>
        <time>2022-03-14T23:41:57Z</time>
      </trkpt>
      <trkpt lat="34.32792935046543" lon="108.99931119874853">
        <ele>394.23274034354836</ele>
        <time>2022-03-14T23:42:01Z</time>
      </trkpt>
      <trkpt lat="34.32792784553303" lon="108.99953777113276">
        <ele>394.1778988484293</ele>
        <time>2022-03-14T23:42:05Z</time>
      </trkpt>
      <trkpt lat="34.32841039782191" lon="108.99850507341019">
        <ele>394.96316467784345</ele>
        <time>2022-03-14T23:42:15Z</time>
      </trkpt>
      <trkpt lat="34.328358867792936" lon="108.99907135289742">
        <ele>395.00900160428137</ele>
        <time>2022-03-14T23:42:17Z</time>
      </trkpt>
      <trkpt lat="34.3282571592026" lon="108.99966534885846">
        <ele>394.7343061072752</ele>
        <time>2022-03-14T23:42:19Z</time>
      </trkpt>
      <trkpt lat="34.32810999104233" lon="109.00032586749148">
        <ele>395.0520356921479</ele>
        <time>2022-03-14T23:42:21Z</time>
      </trkpt>
      <trkpt lat="34.328008657141986" lon="109.0006356833434">
        <ele>394.83049950376153</ele>
        <time>2022-03-14T23:42:23Z</time>
      </trkpt>
      <trkpt lat="34.32795834100414" lon="109.00091640977688">
        <ele>395.35936142504215</ele>
        <time>2022-03-14T23:42:27Z</time>
      </trkpt>
      <trkpt lat="34.3279213477962" lon="109.00103375602004">
        <ele>394.96080895792693</ele>
        <time>2022-03-14T23:42:29Z</time>
      </trkpt>
      <trkpt lat="34.3279068930566" lon="109.00126941587611">
        <ele>394.74512235075235</ele>
        <time>2022-03-14T23:42:33Z</time>
      </trkpt>
      <trkpt lat="34.32792038931907" lon="109.00138660933203">
        <ele>395.02496849093586</ele>
        <time>2022-03-14T23:42:35Z</time>
      </trkpt>
      <trkpt lat="34.32789667059663" lon="109.0014893479647">
        <ele>395.0111040789634</ele>
        <time>2022-03-14T23:42:37Z</time>
      </trkpt>
      <trkpt lat="34.32792938980263" lon="109.00193150265828">
        <ele>395.184422519058</ele>
        <time>2022-03-14T23:42:45Z</time>
      </trkpt>
      <trkpt lat="34.32791335073394" lon="109.00223326226404">
        <ele>395.08848179131746</ele>
        <time>2022-03-14T23:42:51Z</time>
      </trkpt>
      <trkpt lat="34.32791979211769" lon="109.00272528041518">
        <ele>395.1654971940443</ele>
        <time>2022-03-14T23:43:01Z</time>
      </trkpt>
      <trkpt lat="34.32789879234873" lon="109.00302659777307">
        <ele>395.45776806678623</ele>
        <time>2022-03-14T23:43:07Z</time>
      </trkpt>
      <trkpt lat="34.32787941189929" lon="109.00312136788133">
        <ele>395.3634725622833</ele>
        <time>2022-03-14T23:43:09Z</time>
      </trkpt>
      <trkpt lat="34.327897243178484" lon="109.00373053936559">
        <ele>395.22812289744616</ele>
        <time>2022-03-14T23:43:21Z</time>
      </trkpt>
      <trkpt lat="34.3278877586499" lon="109.00417345035399">
        <ele>394.2677392065525</ele>
        <time>2022-03-14T23:43:29Z</time>
      </trkpt>
      <trkpt lat="34.32792443048742" lon="109.004491132253">
        <ele>393.97816610429436</ele>
        <time>2022-03-14T23:43:35Z</time>
      </trkpt>
      <trkpt lat="34.327911526053875" lon="109.00460174225269">
        <ele>394.1214553639293</ele>
        <time>2022-03-14T23:43:37Z</time>
      </trkpt>
      <trkpt lat="34.327835387024834" lon="109.0046016103183">
        <ele>393.6056053508073</ele>
        <time>2022-03-14T23:43:39Z</time>
      </trkpt>
      <trkpt lat="34.32787294400597" lon="109.00483466518601">
        <ele>394.6563086276874</ele>
        <time>2022-03-14T23:43:43Z</time>
      </trkpt>
      <trkpt lat="34.32785966338117" lon="109.0049258527186">
        <ele>395.04496144130826</ele>
        <time>2022-03-14T23:43:45Z</time>
      </trkpt>
      <trkpt lat="34.32787647593012" lon="109.00544654713173">
        <ele>394.70954532548785</ele>
        <time>2022-03-14T23:43:55Z</time>
      </trkpt>
      <trkpt lat="34.327871966355694" lon="109.00599904819492">
        <ele>394.7677452471107</ele>
        <time>2022-03-14T23:44:05Z</time>
      </trkpt>
      <trkpt lat="34.32790335600764" lon="109.00661739818878">
        <ele>395.1413728259504</ele>
        <time>2022-03-14T23:44:19Z</time>
      </trkpt>
      <trkpt lat="34.327881066301956" lon="109.00673401275444">
        <ele>393.7240026658401</ele>
        <time>2022-03-14T23:44:31Z</time>
      </trkpt>
      <trkpt lat="34.32786572419369" lon="109.00701025412265">
        <ele>393.65832609217614</ele>
        <time>2022-03-14T23:44:38Z</time>
      </trkpt>
      <trkpt lat="34.327871552581584" lon="109.00710680330594">
        <ele>393.55518198478967</ele>
        <time>2022-03-14T23:44:40Z</time>
      </trkpt>
      <trkpt lat="34.327905030273904" lon="109.00729596260562">
        <ele>394.04819415695965</ele>
        <time>2022-03-14T23:44:44Z</time>
      </trkpt>
      <trkpt lat="34.327884993276875" lon="109.00775392289141">
        <ele>393.19703929219395</ele>
        <time>2022-03-14T23:44:52Z</time>
      </trkpt>
      <trkpt lat="34.32789205153742" lon="109.00789427333706">
        <ele>393.0695571815595</ele>
        <time>2022-03-14T23:44:54Z</time>
      </trkpt>
      <trkpt lat="34.32787527219619" lon="109.00800611821663">
        <ele>393.53491618763655</ele>
        <time>2022-03-14T23:44:56Z</time>
      </trkpt>
      <trkpt lat="34.32788869583228" lon="109.00864247668882">
        <ele>392.4705924037844</ele>
        <time>2022-03-14T23:45:06Z</time>
      </trkpt>
      <trkpt lat="34.327893819069885" lon="109.00916781665451">
        <ele>392.01811719778925</ele>
        <time>2022-03-14T23:45:14Z</time>
      </trkpt>
      <trkpt lat="34.32789581973712" lon="109.00969663055021">
        <ele>388.3279192550108</ele>
        <time>2022-03-14T23:45:22Z</time>
      </trkpt>
      <trkpt lat="34.3279062659239" lon="109.01029830514565">
        <ele>386.1692602233961</ele>
        <time>2022-03-14T23:45:32Z</time>
      </trkpt>
      <trkpt lat="34.32789601044383" lon="109.01085600216216">
        <ele>386.51742392778397</ele>
        <time>2022-03-14T23:45:42Z</time>
      </trkpt>
      <trkpt lat="34.32790750678118" lon="109.01107416870006">
        <ele>386.6569258766249</ele>
        <time>2022-03-14T23:45:46Z</time>
      </trkpt>
      <trkpt lat="34.32789746764863" lon="109.01149278972224">
        <ele>387.1452233856544</ele>
        <time>2022-03-14T23:45:54Z</time>
      </trkpt>
      <trkpt lat="34.32791517464645" lon="109.0117079428842">
        <ele>388.12604248709977</ele>
        <time>2022-03-14T23:45:58Z</time>
      </trkpt>
      <trkpt lat="34.32787697633544" lon="109.01230348227669">
        <ele>387.9371005864814</ele>
        <time>2022-03-14T23:46:09Z</time>
      </trkpt>
      <trkpt lat="34.327847236177234" lon="109.01253941280633">
        <ele>387.64625572692603</ele>
        <time>2022-03-14T23:46:13Z</time>
      </trkpt>
      <trkpt lat="34.32786879540138" lon="109.01306635923237">
        <ele>390.0916403885931</ele>
        <time>2022-03-14T23:46:23Z</time>
      </trkpt>
      <trkpt lat="34.32786008074165" lon="109.01339857993344">
        <ele>389.9829391874373</ele>
        <time>2022-03-14T23:46:29Z</time>
      </trkpt>
      <trkpt lat="34.32790061941378" lon="109.01381128253115">
        <ele>389.68483869731426</ele>
        <time>2022-03-14T23:46:37Z</time>
      </trkpt>
      <trkpt lat="34.32791772571368" lon="109.01438655592551">
        <ele>388.1634860401973</ele>
        <time>2022-03-14T23:46:47Z</time>
      </trkpt>
      <trkpt lat="34.32795040362722" lon="109.01471774352176">
        <ele>388.34055951423943</ele>
        <time>2022-03-14T23:46:53Z</time>
      </trkpt>
      <trkpt lat="34.32795950013633" lon="109.0151806914303">
        <ele>387.8686673277989</ele>
        <time>2022-03-14T23:47:01Z</time>
      </trkpt>
      <trkpt lat="34.32798389321459" lon="109.01528597730326">
        <ele>388.2970462376252</ele>
        <time>2022-03-14T23:47:03Z</time>
      </trkpt>
      <trkpt lat="34.32797705549987" lon="109.01551854291696">
        <ele>388.36284908559173</ele>
        <time>2022-03-14T23:47:07Z</time>
      </trkpt>
      <trkpt lat="34.3280208291491" lon="109.01580082164969">
        <ele>388.1177567541599</ele>
        <time>2022-03-14T23:47:13Z</time>
      </trkpt>
      <trkpt lat="34.32801899585812" lon="109.0160794782445">
        <ele>388.0583196878433</ele>
        <time>2022-03-14T23:47:19Z</time>
      </trkpt>
      <trkpt lat="34.327982760357656" lon="109.01639772374847">
        <ele>388.1639586882666</ele>
        <time>2022-03-14T23:47:25Z</time>
      </trkpt>
      <trkpt lat="34.32795055899944" lon="109.01651611199698">
        <ele>388.73224787507206</ele>
        <time>2022-03-14T23:47:27Z</time>
      </trkpt>
      <trkpt lat="34.32792432077407" lon="109.01673594922426">
        <ele>389.41738029848784</ele>
        <time>2022-03-14T23:47:31Z</time>
      </trkpt>
      <trkpt lat="34.32775727642679" lon="109.01724227024054">
        <ele>388.9480716884136</ele>
        <time>2022-03-14T23:47:41Z</time>
      </trkpt>
      <trkpt lat="34.3277121342875" lon="109.01733199655322">
        <ele>389.03439885750413</ele>
        <time>2022-03-14T23:47:43Z</time>
      </trkpt>
      <trkpt lat="34.32766327134273" lon="109.01774570906876">
        <ele>389.4688112437725</ele>
        <time>2022-03-14T23:47:51Z</time>
      </trkpt>
      <trkpt lat="34.32766648241084" lon="109.01830922135453">
        <ele>389.26667726412416</ele>
        <time>2022-03-14T23:48:03Z</time>
      </trkpt>
      <trkpt lat="34.3276542759769" lon="109.0184229047366">
        <ele>389.12630618177354</ele>
        <time>2022-03-14T23:48:05Z</time>
      </trkpt>
      <trkpt lat="34.32744507618388" lon="109.01877183064293">
        <ele>389.1206018878147</ele>
        <time>2022-03-14T23:48:13Z</time>
      </trkpt>
      <trkpt lat="34.327417427260684" lon="109.01886439603935">
        <ele>389.7002405496314</ele>
        <time>2022-03-14T23:48:15Z</time>
      </trkpt>
      <trkpt lat="34.327129276455345" lon="109.01929960823365">
        <ele>388.923844890669</ele>
        <time>2022-03-14T23:48:25Z</time>
      </trkpt>
      <trkpt lat="34.3268178429197" lon="109.0197532322526">
        <ele>388.5461836764589</ele>
        <time>2022-03-14T23:48:35Z</time>
      </trkpt>
      <trkpt lat="34.3266975036462" lon="109.01992488460067">
        <ele>388.83901973441243</ele>
        <time>2022-03-14T23:48:39Z</time>
      </trkpt>
      <trkpt lat="34.32643584895048" lon="109.02027674952262">
        <ele>388.70640523917973</ele>
        <time>2022-03-14T23:48:47Z</time>
      </trkpt>
      <trkpt lat="34.3262236380394" lon="109.02050874341009">
        <ele>388.9330124054104</ele>
        <time>2022-03-14T23:48:53Z</time>
      </trkpt>
      <trkpt lat="34.32613542643257" lon="109.02056754763771">
        <ele>388.64785896707326</ele>
        <time>2022-03-14T23:48:55Z</time>
      </trkpt>
      <trkpt lat="34.325766578850185" lon="109.02089978427013">
        <ele>388.6983395582065</ele>
        <time>2022-03-14T23:49:05Z</time>
      </trkpt>
      <trkpt lat="34.325354485642904" lon="109.02116269854449">
        <ele>387.97030243091285</ele>
        <time>2022-03-14T23:49:15Z</time>
      </trkpt>
      <trkpt lat="34.32511288541905" lon="109.02131429987588">
        <ele>388.75481974333525</ele>
        <time>2022-03-14T23:49:21Z</time>
      </trkpt>
      <trkpt lat="34.32484848245301" lon="109.02144612391625">
        <ele>389.0593066876754</ele>
        <time>2022-03-14T23:49:27Z</time>
      </trkpt>
      <trkpt lat="34.3243925279815" lon="109.02160553344217">
        <ele>389.0722702033818</ele>
        <time>2022-03-14T23:49:37Z</time>
      </trkpt>
      <trkpt lat="34.32391470722368" lon="109.02168800374564">
        <ele>388.40366901643574</ele>
        <time>2022-03-14T23:49:47Z</time>
      </trkpt>
      <trkpt lat="34.32383132443086" lon="109.02172339548349">
        <ele>388.9550914634019</ele>
        <time>2022-03-14T23:49:49Z</time>
      </trkpt>
      <trkpt lat="34.32335505943908" lon="109.02177641651876">
        <ele>390.0467373225838</ele>
        <time>2022-03-14T23:49:59Z</time>
      </trkpt>
      <trkpt lat="34.32326708742796" lon="109.02176934415459">
        <ele>389.688912675716</ele>
        <time>2022-03-14T23:50:01Z</time>
      </trkpt>
      <trkpt lat="34.323079545930995" lon="109.02179986856862">
        <ele>390.1665508747101</ele>
        <time>2022-03-14T23:50:05Z</time>
      </trkpt>
      <trkpt lat="34.3229910745255" lon="109.02178936507462">
        <ele>390.0099547524005</ele>
        <time>2022-03-14T23:50:07Z</time>
      </trkpt>
      <trkpt lat="34.32271896918498" lon="109.02182437261845">
        <ele>390.63190934155136</ele>
        <time>2022-03-14T23:50:13Z</time>
      </trkpt>
      <trkpt lat="34.32262573227361" lon="109.02180778288768">
        <ele>390.37292666360736</ele>
        <time>2022-03-14T23:50:15Z</time>
      </trkpt>
      <trkpt lat="34.32244596065981" lon="109.02181056328358">
        <ele>389.8268984556198</ele>
        <time>2022-03-14T23:50:19Z</time>
      </trkpt>
      <trkpt lat="34.32206759254543" lon="109.0217285048258">
        <ele>389.0551039306447</ele>
        <time>2022-03-14T23:50:27Z</time>
      </trkpt>
      <trkpt lat="34.32190119903412" lon="109.02172423012931">
        <ele>389.5056549310684</ele>
        <time>2022-03-14T23:50:31Z</time>
      </trkpt>
      <trkpt lat="34.32145260582851" lon="109.02166710396533">
        <ele>389.888604382053</ele>
        <time>2022-03-14T23:50:41Z</time>
      </trkpt>
      <trkpt lat="34.321007375189566" lon="109.02162752271371">
        <ele>391.14981986489147</ele>
        <time>2022-03-14T23:50:51Z</time>
      </trkpt>
      <trkpt lat="34.3209178552601" lon="109.02162861535155">
        <ele>391.29369914811105</ele>
        <time>2022-03-14T23:50:53Z</time>
      </trkpt>
      <trkpt lat="34.32047815381328" lon="109.02152851961213">
        <ele>390.7822631681338</ele>
        <time>2022-03-14T23:51:03Z</time>
      </trkpt>
      <trkpt lat="34.320138482282765" lon="109.02148933704247">
        <ele>390.35820094589144</ele>
        <time>2022-03-14T23:51:11Z</time>
      </trkpt>
      <trkpt lat="34.32004374136074" lon="109.02145644509805">
        <ele>390.3952424665913</ele>
        <time>2022-03-14T23:51:13Z</time>
      </trkpt>
      <trkpt lat="34.319594436676184" lon="109.02140886950443">
        <ele>390.4081772528589</ele>
        <time>2022-03-14T23:51:23Z</time>
      </trkpt>
      <trkpt lat="34.31914392640692" lon="109.021419412683">
        <ele>390.59932467434555</ele>
        <time>2022-03-14T23:51:33Z</time>
      </trkpt>
      <trkpt lat="34.31871122382605" lon="109.02144167745918">
        <ele>391.2591828079894</ele>
        <time>2022-03-14T23:51:43Z</time>
      </trkpt>
      <trkpt lat="34.31828368688367" lon="109.0214674041412">
        <ele>390.5184219777584</ele>
        <time>2022-03-14T23:51:53Z</time>
      </trkpt>
      <trkpt lat="34.31802612780808" lon="109.0214940202724">
        <ele>390.96001559123397</ele>
        <time>2022-03-14T23:51:59Z</time>
      </trkpt>
      <trkpt lat="34.317938856600776" lon="109.02152097259729">
        <ele>390.6415415275842</ele>
        <time>2022-03-14T23:52:01Z</time>
      </trkpt>
      <trkpt lat="34.317683661821235" lon="109.02154508499824">
        <ele>390.9726340165362</ele>
        <time>2022-03-14T23:52:07Z</time>
      </trkpt>
      <trkpt lat="34.31723750262935" lon="109.02162098982518">
        <ele>392.0760708767921</ele>
        <time>2022-03-14T23:52:17Z</time>
      </trkpt>
      <trkpt lat="34.31715172070565" lon="109.02164176282359">
        <ele>391.74465322867036</ele>
        <time>2022-03-14T23:52:19Z</time>
      </trkpt>
      <trkpt lat="34.317049847419064" lon="109.02163406611689">
        <ele>391.9964524898678</ele>
        <time>2022-03-14T23:52:21Z</time>
      </trkpt>
      <trkpt lat="34.31669984728565" lon="109.02168933785313">
        <ele>391.53228346817195</ele>
        <time>2022-03-14T23:52:29Z</time>
      </trkpt>
      <trkpt lat="34.31620798033225" lon="109.02185792510505">
        <ele>391.2823088904843</ele>
        <time>2022-03-14T23:52:41Z</time>
      </trkpt>
      <trkpt lat="34.31595866335854" lon="109.02197120129757">
        <ele>391.63239239435643</ele>
        <time>2022-03-14T23:52:47Z</time>
      </trkpt>
      <trkpt lat="34.3158601470257" lon="109.02197781132428">
        <ele>391.1896348623559</ele>
        <time>2022-03-14T23:52:49Z</time>
      </trkpt>
      <trkpt lat="34.31577615621707" lon="109.02200869782932">
        <ele>391.3824545862153</ele>
        <time>2022-03-14T23:52:51Z</time>
      </trkpt>
      <trkpt lat="34.31559214982974" lon="109.02216308206533">
        <ele>391.8991662086919</ele>
        <time>2022-03-14T23:52:57Z</time>
      </trkpt>
      <trkpt lat="34.31551307097678" lon="109.0221837100945">
        <ele>391.3933391645551</ele>
        <time>2022-03-14T23:52:59Z</time>
      </trkpt>
      <trkpt lat="34.31545791921345" lon="109.02227470942428">
        <ele>391.9760635541752</ele>
        <time>2022-03-14T23:53:03Z</time>
      </trkpt>
      <trkpt lat="34.31558311301094" lon="109.02230289974887">
        <ele>392.00410273019224</ele>
        <time>2022-03-14T23:53:07Z</time>
      </trkpt>
      <trkpt lat="34.31564460614368" lon="109.0223554587307">
        <ele>392.1640590270981</ele>
        <time>2022-03-14T23:53:09Z</time>
      </trkpt>
      <trkpt lat="34.315793302796585" lon="109.02262973179099">
        <ele>390.45223738159984</ele>
        <time>2022-03-14T23:53:15Z</time>
      </trkpt>
      <trkpt lat="34.31602326343804" lon="109.02320996476205">
        <ele>388.65427013579756</ele>
        <time>2022-03-14T23:53:25Z</time>
      </trkpt>
      <trkpt lat="34.3161977264791" lon="109.0236281372065">
        <ele>388.1194680435583</ele>
        <time>2022-03-14T23:53:33Z</time>
      </trkpt>
      <trkpt lat="34.31618071976369" lon="109.02372414303119">
        <ele>389.155678586103</ele>
        <time>2022-03-14T23:53:35Z</time>
      </trkpt>
      <trkpt lat="34.316094221504976" lon="109.02382912070931">
        <ele>389.3991666380316</ele>
        <time>2022-03-14T23:53:39Z</time>
      </trkpt>
      <trkpt lat="34.31595259950484" lon="109.02393593749262">
        <ele>390.77252757176757</ele>
        <time>2022-03-14T23:53:43Z</time>
      </trkpt>
      <trkpt lat="34.315870236724066" lon="109.02396358840589">
        <ele>390.55584641359746</ele>
        <time>2022-03-14T23:53:45Z</time>
      </trkpt>
      <trkpt lat="34.31579962905526" lon="109.02401818837679">
        <ele>390.6719303680584</ele>
        <time>2022-03-14T23:53:47Z</time>
      </trkpt>
      <trkpt lat="34.31541239182198" lon="109.02425740281558">
        <ele>390.9381057722494</ele>
        <time>2022-03-14T23:53:57Z</time>
      </trkpt>
      <trkpt lat="34.315333063808794" lon="109.02430899275558">
        <ele>390.70337299164385</ele>
        <time>2022-03-14T23:53:59Z</time>
      </trkpt>
      <trkpt lat="34.31528054520768" lon="109.02437004186898">
        <ele>391.75668608769774</ele>
        <time>2022-03-14T23:54:01Z</time>
      </trkpt>
      <trkpt lat="34.31503110973092" lon="109.02451461493318">
        <ele>390.92848889157176</ele>
        <time>2022-03-14T23:54:07Z</time>
      </trkpt>
      <trkpt lat="34.31497297723854" lon="109.0245766311181">
        <ele>391.3617135863751</ele>
        <time>2022-03-14T23:54:09Z</time>
      </trkpt>
      <trkpt lat="34.31480602329807" lon="109.02468810931606">
        <ele>391.2421943983063</ele>
        <time>2022-03-14T23:54:13Z</time>
      </trkpt>
      <trkpt lat="34.314637572288234" lon="109.0247457912631">
        <ele>390.69967011362314</ele>
        <time>2022-03-14T23:54:17Z</time>
      </trkpt>
      <trkpt lat="34.314534047199615" lon="109.0248465688119">
        <ele>390.3883162252605</ele>
        <time>2022-03-14T23:54:21Z</time>
      </trkpt>
      <trkpt lat="34.3144408964349" lon="109.02488071053764">
        <ele>390.1951732477173</ele>
        <time>2022-03-14T23:54:23Z</time>
      </trkpt>
      <trkpt lat="34.31406188840608" lon="109.02516924067864">
        <ele>390.49268179852515</ele>
        <time>2022-03-14T23:54:33Z</time>
      </trkpt>
      <trkpt lat="34.31361968766281" lon="109.02538931136304">
        <ele>391.7088281242177</ele>
        <time>2022-03-14T23:54:43Z</time>
      </trkpt>
      <trkpt lat="34.31314298341316" lon="109.02560614712836">
        <ele>390.74194032978266</ele>
        <time>2022-03-14T23:54:53Z</time>
      </trkpt>
      <trkpt lat="34.312748558955015" lon="109.0258902428322">
        <ele>392.42681618221104</ele>
        <time>2022-03-14T23:55:03Z</time>
      </trkpt>
      <trkpt lat="34.31244138682818" lon="109.02609085189333">
        <ele>393.04047263693064</ele>
        <time>2022-03-14T23:55:11Z</time>
      </trkpt>
      <trkpt lat="34.31238977528881" lon="109.02616955615828">
        <ele>393.16429642029107</ele>
        <time>2022-03-14T23:55:13Z</time>
      </trkpt>
      <trkpt lat="34.31219989649931" lon="109.02630881567926">
        <ele>393.3200936038047</ele>
        <time>2022-03-14T23:55:19Z</time>
      </trkpt>
      <trkpt lat="34.31202094719152" lon="109.02650692075977">
        <ele>394.2249655900523</ele>
        <time>2022-03-14T23:55:25Z</time>
      </trkpt>
      <trkpt lat="34.31199542877411" lon="109.02658910183347">
        <ele>394.80595633387566</ele>
        <time>2022-03-14T23:55:27Z</time>
      </trkpt>
      <trkpt lat="34.31194826970785" lon="109.02666940644036">
        <ele>394.53360736276954</ele>
        <time>2022-03-14T23:55:29Z</time>
      </trkpt>
      <trkpt lat="34.31192044484888" lon="109.02676598395277">
        <ele>394.4147254312411</ele>
        <time>2022-03-14T23:55:31Z</time>
      </trkpt>
      <trkpt lat="34.31183062630102" lon="109.02687241145809">
        <ele>394.3947711214423</ele>
        <time>2022-03-14T23:55:33Z</time>
      </trkpt>
      <trkpt lat="34.31171320901666" lon="109.02707598280377">
        <ele>393.21488671097904</ele>
        <time>2022-03-14T23:55:37Z</time>
      </trkpt>
      <trkpt lat="34.31164095713226" lon="109.02728835688492">
        <ele>393.52807371970266</ele>
        <time>2022-03-14T23:55:41Z</time>
      </trkpt>
      <trkpt lat="34.31161788705519" lon="109.02751129438872">
        <ele>393.34261194989085</ele>
        <time>2022-03-14T23:55:45Z</time>
      </trkpt>
      <trkpt lat="34.311613385677575" lon="109.02786500504976">
        <ele>393.25872523803264</ele>
        <time>2022-03-14T23:55:51Z</time>
      </trkpt>
      <trkpt lat="34.31158150650399" lon="109.02810537742016">
        <ele>394.0175445806235</ele>
        <time>2022-03-14T23:55:55Z</time>
      </trkpt>
      <trkpt lat="34.31149798010898" lon="109.02844816388964">
        <ele>392.61758574750274</ele>
        <time>2022-03-14T23:56:01Z</time>
      </trkpt>
      <trkpt lat="34.311485299131974" lon="109.02868048310182">
        <ele>393.6530396649614</ele>
        <time>2022-03-14T23:56:05Z</time>
      </trkpt>
      <trkpt lat="34.31140372931554" lon="109.02887002695152">
        <ele>393.86740245018154</ele>
        <time>2022-03-14T23:56:09Z</time>
      </trkpt>
      <trkpt lat="34.3112741856674" lon="109.02904656358712">
        <ele>393.2716444954276</ele>
        <time>2022-03-14T23:56:13Z</time>
      </trkpt>
      <trkpt lat="34.31102041341704" lon="109.02925511399846">
        <ele>392.19468272384256</ele>
        <time>2022-03-14T23:56:19Z</time>
      </trkpt>
      <trkpt lat="34.310738478356726" lon="109.02940344597171">
        <ele>393.10582233034074</ele>
        <time>2022-03-14T23:56:25Z</time>
      </trkpt>
      <trkpt lat="34.310567584595695" lon="109.02954340388841">
        <ele>392.8122702529654</ele>
        <time>2022-03-14T23:56:29Z</time>
      </trkpt>
      <trkpt lat="34.310179418908" lon="109.02987674357752">
        <ele>393.3406031280756</ele>
        <time>2022-03-14T23:56:39Z</time>
      </trkpt>
      <trkpt lat="34.30994750682077" lon="109.03005971542211">
        <ele>393.1362931896001</ele>
        <time>2022-03-14T23:56:45Z</time>
      </trkpt>
      <trkpt lat="34.30978504566139" lon="109.0301575029579">
        <ele>393.8695500064641</ele>
        <time>2022-03-14T23:56:49Z</time>
      </trkpt>
      <trkpt lat="34.30934372859381" lon="109.03036872842155">
        <ele>393.6922259712592</ele>
        <time>2022-03-14T23:56:59Z</time>
      </trkpt>
      <trkpt lat="34.308858009471464" lon="109.03053348929905">
        <ele>393.77457470912486</ele>
        <time>2022-03-14T23:57:09Z</time>
      </trkpt>
      <trkpt lat="34.308371508184976" lon="109.03063770043713">
        <ele>394.40378845576197</ele>
        <time>2022-03-14T23:57:19Z</time>
      </trkpt>
      <trkpt lat="34.30806711565029" lon="109.03065725632801">
        <ele>394.6517912512645</ele>
        <time>2022-03-14T23:57:25Z</time>
      </trkpt>
      <trkpt lat="34.30776639051567" lon="109.03071189899879">
        <ele>394.5211748192087</ele>
        <time>2022-03-14T23:57:31Z</time>
      </trkpt>
      <trkpt lat="34.307267129369706" lon="109.03073007719817">
        <ele>393.62858093250543</ele>
        <time>2022-03-14T23:57:41Z</time>
      </trkpt>
      <trkpt lat="34.306767318790826" lon="109.0307696884347">
        <ele>391.44911782536656</ele>
        <time>2022-03-14T23:57:51Z</time>
      </trkpt>
      <trkpt lat="34.30648155162931" lon="109.03081975255785">
        <ele>391.309840535745</ele>
        <time>2022-03-14T23:57:57Z</time>
      </trkpt>
      <trkpt lat="34.3064170007013" lon="109.03087107709436">
        <ele>391.5826727412641</ele>
        <time>2022-03-14T23:57:59Z</time>
      </trkpt>
      <trkpt lat="34.30634926324916" lon="109.03100461190212">
        <ele>391.6924591967836</ele>
        <time>2022-03-14T23:58:03Z</time>
      </trkpt>
      <trkpt lat="34.306378931792" lon="109.0313380123834">
        <ele>391.2317472184077</ele>
        <time>2022-03-14T23:58:09Z</time>
      </trkpt>
      <trkpt lat="34.30640505874391" lon="109.03192435609331">
        <ele>392.22945460584015</ele>
        <time>2022-03-14T23:58:19Z</time>
      </trkpt>
      <trkpt lat="34.30641537809134" lon="109.03250919585209">
        <ele>392.87980222702026</ele>
        <time>2022-03-14T23:58:29Z</time>
      </trkpt>
      <trkpt lat="34.306479913143114" lon="109.03307949626036">
        <ele>392.5571757471189</ele>
        <time>2022-03-14T23:58:39Z</time>
      </trkpt>
      <trkpt lat="34.30652307638777" lon="109.0334192337412">
        <ele>392.31295874435455</ele>
        <time>2022-03-14T23:58:45Z</time>
      </trkpt>
      <trkpt lat="34.306557961289094" lon="109.03375970208513">
        <ele>393.2409992534667</ele>
        <time>2022-03-14T23:58:51Z</time>
      </trkpt>
      <trkpt lat="34.30656075112546" lon="109.03399454413947">
        <ele>392.94055411964655</ele>
        <time>2022-03-14T23:58:55Z</time>
      </trkpt>
      <trkpt lat="34.30658204381474" lon="109.03411486411309">
        <ele>392.7792878979817</ele>
        <time>2022-03-14T23:58:57Z</time>
      </trkpt>
      <trkpt lat="34.30656492969473" lon="109.03423671420411">
        <ele>392.5058199549094</ele>
        <time>2022-03-14T23:58:59Z</time>
      </trkpt>
      <trkpt lat="34.306590081384435" lon="109.03446206876511">
        <ele>392.5020484337583</ele>
        <time>2022-03-14T23:59:03Z</time>
      </trkpt>
      <trkpt lat="34.30658835893131" lon="109.034566598764">
        <ele>392.8026109272614</ele>
        <time>2022-03-14T23:59:05Z</time>
      </trkpt>
      <trkpt lat="34.30665746316929" lon="109.03512709885625">
        <ele>392.4120195321739</ele>
        <time>2022-03-14T23:59:15Z</time>
      </trkpt>
      <trkpt lat="34.30664297351602" lon="109.03538700247275">
        <ele>393.1992131015286</ele>
        <time>2022-03-14T23:59:19Z</time>
      </trkpt>
      <trkpt lat="34.3066620975413" lon="109.03549229288087">
        <ele>394.11734424717724</ele>
        <time>2022-03-14T23:59:21Z</time>
      </trkpt>
      <trkpt lat="34.30665329986278" lon="109.03561371457917">
        <ele>393.112600306049</ele>
        <time>2022-03-14T23:59:23Z</time>
      </trkpt>
      <trkpt lat="34.30667333948415" lon="109.0357278249282">
        <ele>393.04722109343857</ele>
        <time>2022-03-14T23:59:25Z</time>
      </trkpt>
      <trkpt lat="34.30667497362854" lon="109.03589621002301">
        <ele>392.3948923861608</ele>
        <time>2022-03-14T23:59:29Z</time>
      </trkpt>
      <trkpt lat="34.30657174091251" lon="109.03589718037512">
        <ele>391.9858279535547</ele>
        <time>2022-03-14T23:59:37Z</time>
      </trkpt>
      <trkpt lat="34.30654217645618" lon="109.03598828057314">
        <ele>391.4647164782509</ele>
        <time>2022-03-14T23:59:43Z</time>
      </trkpt>
      <trkpt lat="34.306578013118866" lon="109.03616780112229">
        <ele>390.94477917812765</ele>
        <time>2022-03-14T23:59:55Z</time>
      </trkpt>
      <trkpt lat="34.30655780540516" lon="109.03637146603414">
        <ele>391.384863701649</ele>
        <time>2022-03-15T00:00:09Z</time>
      </trkpt>
      <trkpt lat="34.30662447875722" lon="109.03696074954605">
        <ele>392.4276438038796</ele>
        <time>2022-03-15T00:00:39Z</time>
      </trkpt>
      <trkpt lat="34.30653929480455" lon="109.03704526470861">
        <ele>391.95982988830656</ele>
        <time>2022-03-15T00:00:59Z</time>
      </trkpt>
      <trkpt lat="34.30638382922022" lon="109.03707548697263">
        <ele>390.35546815395355</ele>
        <time>2022-03-15T00:01:10Z</time>
      </trkpt>
      <trkpt lat="34.30632544399546" lon="109.03716458021046">
        <ele>391.35306383669376</ele>
        <time>2022-03-15T00:01:30Z</time>
      </trkpt>
    </trkseg>
  </trk>
</gpx>