<?xml version="1.0" encoding="UTF-8"?>
<gpx xmlns="http://www.topografix.com/GPX/1/1" xmlns:gpxtpx="http://www.garmin.com/xmlschemas/TrackPointExtension/v1" xmlns:xsi="http://www.w3.org/2001/XMLSchema-instance" xsi:schemaLocation="http://www.topografix.com/GPX/1/1 http://www.topografix.com/GPX/1/1/gpx.xsd" version="1.1" creator="gpx.py -- https://github.com/tkrajina/gpxpy">
  <trk>
    <name>gpx from keep</name>
    <type>Run</type>
    <trkseg>
      <trkpt lat="34.29783854429247" lon="108.71036741056477">
        <ele>387.7732164040208</ele>
        <time>2026-08-16T23:10:09Z</time>
      </trkpt>
      <trkpt lat="34.2977659749214" lon="108.71016403758674">
        <ele>384.91188842989504</ele>
        <time>2026-08-16T23:10:18Z</time>
      </trkpt>
      <trkpt lat="34.29783890479176" lon="108.71015066451757">
        <ele>383.92879507597536</ele>
        <time>2026-08-16T23:10:24Z</time>
      </trkpt>
      <trkpt lat="34.297881234350065" lon="108.71009996381964">
        <ele>388.417598830536</ele>
        <time>2026-08-16T23:10:30Z</time>
      </trkpt>
      <trkpt lat="34.297946622040264" lon="108.71011641523535">
        <ele>388.856731611304</ele>
        <time>2026-08-16T23:10:33Z</time>
      </trkpt>
      <trkpt lat="34.29800539400154" lon="108.71015521790967">
        <ele>388.9123674593866</ele>
        <time>2026-08-16T23:10:36Z</time>
      </trkpt>
      <trkpt lat="34.29803941830881" lon="108.71020712176393">
        <ele>389.2994831269607</ele>
        <time>2026-08-16T23:10:39Z</time>
      </trkpt>
      <trkpt lat="34.29804562221637" lon="108.71046586819641">
        <ele>388.3721317695454</ele>
        <time>2026-08-16T23:10:54Z</time>
      </trkpt>
      <trkpt lat="34.29812082239967" lon="108.71059956729363">
        <ele>389.7539319731295</ele>
        <time>2026-08-16T23:11:03Z</time>
      </trkpt>
      <trkpt lat="34.29811175054406" lon="108.71081871098885">
        <ele>389.27510459534824</ele>
        <time>2026-08-16T23:11:15Z</time>
      </trkpt>
      <trkpt lat="34.29813892419567" lon="108.71086916527705">
        <ele>390.53412771131843</ele>
        <time>2026-08-16T23:11:18Z</time>
      </trkpt>
      <trkpt lat="34.29819503959614" lon="108.71091961366274">
        <ele>390.5951304016635</ele>
        <time>2026-08-16T23:11:21Z</time>
      </trkpt>
      <trkpt lat="34.29822323161956" lon="108.71096929014618">
        <ele>389.7683143224567</ele>
        <time>2026-08-16T23:11:24Z</time>
      </trkpt>
      <trkpt lat="34.29817101925858" lon="108.71107239212107">
        <ele>388.9765618517995</ele>
        <time>2026-08-16T23:11:30Z</time>
      </trkpt>
      <trkpt lat="34.29815248302564" lon="108.71116148930626">
        <ele>390.0250423857942</ele>
        <time>2026-08-16T23:11:36Z</time>
      </trkpt>
      <trkpt lat="34.29815825865045" lon="108.71134417643476">
        <ele>389.60028903372586</ele>
        <time>2026-08-16T23:11:48Z</time>
      </trkpt>
      <trkpt lat="34.298144889959595" lon="108.71141761504249">
        <ele>389.9630544008687</ele>
        <time>2026-08-16T23:11:54Z</time>
      </trkpt>
      <trkpt lat="34.29782412038421" lon="108.71151237416711">
        <ele>388.6647972324863</ele>
        <time>2026-08-16T23:12:14Z</time>
      </trkpt>
      <trkpt lat="34.29751040862055" lon="108.71167174716007">
        <ele>390.5283075151965</ele>
        <time>2026-08-16T23:12:37Z</time>
      </trkpt>
      <trkpt lat="34.29724358089665" lon="108.71173737954304">
        <ele>390.5529973413795</ele>
        <time>2026-08-16T23:12:55Z</time>
      </trkpt>
      <trkpt lat="34.29691647312872" lon="108.71188318977975">
        <ele>390.3787999143824</ele>
        <time>2026-08-16T23:13:19Z</time>
      </trkpt>
      <trkpt lat="34.29665300841754" lon="108.71199275121259">
        <ele>389.7352975104004</ele>
        <time>2026-08-16T23:13:37Z</time>
      </trkpt>
      <trkpt lat="34.29657031490445" lon="108.71203275789232">
        <ele>389.8558597806841</ele>
        <time>2026-08-16T23:13:43Z</time>
      </trkpt>
      <trkpt lat="34.296509185937865" lon="108.71208372815431">
        <ele>390.60737011861056</ele>
        <time>2026-08-16T23:13:49Z</time>
      </trkpt>
      <trkpt lat="34.29643476169363" lon="108.71210618186035">
        <ele>391.4821404442191</ele>
        <time>2026-08-16T23:13:55Z</time>
      </trkpt>
      <trkpt lat="34.296357870184835" lon="108.71208272195517">
        <ele>391.02055634651333</ele>
        <time>2026-08-16T23:14:01Z</time>
      </trkpt>
      <trkpt lat="34.296302613937165" lon="108.71200957521931">
        <ele>390.38553677499294</ele>
        <time>2026-08-16T23:14:07Z</time>
      </trkpt>
      <trkpt lat="34.296262239573004" lon="108.71163603516203">
        <ele>389.37757251691073</ele>
        <time>2026-08-16T23:14:26Z</time>
      </trkpt>
      <trkpt lat="34.29621308112832" lon="108.71132047342941">
        <ele>390.0452820248902</ele>
        <time>2026-08-16T23:14:46Z</time>
      </trkpt>
      <trkpt lat="34.29620078836568" lon="108.71104111141676">
        <ele>389.9048948297277</ele>
        <time>2026-08-16T23:15:04Z</time>
      </trkpt>
      <trkpt lat="34.296121426574686" lon="108.71067967821205">
        <ele>391.3023728309199</ele>
        <time>2026-08-16T23:15:28Z</time>
      </trkpt>
      <trkpt lat="34.29608561161421" lon="108.71043727617632">
        <ele>390.89668592624366</ele>
        <time>2026-08-16T23:15:43Z</time>
      </trkpt>
      <trkpt lat="34.29604857543603" lon="108.71038018508847">
        <ele>391.3005961831659</ele>
        <time>2026-08-16T23:15:49Z</time>
      </trkpt>
      <trkpt lat="34.296032732541256" lon="108.7103024751018">
        <ele>391.8377972673625</ele>
        <time>2026-08-16T23:15:55Z</time>
      </trkpt>
      <trkpt lat="34.29604387465343" lon="108.71014774560398">
        <ele>391.5029564462602</ele>
        <time>2026-08-16T23:16:04Z</time>
      </trkpt>
      <trkpt lat="34.29600912778845" lon="108.70986146146048">
        <ele>391.0802855771035</ele>
        <time>2026-08-16T23:16:20Z</time>
      </trkpt>
      <trkpt lat="34.295989238875684" lon="108.70980426757437">
        <ele>391.66886898409575</ele>
        <time>2026-08-16T23:16:24Z</time>
      </trkpt>
      <trkpt lat="34.29595882934242" lon="108.70946156518565">
        <ele>391.22627566289157</ele>
        <time>2026-08-16T23:16:48Z</time>
      </trkpt>
      <trkpt lat="34.295956209267715" lon="108.70931296135528">
        <ele>391.09115238301456</ele>
        <time>2026-08-16T23:16:57Z</time>
      </trkpt>
      <trkpt lat="34.29592469609672" lon="108.70922567054743">
        <ele>392.02120652608573</ele>
        <time>2026-08-16T23:17:03Z</time>
      </trkpt>
      <trkpt lat="34.295911558792284" lon="108.70894373794238">
        <ele>391.5127749554813</ele>
        <time>2026-08-16T23:17:18Z</time>
      </trkpt>
      <trkpt lat="34.29587087153867" lon="108.70882716870913">
        <ele>392.02310072630644</ele>
        <time>2026-08-16T23:17:24Z</time>
      </trkpt>
      <trkpt lat="34.29586167163149" lon="108.70864111057013">
        <ele>390.7466434119269</ele>
        <time>2026-08-16T23:17:36Z</time>
      </trkpt>
      <trkpt lat="34.29583874798214" lon="108.70856355748239">
        <ele>391.3703020242974</ele>
        <time>2026-08-16T23:17:42Z</time>
      </trkpt>
      <trkpt lat="34.295835442254315" lon="108.70827674804858">
        <ele>391.18650725111365</ele>
        <time>2026-08-16T23:17:57Z</time>
      </trkpt>
      <trkpt lat="34.29580644487217" lon="108.70796647517793">
        <ele>390.5541196735576</ele>
        <time>2026-08-16T23:18:15Z</time>
      </trkpt>
      <trkpt lat="34.295776819290275" lon="108.70781525013345">
        <ele>390.9410512447357</ele>
        <time>2026-08-16T23:18:24Z</time>
      </trkpt>
      <trkpt lat="34.29579086627249" lon="108.70745937231672">
        <ele>391.3383032688871</ele>
        <time>2026-08-16T23:18:43Z</time>
      </trkpt>
      <trkpt lat="34.29574912860864" lon="108.70722846628274">
        <ele>390.45427655242383</ele>
        <time>2026-08-16T23:18:58Z</time>
      </trkpt>
      <trkpt lat="34.29573725342628" lon="108.70692781580541">
        <ele>389.65878331195563</ele>
        <time>2026-08-16T23:19:16Z</time>
      </trkpt>
      <trkpt lat="34.29569250521389" lon="108.70675107004736">
        <ele>390.82881163898855</ele>
        <time>2026-08-16T23:19:28Z</time>
      </trkpt>
      <trkpt lat="34.29567062517252" lon="108.70647546203396">
        <ele>390.9146908177063</ele>
        <time>2026-08-16T23:19:46Z</time>
      </trkpt>
      <trkpt lat="34.29567627981066" lon="108.70636914548517">
        <ele>391.0408644732088</ele>
        <time>2026-08-16T23:19:52Z</time>
      </trkpt>
      <trkpt lat="34.295756275807726" lon="108.7061560643421">
        <ele>390.2529843831435</ele>
        <time>2026-08-16T23:20:04Z</time>
      </trkpt>
      <trkpt lat="34.29579868564808" lon="108.70608378044311">
        <ele>389.6988868713379</ele>
        <time>2026-08-16T23:20:10Z</time>
      </trkpt>
      <trkpt lat="34.29583848444594" lon="108.70605826262035">
        <ele>390.42520363256335</ele>
        <time>2026-08-16T23:20:13Z</time>
      </trkpt>
      <trkpt lat="34.29613614576097" lon="108.70600615303105">
        <ele>391.39638478681445</ele>
        <time>2026-08-16T23:20:32Z</time>
      </trkpt>
      <trkpt lat="34.296464769046544" lon="108.70593634975887">
        <ele>388.5495624579489</ele>
        <time>2026-08-16T23:20:52Z</time>
      </trkpt>
      <trkpt lat="34.29658982392899" lon="108.70593309159818">
        <ele>388.61313721258193</ele>
        <time>2026-08-16T23:21:01Z</time>
      </trkpt>
      <trkpt lat="34.29681746798822" lon="108.7058742168291">
        <ele>388.1632767999545</ele>
        <time>2026-08-16T23:21:16Z</time>
      </trkpt>
      <trkpt lat="34.29710811989984" lon="108.70586271643243">
        <ele>388.66608983278275</ele>
        <time>2026-08-16T23:21:34Z</time>
      </trkpt>
      <trkpt lat="34.29745762232273" lon="108.70579178162748">
        <ele>389.1740525625646</ele>
        <time>2026-08-16T23:21:55Z</time>
      </trkpt>
      <trkpt lat="34.29778424397278" lon="108.70570380349098">
        <ele>389.5360127510503</ele>
        <time>2026-08-16T23:22:22Z</time>
      </trkpt>
      <trkpt lat="34.29802558699145" lon="108.70568396817991">
        <ele>388.3797354372218</ele>
        <time>2026-08-16T23:22:38Z</time>
      </trkpt>
      <trkpt lat="34.29808484357269" lon="108.70566386064863">
        <ele>388.14217955153435</ele>
        <time>2026-08-16T23:22:41Z</time>
      </trkpt>
      <trkpt lat="34.29841537803533" lon="108.70561087867841">
        <ele>388.63406213000417</ele>
        <time>2026-08-16T23:23:02Z</time>
      </trkpt>
      <trkpt lat="34.29870599421213" lon="108.70556357981874">
        <ele>389.8822870319709</ele>
        <time>2026-08-16T23:23:23Z</time>
      </trkpt>
      <trkpt lat="34.29890453739889" lon="108.70550762735408">
        <ele>389.77322469837964</ele>
        <time>2026-08-16T23:23:35Z</time>
      </trkpt>
      <trkpt lat="34.298988030928754" lon="108.7054640169715">
        <ele>391.6724408455193</ele>
        <time>2026-08-16T23:23:41Z</time>
      </trkpt>
      <trkpt lat="34.29917395775538" lon="108.705433663054">
        <ele>390.77170908264816</ele>
        <time>2026-08-16T23:23:56Z</time>
      </trkpt>
      <trkpt lat="34.299258863781716" lon="108.70546854491478">
        <ele>390.7993099167943</ele>
        <time>2026-08-16T23:24:02Z</time>
      </trkpt>
      <trkpt lat="34.29932673423124" lon="108.70560119277403">
        <ele>390.0685004312545</ele>
        <time>2026-08-16T23:24:11Z</time>
      </trkpt>
      <trkpt lat="34.29937777779391" lon="108.70592609949276">
        <ele>390.311152625829</ele>
        <time>2026-08-16T23:24:29Z</time>
      </trkpt>
      <trkpt lat="34.29943289149753" lon="108.7062982966388">
        <ele>389.7034505624324</ele>
        <time>2026-08-16T23:24:49Z</time>
      </trkpt>
      <trkpt lat="34.29944456732852" lon="108.70637522170455">
        <ele>390.3960055010393</ele>
        <time>2026-08-16T23:24:53Z</time>
      </trkpt>
      <trkpt lat="34.299482289042984" lon="108.70674390287115">
        <ele>390.85328437853605</ele>
        <time>2026-08-16T23:25:12Z</time>
      </trkpt>
      <trkpt lat="34.29949602341651" lon="108.7069127245183">
        <ele>391.7967152139172</ele>
        <time>2026-08-16T23:25:24Z</time>
      </trkpt>
      <trkpt lat="34.29953938109607" lon="108.70702547517973">
        <ele>391.32270442321897</ele>
        <time>2026-08-16T23:25:33Z</time>
      </trkpt>
      <trkpt lat="34.29958889436802" lon="108.7070488502232">
        <ele>391.5499919038266</ele>
        <time>2026-08-16T23:25:36Z</time>
      </trkpt>
      <trkpt lat="34.29962173743219" lon="108.70709880374294">
        <ele>391.371394963935</ele>
        <time>2026-08-16T23:25:39Z</time>
      </trkpt>
      <trkpt lat="34.29961081467774" lon="108.70715869945897">
        <ele>391.4481711043045</ele>
        <time>2026-08-16T23:25:42Z</time>
      </trkpt>
      <trkpt lat="34.29952263451044" lon="108.70725673848777">
        <ele>391.4166927449405</ele>
        <time>2026-08-16T23:25:48Z</time>
      </trkpt>
      <trkpt lat="34.29952579389832" lon="108.70732337931452">
        <ele>391.66277333907783</ele>
        <time>2026-08-16T23:25:51Z</time>
      </trkpt>
      <trkpt lat="34.299501725762475" lon="108.70738426311097">
        <ele>390.7376980241388</ele>
        <time>2026-08-16T23:25:54Z</time>
      </trkpt>
      <trkpt lat="34.299491380277125" lon="108.70753586883073">
        <ele>391.4079238604754</ele>
        <time>2026-08-16T23:26:00Z</time>
      </trkpt>
      <trkpt lat="34.299559183888256" lon="108.70788494373369">
        <ele>391.21033219527453</ele>
        <time>2026-08-16T23:26:15Z</time>
      </trkpt>
      <trkpt lat="34.29962081517262" lon="108.7082321624618">
        <ele>392.03493500780314</ele>
        <time>2026-08-16T23:26:33Z</time>
      </trkpt>
      <trkpt lat="34.299641343929146" lon="108.70831897097722">
        <ele>392.0545262405649</ele>
        <time>2026-08-16T23:26:39Z</time>
      </trkpt>
      <trkpt lat="34.29969733758193" lon="108.7083480942213">
        <ele>392.49470099806786</ele>
        <time>2026-08-16T23:26:45Z</time>
      </trkpt>
      <trkpt lat="34.299750983542936" lon="108.7084073355828">
        <ele>392.86171858850867</ele>
        <time>2026-08-16T23:26:52Z</time>
      </trkpt>
      <trkpt lat="34.29979887800444" lon="108.7085861685831">
        <ele>391.64033149182796</ele>
        <time>2026-08-16T23:27:04Z</time>
      </trkpt>
      <trkpt lat="34.299804865933744" lon="108.70876546308233">
        <ele>391.50565612502396</ele>
        <time>2026-08-16T23:27:13Z</time>
      </trkpt>
      <trkpt lat="34.29978593231664" lon="108.70882201826919">
        <ele>391.2291669026017</ele>
        <time>2026-08-16T23:27:16Z</time>
      </trkpt>
      <trkpt lat="34.299724406499955" lon="108.70883111200405">
        <ele>391.0482987202704</ele>
        <time>2026-08-16T23:27:22Z</time>
      </trkpt>
      <trkpt lat="34.29970243425246" lon="108.70907307823363">
        <ele>390.50787418708205</ele>
        <time>2026-08-16T23:27:34Z</time>
      </trkpt>
      <trkpt lat="34.299703603330215" lon="108.70920984643452">
        <ele>391.3965337863192</ele>
        <time>2026-08-16T23:27:43Z</time>
      </trkpt>
      <trkpt lat="34.29975007689047" lon="108.70949027895703">
        <ele>391.350380002521</ele>
        <time>2026-08-16T23:27:58Z</time>
      </trkpt>
      <trkpt lat="34.29978241983243" lon="108.7095307027384">
        <ele>392.2589989416301</ele>
        <time>2026-08-16T23:28:01Z</time>
      </trkpt>
      <trkpt lat="34.29980487189978" lon="108.70959933776382">
        <ele>391.17142996471375</ele>
        <time>2026-08-16T23:28:10Z</time>
      </trkpt>
      <trkpt lat="34.299796577052426" lon="108.70979739726842">
        <ele>390.8693894529715</ele>
        <time>2026-08-16T23:28:19Z</time>
      </trkpt>
      <trkpt lat="34.29983475605793" lon="108.71005400948947">
        <ele>390.67300943657756</ele>
        <time>2026-08-16T23:28:31Z</time>
      </trkpt>
      <trkpt lat="34.29991615019082" lon="108.71025513884943">
        <ele>390.23904030490667</ele>
        <time>2026-08-16T23:28:43Z</time>
      </trkpt>
      <trkpt lat="34.29973364651398" lon="108.71046767013989">
        <ele>389.9459450971335</ele>
        <time>2026-08-16T23:28:59Z</time>
      </trkpt>
      <trkpt lat="34.299590631954075" lon="108.71055923846527">
        <ele>391.7244773004204</ele>
        <time>2026-08-16T23:29:08Z</time>
      </trkpt>
      <trkpt lat="34.29948212979489" lon="108.710596698563">
        <ele>393.55983978509903</ele>
        <time>2026-08-16T23:29:17Z</time>
      </trkpt>
      <trkpt lat="34.299501047428855" lon="108.71066560665663">
        <ele>394.6970886560157</ele>
        <time>2026-08-16T23:29:23Z</time>
      </trkpt>
      <trkpt lat="34.29948636612774" lon="108.71076104642218">
        <ele>392.0007172226906</ele>
        <time>2026-08-16T23:29:29Z</time>
      </trkpt>
      <trkpt lat="34.2994445484539" lon="108.71081809726634">
        <ele>391.10253861546516</ele>
        <time>2026-08-16T23:29:35Z</time>
      </trkpt>
      <trkpt lat="34.29939662036712" lon="108.71086554871927">
        <ele>390.95517443772405</ele>
        <time>2026-08-16T23:31:51Z</time>
      </trkpt>
      <trkpt lat="34.299059682099355" lon="108.71096830491553">
        <ele>390.4170635677874</ele>
        <time>2026-08-16T23:32:21Z</time>
      </trkpt>
      <trkpt lat="34.298735803555914" lon="108.71110653710969">
        <ele>390.5054859612137</ele>
        <time>2026-08-16T23:32:45Z</time>
      </trkpt>
      <trkpt lat="34.29842334369176" lon="108.7112468845323">
        <ele>391.1804234823212</ele>
        <time>2026-08-16T23:33:10Z</time>
      </trkpt>
      <trkpt lat="34.29834594428451" lon="108.71131184684997">
        <ele>390.0490363687277</ele>
        <time>2026-08-16T23:33:16Z</time>
      </trkpt>
      <trkpt lat="34.29823737134688" lon="108.7113480688612">
        <ele>389.69975974876434</ele>
        <time>2026-08-16T23:33:22Z</time>
      </trkpt>
      <trkpt lat="34.29819267871107" lon="108.71130908601877">
        <ele>389.2407247098163</ele>
        <time>2026-08-16T23:33:25Z</time>
      </trkpt>
      <trkpt lat="34.298199074517385" lon="108.71122745008273">
        <ele>389.11887055356055</ele>
        <time>2026-08-16T23:33:28Z</time>
      </trkpt>
      <trkpt lat="34.298124454788606" lon="108.7110128119132">
        <ele>389.53547105845064</ele>
        <time>2026-08-16T23:33:37Z</time>
      </trkpt>
      <trkpt lat="34.29811007530624" lon="108.71092750263016">
        <ele>389.36106226500124</ele>
        <time>2026-08-16T23:33:40Z</time>
      </trkpt>
      <trkpt lat="34.298066527402206" lon="108.71087735785441">
        <ele>390.23513187188655</ele>
        <time>2026-08-16T23:33:43Z</time>
      </trkpt>
      <trkpt lat="34.29808626974882" lon="108.71078970804344">
        <ele>389.6997038051486</ele>
        <time>2026-08-16T23:33:49Z</time>
      </trkpt>
      <trkpt lat="34.29803906115366" lon="108.71071358069676">
        <ele>389.59288239106536</ele>
        <time>2026-08-16T23:33:55Z</time>
      </trkpt>
      <trkpt lat="34.29803491701091" lon="108.71063045335377">
        <ele>389.8017906630412</ele>
        <time>2026-08-16T23:34:01Z</time>
      </trkpt>
      <trkpt lat="34.29799149772772" lon="108.71049430091897">
        <ele>390.19166641123593</ele>
        <time>2026-08-16T23:34:10Z</time>
      </trkpt>
      <trkpt lat="34.29800719368223" lon="108.71029024247449">
        <ele>389.45919979177415</ele>
        <time>2026-08-16T23:34:22Z</time>
      </trkpt>
      <trkpt lat="34.2980315857335" lon="108.71023056047522">
        <ele>389.90203670598567</ele>
        <time>2026-08-16T23:34:25Z</time>
      </trkpt>
      <trkpt lat="34.298001453161376" lon="108.71014625420553">
        <ele>389.9590357579291</ele>
        <time>2026-08-16T23:34:31Z</time>
      </trkpt>
      <trkpt lat="34.29791595134539" lon="108.71016022838457">
        <ele>389.77051556296647</ele>
        <time>2026-08-16T23:34:37Z</time>
      </trkpt>
      <trkpt lat="34.297760998583854" lon="108.71023909714418">
        <ele>389.48834742140025</ele>
        <time>2026-08-16T23:34:49Z</time>
      </trkpt>
      <trkpt lat="34.29783298077831" lon="108.71046929668847">
        <ele>386.1135410806164</ele>
        <time>2026-08-16T23:35:07Z</time>
      </trkpt>
      <trkpt lat="34.29783298077831" lon="108.71046929668847">
        <ele>386.1135410806164</ele>
        <time>2026-08-16T23:35:07Z</time>
      </trkpt>
      <trkpt lat="34.29786593185179" lon="108.71051695465232">
        <ele>386.65806270204484</ele>
        <time>2026-08-16T23:35:10Z</time>
      </trkpt>
      <trkpt lat="34.29786593185179" lon="108.71051695465232">
        <ele>386.65806270204484</ele>
        <time>2026-08-16T23:35:12Z</time>
      </trkpt>
    </trkseg>
  </trk>
</gpx>