<?xml version="1.0" encoding="UTF-8"?>
<gpx xmlns="http://www.topografix.com/GPX/1/1" xmlns:gpxtpx="http://www.garmin.com/xmlschemas/TrackPointExtension/v1" xmlns:xsi="http://www.w3.org/2001/XMLSchema-instance" xsi:schemaLocation="http://www.topografix.com/GPX/1/1 http://www.topografix.com/GPX/1/1/gpx.xsd" version="1.1" creator="gpx.py -- https://github.com/tkrajina/gpxpy">
  <trk>
    <name>gpx from keep</name>
    <type>Run</type>
    <trkseg>
      <trkpt lat="34.2977139747793" lon="108.71016611167298">
        <ele>388.8154525756836</ele>
        <time>2026-08-19T22:57:21Z</time>
      </trkpt>
      <trkpt lat="34.2979151214669" lon="108.7100765183306">
        <ele>390.51802842505276</ele>
        <time>2026-08-19T22:57:40Z</time>
      </trkpt>
      <trkpt lat="34.29797676861016" lon="108.71008815358726">
        <ele>389.85530861094594</ele>
        <time>2026-08-19T22:57:46Z</time>
      </trkpt>
      <trkpt lat="34.29804091039371" lon="108.71023136079549">
        <ele>388.01892631687224</ele>
        <time>2026-08-19T22:57:48Z</time>
      </trkpt>
      <trkpt lat="34.29804495789083" lon="108.71041761127539">
        <ele>387.4810762787238</ele>
        <time>2026-08-19T22:57:57Z</time>
      </trkpt>
      <trkpt lat="34.298069772730294" lon="108.71064468361347">
        <ele>388.4857934387401</ele>
        <time>2026-08-19T22:58:09Z</time>
      </trkpt>
      <trkpt lat="34.29809281737963" lon="108.71070382765552">
        <ele>388.9009456522763</ele>
        <time>2026-08-19T22:58:12Z</time>
      </trkpt>
      <trkpt lat="34.298094941741425" lon="108.71075924399572">
        <ele>388.92069298401475</ele>
        <time>2026-08-19T22:58:15Z</time>
      </trkpt>
      <trkpt lat="34.298186474191006" lon="108.71089787331096">
        <ele>389.12558731716126</ele>
        <time>2026-08-19T22:58:24Z</time>
      </trkpt>
      <trkpt lat="34.298190419269574" lon="108.71101411615858">
        <ele>389.3498080819845</ele>
        <time>2026-08-19T22:58:30Z</time>
      </trkpt>
      <trkpt lat="34.29817246718379" lon="108.71111782726022">
        <ele>389.40662374161184</ele>
        <time>2026-08-19T22:58:36Z</time>
      </trkpt>
      <trkpt lat="34.29820283686691" lon="108.71138413373292">
        <ele>389.9217152055353</ele>
        <time>2026-08-19T22:58:51Z</time>
      </trkpt>
      <trkpt lat="34.29818214392422" lon="108.71143496138474">
        <ele>389.7579125901684</ele>
        <time>2026-08-19T22:58:54Z</time>
      </trkpt>
      <trkpt lat="34.297929888564894" lon="108.71150655034845">
        <ele>389.64736667927355</ele>
        <time>2026-08-19T22:59:09Z</time>
      </trkpt>
      <trkpt lat="34.29763870420244" lon="108.71163399975921">
        <ele>389.67713222652674</ele>
        <time>2026-08-19T22:59:28Z</time>
      </trkpt>
      <trkpt lat="34.29733437376918" lon="108.71173314679974">
        <ele>391.19503959454596</ele>
        <time>2026-08-19T22:59:49Z</time>
      </trkpt>
      <trkpt lat="34.29723084104563" lon="108.71175256833787">
        <ele>390.24774557258934</ele>
        <time>2026-08-19T22:59:55Z</time>
      </trkpt>
      <trkpt lat="34.29718465552758" lon="108.71178110055551">
        <ele>390.36571031901985</ele>
        <time>2026-08-19T22:59:58Z</time>
      </trkpt>
      <trkpt lat="34.29696803320998" lon="108.71184058325716">
        <ele>390.1190166687593</ele>
        <time>2026-08-19T23:00:13Z</time>
      </trkpt>
      <trkpt lat="34.296890483153625" lon="108.71188092095123">
        <ele>390.43066273164004</ele>
        <time>2026-08-19T23:00:19Z</time>
      </trkpt>
      <trkpt lat="34.296843897881" lon="108.71188287819749">
        <ele>390.95631180983037</ele>
        <time>2026-08-19T23:00:22Z</time>
      </trkpt>
      <trkpt lat="34.29670102718779" lon="108.71198476610336">
        <ele>390.97069067601115</ele>
        <time>2026-08-19T23:00:34Z</time>
      </trkpt>
      <trkpt lat="34.2966507649233" lon="108.71199755715074">
        <ele>391.089078778401</ele>
        <time>2026-08-19T23:00:37Z</time>
      </trkpt>
      <trkpt lat="34.29658058774691" lon="108.71205070547322">
        <ele>390.4966010581702</ele>
        <time>2026-08-19T23:00:43Z</time>
      </trkpt>
      <trkpt lat="34.29653121177628" lon="108.71205546841723">
        <ele>390.28804824035615</ele>
        <time>2026-08-19T23:00:46Z</time>
      </trkpt>
      <trkpt lat="34.29648591140091" lon="108.71208455673246">
        <ele>390.0139960497618</ele>
        <time>2026-08-19T23:00:49Z</time>
      </trkpt>
      <trkpt lat="34.296396967634266" lon="108.71210555847946">
        <ele>389.7849398525432</ele>
        <time>2026-08-19T23:00:55Z</time>
      </trkpt>
      <trkpt lat="34.2963151533257" lon="108.71204569200127">
        <ele>389.49131666496396</ele>
        <time>2026-08-19T23:01:01Z</time>
      </trkpt>
      <trkpt lat="34.296280461629394" lon="108.71188326256143">
        <ele>389.09114378038794</ele>
        <time>2026-08-19T23:01:10Z</time>
      </trkpt>
      <trkpt lat="34.296249083330345" lon="108.7114823964748">
        <ele>389.3240002691746</ele>
        <time>2026-08-19T23:01:31Z</time>
      </trkpt>
      <trkpt lat="34.29621942953616" lon="108.71130396304264">
        <ele>389.5043046409264</ele>
        <time>2026-08-19T23:01:41Z</time>
      </trkpt>
      <trkpt lat="34.296217356925446" lon="108.7111949556901">
        <ele>389.65279497392476</ele>
        <time>2026-08-19T23:01:47Z</time>
      </trkpt>
      <trkpt lat="34.29619472697809" lon="108.7111182240032">
        <ele>389.43590478412807</ele>
        <time>2026-08-19T23:01:53Z</time>
      </trkpt>
      <trkpt lat="34.296193123770415" lon="108.71103260642074">
        <ele>389.9599238904193</ele>
        <time>2026-08-19T23:01:59Z</time>
      </trkpt>
      <trkpt lat="34.29612011813625" lon="108.7107106319141">
        <ele>391.0868604891002</ele>
        <time>2026-08-19T23:02:20Z</time>
      </trkpt>
      <trkpt lat="34.29606743484329" lon="108.7103338310904">
        <ele>390.90433809533715</ele>
        <time>2026-08-19T23:02:44Z</time>
      </trkpt>
      <trkpt lat="34.29603733421869" lon="108.70999691033703">
        <ele>391.38967526424676</ele>
        <time>2026-08-19T23:03:02Z</time>
      </trkpt>
      <trkpt lat="34.29598843511155" lon="108.70960071401511">
        <ele>390.7680158363655</ele>
        <time>2026-08-19T23:03:26Z</time>
      </trkpt>
      <trkpt lat="34.29593447120308" lon="108.70926400591836">
        <ele>390.80580845847726</ele>
        <time>2026-08-19T23:03:48Z</time>
      </trkpt>
      <trkpt lat="34.295868211013264" lon="108.70889778988436">
        <ele>391.560285766609</ele>
        <time>2026-08-19T23:04:09Z</time>
      </trkpt>
      <trkpt lat="34.29585136985741" lon="108.70878007296746">
        <ele>391.55870436970145</ele>
        <time>2026-08-19T23:04:15Z</time>
      </trkpt>
      <trkpt lat="34.295825978326995" lon="108.708721613135">
        <ele>392.2715604780242</ele>
        <time>2026-08-19T23:04:18Z</time>
      </trkpt>
      <trkpt lat="34.29583968824673" lon="108.7085100044307">
        <ele>391.7468759957701</ele>
        <time>2026-08-19T23:04:30Z</time>
      </trkpt>
      <trkpt lat="34.29580421461831" lon="108.70834860210874">
        <ele>392.2296413918957</ele>
        <time>2026-08-19T23:04:39Z</time>
      </trkpt>
      <trkpt lat="34.29578114472225" lon="108.70830119237337">
        <ele>391.8826116826385</ele>
        <time>2026-08-19T23:04:42Z</time>
      </trkpt>
      <trkpt lat="34.29575557504332" lon="108.70790226839027">
        <ele>391.11324661038816</ele>
        <time>2026-08-19T23:05:06Z</time>
      </trkpt>
      <trkpt lat="34.29576591281225" lon="108.707807517347">
        <ele>391.2542969174683</ele>
        <time>2026-08-19T23:05:12Z</time>
      </trkpt>
      <trkpt lat="34.29574405806592" lon="108.70770784649906">
        <ele>391.73193392157555</ele>
        <time>2026-08-19T23:05:18Z</time>
      </trkpt>
      <trkpt lat="34.29573758379514" lon="108.70755207918597">
        <ele>391.88851904217154</ele>
        <time>2026-08-19T23:05:27Z</time>
      </trkpt>
      <trkpt lat="34.29574810695266" lon="108.70749591321075">
        <ele>391.9480212815106</ele>
        <time>2026-08-19T23:05:30Z</time>
      </trkpt>
      <trkpt lat="34.29572416593498" lon="108.70712596155614">
        <ele>389.8606871245429</ele>
        <time>2026-08-19T23:05:52Z</time>
      </trkpt>
      <trkpt lat="34.29572526549713" lon="108.70695908827597">
        <ele>390.0918806307018</ele>
        <time>2026-08-19T23:06:01Z</time>
      </trkpt>
      <trkpt lat="34.295661116056145" lon="108.70664475079009">
        <ele>391.76974218711257</ele>
        <time>2026-08-19T23:06:19Z</time>
      </trkpt>
      <trkpt lat="34.2956675176594" lon="108.70655990691566">
        <ele>390.832588551566</ele>
        <time>2026-08-19T23:06:25Z</time>
      </trkpt>
      <trkpt lat="34.2956436702092" lon="108.70640596229946">
        <ele>390.92984638828784</ele>
        <time>2026-08-19T23:06:34Z</time>
      </trkpt>
      <trkpt lat="34.29566278108478" lon="108.70628601346232">
        <ele>391.43383363541216</ele>
        <time>2026-08-19T23:06:40Z</time>
      </trkpt>
      <trkpt lat="34.29576019873823" lon="108.70609337400042">
        <ele>390.86368935368955</ele>
        <time>2026-08-19T23:06:52Z</time>
      </trkpt>
      <trkpt lat="34.29579943011736" lon="108.70605511402101">
        <ele>391.42890813574195</ele>
        <time>2026-08-19T23:06:55Z</time>
      </trkpt>
      <trkpt lat="34.29606924011017" lon="108.70602373991301">
        <ele>390.3976288009435</ele>
        <time>2026-08-19T23:07:13Z</time>
      </trkpt>
      <trkpt lat="34.29637538698019" lon="108.70594812640634">
        <ele>390.40693935751915</ele>
        <time>2026-08-19T23:07:34Z</time>
      </trkpt>
      <trkpt lat="34.296555208729785" lon="108.70591664223863">
        <ele>390.0589378029108</ele>
        <time>2026-08-19T23:07:46Z</time>
      </trkpt>
      <trkpt lat="34.29664113516057" lon="108.70592282505638">
        <ele>389.6742243645713</ele>
        <time>2026-08-19T23:07:53Z</time>
      </trkpt>
      <trkpt lat="34.296853429749696" lon="108.70587678498255">
        <ele>388.7034565070644</ele>
        <time>2026-08-19T23:08:11Z</time>
      </trkpt>
      <trkpt lat="34.29713290493862" lon="108.70583350896541">
        <ele>388.65760478004813</ele>
        <time>2026-08-19T23:08:29Z</time>
      </trkpt>
      <trkpt lat="34.29744819286281" lon="108.70575327182982">
        <ele>389.3894696608186</ele>
        <time>2026-08-19T23:08:50Z</time>
      </trkpt>
      <trkpt lat="34.29771739527243" lon="108.70570686573832">
        <ele>389.5232113962993</ele>
        <time>2026-08-19T23:09:08Z</time>
      </trkpt>
      <trkpt lat="34.297991361622366" lon="108.70567318081301">
        <ele>388.8786834301427</ele>
        <time>2026-08-19T23:09:26Z</time>
      </trkpt>
      <trkpt lat="34.298268862014" lon="108.70563666947004">
        <ele>389.32839564140886</ele>
        <time>2026-08-19T23:09:44Z</time>
      </trkpt>
      <trkpt lat="34.298597626143525" lon="108.70557408265532">
        <ele>389.1593851111829</ele>
        <time>2026-08-19T23:10:06Z</time>
      </trkpt>
      <trkpt lat="34.29881571378797" lon="108.70552429016163">
        <ele>389.7899385113269</ele>
        <time>2026-08-19T23:10:21Z</time>
      </trkpt>
      <trkpt lat="34.298862937357846" lon="108.70553342149023">
        <ele>389.38820400089025</ele>
        <time>2026-08-19T23:10:24Z</time>
      </trkpt>
      <trkpt lat="34.29914832426984" lon="108.70547766093321">
        <ele>389.8590458985418</ele>
        <time>2026-08-19T23:10:45Z</time>
      </trkpt>
      <trkpt lat="34.29921016954423" lon="108.70546765640935">
        <ele>390.1023841863498</ele>
        <time>2026-08-19T23:10:51Z</time>
      </trkpt>
      <trkpt lat="34.29925946083862" lon="108.7055014037658">
        <ele>390.6247059907764</ele>
        <time>2026-08-19T23:10:57Z</time>
      </trkpt>
      <trkpt lat="34.299219302960566" lon="108.70553800177927">
        <ele>390.04474652092904</ele>
        <time>2026-08-19T23:11:00Z</time>
      </trkpt>
      <trkpt lat="34.29913587046764" lon="108.70557222353494">
        <ele>389.88970996439457</ele>
        <time>2026-08-19T23:11:06Z</time>
      </trkpt>
      <trkpt lat="34.29885214629048" lon="108.70562026895777">
        <ele>390.62177860178053</ele>
        <time>2026-08-19T23:11:24Z</time>
      </trkpt>
      <trkpt lat="34.29875421174725" lon="108.70563103627944">
        <ele>389.9449110105634</ele>
        <time>2026-08-19T23:11:30Z</time>
      </trkpt>
      <trkpt lat="34.298447985387696" lon="108.70569881781425">
        <ele>389.6126184593886</ele>
        <time>2026-08-19T23:11:51Z</time>
      </trkpt>
      <trkpt lat="34.29818852245591" lon="108.70572648198683">
        <ele>389.27350126300007</ele>
        <time>2026-08-19T23:12:10Z</time>
      </trkpt>
      <trkpt lat="34.29805115472808" lon="108.7057705313343">
        <ele>388.9458686299622</ele>
        <time>2026-08-19T23:12:19Z</time>
      </trkpt>
      <trkpt lat="34.298002302640015" lon="108.70576504220705">
        <ele>389.33437593933195</ele>
        <time>2026-08-19T23:12:22Z</time>
      </trkpt>
      <trkpt lat="34.29771008057793" lon="108.70583576185383">
        <ele>388.0403568651527</ele>
        <time>2026-08-19T23:12:40Z</time>
      </trkpt>
      <trkpt lat="34.29746275110791" lon="108.7058787512038">
        <ele>388.66571415029466</ele>
        <time>2026-08-19T23:12:55Z</time>
      </trkpt>
      <trkpt lat="34.297363810026305" lon="108.70588521062773">
        <ele>389.20459839422256</ele>
        <time>2026-08-19T23:13:01Z</time>
      </trkpt>
      <trkpt lat="34.29727606401952" lon="108.7059239618121">
        <ele>388.5066152587533</ele>
        <time>2026-08-19T23:13:07Z</time>
      </trkpt>
      <trkpt lat="34.29722065728923" lon="108.7059224096991">
        <ele>388.5752038648352</ele>
        <time>2026-08-19T23:13:10Z</time>
      </trkpt>
      <trkpt lat="34.297173904162435" lon="108.7059459850132">
        <ele>388.75512404646724</ele>
        <time>2026-08-19T23:13:13Z</time>
      </trkpt>
      <trkpt lat="34.29687459155091" lon="108.70598689067755">
        <ele>388.99595688842237</ele>
        <time>2026-08-19T23:13:31Z</time>
      </trkpt>
      <trkpt lat="34.296573620583494" lon="108.70603340374805">
        <ele>388.9927414711565</ele>
        <time>2026-08-19T23:13:49Z</time>
      </trkpt>
      <trkpt lat="34.29636709855898" lon="108.70607364716977">
        <ele>389.0654036439955</ele>
        <time>2026-08-19T23:14:01Z</time>
      </trkpt>
      <trkpt lat="34.29631381981593" lon="108.70606480124246">
        <ele>388.9030944118276</ele>
        <time>2026-08-19T23:14:04Z</time>
      </trkpt>
      <trkpt lat="34.29626802431853" lon="108.70609023843386">
        <ele>389.44982805103064</ele>
        <time>2026-08-19T23:14:07Z</time>
      </trkpt>
      <trkpt lat="34.29615519325727" lon="108.70609460554637">
        <ele>389.72647535521537</ele>
        <time>2026-08-19T23:14:15Z</time>
      </trkpt>
      <trkpt lat="34.29611373032032" lon="108.70611809670088">
        <ele>390.94324329309165</ele>
        <time>2026-08-19T23:14:19Z</time>
      </trkpt>
      <trkpt lat="34.2959918667383" lon="108.7061172684764">
        <ele>390.7191408276558</ele>
        <time>2026-08-19T23:14:29Z</time>
      </trkpt>
      <trkpt lat="34.2958539514613" lon="108.70615356545962">
        <ele>389.8006762843579</ele>
        <time>2026-08-19T23:14:41Z</time>
      </trkpt>
      <trkpt lat="34.295780411049094" lon="108.70614229202369">
        <ele>389.3922537639737</ele>
        <time>2026-08-19T23:14:47Z</time>
      </trkpt>
      <trkpt lat="34.29580070356936" lon="108.70608875480276">
        <ele>389.16130536980927</ele>
        <time>2026-08-19T23:14:50Z</time>
      </trkpt>
      <trkpt lat="34.296078993429084" lon="108.70602436179104">
        <ele>390.03548097331077</ele>
        <time>2026-08-19T23:15:08Z</time>
      </trkpt>
      <trkpt lat="34.2964117349438" lon="108.70595585674998">
        <ele>389.57726137246937</ele>
        <time>2026-08-19T23:15:29Z</time>
      </trkpt>
      <trkpt lat="34.29648819258835" lon="108.7059326477406">
        <ele>390.2864904413</ele>
        <time>2026-08-19T23:15:35Z</time>
      </trkpt>
      <trkpt lat="34.296781518519374" lon="108.70590625001971">
        <ele>390.0672410251573</ele>
        <time>2026-08-19T23:15:56Z</time>
      </trkpt>
      <trkpt lat="34.297074542067826" lon="108.70586889589983">
        <ele>388.736459415406</ele>
        <time>2026-08-19T23:16:15Z</time>
      </trkpt>
      <trkpt lat="34.29736142294946" lon="108.70581585992787">
        <ele>389.6300032418221</ele>
        <time>2026-08-19T23:16:33Z</time>
      </trkpt>
      <trkpt lat="34.29758456161945" lon="108.70575351330466">
        <ele>388.9773369273171</ele>
        <time>2026-08-19T23:16:54Z</time>
      </trkpt>
      <trkpt lat="34.29788468050639" lon="108.70571084753647">
        <ele>388.81610397901386</ele>
        <time>2026-08-19T23:17:21Z</time>
      </trkpt>
      <trkpt lat="34.29818142000958" lon="108.70566736664964">
        <ele>388.9107014006004</ele>
        <time>2026-08-19T23:17:39Z</time>
      </trkpt>
      <trkpt lat="34.29845115356515" lon="108.70562550524662">
        <ele>388.0106458030641</ele>
        <time>2026-08-19T23:17:54Z</time>
      </trkpt>
      <trkpt lat="34.29860037834408" lon="108.7055939645903">
        <ele>389.01063424441963</ele>
        <time>2026-08-19T23:18:03Z</time>
      </trkpt>
      <trkpt lat="34.2987547349169" lon="108.70554251308906">
        <ele>389.1924146004021</ele>
        <time>2026-08-19T23:18:12Z</time>
      </trkpt>
      <trkpt lat="34.299026399295684" lon="108.70550107714868">
        <ele>389.23551308363676</ele>
        <time>2026-08-19T23:18:28Z</time>
      </trkpt>
      <trkpt lat="34.29924099557271" lon="108.70545097298073">
        <ele>391.1699478952214</ele>
        <time>2026-08-19T23:18:46Z</time>
      </trkpt>
      <trkpt lat="34.29926964780388" lon="108.705509136512">
        <ele>391.66412257403135</ele>
        <time>2026-08-19T23:18:49Z</time>
      </trkpt>
      <trkpt lat="34.29930711531126" lon="108.70554376316622">
        <ele>391.45911203324795</ele>
        <time>2026-08-19T23:18:52Z</time>
      </trkpt>
      <trkpt lat="34.299371545195136" lon="108.7058385357586">
        <ele>390.7126493258402</ele>
        <time>2026-08-19T23:19:10Z</time>
      </trkpt>
      <trkpt lat="34.299369115630896" lon="108.7059213002381">
        <ele>391.1239414503798</ele>
        <time>2026-08-19T23:19:16Z</time>
      </trkpt>
      <trkpt lat="34.299408482982464" lon="108.70599942637276">
        <ele>391.275053197518</ele>
        <time>2026-08-19T23:19:22Z</time>
      </trkpt>
      <trkpt lat="34.299434460022184" lon="108.70638303552371">
        <ele>390.0963188428432</ele>
        <time>2026-08-19T23:19:46Z</time>
      </trkpt>
      <trkpt lat="34.29949200908303" lon="108.70673377715335">
        <ele>391.30234528146684</ele>
        <time>2026-08-19T23:20:04Z</time>
      </trkpt>
      <trkpt lat="34.29949967834274" lon="108.70682486709259">
        <ele>391.152799282223</ele>
        <time>2026-08-19T23:20:10Z</time>
      </trkpt>
      <trkpt lat="34.29952233702826" lon="108.70689055954689">
        <ele>391.0907672252506</ele>
        <time>2026-08-19T23:20:16Z</time>
      </trkpt>
      <trkpt lat="34.299525188579345" lon="108.70698493582533">
        <ele>391.0221996381879</ele>
        <time>2026-08-19T23:20:22Z</time>
      </trkpt>
      <trkpt lat="34.29962351280439" lon="108.70708783278748">
        <ele>391.80395073257387</ele>
        <time>2026-08-19T23:20:33Z</time>
      </trkpt>
      <trkpt lat="34.29959943088859" lon="108.70717331401114">
        <ele>391.1224856004119</ele>
        <time>2026-08-19T23:20:37Z</time>
      </trkpt>
      <trkpt lat="34.29951870699098" lon="108.70730068838131">
        <ele>390.2177031058818</ele>
        <time>2026-08-19T23:20:44Z</time>
      </trkpt>
      <trkpt lat="34.29953753073289" lon="108.70744508837605">
        <ele>390.28596170526</ele>
        <time>2026-08-19T23:20:50Z</time>
      </trkpt>
      <trkpt lat="34.299531513401774" lon="108.70771785629817">
        <ele>392.2428581537679</ele>
        <time>2026-08-19T23:21:05Z</time>
      </trkpt>
      <trkpt lat="34.29955267163351" lon="108.70787742580158">
        <ele>392.2570139532909</ele>
        <time>2026-08-19T23:21:17Z</time>
      </trkpt>
      <trkpt lat="34.29958773024154" lon="108.70796570856979">
        <ele>392.7583356332034</ele>
        <time>2026-08-19T23:21:23Z</time>
      </trkpt>
      <trkpt lat="34.29959813477361" lon="108.70805366658443">
        <ele>391.8346026977524</ele>
        <time>2026-08-19T23:21:29Z</time>
      </trkpt>
      <trkpt lat="34.299575528600016" lon="108.70822419245933">
        <ele>390.46345653384924</ele>
        <time>2026-08-19T23:21:38Z</time>
      </trkpt>
      <trkpt lat="34.29961120543146" lon="108.70838126229883">
        <ele>391.36784671712667</ele>
        <time>2026-08-19T23:21:50Z</time>
      </trkpt>
      <trkpt lat="34.29961142548899" lon="108.70847103126177">
        <ele>392.56162839755416</ele>
        <time>2026-08-19T23:21:56Z</time>
      </trkpt>
      <trkpt lat="34.299648522093236" lon="108.7085243217062">
        <ele>391.7277567544952</ele>
        <time>2026-08-19T23:22:02Z</time>
      </trkpt>
      <trkpt lat="34.299636292201725" lon="108.7086172592012">
        <ele>391.22928544227034</ele>
        <time>2026-08-19T23:22:08Z</time>
      </trkpt>
      <trkpt lat="34.29970370340602" lon="108.7089756116431">
        <ele>391.41696294024587</ele>
        <time>2026-08-19T23:22:26Z</time>
      </trkpt>
      <trkpt lat="34.29975552716652" lon="108.70936489621691">
        <ele>391.7023431006819</ele>
        <time>2026-08-19T23:22:45Z</time>
      </trkpt>
      <trkpt lat="34.299765231296576" lon="108.70948450850057">
        <ele>391.0388394361362</ele>
        <time>2026-08-19T23:22:53Z</time>
      </trkpt>
      <trkpt lat="34.29980551600597" lon="108.7095597295972">
        <ele>391.2611040119082</ele>
        <time>2026-08-19T23:22:59Z</time>
      </trkpt>
      <trkpt lat="34.29981264345564" lon="108.70961935916485">
        <ele>391.56128056533635</ele>
        <time>2026-08-19T23:23:02Z</time>
      </trkpt>
      <trkpt lat="34.299779813836324" lon="108.70973651416138">
        <ele>390.3020116062835</ele>
        <time>2026-08-19T23:23:08Z</time>
      </trkpt>
      <trkpt lat="34.29983203055375" lon="108.71006539150224">
        <ele>391.2430787337944</ele>
        <time>2026-08-19T23:23:23Z</time>
      </trkpt>
      <trkpt lat="34.2998639583339" lon="108.7101047279971">
        <ele>392.0404273439199</ele>
        <time>2026-08-19T23:23:26Z</time>
      </trkpt>
      <trkpt lat="34.2998948536955" lon="108.71022019877796">
        <ele>391.841211033985</ele>
        <time>2026-08-19T23:23:32Z</time>
      </trkpt>
      <trkpt lat="34.29987260675638" lon="108.71028234929804">
        <ele>391.69398939982057</ele>
        <time>2026-08-19T23:23:35Z</time>
      </trkpt>
      <trkpt lat="34.29971747857506" lon="108.71048908421078">
        <ele>391.72670403216034</ele>
        <time>2026-08-19T23:23:53Z</time>
      </trkpt>
      <trkpt lat="34.29966205078567" lon="108.71053246502585">
        <ele>392.0958810914308</ele>
        <time>2026-08-19T23:23:59Z</time>
      </trkpt>
      <trkpt lat="34.29953584031974" lon="108.71059031800115">
        <ele>392.89134690724313</ele>
        <time>2026-08-19T23:24:11Z</time>
      </trkpt>
      <trkpt lat="34.299500108663295" lon="108.71065870792322">
        <ele>392.73340254370123</ele>
        <time>2026-08-19T23:24:17Z</time>
      </trkpt>
      <trkpt lat="34.299499095012976" lon="108.71073805335801">
        <ele>392.2178710978478</ele>
        <time>2026-08-19T23:24:23Z</time>
      </trkpt>
      <trkpt lat="34.299435386864204" lon="108.71083959617242">
        <ele>390.87429033592343</ele>
        <time>2026-08-19T23:24:35Z</time>
      </trkpt>
      <trkpt lat="34.2991661499767" lon="108.7109456540653">
        <ele>390.98893258254975</ele>
        <time>2026-08-19T23:25:56Z</time>
      </trkpt>
      <trkpt lat="34.29887735005756" lon="108.71106376655854">
        <ele>389.97553257644176</ele>
        <time>2026-08-19T23:26:17Z</time>
      </trkpt>
      <trkpt lat="34.29858778016651" lon="108.71120617273071">
        <ele>390.65352170262486</ele>
        <time>2026-08-19T23:26:41Z</time>
      </trkpt>
      <trkpt lat="34.298380262771694" lon="108.71127478460711">
        <ele>389.772777502425</ele>
        <time>2026-08-19T23:26:57Z</time>
      </trkpt>
      <trkpt lat="34.298314104007616" lon="108.71132379228641">
        <ele>390.35236249584705</ele>
        <time>2026-08-19T23:27:03Z</time>
      </trkpt>
      <trkpt lat="34.298233929823624" lon="108.71134547044005">
        <ele>391.0570313734934</ele>
        <time>2026-08-19T23:27:09Z</time>
      </trkpt>
      <trkpt lat="34.2981933196262" lon="108.71131976230592">
        <ele>390.8373826453462</ele>
        <time>2026-08-19T23:27:12Z</time>
      </trkpt>
      <trkpt lat="34.29814832436529" lon="108.71121867942607">
        <ele>389.2551265992224</ele>
        <time>2026-08-19T23:27:18Z</time>
      </trkpt>
      <trkpt lat="34.298146454402236" lon="108.711163820759">
        <ele>389.4668322764337</ele>
        <time>2026-08-19T23:27:21Z</time>
      </trkpt>
      <trkpt lat="34.29809103265204" lon="108.71103276283938">
        <ele>389.675387583673</ele>
        <time>2026-08-19T23:27:30Z</time>
      </trkpt>
      <trkpt lat="34.29804027736367" lon="108.71086258580739">
        <ele>390.1053539989516</ele>
        <time>2026-08-19T23:27:42Z</time>
      </trkpt>
      <trkpt lat="34.29804683920167" lon="108.71080894129423">
        <ele>389.6408469611779</ele>
        <time>2026-08-19T23:27:45Z</time>
      </trkpt>
      <trkpt lat="34.298030412730526" lon="108.71072130204274">
        <ele>389.7280976912007</ele>
        <time>2026-08-19T23:27:51Z</time>
      </trkpt>
      <trkpt lat="34.297993213440876" lon="108.71062930779462">
        <ele>389.27727248333395</ele>
        <time>2026-08-19T23:27:57Z</time>
      </trkpt>
      <trkpt lat="34.29798035361056" lon="108.71038522805367">
        <ele>389.4474164284766</ele>
        <time>2026-08-19T23:28:12Z</time>
      </trkpt>
      <trkpt lat="34.298030573647765" lon="108.71019942624247">
        <ele>389.8560559172183</ele>
        <time>2026-08-19T23:28:24Z</time>
      </trkpt>
      <trkpt lat="34.29795200113423" lon="108.71016983066163">
        <ele>390.42725684680045</ele>
        <time>2026-08-19T23:28:30Z</time>
      </trkpt>
      <trkpt lat="34.29777019291047" lon="108.71025431826091">
        <ele>388.00523100513965</ele>
        <time>2026-08-19T23:28:45Z</time>
      </trkpt>
      <trkpt lat="34.2977925891876" lon="108.71042640646213">
        <ele>386.5595811121166</ele>
        <time>2026-08-19T23:29:00Z</time>
      </trkpt>
      <trkpt lat="34.29764924917062" lon="108.71036018129038">
        <ele>392.6307601928711</ele>
        <time>2026-08-19T23:29:17Z</time>
      </trkpt>
      <trkpt lat="34.29760107808226" lon="108.7103044824472">
        <ele>393.6271595470607</ele>
        <time>2026-08-19T23:29:20Z</time>
      </trkpt>
      <trkpt lat="34.29760107808226" lon="108.7103044824472">
        <ele>393.6271595470607</ele>
        <time>2026-08-19T23:29:26Z</time>
      </trkpt>
    </trkseg>
  </trk>
</gpx>