<?xml version="1.0" encoding="UTF-8"?>
<gpx xmlns="http://www.topografix.com/GPX/1/1" xmlns:gpxtpx="http://www.garmin.com/xmlschemas/TrackPointExtension/v1" xmlns:xsi="http://www.w3.org/2001/XMLSchema-instance" xsi:schemaLocation="http://www.topografix.com/GPX/1/1 http://www.topografix.com/GPX/1/1/gpx.xsd" version="1.1" creator="gpx.py -- https://github.com/tkrajina/gpxpy">
  <trk>
    <name>gpx from keep</name>
    <type>Ride</type>
    <trkseg>
      <trkpt lat="34.30652625801431" lon="109.037033344553">
        <ele>392.2903041187674</ele>
        <time>2022-03-15T11:36:09Z</time>
      </trkpt>
      <trkpt lat="34.30655737181939" lon="109.03694799016826">
        <ele>392.29284271225333</ele>
        <time>2022-03-15T11:36:16Z</time>
      </trkpt>
      <trkpt lat="34.30656919909699" lon="109.03666024533766">
        <ele>391.9094163104892</ele>
        <time>2022-03-15T11:37:11Z</time>
      </trkpt>
      <trkpt lat="34.30653453869285" lon="109.03657626602039">
        <ele>391.5599633017555</ele>
        <time>2022-03-15T11:37:15Z</time>
      </trkpt>
      <trkpt lat="34.30652193340715" lon="109.03636886995017">
        <ele>391.42817985266447</ele>
        <time>2022-03-15T11:37:20Z</time>
      </trkpt>
      <trkpt lat="34.30656053593248" lon="109.03628257317688">
        <ele>391.48952595423907</ele>
        <time>2022-03-15T11:37:24Z</time>
      </trkpt>
      <trkpt lat="34.30650806293566" lon="109.03607224011334">
        <ele>392.0887334626168</ele>
        <time>2022-03-15T11:37:30Z</time>
      </trkpt>
      <trkpt lat="34.3064705397023" lon="109.03599405234573">
        <ele>392.4614686863497</ele>
        <time>2022-03-15T11:37:33Z</time>
      </trkpt>
      <trkpt lat="34.30641341959357" lon="109.03593848602694">
        <ele>392.10580058954656</ele>
        <time>2022-03-15T11:37:37Z</time>
      </trkpt>
      <trkpt lat="34.30636468347865" lon="109.03585991782026">
        <ele>392.61922296788543</ele>
        <time>2022-03-15T11:37:42Z</time>
      </trkpt>
      <trkpt lat="34.306342600666554" lon="109.03562843068525">
        <ele>392.22335053421557</ele>
        <time>2022-03-15T11:37:49Z</time>
      </trkpt>
      <trkpt lat="34.30630428212521" lon="109.03552768273885">
        <ele>392.84636698663235</ele>
        <time>2022-03-15T11:37:52Z</time>
      </trkpt>
      <trkpt lat="34.30629970312568" lon="109.03540260856145">
        <ele>393.0312954634428</ele>
        <time>2022-03-15T11:37:55Z</time>
      </trkpt>
      <trkpt lat="34.306397203085155" lon="109.03482932687955">
        <ele>392.69467977341264</ele>
        <time>2022-03-15T11:38:09Z</time>
      </trkpt>
      <trkpt lat="34.30639269278595" lon="109.03441236206915">
        <ele>392.6861298661679</ele>
        <time>2022-03-15T11:38:19Z</time>
      </trkpt>
      <trkpt lat="34.30634611323675" lon="109.03433707959576">
        <ele>392.42926249001175</ele>
        <time>2022-03-15T11:38:21Z</time>
      </trkpt>
      <trkpt lat="34.30630944176884" lon="109.03417003726774">
        <ele>392.4858375964686</ele>
        <time>2022-03-15T11:38:25Z</time>
      </trkpt>
      <trkpt lat="34.306267218467575" lon="109.03409717413449">
        <ele>392.39948790799826</ele>
        <time>2022-03-15T11:38:27Z</time>
      </trkpt>
      <trkpt lat="34.30618936380172" lon="109.03404689511386">
        <ele>391.80084101855755</ele>
        <time>2022-03-15T11:38:29Z</time>
      </trkpt>
      <trkpt lat="34.30612639392103" lon="109.0339711287015">
        <ele>392.13032926712185</ele>
        <time>2022-03-15T11:38:31Z</time>
      </trkpt>
      <trkpt lat="34.30609265604257" lon="109.03388508183833">
        <ele>392.45389628317207</ele>
        <time>2022-03-15T11:38:33Z</time>
      </trkpt>
      <trkpt lat="34.30617295466802" lon="109.03340456439695">
        <ele>391.5365578252822</ele>
        <time>2022-03-15T11:38:45Z</time>
      </trkpt>
      <trkpt lat="34.30613954637493" lon="109.0331927608775">
        <ele>391.5108998855576</ele>
        <time>2022-03-15T11:38:50Z</time>
      </trkpt>
      <trkpt lat="34.3061557617652" lon="109.03306929945292">
        <ele>392.24011213425547</ele>
        <time>2022-03-15T11:38:53Z</time>
      </trkpt>
      <trkpt lat="34.30612432732964" lon="109.03254174460791">
        <ele>393.0630344077945</ele>
        <time>2022-03-15T11:39:05Z</time>
      </trkpt>
      <trkpt lat="34.306172052066266" lon="109.03246581655267">
        <ele>393.2009437037632</ele>
        <time>2022-03-15T11:39:07Z</time>
      </trkpt>
      <trkpt lat="34.30628777011838" lon="109.03240140007829">
        <ele>393.4825342493132</ele>
        <time>2022-03-15T11:39:09Z</time>
      </trkpt>
      <trkpt lat="34.306541822870905" lon="109.03211778675713">
        <ele>393.1633313540369</ele>
        <time>2022-03-15T11:39:15Z</time>
      </trkpt>
      <trkpt lat="34.30670854258853" lon="109.03186432944146">
        <ele>391.85389267653227</ele>
        <time>2022-03-15T11:39:19Z</time>
      </trkpt>
      <trkpt lat="34.306713117593084" lon="109.03171826251365">
        <ele>391.3121678773314</ele>
        <time>2022-03-15T11:39:21Z</time>
      </trkpt>
      <trkpt lat="34.306691738431276" lon="109.0316087642682">
        <ele>391.0723243020475</ele>
        <time>2022-03-15T11:39:22Z</time>
      </trkpt>
      <trkpt lat="34.30671450225024" lon="109.03146838440138">
        <ele>391.5605211574584</ele>
        <time>2022-03-15T11:39:24Z</time>
      </trkpt>
      <trkpt lat="34.3067492427515" lon="109.03137095138494">
        <ele>391.4213128183037</ele>
        <time>2022-03-15T11:39:26Z</time>
      </trkpt>
      <trkpt lat="34.30693813303298" lon="109.031160283316">
        <ele>391.2379305996001</ele>
        <time>2022-03-15T11:39:32Z</time>
      </trkpt>
      <trkpt lat="34.307385911839916" lon="109.03092710309156">
        <ele>391.91222515515983</ele>
        <time>2022-03-15T11:39:42Z</time>
      </trkpt>
      <trkpt lat="34.307805507775036" lon="109.03075680144688">
        <ele>393.53099402971566</ele>
        <time>2022-03-15T11:39:52Z</time>
      </trkpt>
      <trkpt lat="34.308222986513925" lon="109.03068579039193">
        <ele>393.7079799203202</ele>
        <time>2022-03-15T11:40:01Z</time>
      </trkpt>
      <trkpt lat="34.30841131360127" lon="109.03068021789092">
        <ele>393.8621230814606</ele>
        <time>2022-03-15T11:40:05Z</time>
      </trkpt>
      <trkpt lat="34.30885010732344" lon="109.03059853115239">
        <ele>393.8488279283047</ele>
        <time>2022-03-15T11:40:15Z</time>
      </trkpt>
      <trkpt lat="34.30892965338369" lon="109.03056822276956">
        <ele>394.1809007320553</ele>
        <time>2022-03-15T11:40:17Z</time>
      </trkpt>
      <trkpt lat="34.30902906163538" lon="109.03055786130598">
        <ele>393.81813374813646</ele>
        <time>2022-03-15T11:40:19Z</time>
      </trkpt>
      <trkpt lat="34.30920015400658" lon="109.03050191553932">
        <ele>393.9152643745765</ele>
        <time>2022-03-15T11:40:23Z</time>
      </trkpt>
      <trkpt lat="34.309636014853496" lon="109.03025431986164">
        <ele>393.58053803723305</ele>
        <time>2022-03-15T11:40:33Z</time>
      </trkpt>
      <trkpt lat="34.309725159710595" lon="109.03019755281593">
        <ele>392.86611841246486</ele>
        <time>2022-03-15T11:40:35Z</time>
      </trkpt>
      <trkpt lat="34.30980480525017" lon="109.03011850149387">
        <ele>393.2976287091151</ele>
        <time>2022-03-15T11:40:37Z</time>
      </trkpt>
      <trkpt lat="34.309893288653" lon="109.03006125879284">
        <ele>392.93834968004376</ele>
        <time>2022-03-15T11:40:39Z</time>
      </trkpt>
      <trkpt lat="34.30995246592182" lon="109.02998573982093">
        <ele>393.2026075460017</ele>
        <time>2022-03-15T11:40:41Z</time>
      </trkpt>
      <trkpt lat="34.31011887258381" lon="109.02987011874394">
        <ele>392.3288881536573</ele>
        <time>2022-03-15T11:40:45Z</time>
      </trkpt>
      <trkpt lat="34.310421147367926" lon="109.02957181226506">
        <ele>391.83581271674484</ele>
        <time>2022-03-15T11:40:53Z</time>
      </trkpt>
      <trkpt lat="34.31083963711308" lon="109.02919762947471">
        <ele>391.04256514739245</ele>
        <time>2022-03-15T11:41:03Z</time>
      </trkpt>
      <trkpt lat="34.31099319540607" lon="109.02904563094">
        <ele>390.55683626327664</ele>
        <time>2022-03-15T11:41:07Z</time>
      </trkpt>
      <trkpt lat="34.31117980679045" lon="109.02877786506022">
        <ele>390.9971596188843</ele>
        <time>2022-03-15T11:41:13Z</time>
      </trkpt>
      <trkpt lat="34.31136554956762" lon="109.02828131402298">
        <ele>391.5620261449367</ele>
        <time>2022-03-15T11:41:23Z</time>
      </trkpt>
      <trkpt lat="34.31141602917928" lon="109.02807099008501">
        <ele>391.8252330292016</ele>
        <time>2022-03-15T11:41:27Z</time>
      </trkpt>
      <trkpt lat="34.31144442163665" lon="109.02753530955917">
        <ele>391.41602669656277</ele>
        <time>2022-03-15T11:41:36Z</time>
      </trkpt>
      <trkpt lat="34.311500066287145" lon="109.02723689348257">
        <ele>391.55254712328315</ele>
        <time>2022-03-15T11:41:41Z</time>
      </trkpt>
      <trkpt lat="34.3116135779134" lon="109.02693858053695">
        <ele>391.0127335358411</ele>
        <time>2022-03-15T11:41:46Z</time>
      </trkpt>
      <trkpt lat="34.31171559870491" lon="109.02677775394335">
        <ele>390.65144067350775</ele>
        <time>2022-03-15T11:41:49Z</time>
      </trkpt>
      <trkpt lat="34.3119192358576" lon="109.02656754292288">
        <ele>390.7359410803765</ele>
        <time>2022-03-15T11:41:54Z</time>
      </trkpt>
      <trkpt lat="34.312126882145094" lon="109.02641714421058">
        <ele>392.8332651220262</ele>
        <time>2022-03-15T11:41:59Z</time>
      </trkpt>
      <trkpt lat="34.312372082044675" lon="109.02618875805234">
        <ele>393.48542742431164</ele>
        <time>2022-03-15T11:42:06Z</time>
      </trkpt>
      <trkpt lat="34.31272173273812" lon="109.02596128030893">
        <ele>392.98245535511523</ele>
        <time>2022-03-15T11:42:13Z</time>
      </trkpt>
      <trkpt lat="34.31284786947037" lon="109.02578769889135">
        <ele>392.55622716713697</ele>
        <time>2022-03-15T11:42:17Z</time>
      </trkpt>
      <trkpt lat="34.31294168451883" lon="109.0257356767894">
        <ele>392.7159648993984</ele>
        <time>2022-03-15T11:42:19Z</time>
      </trkpt>
      <trkpt lat="34.313447743374574" lon="109.02561071905362">
        <ele>390.9151563933119</ele>
        <time>2022-03-15T11:42:29Z</time>
      </trkpt>
      <trkpt lat="34.31363237652646" lon="109.02552913064567">
        <ele>391.66219913214445</ele>
        <time>2022-03-15T11:42:33Z</time>
      </trkpt>
      <trkpt lat="34.31401285614596" lon="109.0254131344457">
        <ele>391.3969573145732</ele>
        <time>2022-03-15T11:42:41Z</time>
      </trkpt>
      <trkpt lat="34.31436826929226" lon="109.02522382863394">
        <ele>390.55663913860917</ele>
        <time>2022-03-15T11:42:49Z</time>
      </trkpt>
      <trkpt lat="34.31476148374729" lon="109.02491003459686">
        <ele>389.85741800908</ele>
        <time>2022-03-15T11:42:59Z</time>
      </trkpt>
      <trkpt lat="34.315175040454925" lon="109.02462011629268">
        <ele>390.14895979873836</ele>
        <time>2022-03-15T11:43:09Z</time>
      </trkpt>
      <trkpt lat="34.315529143499646" lon="109.02438343664075">
        <ele>390.2175045516342</ele>
        <time>2022-03-15T11:43:17Z</time>
      </trkpt>
      <trkpt lat="34.31572636973165" lon="109.02430091132526">
        <ele>389.67843741644174</ele>
        <time>2022-03-15T11:43:21Z</time>
      </trkpt>
      <trkpt lat="34.31614824067371" lon="109.0240952784043">
        <ele>389.58052166271955</ele>
        <time>2022-03-15T11:43:31Z</time>
      </trkpt>
      <trkpt lat="34.31629323372784" lon="109.02380845579012">
        <ele>389.9866067720577</ele>
        <time>2022-03-15T11:43:37Z</time>
      </trkpt>
      <trkpt lat="34.31631167882214" lon="109.02370516315364">
        <ele>389.7564514419064</ele>
        <time>2022-03-15T11:43:39Z</time>
      </trkpt>
      <trkpt lat="34.31626087511505" lon="109.0235036004385">
        <ele>389.5328088775277</ele>
        <time>2022-03-15T11:43:43Z</time>
      </trkpt>
      <trkpt lat="34.316028027630814" lon="109.02295645349552">
        <ele>387.5875319680199</ele>
        <time>2022-03-15T11:43:55Z</time>
      </trkpt>
      <trkpt lat="34.31582964755859" lon="109.02247184813922">
        <ele>389.00968162249774</ele>
        <time>2022-03-15T11:44:05Z</time>
      </trkpt>
      <trkpt lat="34.315803892066775" lon="109.02238563145033">
        <ele>389.1531592560932</ele>
        <time>2022-03-15T11:44:07Z</time>
      </trkpt>
      <trkpt lat="34.31575680153558" lon="109.02200837996965">
        <ele>390.7241603722796</ele>
        <time>2022-03-15T11:44:15Z</time>
      </trkpt>
      <trkpt lat="34.31577220974405" lon="109.02190179642669">
        <ele>390.94555578008294</ele>
        <time>2022-03-15T11:44:17Z</time>
      </trkpt>
      <trkpt lat="34.31588872234321" lon="109.02165029835605">
        <ele>392.5812450023368</ele>
        <time>2022-03-15T11:44:23Z</time>
      </trkpt>
      <trkpt lat="34.315842243646976" lon="109.02098809448805">
        <ele>395.1715010739863</ele>
        <time>2022-03-15T11:44:41Z</time>
      </trkpt>
      <trkpt lat="34.315833862865546" lon="109.02075710491835">
        <ele>395.4913502736017</ele>
        <time>2022-03-15T11:44:49Z</time>
      </trkpt>
      <trkpt lat="34.315774422082484" lon="109.02031938730157">
        <ele>396.7354502500966</ele>
        <time>2022-03-15T11:45:07Z</time>
      </trkpt>
      <trkpt lat="34.31582228562514" lon="109.01976570705821">
        <ele>398.9008737113327</ele>
        <time>2022-03-15T11:45:21Z</time>
      </trkpt>
      <trkpt lat="34.31581080148916" lon="109.01937283181752">
        <ele>400.20263396110386</ele>
        <time>2022-03-15T11:45:31Z</time>
      </trkpt>
      <trkpt lat="34.315826321774495" lon="109.01907677890802">
        <ele>400.97695316001773</ele>
        <time>2022-03-15T11:45:39Z</time>
      </trkpt>
      <trkpt lat="34.315792034308735" lon="109.01885453681625">
        <ele>402.1219420656562</ele>
        <time>2022-03-15T11:45:47Z</time>
      </trkpt>
      <trkpt lat="34.3157805273594" lon="109.01828681511678">
        <ele>403.13166947104037</ele>
        <time>2022-03-15T11:46:03Z</time>
      </trkpt>
      <trkpt lat="34.3157666245959" lon="109.01774607911638">
        <ele>404.869906921871</ele>
        <time>2022-03-15T11:46:19Z</time>
      </trkpt>
      <trkpt lat="34.31578947473741" lon="109.01760409342033">
        <ele>405.1391246318817</ele>
        <time>2022-03-15T11:46:23Z</time>
      </trkpt>
      <trkpt lat="34.3157864325314" lon="109.0173408043798">
        <ele>405.3251540409401</ele>
        <time>2022-03-15T11:46:31Z</time>
      </trkpt>
      <trkpt lat="34.31574157181432" lon="109.01688089895246">
        <ele>406.049908682704</ele>
        <time>2022-03-15T11:46:41Z</time>
      </trkpt>
      <trkpt lat="34.31574078957015" lon="109.01668755549659">
        <ele>407.2607860425487</ele>
        <time>2022-03-15T11:46:45Z</time>
      </trkpt>
      <trkpt lat="34.315719254719724" lon="109.01659064102121">
        <ele>407.4741902491078</ele>
        <time>2022-03-15T11:46:47Z</time>
      </trkpt>
      <trkpt lat="34.315716799115975" lon="109.01602823007303">
        <ele>408.7435832209885</ele>
        <time>2022-03-15T11:46:57Z</time>
      </trkpt>
      <trkpt lat="34.315723256040314" lon="109.01550825526375">
        <ele>408.7065088180825</ele>
        <time>2022-03-15T11:47:09Z</time>
      </trkpt>
      <trkpt lat="34.31569856418993" lon="109.01516849199943">
        <ele>409.0489872004837</ele>
        <time>2022-03-15T11:47:17Z</time>
      </trkpt>
      <trkpt lat="34.315712862082904" lon="109.01501295188379">
        <ele>408.54322663135827</ele>
        <time>2022-03-15T11:47:21Z</time>
      </trkpt>
      <trkpt lat="34.31568250735593" lon="109.01468970741313">
        <ele>408.86003522388637</ele>
        <time>2022-03-15T11:47:29Z</time>
      </trkpt>
      <trkpt lat="34.31572675577649" lon="109.01429283392665">
        <ele>409.0625632693991</ele>
        <time>2022-03-15T11:47:37Z</time>
      </trkpt>
      <trkpt lat="34.315736730541126" lon="109.01401307644569">
        <ele>408.76195792574435</ele>
        <time>2022-03-15T11:47:43Z</time>
      </trkpt>
      <trkpt lat="34.31570415216594" lon="109.01393030515582">
        <ele>408.58862278982997</ele>
        <time>2022-03-15T11:47:45Z</time>
      </trkpt>
      <trkpt lat="34.31567633347476" lon="109.01358748947061">
        <ele>408.1413176236674</ele>
        <time>2022-03-15T11:47:53Z</time>
      </trkpt>
      <trkpt lat="34.31568436520174" lon="109.01343886121923">
        <ele>408.34259024169296</ele>
        <time>2022-03-15T11:47:57Z</time>
      </trkpt>
      <trkpt lat="34.31581294690944" lon="109.0129184035981">
        <ele>408.7085150377825</ele>
        <time>2022-03-15T11:48:07Z</time>
      </trkpt>
      <trkpt lat="34.315871258556726" lon="109.01267092092051">
        <ele>409.25844129547477</ele>
        <time>2022-03-15T11:48:11Z</time>
      </trkpt>
      <trkpt lat="34.31588248895509" lon="109.01238709131556">
        <ele>409.2530827485025</ele>
        <time>2022-03-15T11:48:15Z</time>
      </trkpt>
      <trkpt lat="34.31583579200951" lon="109.01216275199111">
        <ele>409.3424563454464</ele>
        <time>2022-03-15T11:48:19Z</time>
      </trkpt>
      <trkpt lat="34.315802116489145" lon="109.01159706882994">
        <ele>408.8529526181519</ele>
        <time>2022-03-15T11:48:27Z</time>
      </trkpt>
      <trkpt lat="34.31577772799763" lon="109.01120473291033">
        <ele>408.99878928717226</ele>
        <time>2022-03-15T11:48:35Z</time>
      </trkpt>
      <trkpt lat="34.31580251567366" lon="109.01073076957148">
        <ele>408.6675542993471</ele>
        <time>2022-03-15T11:48:41Z</time>
      </trkpt>
      <trkpt lat="34.315786055377615" lon="109.0106170797263">
        <ele>408.43064784351736</ele>
        <time>2022-03-15T11:48:43Z</time>
      </trkpt>
      <trkpt lat="34.31581498439453" lon="109.01017377699235">
        <ele>408.65989418514073</ele>
        <time>2022-03-15T11:48:49Z</time>
      </trkpt>
      <trkpt lat="34.31581042430208" lon="109.01005905343533">
        <ele>408.49370855651796</ele>
        <time>2022-03-15T11:48:51Z</time>
      </trkpt>
      <trkpt lat="34.315868647993724" lon="109.00992547543169">
        <ele>409.0278080701828</ele>
        <time>2022-03-15T11:48:53Z</time>
      </trkpt>
      <trkpt lat="34.3159639684602" lon="109.0098190334552">
        <ele>408.07192450389266</ele>
        <time>2022-03-15T11:48:55Z</time>
      </trkpt>
      <trkpt lat="34.316320929127755" lon="109.00970268936906">
        <ele>407.6377948373556</ele>
        <time>2022-03-15T11:49:03Z</time>
      </trkpt>
      <trkpt lat="34.31642985347523" lon="109.00970614957778">
        <ele>408.11290122009814</ele>
        <time>2022-03-15T11:49:05Z</time>
      </trkpt>
      <trkpt lat="34.3166697578849" lon="109.0096370886168">
        <ele>407.8137856386602</ele>
        <time>2022-03-15T11:49:11Z</time>
      </trkpt>
      <trkpt lat="34.317007624971204" lon="109.00959766714621">
        <ele>407.75968647841364</ele>
        <time>2022-03-15T11:49:19Z</time>
      </trkpt>
      <trkpt lat="34.31743368563845" lon="109.0095947195266">
        <ele>408.2006546203047</ele>
        <time>2022-03-15T11:49:29Z</time>
      </trkpt>
      <trkpt lat="34.31788464949512" lon="109.00957300876613">
        <ele>408.7542233252898</ele>
        <time>2022-03-15T11:49:39Z</time>
      </trkpt>
      <trkpt lat="34.318414255022645" lon="109.0095741881908">
        <ele>408.28194646257907</ele>
        <time>2022-03-15T11:49:49Z</time>
      </trkpt>
      <trkpt lat="34.31884092128649" lon="109.00955772018307">
        <ele>408.1761272549629</ele>
        <time>2022-03-15T11:49:57Z</time>
      </trkpt>
      <trkpt lat="34.319051415933735" lon="109.0095781923135">
        <ele>407.2941034352407</ele>
        <time>2022-03-15T11:50:01Z</time>
      </trkpt>
      <trkpt lat="34.319276907231796" lon="109.00957448729156">
        <ele>408.2402283642441</ele>
        <time>2022-03-15T11:50:05Z</time>
      </trkpt>
      <trkpt lat="34.319410838021604" lon="109.00955434549682">
        <ele>407.2168155061081</ele>
        <time>2022-03-15T11:50:07Z</time>
      </trkpt>
      <trkpt lat="34.31953553384317" lon="109.00957557851434">
        <ele>407.19458613265306</ele>
        <time>2022-03-15T11:50:09Z</time>
      </trkpt>
      <trkpt lat="34.31988638075974" lon="109.00953062523159">
        <ele>406.16388355754316</ele>
        <time>2022-03-15T11:50:15Z</time>
      </trkpt>
      <trkpt lat="34.320266189201135" lon="109.00955874915671">
        <ele>404.7602741373703</ele>
        <time>2022-03-15T11:50:21Z</time>
      </trkpt>
      <trkpt lat="34.32072452993655" lon="109.00952502834592">
        <ele>403.3169029634446</ele>
        <time>2022-03-15T11:50:29Z</time>
      </trkpt>
      <trkpt lat="34.32083090291818" lon="109.00953300662036">
        <ele>403.2338975891471</ele>
        <time>2022-03-15T11:50:31Z</time>
      </trkpt>
      <trkpt lat="34.320938552411185" lon="109.00959288752216">
        <ele>403.24909365270287</ele>
        <time>2022-03-15T11:50:33Z</time>
      </trkpt>
      <trkpt lat="34.321167295536476" lon="109.00959471933193">
        <ele>402.39367998670787</ele>
        <time>2022-03-15T11:50:37Z</time>
      </trkpt>
      <trkpt lat="34.32128583641879" lon="109.00957143965842">
        <ele>401.6887799175456</ele>
        <time>2022-03-15T11:50:39Z</time>
      </trkpt>
      <trkpt lat="34.32176604092811" lon="109.0095581762473">
        <ele>400.7603207407519</ele>
        <time>2022-03-15T11:50:47Z</time>
      </trkpt>
      <trkpt lat="34.32188920689583" lon="109.00953283511339">
        <ele>400.60559236444533</ele>
        <time>2022-03-15T11:50:49Z</time>
      </trkpt>
      <trkpt lat="34.32240128274667" lon="109.00952629764194">
        <ele>398.93598883599043</ele>
        <time>2022-03-15T11:50:57Z</time>
      </trkpt>
      <trkpt lat="34.322854814632485" lon="109.00945232129128">
        <ele>398.5822282657027</ele>
        <time>2022-03-15T11:51:04Z</time>
      </trkpt>
      <trkpt lat="34.323253177278254" lon="109.00939626711705">
        <ele>397.38137142919004</ele>
        <time>2022-03-15T11:51:10Z</time>
      </trkpt>
      <trkpt lat="34.32379333544304" lon="109.00933793169892">
        <ele>396.11100390087813</ele>
        <time>2022-03-15T11:51:18Z</time>
      </trkpt>
      <trkpt lat="34.32425753772784" lon="109.00923494194672">
        <ele>395.72131682932377</ele>
        <time>2022-03-15T11:51:26Z</time>
      </trkpt>
      <trkpt lat="34.32462138173943" lon="109.00911900507937">
        <ele>395.55543243605644</ele>
        <time>2022-03-15T11:51:34Z</time>
      </trkpt>
      <trkpt lat="34.32476815980412" lon="109.00902850199007">
        <ele>394.7758624749258</ele>
        <time>2022-03-15T11:51:38Z</time>
      </trkpt>
      <trkpt lat="34.32519836424722" lon="109.00881914473123">
        <ele>395.1623290479183</ele>
        <time>2022-03-15T11:51:48Z</time>
      </trkpt>
      <trkpt lat="34.32564527496235" lon="109.00857944675991">
        <ele>395.22663325071335</ele>
        <time>2022-03-15T11:51:58Z</time>
      </trkpt>
      <trkpt lat="34.32610005652473" lon="109.00829959431398">
        <ele>394.7559810113162</ele>
        <time>2022-03-15T11:52:08Z</time>
      </trkpt>
      <trkpt lat="34.32636113594245" lon="109.00812942350973">
        <ele>394.1371810538694</ele>
        <time>2022-03-15T11:52:14Z</time>
      </trkpt>
      <trkpt lat="34.32683027203722" lon="109.00784965607453">
        <ele>394.7385051595047</ele>
        <time>2022-03-15T11:52:24Z</time>
      </trkpt>
      <trkpt lat="34.327245226011634" lon="109.00753664707098">
        <ele>393.608156086877</ele>
        <time>2022-03-15T11:52:34Z</time>
      </trkpt>
      <trkpt lat="34.32757717726482" lon="109.00726702671163">
        <ele>393.9825060982257</ele>
        <time>2022-03-15T11:52:43Z</time>
      </trkpt>
      <trkpt lat="34.3278852324292" lon="109.00712429533667">
        <ele>393.77598746307194</ele>
        <time>2022-03-15T11:52:51Z</time>
      </trkpt>
      <trkpt lat="34.32795805023492" lon="109.00710865132271">
        <ele>394.024734146893</ele>
        <time>2022-03-15T11:52:53Z</time>
      </trkpt>
      <trkpt lat="34.32805076941828" lon="109.00702789730538">
        <ele>394.05119114741683</ele>
        <time>2022-03-15T11:52:57Z</time>
      </trkpt>
      <trkpt lat="34.32807977972548" lon="109.00704840647485">
        <ele>393.69672133680433</ele>
        <time>2022-03-15T11:53:05Z</time>
      </trkpt>
      <trkpt lat="34.32811930303972" lon="109.00688416833256">
        <ele>393.4971007509157</ele>
        <time>2022-03-15T11:54:11Z</time>
      </trkpt>
      <trkpt lat="34.32808748898076" lon="109.00657984310571">
        <ele>393.82607328053564</ele>
        <time>2022-03-15T11:54:17Z</time>
      </trkpt>
      <trkpt lat="34.32806197653271" lon="109.00648098046267">
        <ele>394.60547039471567</ele>
        <time>2022-03-15T11:54:19Z</time>
      </trkpt>
      <trkpt lat="34.328052691676035" lon="109.00636583960424">
        <ele>394.14819001127034</ele>
        <time>2022-03-15T11:54:21Z</time>
      </trkpt>
      <trkpt lat="34.32806168188203" lon="109.00627982607422">
        <ele>394.49548615980893</ele>
        <time>2022-03-15T11:54:23Z</time>
      </trkpt>
      <trkpt lat="34.32801764556115" lon="109.00572445647094">
        <ele>394.54126649256796</ele>
        <time>2022-03-15T11:54:35Z</time>
      </trkpt>
      <trkpt lat="34.32787261033891" lon="109.00510406932547">
        <ele>393.9938510041684</ele>
        <time>2022-03-15T11:54:47Z</time>
      </trkpt>
      <trkpt lat="34.327841119007665" lon="109.00491344576496">
        <ele>394.698884062469</ele>
        <time>2022-03-15T11:54:51Z</time>
      </trkpt>
      <trkpt lat="34.327858346257486" lon="109.00478778441129">
        <ele>394.5612220931798</ele>
        <time>2022-03-15T11:54:53Z</time>
      </trkpt>
      <trkpt lat="34.3278299043557" lon="109.00468604480568">
        <ele>394.8037191769108</ele>
        <time>2022-03-15T11:54:55Z</time>
      </trkpt>
      <trkpt lat="34.327866140840094" lon="109.00410715793718">
        <ele>395.27425155974925</ele>
        <time>2022-03-15T11:55:05Z</time>
      </trkpt>
      <trkpt lat="34.327880115990205" lon="109.00400649375639">
        <ele>395.3892701752484</ele>
        <time>2022-03-15T11:55:07Z</time>
      </trkpt>
      <trkpt lat="34.32786776758682" lon="109.00342898752248">
        <ele>396.1073449049145</ele>
        <time>2022-03-15T11:55:17Z</time>
      </trkpt>
      <trkpt lat="34.32784024131371" lon="109.00330087638523">
        <ele>395.26936470903456</ele>
        <time>2022-03-15T11:55:19Z</time>
      </trkpt>
      <trkpt lat="34.32779337376281" lon="109.00277406940508">
        <ele>395.39233167283237</ele>
        <time>2022-03-15T11:55:27Z</time>
      </trkpt>
      <trkpt lat="34.32778229009745" lon="109.00218717202794">
        <ele>395.1624477962032</ele>
        <time>2022-03-15T11:55:37Z</time>
      </trkpt>
      <trkpt lat="34.32777417396992" lon="109.00206991466395">
        <ele>395.4782676259056</ele>
        <time>2022-03-15T11:55:39Z</time>
      </trkpt>
      <trkpt lat="34.3277557769803" lon="109.00157822504129">
        <ele>395.729911330156</ele>
        <time>2022-03-15T11:55:47Z</time>
      </trkpt>
      <trkpt lat="34.32771166307807" lon="109.0013370952817">
        <ele>395.60038780700415</ele>
        <time>2022-03-15T11:55:51Z</time>
      </trkpt>
      <trkpt lat="34.3277378629642" lon="109.0008603927552">
        <ele>395.98487493302673</ele>
        <time>2022-03-15T11:55:59Z</time>
      </trkpt>
      <trkpt lat="34.327785445502975" lon="109.00043920184466">
        <ele>395.17270966246724</ele>
        <time>2022-03-15T11:56:06Z</time>
      </trkpt>
      <trkpt lat="34.327775197331455" lon="109.00021092654532">
        <ele>395.67013342119753</ele>
        <time>2022-03-15T11:56:10Z</time>
      </trkpt>
      <trkpt lat="34.32779316121196" lon="109.00008906027132">
        <ele>395.27129223942757</ele>
        <time>2022-03-15T11:56:12Z</time>
      </trkpt>
      <trkpt lat="34.32778983836342" lon="108.99999218570693">
        <ele>395.6143671674654</ele>
        <time>2022-03-15T11:56:14Z</time>
      </trkpt>
      <trkpt lat="34.32783070867598" lon="108.99977698928171">
        <ele>396.07900559157133</ele>
        <time>2022-03-15T11:56:18Z</time>
      </trkpt>
      <trkpt lat="34.327850645209516" lon="108.99930940319574">
        <ele>395.4575356980786</ele>
        <time>2022-03-15T11:56:26Z</time>
      </trkpt>
      <trkpt lat="34.32783146436424" lon="108.99920249494224">
        <ele>396.01912528835237</ele>
        <time>2022-03-15T11:56:28Z</time>
      </trkpt>
      <trkpt lat="34.3277888037295" lon="108.99907954443458">
        <ele>395.27791985310614</ele>
        <time>2022-03-15T11:56:30Z</time>
      </trkpt>
      <trkpt lat="34.32776640752188" lon="108.99883069399567">
        <ele>395.2764754835516</ele>
        <time>2022-03-15T11:56:34Z</time>
      </trkpt>
      <trkpt lat="34.32773999786235" lon="108.99872011441994">
        <ele>395.28347215242684</ele>
        <time>2022-03-15T11:56:36Z</time>
      </trkpt>
      <trkpt lat="34.327712283621544" lon="108.99836702174409">
        <ele>394.57056835945696</ele>
        <time>2022-03-15T11:56:42Z</time>
      </trkpt>
      <trkpt lat="34.327774102250366" lon="108.99768683723167">
        <ele>394.9446752332151</ele>
        <time>2022-03-15T11:56:53Z</time>
      </trkpt>
      <trkpt lat="34.327788325993886" lon="108.9973368604183">
        <ele>395.17148491274565</ele>
        <time>2022-03-15T11:56:59Z</time>
      </trkpt>
      <trkpt lat="34.32788832822847" lon="108.99676450073879">
        <ele>396.0938716046512</ele>
        <time>2022-03-15T11:57:07Z</time>
      </trkpt>
      <trkpt lat="34.32793087324995" lon="108.99616468919923">
        <ele>394.9847122486681</ele>
        <time>2022-03-15T11:57:17Z</time>
      </trkpt>
      <trkpt lat="34.3279595125139" lon="108.99560416882598">
        <ele>394.05358950048685</ele>
        <time>2022-03-15T11:57:29Z</time>
      </trkpt>
      <trkpt lat="34.327936485630694" lon="108.99551896052904">
        <ele>394.55846220534295</ele>
        <time>2022-03-15T11:57:31Z</time>
      </trkpt>
      <trkpt lat="34.32793162085604" lon="108.99516336501758">
        <ele>395.5271422956139</ele>
        <time>2022-03-15T11:57:37Z</time>
      </trkpt>
      <trkpt lat="34.32794791611436" lon="108.99501808254695">
        <ele>395.1234655166045</ele>
        <time>2022-03-15T11:57:39Z</time>
      </trkpt>
      <trkpt lat="34.32795766618001" lon="108.99442968265836">
        <ele>395.3421760359779</ele>
        <time>2022-03-15T11:57:49Z</time>
      </trkpt>
      <trkpt lat="34.32794892236645" lon="108.99385020810192">
        <ele>394.31116324383765</ele>
        <time>2022-03-15T11:57:59Z</time>
      </trkpt>
      <trkpt lat="34.327926534372274" lon="108.99361664378056">
        <ele>394.8001439003274</ele>
        <time>2022-03-15T11:58:03Z</time>
      </trkpt>
      <trkpt lat="34.327910422183834" lon="108.9929402055658">
        <ele>395.57486702129245</ele>
        <time>2022-03-15T11:58:14Z</time>
      </trkpt>
      <trkpt lat="34.327923783235114" lon="108.99234096692838">
        <ele>394.31907769758254</ele>
        <time>2022-03-15T11:58:24Z</time>
      </trkpt>
      <trkpt lat="34.32795457670949" lon="108.99175877640869">
        <ele>393.57386230677366</ele>
        <time>2022-03-15T11:58:34Z</time>
      </trkpt>
      <trkpt lat="34.327984941866916" lon="108.99131269006463">
        <ele>393.5815098788589</ele>
        <time>2022-03-15T11:58:44Z</time>
      </trkpt>
      <trkpt lat="34.32803454139403" lon="108.99119705200167">
        <ele>393.28540733922273</ele>
        <time>2022-03-15T11:58:48Z</time>
      </trkpt>
      <trkpt lat="34.328036379496844" lon="108.99113170834303">
        <ele>392.3395315306261</ele>
        <time>2022-03-15T11:59:01Z</time>
      </trkpt>
      <trkpt lat="34.32803289415374" lon="108.99089998564321">
        <ele>391.7616584766656</ele>
        <time>2022-03-15T11:59:10Z</time>
      </trkpt>
      <trkpt lat="34.32797689044573" lon="108.99042549133561">
        <ele>391.83048111665994</ele>
        <time>2022-03-15T11:59:21Z</time>
      </trkpt>
      <trkpt lat="34.32797511480253" lon="108.9901719379819">
        <ele>392.359418108128</ele>
        <time>2022-03-15T11:59:25Z</time>
      </trkpt>
      <trkpt lat="34.32792101182428" lon="108.98955404880314">
        <ele>392.68516928050667</ele>
        <time>2022-03-15T11:59:35Z</time>
      </trkpt>
      <trkpt lat="34.32792546893955" lon="108.98944405367554">
        <ele>392.330592229031</ele>
        <time>2022-03-15T11:59:37Z</time>
      </trkpt>
      <trkpt lat="34.32796142138278" lon="108.98928291002211">
        <ele>393.73586916178465</ele>
        <time>2022-03-15T11:59:41Z</time>
      </trkpt>
      <trkpt lat="34.32791851092413" lon="108.98896774859755">
        <ele>393.908717809245</ele>
        <time>2022-03-15T11:59:47Z</time>
      </trkpt>
      <trkpt lat="34.327781177896135" lon="108.98868208296722">
        <ele>393.13436597865075</ele>
        <time>2022-03-15T11:59:51Z</time>
      </trkpt>
      <trkpt lat="34.327763669885755" lon="108.98854275640254">
        <ele>393.10566867887974</ele>
        <time>2022-03-15T11:59:53Z</time>
      </trkpt>
      <trkpt lat="34.327769956648936" lon="108.98830697888631">
        <ele>394.01444799639285</ele>
        <time>2022-03-15T11:59:57Z</time>
      </trkpt>
      <trkpt lat="34.327825494162" lon="108.98809217371078">
        <ele>395.2684537861496</ele>
        <time>2022-03-15T12:00:01Z</time>
      </trkpt>
      <trkpt lat="34.32785085965443" lon="108.98776149815188">
        <ele>395.1203070767224</ele>
        <time>2022-03-15T12:00:07Z</time>
      </trkpt>
      <trkpt lat="34.32781147195728" lon="108.9874284433721">
        <ele>395.31173585820943</ele>
        <time>2022-03-15T12:00:13Z</time>
      </trkpt>
      <trkpt lat="34.327787784630225" lon="108.98732899649286">
        <ele>395.16033521294594</ele>
        <time>2022-03-15T12:00:15Z</time>
      </trkpt>
      <trkpt lat="34.32777929752137" lon="108.98711449348343">
        <ele>396.54073157161474</ele>
        <time>2022-03-15T12:00:19Z</time>
      </trkpt>
      <trkpt lat="34.327846970569254" lon="108.9865364598299">
        <ele>395.59947329666466</ele>
        <time>2022-03-15T12:00:29Z</time>
      </trkpt>
      <trkpt lat="34.32783774535341" lon="108.98641900105476">
        <ele>394.61522328760475</ele>
        <time>2022-03-15T12:00:31Z</time>
      </trkpt>
      <trkpt lat="34.32778205838473" lon="108.98595912767101">
        <ele>393.5990586755797</ele>
        <time>2022-03-15T12:00:39Z</time>
      </trkpt>
      <trkpt lat="34.327810658277286" lon="108.9856165762362">
        <ele>393.3911494715139</ele>
        <time>2022-03-15T12:00:45Z</time>
      </trkpt>
      <trkpt lat="34.3278535206363" lon="108.98514887860034">
        <ele>392.26367386616766</ele>
        <time>2022-03-15T12:00:53Z</time>
      </trkpt>
      <trkpt lat="34.327855337458104" lon="108.98482356898829">
        <ele>392.2572965994477</ele>
        <time>2022-03-15T12:00:59Z</time>
      </trkpt>
      <trkpt lat="34.32786778989377" lon="108.98472618419655">
        <ele>392.35327996872365</ele>
        <time>2022-03-15T12:01:01Z</time>
      </trkpt>
      <trkpt lat="34.32796180698048" lon="108.98452726181347">
        <ele>392.2725040614605</ele>
        <time>2022-03-15T12:01:15Z</time>
      </trkpt>
      <trkpt lat="34.32809564814924" lon="108.98430420192057">
        <ele>392.6246005501598</ele>
        <time>2022-03-15T12:01:58Z</time>
      </trkpt>
      <trkpt lat="34.3280536327718" lon="108.98384880490923">
        <ele>391.8299680352211</ele>
        <time>2022-03-15T12:02:08Z</time>
      </trkpt>
      <trkpt lat="34.328057256791055" lon="108.98318794473997">
        <ele>393.84978183265775</ele>
        <time>2022-03-15T12:02:24Z</time>
      </trkpt>
      <trkpt lat="34.32806086678514" lon="108.98279458251977">
        <ele>394.2553265299648</ele>
        <time>2022-03-15T12:02:34Z</time>
      </trkpt>
      <trkpt lat="34.32803064674643" lon="108.98259960875211">
        <ele>394.16562799271196</ele>
        <time>2022-03-15T12:02:38Z</time>
      </trkpt>
      <trkpt lat="34.32799544945052" lon="108.98200385574707">
        <ele>394.75918952189386</ele>
        <time>2022-03-15T12:02:52Z</time>
      </trkpt>
      <trkpt lat="34.327968169200716" lon="108.9818517932427">
        <ele>394.8777683582157</ele>
        <time>2022-03-15T12:02:58Z</time>
      </trkpt>
      <trkpt lat="34.32795638420366" lon="108.98151305621249">
        <ele>394.68437389750034</ele>
        <time>2022-03-15T12:03:06Z</time>
      </trkpt>
      <trkpt lat="34.3279919015121" lon="108.98140937715048">
        <ele>395.45029332954437</ele>
        <time>2022-03-15T12:03:09Z</time>
      </trkpt>
      <trkpt lat="34.32796409093844" lon="108.9813191171934">
        <ele>395.22269413340837</ele>
        <time>2022-03-15T12:03:13Z</time>
      </trkpt>
      <trkpt lat="34.32797749295814" lon="108.98122683475516">
        <ele>395.0047908630222</ele>
        <time>2022-03-15T12:03:19Z</time>
      </trkpt>
      <trkpt lat="34.32797749295814" lon="108.98122683475516">
        <ele>395.0047908630222</ele>
        <time>2022-03-15T12:03:23Z</time>
      </trkpt>
      <trkpt lat="34.32814155607058" lon="108.98100972813994">
        <ele>394.4574999306351</ele>
        <time>2022-03-15T12:03:42Z</time>
      </trkpt>
      <trkpt lat="34.32814393796629" lon="108.98081391315444">
        <ele>394.631094426848</ele>
        <time>2022-03-15T12:03:54Z</time>
      </trkpt>
      <trkpt lat="34.3282121886424" lon="108.98077081906001">
        <ele>394.1634475616738</ele>
        <time>2022-03-15T12:04:00Z</time>
      </trkpt>
      <trkpt lat="34.3283744110961" lon="108.98075563205019">
        <ele>394.5912795998156</ele>
        <time>2022-03-15T12:04:14Z</time>
      </trkpt>
      <trkpt lat="34.328591174227654" lon="108.98084634657262">
        <ele>395.4152491930872</ele>
        <time>2022-03-15T12:04:34Z</time>
      </trkpt>
      <trkpt lat="34.32858960887778" lon="108.98093705891328">
        <ele>395.15443514753133</ele>
        <time>2022-03-15T12:04:40Z</time>
      </trkpt>
      <trkpt lat="34.328556991935024" lon="108.98107210991282">
        <ele>394.94149908889085</ele>
        <time>2022-03-15T12:05:00Z</time>
      </trkpt>
      <trkpt lat="34.32858535612617" lon="108.98093721891206">
        <ele>394.8095380375162</ele>
        <time>2022-03-15T12:05:18Z</time>
      </trkpt>
      <trkpt lat="34.32854936872456" lon="108.98075240166202">
        <ele>395.24712230078876</ele>
        <time>2022-03-15T12:05:31Z</time>
      </trkpt>
      <trkpt lat="34.32854921314568" lon="108.98055152718558">
        <ele>395.4887940976769</ele>
        <time>2022-03-15T12:05:43Z</time>
      </trkpt>
    </trkseg>
  </trk>
</gpx>