<?xml version="1.0" encoding="UTF-8"?>
<gpx xmlns="http://www.topografix.com/GPX/1/1" xmlns:gpxtpx="http://www.garmin.com/xmlschemas/TrackPointExtension/v1" xmlns:xsi="http://www.w3.org/2001/XMLSchema-instance" xsi:schemaLocation="http://www.topografix.com/GPX/1/1 http://www.topografix.com/GPX/1/1/gpx.xsd" version="1.1" creator="gpx.py -- https://github.com/tkrajina/gpxpy">
  <trk>
    <name>gpx from keep</name>
    <type>Run</type>
    <trkseg>
      <trkpt lat="34.29742323268411" lon="108.71044896812009">
        <ele>393.0309214000199</ele>
        <time>2026-09-29T23:06:48Z</time>
      </trkpt>
      <trkpt lat="34.297536359731644" lon="108.71044909318273">
        <ele>392.61796016877383</ele>
        <time>2026-09-29T23:06:55Z</time>
      </trkpt>
      <trkpt lat="34.29764839593997" lon="108.71036624101248">
        <ele>393.03709082198327</ele>
        <time>2026-09-29T23:07:01Z</time>
      </trkpt>
      <trkpt lat="34.29764121836228" lon="108.71052911265039">
        <ele>393.1941899554816</ele>
        <time>2026-09-29T23:07:18Z</time>
      </trkpt>
      <trkpt lat="34.29764915552273" lon="108.71045760393532">
        <ele>393.96319094694286</ele>
        <time>2026-09-29T23:07:38Z</time>
      </trkpt>
      <trkpt lat="34.29745544204488" lon="108.71055324508652">
        <ele>387.2866439819336</ele>
        <time>2026-09-29T23:07:48Z</time>
      </trkpt>
      <trkpt lat="34.2977192118104" lon="108.71048215595734">
        <ele>386.8663558959961</ele>
        <time>2026-09-29T23:07:51Z</time>
      </trkpt>
      <trkpt lat="34.297721360829456" lon="108.71028873316516">
        <ele>388.10866555571556</ele>
        <time>2026-09-29T23:08:00Z</time>
      </trkpt>
      <trkpt lat="34.297741069315414" lon="108.71023147553537">
        <ele>388.9953843941912</ele>
        <time>2026-09-29T23:08:03Z</time>
      </trkpt>
      <trkpt lat="34.29786498449305" lon="108.71021608559384">
        <ele>391.97603649739176</ele>
        <time>2026-09-29T23:08:09Z</time>
      </trkpt>
      <trkpt lat="34.297942915298925" lon="108.71017002260913">
        <ele>394.6917347712442</ele>
        <time>2026-09-29T23:08:12Z</time>
      </trkpt>
      <trkpt lat="34.29799283576338" lon="108.71016658102371">
        <ele>393.8318102126941</ele>
        <time>2026-09-29T23:08:15Z</time>
      </trkpt>
      <trkpt lat="34.29801754855624" lon="108.71040061012256">
        <ele>388.29078677110374</ele>
        <time>2026-09-29T23:08:21Z</time>
      </trkpt>
      <trkpt lat="34.298064578850045" lon="108.71054326578565">
        <ele>389.00761085469276</ele>
        <time>2026-09-29T23:08:27Z</time>
      </trkpt>
      <trkpt lat="34.29806391814962" lon="108.71063117722458">
        <ele>388.1165286321193</ele>
        <time>2026-09-29T23:08:30Z</time>
      </trkpt>
      <trkpt lat="34.298039562801854" lon="108.71071178710591">
        <ele>389.42402823641896</ele>
        <time>2026-09-29T23:08:33Z</time>
      </trkpt>
      <trkpt lat="34.29810814811045" lon="108.71084883325118">
        <ele>388.67939240671694</ele>
        <time>2026-09-29T23:08:39Z</time>
      </trkpt>
      <trkpt lat="34.298125776049254" lon="108.71108167896593">
        <ele>389.14176320657134</ele>
        <time>2026-09-29T23:08:48Z</time>
      </trkpt>
      <trkpt lat="34.29815396578523" lon="108.71115568544738">
        <ele>389.86588195338845</ele>
        <time>2026-09-29T23:08:51Z</time>
      </trkpt>
      <trkpt lat="34.29817234917059" lon="108.71136877213134">
        <ele>389.6903742980212</ele>
        <time>2026-09-29T23:09:00Z</time>
      </trkpt>
      <trkpt lat="34.297941525931634" lon="108.71146075472106">
        <ele>388.9645353881642</ele>
        <time>2026-09-29T23:09:12Z</time>
      </trkpt>
      <trkpt lat="34.29788772989722" lon="108.71149782703083">
        <ele>388.80986476596445</ele>
        <time>2026-09-29T23:09:15Z</time>
      </trkpt>
      <trkpt lat="34.297748251993696" lon="108.71151830164561">
        <ele>388.7849566480145</ele>
        <time>2026-09-29T23:09:21Z</time>
      </trkpt>
      <trkpt lat="34.29756723142726" lon="108.71160224270446">
        <ele>389.25947521533817</ele>
        <time>2026-09-29T23:09:30Z</time>
      </trkpt>
      <trkpt lat="34.29751638710191" lon="108.71165016732532">
        <ele>389.4450842468068</ele>
        <time>2026-09-29T23:09:33Z</time>
      </trkpt>
      <trkpt lat="34.297238007749684" lon="108.7117421741295">
        <ele>388.6673973063007</ele>
        <time>2026-09-29T23:09:48Z</time>
      </trkpt>
      <trkpt lat="34.297052820495146" lon="108.71183242952517">
        <ele>389.33059076126665</ele>
        <time>2026-09-29T23:09:58Z</time>
      </trkpt>
      <trkpt lat="34.29678023538239" lon="108.71194870173379">
        <ele>389.0544741926715</ele>
        <time>2026-09-29T23:10:13Z</time>
      </trkpt>
      <trkpt lat="34.29672576871206" lon="108.71198391764699">
        <ele>389.4765571169555</ele>
        <time>2026-09-29T23:10:16Z</time>
      </trkpt>
      <trkpt lat="34.29644348825018" lon="108.71209142998231">
        <ele>389.95492405071855</ele>
        <time>2026-09-29T23:10:31Z</time>
      </trkpt>
      <trkpt lat="34.296391974787014" lon="108.71209759049086">
        <ele>389.7526832129806</ele>
        <time>2026-09-29T23:10:34Z</time>
      </trkpt>
      <trkpt lat="34.296341936846254" lon="108.71206737901852">
        <ele>389.13739248365164</ele>
        <time>2026-09-29T23:10:37Z</time>
      </trkpt>
      <trkpt lat="34.29627433287109" lon="108.71171239486175">
        <ele>389.5344785582274</ele>
        <time>2026-09-29T23:10:55Z</time>
      </trkpt>
      <trkpt lat="34.29622583218944" lon="108.71133437779693">
        <ele>389.5319127384573</ele>
        <time>2026-09-29T23:11:10Z</time>
      </trkpt>
      <trkpt lat="34.29619733237922" lon="108.71099386849805">
        <ele>389.60729302372783</ele>
        <time>2026-09-29T23:11:25Z</time>
      </trkpt>
      <trkpt lat="34.29612534620736" lon="108.71062904004191">
        <ele>390.5739221610129</ele>
        <time>2026-09-29T23:11:43Z</time>
      </trkpt>
      <trkpt lat="34.29607437411449" lon="108.71028474180551">
        <ele>390.211488859728</ele>
        <time>2026-09-29T23:12:01Z</time>
      </trkpt>
      <trkpt lat="34.296035183305534" lon="108.7099832738448">
        <ele>389.99849245976657</ele>
        <time>2026-09-29T23:12:17Z</time>
      </trkpt>
      <trkpt lat="34.29600543279233" lon="108.7097792278259">
        <ele>390.1499014897272</ele>
        <time>2026-09-29T23:12:27Z</time>
      </trkpt>
      <trkpt lat="34.295987205478234" lon="108.70955155487039">
        <ele>391.01467261556536</ele>
        <time>2026-09-29T23:12:39Z</time>
      </trkpt>
      <trkpt lat="34.29594302804856" lon="108.70924669727056">
        <ele>389.7992311445996</ele>
        <time>2026-09-29T23:12:54Z</time>
      </trkpt>
      <trkpt lat="34.2959165926946" lon="108.70918846976167">
        <ele>390.86675147060305</ele>
        <time>2026-09-29T23:12:57Z</time>
      </trkpt>
      <trkpt lat="34.29588783177816" lon="108.7088759517722">
        <ele>390.6228470373899</ele>
        <time>2026-09-29T23:13:12Z</time>
      </trkpt>
      <trkpt lat="34.295856941515176" lon="108.70874694750034">
        <ele>390.82637178339064</ele>
        <time>2026-09-29T23:13:18Z</time>
      </trkpt>
      <trkpt lat="34.29586386440789" lon="108.70862424554824">
        <ele>390.3243794180453</ele>
        <time>2026-09-29T23:13:24Z</time>
      </trkpt>
      <trkpt lat="34.295839900336674" lon="108.70850462105399">
        <ele>391.684498347342</ele>
        <time>2026-09-29T23:13:30Z</time>
      </trkpt>
      <trkpt lat="34.29583380419768" lon="108.70815485682608">
        <ele>392.39195092767477</ele>
        <time>2026-09-29T23:13:48Z</time>
      </trkpt>
      <trkpt lat="34.295791123912856" lon="108.7078103263675">
        <ele>389.93694323673844</ele>
        <time>2026-09-29T23:14:06Z</time>
      </trkpt>
      <trkpt lat="34.29579351892562" lon="108.70748304319436">
        <ele>389.8910616086796</ele>
        <time>2026-09-29T23:14:22Z</time>
      </trkpt>
      <trkpt lat="34.2957536454216" lon="108.70724881933322">
        <ele>391.19551869668067</ele>
        <time>2026-09-29T23:14:34Z</time>
      </trkpt>
      <trkpt lat="34.29572508672338" lon="108.70696197097945">
        <ele>390.7235843138769</ele>
        <time>2026-09-29T23:14:49Z</time>
      </trkpt>
      <trkpt lat="34.295736068774765" lon="108.70686394081106">
        <ele>389.48591696843505</ele>
        <time>2026-09-29T23:14:55Z</time>
      </trkpt>
      <trkpt lat="34.29570340877034" lon="108.70675510924775">
        <ele>390.11447817087173</ele>
        <time>2026-09-29T23:15:01Z</time>
      </trkpt>
      <trkpt lat="34.295706911230106" lon="108.70670013088973">
        <ele>390.8132857000455</ele>
        <time>2026-09-29T23:15:04Z</time>
      </trkpt>
      <trkpt lat="34.295658818916635" lon="108.7064772344228">
        <ele>391.3794148499146</ele>
        <time>2026-09-29T23:15:16Z</time>
      </trkpt>
      <trkpt lat="34.2956518126622" lon="108.70637308580154">
        <ele>390.7567158350721</ele>
        <time>2026-09-29T23:15:22Z</time>
      </trkpt>
      <trkpt lat="34.29568401942153" lon="108.70625445795717">
        <ele>389.9992258409038</ele>
        <time>2026-09-29T23:15:28Z</time>
      </trkpt>
      <trkpt lat="34.2957644964917" lon="108.70609761630816">
        <ele>389.8843411114067</ele>
        <time>2026-09-29T23:15:37Z</time>
      </trkpt>
      <trkpt lat="34.29580012341972" lon="108.70606135331012">
        <ele>389.7522481158376</ele>
        <time>2026-09-29T23:15:40Z</time>
      </trkpt>
      <trkpt lat="34.29608845290187" lon="108.70601632978467">
        <ele>390.96849450748414</ele>
        <time>2026-09-29T23:15:58Z</time>
      </trkpt>
      <trkpt lat="34.29638604739812" lon="108.70596266320909">
        <ele>390.25190176349133</ele>
        <time>2026-09-29T23:16:17Z</time>
      </trkpt>
      <trkpt lat="34.296444746163246" lon="108.70597603535904">
        <ele>388.8360623922199</ele>
        <time>2026-09-29T23:16:21Z</time>
      </trkpt>
      <trkpt lat="34.29663947869242" lon="108.70593350531367">
        <ele>390.5797617463395</ele>
        <time>2026-09-29T23:16:33Z</time>
      </trkpt>
      <trkpt lat="34.29680228842596" lon="108.70592294123513">
        <ele>389.3175959298387</ele>
        <time>2026-09-29T23:16:43Z</time>
      </trkpt>
      <trkpt lat="34.29709343757434" lon="108.70584545420584">
        <ele>389.29411333519965</ele>
        <time>2026-09-29T23:17:01Z</time>
      </trkpt>
      <trkpt lat="34.29719247501383" lon="108.70580835800844">
        <ele>389.70233648177236</ele>
        <time>2026-09-29T23:17:07Z</time>
      </trkpt>
      <trkpt lat="34.29729260411445" lon="108.70582619974869">
        <ele>389.5848341975361</ele>
        <time>2026-09-29T23:17:13Z</time>
      </trkpt>
      <trkpt lat="34.29748674864996" lon="108.70575953483414">
        <ele>390.18288317415863</ele>
        <time>2026-09-29T23:17:25Z</time>
      </trkpt>
      <trkpt lat="34.29767169394841" lon="108.70574937834023">
        <ele>391.439614106901</ele>
        <time>2026-09-29T23:17:37Z</time>
      </trkpt>
      <trkpt lat="34.297960492093026" lon="108.70567929097409">
        <ele>389.99654267635196</ele>
        <time>2026-09-29T23:17:55Z</time>
      </trkpt>
      <trkpt lat="34.29825560950283" lon="108.70563428028781">
        <ele>389.00797842629254</ele>
        <time>2026-09-29T23:18:14Z</time>
      </trkpt>
      <trkpt lat="34.29856306549297" lon="108.70558748217428">
        <ele>389.1221384825185</ele>
        <time>2026-09-29T23:18:33Z</time>
      </trkpt>
      <trkpt lat="34.29869230540204" lon="108.70557436807914">
        <ele>389.69310023169965</ele>
        <time>2026-09-29T23:18:40Z</time>
      </trkpt>
      <trkpt lat="34.29874243404161" lon="108.7055438613267">
        <ele>390.73867027368397</ele>
        <time>2026-09-29T23:18:43Z</time>
      </trkpt>
      <trkpt lat="34.298796666268686" lon="108.70554277366233">
        <ele>391.5930317575112</ele>
        <time>2026-09-29T23:18:46Z</time>
      </trkpt>
      <trkpt lat="34.299102433258035" lon="108.70547794093406">
        <ele>391.5899863662198</ele>
        <time>2026-09-29T23:19:04Z</time>
      </trkpt>
      <trkpt lat="34.29919843466685" lon="108.70546017874771">
        <ele>391.7335854936391</ele>
        <time>2026-09-29T23:19:10Z</time>
      </trkpt>
      <trkpt lat="34.29925162002905" lon="108.70548167355237">
        <ele>391.784573902376</ele>
        <time>2026-09-29T23:19:13Z</time>
      </trkpt>
      <trkpt lat="34.29933708090874" lon="108.70563116752265">
        <ele>392.2940355548635</ele>
        <time>2026-09-29T23:19:22Z</time>
      </trkpt>
      <trkpt lat="34.299363682223024" lon="108.70594319182936">
        <ele>392.7853567637503</ele>
        <time>2026-09-29T23:19:37Z</time>
      </trkpt>
      <trkpt lat="34.2994222503962" lon="108.70629474419944">
        <ele>391.78500099666417</ele>
        <time>2026-09-29T23:19:55Z</time>
      </trkpt>
      <trkpt lat="34.29948512446474" lon="108.70667676475881">
        <ele>392.88022391404957</ele>
        <time>2026-09-29T23:20:16Z</time>
      </trkpt>
      <trkpt lat="34.29952768978584" lon="108.70694686630488">
        <ele>392.45495646074414</ele>
        <time>2026-09-29T23:20:41Z</time>
      </trkpt>
      <trkpt lat="34.299530641356604" lon="108.70724263023259">
        <ele>391.4076301967725</ele>
        <time>2026-09-29T23:20:56Z</time>
      </trkpt>
      <trkpt lat="34.29952242614147" lon="108.70737543437896">
        <ele>391.8361998293549</ele>
        <time>2026-09-29T23:21:02Z</time>
      </trkpt>
      <trkpt lat="34.29955580832486" lon="108.70773537842686">
        <ele>392.4775190129876</ele>
        <time>2026-09-29T23:21:20Z</time>
      </trkpt>
      <trkpt lat="34.299619834026515" lon="108.70813076143803">
        <ele>392.87157910503447</ele>
        <time>2026-09-29T23:21:41Z</time>
      </trkpt>
      <trkpt lat="34.29955732703015" lon="108.7082989582882">
        <ele>391.2193008149043</ele>
        <time>2026-09-29T23:21:53Z</time>
      </trkpt>
      <trkpt lat="34.29958116695555" lon="108.70847120959004">
        <ele>391.17422360833734</ele>
        <time>2026-09-29T23:22:05Z</time>
      </trkpt>
      <trkpt lat="34.299634331889685" lon="108.70851496136655">
        <ele>391.45573769602925</ele>
        <time>2026-09-29T23:22:11Z</time>
      </trkpt>
      <trkpt lat="34.29964264807735" lon="108.70865767356625">
        <ele>391.3868769882247</ele>
        <time>2026-09-29T23:22:20Z</time>
      </trkpt>
      <trkpt lat="34.299698607186386" lon="108.7088328591792">
        <ele>392.2824635496363</ele>
        <time>2026-09-29T23:22:29Z</time>
      </trkpt>
      <trkpt lat="34.29970736609446" lon="108.70891285144394">
        <ele>391.53342572040856</ele>
        <time>2026-09-29T23:22:33Z</time>
      </trkpt>
      <trkpt lat="34.299688137310326" lon="108.7090848854287">
        <ele>391.0484979758039</ele>
        <time>2026-09-29T23:22:42Z</time>
      </trkpt>
      <trkpt lat="34.29970799735833" lon="108.70914704169483">
        <ele>391.31802977155894</ele>
        <time>2026-09-29T23:22:45Z</time>
      </trkpt>
      <trkpt lat="34.29969959734048" lon="108.70920794697409">
        <ele>391.92832146957517</ele>
        <time>2026-09-29T23:22:48Z</time>
      </trkpt>
      <trkpt lat="34.29975421134895" lon="108.70947195523897">
        <ele>392.55274486448616</ele>
        <time>2026-09-29T23:23:00Z</time>
      </trkpt>
      <trkpt lat="34.29980811123409" lon="108.70954003836295">
        <ele>393.24807112291455</ele>
        <time>2026-09-29T23:23:06Z</time>
      </trkpt>
      <trkpt lat="34.2998099555669" lon="108.7096016056792">
        <ele>392.43854137323797</ele>
        <time>2026-09-29T23:23:09Z</time>
      </trkpt>
      <trkpt lat="34.29977781664574" lon="108.70973739462777">
        <ele>392.08325077500194</ele>
        <time>2026-09-29T23:23:15Z</time>
      </trkpt>
      <trkpt lat="34.2998201630389" lon="108.71006704378213">
        <ele>391.7859564004466</ele>
        <time>2026-09-29T23:23:30Z</time>
      </trkpt>
      <trkpt lat="34.299855123780866" lon="108.710262651795">
        <ele>390.87224038969725</ele>
        <time>2026-09-29T23:23:39Z</time>
      </trkpt>
      <trkpt lat="34.29973797412352" lon="108.71045410653579">
        <ele>393.170880863443</ele>
        <time>2026-09-29T23:23:54Z</time>
      </trkpt>
      <trkpt lat="34.29957664882791" lon="108.71054342295457">
        <ele>390.93371689412743</ele>
        <time>2026-09-29T23:24:06Z</time>
      </trkpt>
      <trkpt lat="34.299503619256804" lon="108.71064333083199">
        <ele>391.64209204819053</ele>
        <time>2026-09-29T23:24:12Z</time>
      </trkpt>
      <trkpt lat="34.29947357609596" lon="108.71071581059046">
        <ele>390.3389224661514</ele>
        <time>2026-09-29T23:24:18Z</time>
      </trkpt>
      <trkpt lat="34.29947035266875" lon="108.7108137885481">
        <ele>391.645321094431</ele>
        <time>2026-09-29T23:24:24Z</time>
      </trkpt>
      <trkpt lat="34.29942904879449" lon="108.71084719643459">
        <ele>391.9085907638073</ele>
        <time>2026-09-29T23:24:27Z</time>
      </trkpt>
      <trkpt lat="34.299254735096106" lon="108.71088745369077">
        <ele>391.05177547223866</ele>
        <time>2026-09-29T23:27:17Z</time>
      </trkpt>
      <trkpt lat="34.29905051665212" lon="108.71099648321854">
        <ele>390.5246193865314</ele>
        <time>2026-09-29T23:27:29Z</time>
      </trkpt>
      <trkpt lat="34.29876412864239" lon="108.71110565092985">
        <ele>390.4847892075777</ele>
        <time>2026-09-29T23:27:44Z</time>
      </trkpt>
      <trkpt lat="34.29848849008628" lon="108.71120596575327">
        <ele>389.3372173514217</ele>
        <time>2026-09-29T23:27:59Z</time>
      </trkpt>
      <trkpt lat="34.29827258732844" lon="108.71129946551609">
        <ele>388.6651815120131</ele>
        <time>2026-09-29T23:28:11Z</time>
      </trkpt>
      <trkpt lat="34.2981906332323" lon="108.71128910137718">
        <ele>390.4524154821411</ele>
        <time>2026-09-29T23:28:17Z</time>
      </trkpt>
      <trkpt lat="34.29811310959442" lon="108.71105043444042">
        <ele>389.4316237960011</ele>
        <time>2026-09-29T23:28:32Z</time>
      </trkpt>
      <trkpt lat="34.2980868043809" lon="108.710864340663">
        <ele>389.65350766386837</ele>
        <time>2026-09-29T23:28:44Z</time>
      </trkpt>
      <trkpt lat="34.298024200509225" lon="108.71071387549298">
        <ele>390.04691386502236</ele>
        <time>2026-09-29T23:28:54Z</time>
      </trkpt>
      <trkpt lat="34.297986715839095" lon="108.71049049287734">
        <ele>388.79374316707253</ele>
        <time>2026-09-29T23:29:07Z</time>
      </trkpt>
      <trkpt lat="34.29802227305382" lon="108.71042953160374">
        <ele>389.4394100839272</ele>
        <time>2026-09-29T23:29:10Z</time>
      </trkpt>
      <trkpt lat="34.2980315793898" lon="108.71019520527324">
        <ele>389.67021128349006</ele>
        <time>2026-09-29T23:29:25Z</time>
      </trkpt>
      <trkpt lat="34.29799012354311" lon="108.71015143387211">
        <ele>389.81095057632774</ele>
        <time>2026-09-29T23:29:28Z</time>
      </trkpt>
      <trkpt lat="34.297831544887586" lon="108.71019782008047">
        <ele>389.39007949084044</ele>
        <time>2026-09-29T23:29:37Z</time>
      </trkpt>
      <trkpt lat="34.29776641046052" lon="108.71026157444442">
        <ele>388.1939915334806</ele>
        <time>2026-09-29T23:29:43Z</time>
      </trkpt>
      <trkpt lat="34.297794678184566" lon="108.71050934673237">
        <ele>386.5920326001942</ele>
        <time>2026-09-29T23:30:07Z</time>
      </trkpt>
      <trkpt lat="34.29784064915975" lon="108.71056124601839">
        <ele>386.92945067677647</ele>
        <time>2026-09-29T23:30:13Z</time>
      </trkpt>
      <trkpt lat="34.29778920202922" lon="108.71049179654914">
        <ele>389.4566879440099</ele>
        <time>2026-09-29T23:30:16Z</time>
      </trkpt>
      <trkpt lat="34.297743485425684" lon="108.71054452653">
        <ele>389.94905854947865</ele>
        <time>2026-09-29T23:30:22Z</time>
      </trkpt>
      <trkpt lat="34.297743485425684" lon="108.71054452653">
        <ele>389.94905854947865</ele>
        <time>2026-09-29T23:30:25Z</time>
      </trkpt>
    </trkseg>
  </trk>
</gpx>