<?xml version="1.0" encoding="UTF-8"?>
<gpx xmlns="http://www.topografix.com/GPX/1/1" xmlns:gpxtpx="http://www.garmin.com/xmlschemas/TrackPointExtension/v1" xmlns:xsi="http://www.w3.org/2001/XMLSchema-instance" xsi:schemaLocation="http://www.topografix.com/GPX/1/1 http://www.topografix.com/GPX/1/1/gpx.xsd" version="1.1" creator="gpx.py -- https://github.com/tkrajina/gpxpy">
  <trk>
    <name>gpx from keep</name>
    <type>Ride</type>
    <trkseg>
      <trkpt lat="34.30660595450306" lon="109.03701339660242">
        <ele>394.2421112060547</ele>
        <time>2022-04-11T09:54:22Z</time>
      </trkpt>
      <trkpt lat="34.30671477453169" lon="109.03705957018684">
        <ele>392.42299887444824</ele>
        <time>2022-04-11T09:54:26Z</time>
      </trkpt>
      <trkpt lat="34.306812876315" lon="109.03716125721444">
        <ele>393.58478920534253</ele>
        <time>2022-04-11T09:54:28Z</time>
      </trkpt>
      <trkpt lat="34.30680001331321" lon="109.03702022174565">
        <ele>392.99833771027625</ele>
        <time>2022-04-11T09:54:31Z</time>
      </trkpt>
      <trkpt lat="34.30663715693267" lon="109.03695596854267">
        <ele>392.9157873960212</ele>
        <time>2022-04-11T09:54:33Z</time>
      </trkpt>
      <trkpt lat="34.30644608916979" lon="109.03700212865286">
        <ele>391.930355489254</ele>
        <time>2022-04-11T09:54:37Z</time>
      </trkpt>
      <trkpt lat="34.30628112840815" lon="109.03697116393398">
        <ele>391.3024606257677</ele>
        <time>2022-04-11T09:54:44Z</time>
      </trkpt>
      <trkpt lat="34.30631072409093" lon="109.03708463862381">
        <ele>391.1980188032612</ele>
        <time>2022-04-11T09:54:47Z</time>
      </trkpt>
      <trkpt lat="34.30649178054204" lon="109.03701889454949">
        <ele>391.7649308135733</ele>
        <time>2022-04-11T09:54:57Z</time>
      </trkpt>
      <trkpt lat="34.30654190337363" lon="109.03694720070771">
        <ele>392.52145811449736</ele>
        <time>2022-04-11T09:55:03Z</time>
      </trkpt>
      <trkpt lat="34.30656582102615" lon="109.03675263023132">
        <ele>392.0443614218384</ele>
        <time>2022-04-11T09:55:16Z</time>
      </trkpt>
      <trkpt lat="34.30652657816354" lon="109.03655356055992">
        <ele>391.2822201643139</ele>
        <time>2022-04-11T09:55:27Z</time>
      </trkpt>
      <trkpt lat="34.30649173339421" lon="109.03651592706882">
        <ele>390.7299281414598</ele>
        <time>2022-04-11T09:55:39Z</time>
      </trkpt>
      <trkpt lat="34.306547016734626" lon="109.0363638315452">
        <ele>391.70937304757535</ele>
        <time>2022-04-11T09:56:08Z</time>
      </trkpt>
      <trkpt lat="34.30650854778733" lon="109.03622644763342">
        <ele>391.4326398456469</ele>
        <time>2022-04-11T09:56:12Z</time>
      </trkpt>
      <trkpt lat="34.30638985211556" lon="109.03603133313457">
        <ele>392.2057599304244</ele>
        <time>2022-04-11T09:56:20Z</time>
      </trkpt>
      <trkpt lat="34.30636926412175" lon="109.03592222796222">
        <ele>392.8748848941177</ele>
        <time>2022-04-11T09:56:26Z</time>
      </trkpt>
      <trkpt lat="34.306374441462985" lon="109.03569008918382">
        <ele>392.49752604961395</ele>
        <time>2022-04-11T09:56:35Z</time>
      </trkpt>
      <trkpt lat="34.306285628736646" lon="109.03554397435845">
        <ele>391.72738419286907</ele>
        <time>2022-04-11T09:56:39Z</time>
      </trkpt>
      <trkpt lat="34.306298484361534" lon="109.03533210061836">
        <ele>391.95693368744105</ele>
        <time>2022-04-11T09:56:45Z</time>
      </trkpt>
      <trkpt lat="34.30633980181323" lon="109.03525564054176">
        <ele>392.4455235414207</ele>
        <time>2022-04-11T09:56:48Z</time>
      </trkpt>
      <trkpt lat="34.306398336383204" lon="109.03519393875027">
        <ele>392.2486528819427</ele>
        <time>2022-04-11T09:56:50Z</time>
      </trkpt>
      <trkpt lat="34.3064424577607" lon="109.03509114531776">
        <ele>392.1626980593428</ele>
        <time>2022-04-11T09:56:53Z</time>
      </trkpt>
      <trkpt lat="34.30642289825072" lon="109.03500215585977">
        <ele>392.3009754596278</ele>
        <time>2022-04-11T09:56:56Z</time>
      </trkpt>
      <trkpt lat="34.3063875856224" lon="109.03471551117151">
        <ele>392.0768125941977</ele>
        <time>2022-04-11T09:57:05Z</time>
      </trkpt>
      <trkpt lat="34.306403975683146" lon="109.03450117926648">
        <ele>393.1719305338338</ele>
        <time>2022-04-11T09:57:12Z</time>
      </trkpt>
      <trkpt lat="34.306368365017946" lon="109.03440115722498">
        <ele>392.85929703433067</ele>
        <time>2022-04-11T09:57:15Z</time>
      </trkpt>
      <trkpt lat="34.3063078702005" lon="109.03409906038038">
        <ele>391.9679297292605</ele>
        <time>2022-04-11T09:57:24Z</time>
      </trkpt>
      <trkpt lat="34.30627167334411" lon="109.03400844462061">
        <ele>391.85182689130306</ele>
        <time>2022-04-11T09:57:27Z</time>
      </trkpt>
      <trkpt lat="34.30633025059952" lon="109.03382128409795">
        <ele>392.9143507890403</ele>
        <time>2022-04-11T09:57:32Z</time>
      </trkpt>
      <trkpt lat="34.306336296048485" lon="109.03372847819878">
        <ele>393.53384097199887</ele>
        <time>2022-04-11T09:57:35Z</time>
      </trkpt>
      <trkpt lat="34.30629606832133" lon="109.03351487909961">
        <ele>393.1159499781206</ele>
        <time>2022-04-11T09:57:40Z</time>
      </trkpt>
      <trkpt lat="34.306316007942115" lon="109.03288811450149">
        <ele>392.24008080363274</ele>
        <time>2022-04-11T09:57:49Z</time>
      </trkpt>
      <trkpt lat="34.30633120000235" lon="109.03228583447952">
        <ele>392.5193820837885</ele>
        <time>2022-04-11T09:57:58Z</time>
      </trkpt>
      <trkpt lat="34.30634951231072" lon="109.03194012738258">
        <ele>392.9216386536136</ele>
        <time>2022-04-11T09:58:05Z</time>
      </trkpt>
      <trkpt lat="34.306286277220416" lon="109.03150350182034">
        <ele>391.83994336798787</ele>
        <time>2022-04-11T09:58:16Z</time>
      </trkpt>
      <trkpt lat="34.306291905799185" lon="109.03139475236026">
        <ele>391.21706624049693</ele>
        <time>2022-04-11T09:58:19Z</time>
      </trkpt>
      <trkpt lat="34.30635567521952" lon="109.03129226413212">
        <ele>391.77025225106627</ele>
        <time>2022-04-11T09:58:22Z</time>
      </trkpt>
      <trkpt lat="34.30655061757822" lon="109.03113631925746">
        <ele>391.4351895498112</ele>
        <time>2022-04-11T09:58:29Z</time>
      </trkpt>
      <trkpt lat="34.306990697957964" lon="109.03097814206461">
        <ele>390.7550857756287</ele>
        <time>2022-04-11T09:58:40Z</time>
      </trkpt>
      <trkpt lat="34.30720414650539" lon="109.030907969751">
        <ele>391.0111265210435</ele>
        <time>2022-04-11T09:58:46Z</time>
      </trkpt>
      <trkpt lat="34.30764384847199" lon="109.03083846295527">
        <ele>392.7887456845492</ele>
        <time>2022-04-11T09:58:58Z</time>
      </trkpt>
      <trkpt lat="34.30791303579903" lon="109.03082533495429">
        <ele>392.67641937173903</ele>
        <time>2022-04-11T09:59:12Z</time>
      </trkpt>
      <trkpt lat="34.30819637785624" lon="109.03076916478823">
        <ele>394.6862633852288</ele>
        <time>2022-04-11T09:59:20Z</time>
      </trkpt>
      <trkpt lat="34.308678785865865" lon="109.03071441898183">
        <ele>394.1343711344525</ele>
        <time>2022-04-11T09:59:32Z</time>
      </trkpt>
      <trkpt lat="34.30883519194675" lon="109.03069084212929">
        <ele>394.04796623717993</ele>
        <time>2022-04-11T09:59:36Z</time>
      </trkpt>
      <trkpt lat="34.30920655104699" lon="109.03054069760172">
        <ele>392.9082671897486</ele>
        <time>2022-04-11T09:59:45Z</time>
      </trkpt>
      <trkpt lat="34.309671028732616" lon="109.03027247077203">
        <ele>393.8404404902831</ele>
        <time>2022-04-11T09:59:57Z</time>
      </trkpt>
      <trkpt lat="34.30999053843507" lon="109.02999768749912">
        <ele>393.0696218749508</ele>
        <time>2022-04-11T10:00:06Z</time>
      </trkpt>
      <trkpt lat="34.31037976982072" lon="109.02966188658358">
        <ele>392.4176093125716</ele>
        <time>2022-04-11T10:00:18Z</time>
      </trkpt>
      <trkpt lat="34.31053376538851" lon="109.0295529460964">
        <ele>392.0223156940192</ele>
        <time>2022-04-11T10:00:22Z</time>
      </trkpt>
      <trkpt lat="34.310832127751944" lon="109.0292620244742">
        <ele>391.2459918214008</ele>
        <time>2022-04-11T10:00:31Z</time>
      </trkpt>
      <trkpt lat="34.31088178328015" lon="109.02918821348028">
        <ele>390.908037760295</ele>
        <time>2022-04-11T10:00:33Z</time>
      </trkpt>
      <trkpt lat="34.31114390723145" lon="109.02893004538794">
        <ele>390.7805158365518</ele>
        <time>2022-04-11T10:00:41Z</time>
      </trkpt>
      <trkpt lat="34.31131873160973" lon="109.02863337607842">
        <ele>391.63800665549934</ele>
        <time>2022-04-11T10:00:48Z</time>
      </trkpt>
      <trkpt lat="34.31143736350279" lon="109.02829215000295">
        <ele>392.2255527302623</ele>
        <time>2022-04-11T10:00:56Z</time>
      </trkpt>
      <trkpt lat="34.31149426968562" lon="109.02772551231638">
        <ele>393.48988648783416</ele>
        <time>2022-04-11T10:01:08Z</time>
      </trkpt>
      <trkpt lat="34.31152947184571" lon="109.02740731836236">
        <ele>391.885296901688</ele>
        <time>2022-04-11T10:01:14Z</time>
      </trkpt>
      <trkpt lat="34.31166690150367" lon="109.02699599453021">
        <ele>391.42745695542544</ele>
        <time>2022-04-11T10:01:22Z</time>
      </trkpt>
      <trkpt lat="34.31183576251609" lon="109.02671922648571">
        <ele>392.0811010124162</ele>
        <time>2022-04-11T10:01:28Z</time>
      </trkpt>
      <trkpt lat="34.31214075358114" lon="109.02644444524644">
        <ele>392.67279096040875</ele>
        <time>2022-04-11T10:01:36Z</time>
      </trkpt>
      <trkpt lat="34.31228924679921" lon="109.02633574487088">
        <ele>393.1009742533788</ele>
        <time>2022-04-11T10:01:40Z</time>
      </trkpt>
      <trkpt lat="34.31231316515186" lon="109.02617435482442">
        <ele>394.00688623357564</ele>
        <time>2022-04-11T10:01:44Z</time>
      </trkpt>
      <trkpt lat="34.31236287983395" lon="109.02609910014877">
        <ele>393.5961306327954</ele>
        <time>2022-04-11T10:01:46Z</time>
      </trkpt>
      <trkpt lat="34.31248855104417" lon="109.0260533857744">
        <ele>393.4288342958316</ele>
        <time>2022-04-11T10:01:48Z</time>
      </trkpt>
      <trkpt lat="34.31258857501981" lon="109.0260405637845">
        <ele>393.61620468180627</ele>
        <time>2022-04-11T10:01:50Z</time>
      </trkpt>
      <trkpt lat="34.31269693835703" lon="109.025984898522">
        <ele>394.18711553141475</ele>
        <time>2022-04-11T10:01:52Z</time>
      </trkpt>
      <trkpt lat="34.3127421255381" lon="109.02589243711776">
        <ele>394.3321143789217</ele>
        <time>2022-04-11T10:01:54Z</time>
      </trkpt>
      <trkpt lat="34.31300547898653" lon="109.02578501737754">
        <ele>393.4255258683115</ele>
        <time>2022-04-11T10:02:02Z</time>
      </trkpt>
      <trkpt lat="34.31325169090866" lon="109.02571818185345">
        <ele>391.8144328035414</ele>
        <time>2022-04-11T10:02:08Z</time>
      </trkpt>
      <trkpt lat="34.313373582130346" lon="109.02564725619312">
        <ele>392.72909546550363</ele>
        <time>2022-04-11T10:02:12Z</time>
      </trkpt>
      <trkpt lat="34.31373655701153" lon="109.02554172426782">
        <ele>390.85237498860806</ele>
        <time>2022-04-11T10:02:22Z</time>
      </trkpt>
      <trkpt lat="34.314264564496675" lon="109.025269045996">
        <ele>391.9825265351683</ele>
        <time>2022-04-11T10:02:38Z</time>
      </trkpt>
      <trkpt lat="34.31465950311972" lon="109.02500698915432">
        <ele>390.9077341342345</ele>
        <time>2022-04-11T10:02:50Z</time>
      </trkpt>
      <trkpt lat="34.31507852516837" lon="109.02471753423298">
        <ele>391.0913962684572</ele>
        <time>2022-04-11T10:03:02Z</time>
      </trkpt>
      <trkpt lat="34.31553197224855" lon="109.024428845259">
        <ele>390.4608886744827</ele>
        <time>2022-04-11T10:03:14Z</time>
      </trkpt>
      <trkpt lat="34.31592146345697" lon="109.02421391517522">
        <ele>390.19909882638603</ele>
        <time>2022-04-11T10:03:24Z</time>
      </trkpt>
      <trkpt lat="34.316078705482326" lon="109.0241369620177">
        <ele>390.36027492489666</ele>
        <time>2022-04-11T10:03:28Z</time>
      </trkpt>
      <trkpt lat="34.316149567064876" lon="109.0240250690879">
        <ele>390.71842342521995</ele>
        <time>2022-04-11T10:03:32Z</time>
      </trkpt>
      <trkpt lat="34.31611266453096" lon="109.02390578207955">
        <ele>391.66036537941545</ele>
        <time>2022-04-11T10:03:36Z</time>
      </trkpt>
      <trkpt lat="34.316158163335544" lon="109.02379287323558">
        <ele>389.5118838623166</ele>
        <time>2022-04-11T10:03:48Z</time>
      </trkpt>
      <trkpt lat="34.31629566955286" lon="109.02357488074682">
        <ele>390.15906270220876</ele>
        <time>2022-04-11T10:04:25Z</time>
      </trkpt>
      <trkpt lat="34.31626676776818" lon="109.02343448603868">
        <ele>389.5775245241821</ele>
        <time>2022-04-11T10:04:29Z</time>
      </trkpt>
      <trkpt lat="34.316148252767206" lon="109.0232657982783">
        <ele>388.58634856529534</ele>
        <time>2022-04-11T10:04:39Z</time>
      </trkpt>
      <trkpt lat="34.31596337199584" lon="109.02284601394773">
        <ele>387.6498459801078</ele>
        <time>2022-04-11T10:04:55Z</time>
      </trkpt>
      <trkpt lat="34.315927632894834" lon="109.02271467191851">
        <ele>388.070827444084</ele>
        <time>2022-04-11T10:05:00Z</time>
      </trkpt>
      <trkpt lat="34.315880835474964" lon="109.02262982608306">
        <ele>389.1737214839086</ele>
        <time>2022-04-11T10:05:04Z</time>
      </trkpt>
      <trkpt lat="34.315844764805895" lon="109.02247975236305">
        <ele>389.319234110415</ele>
        <time>2022-04-11T10:05:08Z</time>
      </trkpt>
      <trkpt lat="34.315915916708875" lon="109.02201519016147">
        <ele>390.41015196219087</ele>
        <time>2022-04-11T10:05:18Z</time>
      </trkpt>
      <trkpt lat="34.31595554966038" lon="109.02184801011505">
        <ele>391.4161992147565</ele>
        <time>2022-04-11T10:05:22Z</time>
      </trkpt>
      <trkpt lat="34.31585045057654" lon="109.02132496265983">
        <ele>393.90305720549077</ele>
        <time>2022-04-11T10:05:42Z</time>
      </trkpt>
      <trkpt lat="34.315819143898025" lon="109.02106196722396">
        <ele>395.11288443394005</ele>
        <time>2022-04-11T10:05:50Z</time>
      </trkpt>
      <trkpt lat="34.31581896254312" lon="109.02065902128906">
        <ele>394.8797218175605</ele>
        <time>2022-04-11T10:06:00Z</time>
      </trkpt>
      <trkpt lat="34.31580103342144" lon="109.02050152915446">
        <ele>395.3607563925907</ele>
        <time>2022-04-11T10:06:04Z</time>
      </trkpt>
      <trkpt lat="34.31584217566431" lon="109.0199410786148">
        <ele>397.65032433811575</ele>
        <time>2022-04-11T10:06:16Z</time>
      </trkpt>
      <trkpt lat="34.3158609205807" lon="109.01984447431118">
        <ele>397.7434181626886</ele>
        <time>2022-04-11T10:06:18Z</time>
      </trkpt>
      <trkpt lat="34.31589495687321" lon="109.01934187520811">
        <ele>399.2251129653305</ele>
        <time>2022-04-11T10:06:26Z</time>
      </trkpt>
      <trkpt lat="34.31593091417069" lon="109.01910817513155">
        <ele>399.6734344335273</ele>
        <time>2022-04-11T10:06:30Z</time>
      </trkpt>
      <trkpt lat="34.315894538677064" lon="109.01855822420927">
        <ele>401.7679096488282</ele>
        <time>2022-04-11T10:06:40Z</time>
      </trkpt>
      <trkpt lat="34.31588270618685" lon="109.01812899043958">
        <ele>403.6602948009968</ele>
        <time>2022-04-11T10:06:50Z</time>
      </trkpt>
      <trkpt lat="34.315861358291336" lon="109.01791831006256">
        <ele>404.17085270863026</ele>
        <time>2022-04-11T10:06:58Z</time>
      </trkpt>
      <trkpt lat="34.31586185987509" lon="109.01768503452494">
        <ele>405.07196063082665</ele>
        <time>2022-04-11T10:07:06Z</time>
      </trkpt>
      <trkpt lat="34.31582788499643" lon="109.01753841841037">
        <ele>404.93977544270456</ele>
        <time>2022-04-11T10:07:10Z</time>
      </trkpt>
      <trkpt lat="34.31581070037375" lon="109.0172159255431">
        <ele>405.4901475980878</ele>
        <time>2022-04-11T10:07:18Z</time>
      </trkpt>
      <trkpt lat="34.31577598352107" lon="109.01690896792368">
        <ele>406.2136757308617</ele>
        <time>2022-04-11T10:07:26Z</time>
      </trkpt>
      <trkpt lat="34.315816745482145" lon="109.01648728979791">
        <ele>408.1133426660672</ele>
        <time>2022-04-11T10:07:36Z</time>
      </trkpt>
      <trkpt lat="34.31578845801663" lon="109.01587405334016">
        <ele>407.6622001584619</ele>
        <time>2022-04-11T10:07:52Z</time>
      </trkpt>
      <trkpt lat="34.31579295106661" lon="109.0154505471848">
        <ele>407.8271966148168</ele>
        <time>2022-04-11T10:08:02Z</time>
      </trkpt>
      <trkpt lat="34.315768057898616" lon="109.01530001796846">
        <ele>407.61881657037884</ele>
        <time>2022-04-11T10:08:06Z</time>
      </trkpt>
      <trkpt lat="34.315737161469144" lon="109.01521900008076">
        <ele>408.4234509654343</ele>
        <time>2022-04-11T10:08:08Z</time>
      </trkpt>
      <trkpt lat="34.31571066282098" lon="109.01460423773706">
        <ele>408.34476378466934</ele>
        <time>2022-04-11T10:08:22Z</time>
      </trkpt>
      <trkpt lat="34.31569859692292" lon="109.01445072592219">
        <ele>408.82667955569923</ele>
        <time>2022-04-11T10:08:26Z</time>
      </trkpt>
      <trkpt lat="34.315723649721804" lon="109.01425254304056">
        <ele>409.20047077629715</ele>
        <time>2022-04-11T10:08:30Z</time>
      </trkpt>
      <trkpt lat="34.31572122964699" lon="109.01416050932077">
        <ele>408.4706065841019</ele>
        <time>2022-04-11T10:08:32Z</time>
      </trkpt>
      <trkpt lat="34.31574412389945" lon="109.01406941508088">
        <ele>408.3293497096747</ele>
        <time>2022-04-11T10:08:34Z</time>
      </trkpt>
      <trkpt lat="34.315699731778324" lon="109.01389162299324">
        <ele>408.4395892145112</ele>
        <time>2022-04-11T10:08:38Z</time>
      </trkpt>
      <trkpt lat="34.315676271729835" lon="109.01349174828553">
        <ele>407.7768447995186</ele>
        <time>2022-04-11T10:08:46Z</time>
      </trkpt>
      <trkpt lat="34.315658973760456" lon="109.01320755502591">
        <ele>408.7633832162246</ele>
        <time>2022-04-11T10:08:52Z</time>
      </trkpt>
      <trkpt lat="34.315672527037705" lon="109.0130983768727">
        <ele>408.0515846759081</ele>
        <time>2022-04-11T10:08:54Z</time>
      </trkpt>
      <trkpt lat="34.31565353581067" lon="109.01286214043708">
        <ele>407.76033592876047</ele>
        <time>2022-04-11T10:08:58Z</time>
      </trkpt>
      <trkpt lat="34.31570817227104" lon="109.01267248888348">
        <ele>408.4818658689037</ele>
        <time>2022-04-11T10:09:00Z</time>
      </trkpt>
      <trkpt lat="34.3156925176591" lon="109.01248219171275">
        <ele>408.45785435754806</ele>
        <time>2022-04-11T10:09:02Z</time>
      </trkpt>
      <trkpt lat="34.31573762873757" lon="109.01183270763312">
        <ele>408.6551244817674</ele>
        <time>2022-04-11T10:09:08Z</time>
      </trkpt>
      <trkpt lat="34.31571260805954" lon="109.01174146189682">
        <ele>408.9467074871063</ele>
        <time>2022-04-11T10:09:10Z</time>
      </trkpt>
      <trkpt lat="34.31572155396958" lon="109.01146006093916">
        <ele>409.13249399513006</ele>
        <time>2022-04-11T10:09:12Z</time>
      </trkpt>
      <trkpt lat="34.3158058927269" lon="109.01088816499107">
        <ele>409.522836481221</ele>
        <time>2022-04-11T10:09:16Z</time>
      </trkpt>
      <trkpt lat="34.31585757800549" lon="109.01026875562934">
        <ele>408.733551312238</ele>
        <time>2022-04-11T10:09:24Z</time>
      </trkpt>
      <trkpt lat="34.31588048786103" lon="109.0101223359315">
        <ele>409.04573116544634</ele>
        <time>2022-04-11T10:09:26Z</time>
      </trkpt>
      <trkpt lat="34.315936286894804" lon="109.00999376590428">
        <ele>408.5951501093805</ele>
        <time>2022-04-11T10:09:28Z</time>
      </trkpt>
      <trkpt lat="34.31600141026023" lon="109.00990260103956">
        <ele>408.3550439029932</ele>
        <time>2022-04-11T10:09:30Z</time>
      </trkpt>
      <trkpt lat="34.31607896164693" lon="109.00984130871686">
        <ele>408.5404813410714</ele>
        <time>2022-04-11T10:09:32Z</time>
      </trkpt>
      <trkpt lat="34.316396819115134" lon="109.00975458134896">
        <ele>408.0508030857891</ele>
        <time>2022-04-11T10:09:40Z</time>
      </trkpt>
      <trkpt lat="34.31656761158721" lon="109.00972047535863">
        <ele>407.7475184481591</ele>
        <time>2022-04-11T10:09:44Z</time>
      </trkpt>
      <trkpt lat="34.31677221978049" lon="109.00962929816035">
        <ele>408.29126704111695</ele>
        <time>2022-04-11T10:09:54Z</time>
      </trkpt>
      <trkpt lat="34.31699115847655" lon="109.00959068569665">
        <ele>408.6659644590691</ele>
        <time>2022-04-11T10:10:02Z</time>
      </trkpt>
      <trkpt lat="34.31721226698664" lon="109.0095147371929">
        <ele>408.9524629395455</ele>
        <time>2022-04-11T10:10:10Z</time>
      </trkpt>
      <trkpt lat="34.31734966489887" lon="109.00952552449728">
        <ele>409.06308887526393</ele>
        <time>2022-04-11T10:10:14Z</time>
      </trkpt>
      <trkpt lat="34.317488247187455" lon="109.00950966736048">
        <ele>409.07957291789353</ele>
        <time>2022-04-11T10:10:18Z</time>
      </trkpt>
      <trkpt lat="34.317727062500914" lon="109.00941626305926">
        <ele>409.3856389084831</ele>
        <time>2022-04-11T10:10:26Z</time>
      </trkpt>
      <trkpt lat="34.31796027685232" lon="109.00952195978059">
        <ele>409.20748035795987</ele>
        <time>2022-04-11T10:10:32Z</time>
      </trkpt>
      <trkpt lat="34.31803890529214" lon="109.00953599610634">
        <ele>409.7011682316661</ele>
        <time>2022-04-11T10:10:34Z</time>
      </trkpt>
      <trkpt lat="34.3181126374007" lon="109.00951306218235">
        <ele>410.4809632413089</ele>
        <time>2022-04-11T10:10:36Z</time>
      </trkpt>
      <trkpt lat="34.318252521131335" lon="109.00950746533934">
        <ele>409.0111258784309</ele>
        <time>2022-04-11T10:10:38Z</time>
      </trkpt>
      <trkpt lat="34.318768183554326" lon="109.0096281808356">
        <ele>407.21745664812624</ele>
        <time>2022-04-11T10:10:44Z</time>
      </trkpt>
      <trkpt lat="34.318938385532654" lon="109.00965628387593">
        <ele>407.0263186180964</ele>
        <time>2022-04-11T10:10:46Z</time>
      </trkpt>
      <trkpt lat="34.31926681673372" lon="109.00967116255357">
        <ele>407.0252671968192</ele>
        <time>2022-04-11T10:10:50Z</time>
      </trkpt>
      <trkpt lat="34.31972457773175" lon="109.009623006866">
        <ele>406.376166973263</ele>
        <time>2022-04-11T10:10:56Z</time>
      </trkpt>
      <trkpt lat="34.32020579389374" lon="109.00958790252868">
        <ele>405.99958437122405</ele>
        <time>2022-04-11T10:11:02Z</time>
      </trkpt>
      <trkpt lat="34.32065579117974" lon="109.00959600508993">
        <ele>404.3474026294425</ele>
        <time>2022-04-11T10:11:08Z</time>
      </trkpt>
      <trkpt lat="34.32124330709258" lon="109.00960012663298">
        <ele>402.62805227935314</ele>
        <time>2022-04-11T10:11:16Z</time>
      </trkpt>
      <trkpt lat="34.321755495441614" lon="109.00960829420612">
        <ele>401.5397570990026</ele>
        <time>2022-04-11T10:11:24Z</time>
      </trkpt>
      <trkpt lat="34.32225133045735" lon="109.00959057240931">
        <ele>401.16376743186265</ele>
        <time>2022-04-11T10:11:32Z</time>
      </trkpt>
      <trkpt lat="34.322689816767785" lon="109.00954850500035">
        <ele>398.2739062914625</ele>
        <time>2022-04-11T10:11:40Z</time>
      </trkpt>
      <trkpt lat="34.323128739799614" lon="109.00948039317755">
        <ele>396.9817571947351</ele>
        <time>2022-04-11T10:11:48Z</time>
      </trkpt>
      <trkpt lat="34.32349236287809" lon="109.00946478117822">
        <ele>397.19619629811496</ele>
        <time>2022-04-11T10:11:54Z</time>
      </trkpt>
      <trkpt lat="34.32371213638717" lon="109.00940895748914">
        <ele>396.80100835859776</ele>
        <time>2022-04-11T10:11:58Z</time>
      </trkpt>
      <trkpt lat="34.32389094941526" lon="109.00939301088847">
        <ele>395.96143152937293</ele>
        <time>2022-04-11T10:12:02Z</time>
      </trkpt>
      <trkpt lat="34.32426262552373" lon="109.00929177300114">
        <ele>396.2628719806671</ele>
        <time>2022-04-11T10:12:10Z</time>
      </trkpt>
      <trkpt lat="34.32441025838841" lon="109.0092672856558">
        <ele>395.32155609782785</ele>
        <time>2022-04-11T10:12:14Z</time>
      </trkpt>
      <trkpt lat="34.324882591631635" lon="109.00908178158896">
        <ele>393.88526756875217</ele>
        <time>2022-04-11T10:12:26Z</time>
      </trkpt>
      <trkpt lat="34.3252890876586" lon="109.00889639983883">
        <ele>395.02941080741584</ele>
        <time>2022-04-11T10:12:36Z</time>
      </trkpt>
      <trkpt lat="34.32560376869041" lon="109.00874508900193">
        <ele>395.2924378057942</ele>
        <time>2022-04-11T10:12:44Z</time>
      </trkpt>
      <trkpt lat="34.326035071324974" lon="109.00844713081737">
        <ele>397.1934933690354</ele>
        <time>2022-04-11T10:12:56Z</time>
      </trkpt>
      <trkpt lat="34.32634151460841" lon="109.00822395809206">
        <ele>395.7952519422397</ele>
        <time>2022-04-11T10:13:04Z</time>
      </trkpt>
      <trkpt lat="34.32674318534428" lon="109.00795141749927">
        <ele>394.43649515975267</ele>
        <time>2022-04-11T10:13:14Z</time>
      </trkpt>
      <trkpt lat="34.32711847896327" lon="109.00768061822728">
        <ele>393.8531925510615</ele>
        <time>2022-04-11T10:13:24Z</time>
      </trkpt>
      <trkpt lat="34.32749131629155" lon="109.00741119509667">
        <ele>394.26155704446137</ele>
        <time>2022-04-11T10:13:35Z</time>
      </trkpt>
      <trkpt lat="34.32768203550819" lon="109.0072574990568">
        <ele>394.2814923375845</ele>
        <time>2022-04-11T10:13:41Z</time>
      </trkpt>
      <trkpt lat="34.327898146091506" lon="109.00714882175988">
        <ele>394.0810331199318</ele>
        <time>2022-04-11T10:13:47Z</time>
      </trkpt>
      <trkpt lat="34.32806106248736" lon="109.00706285726596">
        <ele>394.80371331982315</ele>
        <time>2022-04-11T10:13:52Z</time>
      </trkpt>
      <trkpt lat="34.3281328118843" lon="109.00700700161256">
        <ele>394.525473526679</ele>
        <time>2022-04-11T10:13:56Z</time>
      </trkpt>
      <trkpt lat="34.32814724582979" lon="109.00706046903612">
        <ele>394.69788877945393</ele>
        <time>2022-04-11T10:14:03Z</time>
      </trkpt>
      <trkpt lat="34.32816375082913" lon="109.00673864310811">
        <ele>394.76896145008504</ele>
        <time>2022-04-11T10:14:38Z</time>
      </trkpt>
      <trkpt lat="34.32813590993452" lon="109.0063004515591">
        <ele>394.6026734095067</ele>
        <time>2022-04-11T10:14:50Z</time>
      </trkpt>
      <trkpt lat="34.32802487274264" lon="109.0058195038515">
        <ele>394.277721202001</ele>
        <time>2022-04-11T10:15:02Z</time>
      </trkpt>
      <trkpt lat="34.32796837032401" lon="109.00566205828045">
        <ele>394.06733712460846</ele>
        <time>2022-04-11T10:15:06Z</time>
      </trkpt>
      <trkpt lat="34.32792290154403" lon="109.00558201441696">
        <ele>394.975457736291</ele>
        <time>2022-04-11T10:15:08Z</time>
      </trkpt>
      <trkpt lat="34.32787781774902" lon="109.00531789322267">
        <ele>394.35706956591457</ele>
        <time>2022-04-11T10:15:14Z</time>
      </trkpt>
      <trkpt lat="34.32777687369778" lon="109.00501681476356">
        <ele>394.53393616713583</ele>
        <time>2022-04-11T10:15:22Z</time>
      </trkpt>
      <trkpt lat="34.3277776176944" lon="109.004917464036">
        <ele>394.2776415431872</ele>
        <time>2022-04-11T10:15:24Z</time>
      </trkpt>
      <trkpt lat="34.32772930858114" lon="109.00469771822009">
        <ele>394.8746970286593</ele>
        <time>2022-04-11T10:15:30Z</time>
      </trkpt>
      <trkpt lat="34.32774326775912" lon="109.00456886190418">
        <ele>394.7336710244417</ele>
        <time>2022-04-11T10:15:34Z</time>
      </trkpt>
      <trkpt lat="34.32785250281436" lon="109.00391163062292">
        <ele>395.4964578775689</ele>
        <time>2022-04-11T10:15:54Z</time>
      </trkpt>
      <trkpt lat="34.3278688577813" lon="109.0038181620932">
        <ele>395.38937228545547</ele>
        <time>2022-04-11T10:15:56Z</time>
      </trkpt>
      <trkpt lat="34.32786256895812" lon="109.00366081468532">
        <ele>395.37919630110264</ele>
        <time>2022-04-11T10:16:00Z</time>
      </trkpt>
      <trkpt lat="34.32783480869326" lon="109.00357971164664">
        <ele>395.6158399824053</ele>
        <time>2022-04-11T10:16:02Z</time>
      </trkpt>
      <trkpt lat="34.32786002222527" lon="109.00338616953843">
        <ele>394.7739146249369</ele>
        <time>2022-04-11T10:16:06Z</time>
      </trkpt>
      <trkpt lat="34.32781999003388" lon="109.00330949517557">
        <ele>394.6457235859707</ele>
        <time>2022-04-11T10:16:08Z</time>
      </trkpt>
      <trkpt lat="34.32784505238281" lon="109.00311781541293">
        <ele>394.9541955264285</ele>
        <time>2022-04-11T10:16:12Z</time>
      </trkpt>
      <trkpt lat="34.327847690138746" lon="109.00294865547916">
        <ele>395.2734207836911</ele>
        <time>2022-04-11T10:16:16Z</time>
      </trkpt>
      <trkpt lat="34.32787548657521" lon="109.00285931136192">
        <ele>395.42326236423105</ele>
        <time>2022-04-11T10:16:18Z</time>
      </trkpt>
      <trkpt lat="34.32791949853313" lon="109.00260400104388">
        <ele>396.2668910669163</ele>
        <time>2022-04-11T10:16:24Z</time>
      </trkpt>
      <trkpt lat="34.32790132137057" lon="109.00232703419762">
        <ele>395.55403855256736</ele>
        <time>2022-04-11T10:16:30Z</time>
      </trkpt>
      <trkpt lat="34.32791923255338" lon="109.00203462818006">
        <ele>395.5841509094462</ele>
        <time>2022-04-11T10:16:36Z</time>
      </trkpt>
      <trkpt lat="34.32788930078145" lon="109.00194487284072">
        <ele>395.70960898604244</ele>
        <time>2022-04-11T10:16:38Z</time>
      </trkpt>
      <trkpt lat="34.32783346206005" lon="109.00185524736156">
        <ele>395.5601543225348</ele>
        <time>2022-04-11T10:16:40Z</time>
      </trkpt>
      <trkpt lat="34.32785276047201" lon="109.00164861342387">
        <ele>396.0894148899242</ele>
        <time>2022-04-11T10:16:44Z</time>
      </trkpt>
      <trkpt lat="34.32789849091594" lon="109.00146974988692">
        <ele>396.00535262562335</ele>
        <time>2022-04-11T10:16:48Z</time>
      </trkpt>
      <trkpt lat="34.327890303012296" lon="109.00129105153634">
        <ele>395.4172552404925</ele>
        <time>2022-04-11T10:16:52Z</time>
      </trkpt>
      <trkpt lat="34.32784997933095" lon="109.00111299525543">
        <ele>395.37219003681093</ele>
        <time>2022-04-11T10:16:56Z</time>
      </trkpt>
      <trkpt lat="34.32781391695236" lon="109.00102411384344">
        <ele>394.63087162189186</ele>
        <time>2022-04-11T10:16:58Z</time>
      </trkpt>
      <trkpt lat="34.32797199406816" lon="109.00055255822153">
        <ele>395.4014633484185</ele>
        <time>2022-04-11T10:17:08Z</time>
      </trkpt>
      <trkpt lat="34.32795414940681" lon="109.00013640410485">
        <ele>395.2265323260799</ele>
        <time>2022-04-11T10:17:16Z</time>
      </trkpt>
      <trkpt lat="34.327909303650955" lon="109.00003927790769">
        <ele>394.7795604802668</ele>
        <time>2022-04-11T10:17:18Z</time>
      </trkpt>
      <trkpt lat="34.32787453544054" lon="108.9998656208587">
        <ele>393.702912138775</ele>
        <time>2022-04-11T10:17:22Z</time>
      </trkpt>
      <trkpt lat="34.327737550859254" lon="108.99955668946191">
        <ele>393.5638010306284</ele>
        <time>2022-04-11T10:17:28Z</time>
      </trkpt>
      <trkpt lat="34.3276671221367" lon="108.99935211900305">
        <ele>393.9310963600874</ele>
        <time>2022-04-11T10:17:34Z</time>
      </trkpt>
      <trkpt lat="34.32776417640545" lon="108.99813400250179">
        <ele>394.1579198669642</ele>
        <time>2022-04-11T10:17:36Z</time>
      </trkpt>
      <trkpt lat="34.3278613402617" lon="108.99752980854848">
        <ele>394.2638851935044</ele>
        <time>2022-04-11T10:17:46Z</time>
      </trkpt>
      <trkpt lat="34.32787000702366" lon="108.99741067316015">
        <ele>394.4033130072057</ele>
        <time>2022-04-11T10:17:48Z</time>
      </trkpt>
      <trkpt lat="34.327663767358125" lon="108.99792752621602">
        <ele>394.48326807655394</ele>
        <time>2022-04-11T10:17:54Z</time>
      </trkpt>
      <trkpt lat="34.3276818013805" lon="108.99752480074758">
        <ele>394.7440932933241</ele>
        <time>2022-04-11T10:18:00Z</time>
      </trkpt>
      <trkpt lat="34.32775727477056" lon="108.99726043129998">
        <ele>395.4242434957996</ele>
        <time>2022-04-11T10:18:02Z</time>
      </trkpt>
      <trkpt lat="34.3278688910456" lon="108.99669336966241">
        <ele>395.5623666252941</ele>
        <time>2022-04-11T10:18:06Z</time>
      </trkpt>
      <trkpt lat="34.3279425318884" lon="108.99607074914393">
        <ele>395.0100826388225</ele>
        <time>2022-04-11T10:18:14Z</time>
      </trkpt>
      <trkpt lat="34.32797728414767" lon="108.99576639844871">
        <ele>395.59778843354434</ele>
        <time>2022-04-11T10:18:18Z</time>
      </trkpt>
      <trkpt lat="34.327975267799914" lon="108.99543983012958">
        <ele>395.2806841060519</ele>
        <time>2022-04-11T10:18:24Z</time>
      </trkpt>
      <trkpt lat="34.3279866270849" lon="108.99533785939246">
        <ele>395.3658278603107</ele>
        <time>2022-04-11T10:18:26Z</time>
      </trkpt>
      <trkpt lat="34.327966107829" lon="108.99517569862529">
        <ele>395.07734702993184</ele>
        <time>2022-04-11T10:18:30Z</time>
      </trkpt>
      <trkpt lat="34.32791764161237" lon="108.99509404050383">
        <ele>396.28372740279883</ele>
        <time>2022-04-11T10:18:32Z</time>
      </trkpt>
      <trkpt lat="34.32788698847148" lon="108.99491476997798">
        <ele>395.503094821237</ele>
        <time>2022-04-11T10:18:36Z</time>
      </trkpt>
      <trkpt lat="34.32790142935454" lon="108.99481371612003">
        <ele>394.4886813433841</ele>
        <time>2022-04-11T10:18:38Z</time>
      </trkpt>
      <trkpt lat="34.327863797640056" lon="108.99472832498036">
        <ele>395.1265412112698</ele>
        <time>2022-04-11T10:18:40Z</time>
      </trkpt>
      <trkpt lat="34.32789966183289" lon="108.99451016835525">
        <ele>395.00562264584005</ele>
        <time>2022-04-11T10:18:44Z</time>
      </trkpt>
      <trkpt lat="34.32796356726314" lon="108.99427303972848">
        <ele>395.2208169689402</ele>
        <time>2022-04-11T10:18:48Z</time>
      </trkpt>
      <trkpt lat="34.327986588996765" lon="108.99394424861109">
        <ele>394.3903981940821</ele>
        <time>2022-04-11T10:18:54Z</time>
      </trkpt>
      <trkpt lat="34.32795660815089" lon="108.99368388799849">
        <ele>394.8353347023949</ele>
        <time>2022-04-11T10:19:00Z</time>
      </trkpt>
      <trkpt lat="34.32797151695854" lon="108.99352725556261">
        <ele>394.6235233088955</ele>
        <time>2022-04-11T10:19:02Z</time>
      </trkpt>
      <trkpt lat="34.327967271183404" lon="108.99319177038375">
        <ele>394.2925242371857</ele>
        <time>2022-04-11T10:19:08Z</time>
      </trkpt>
      <trkpt lat="34.32800426179516" lon="108.99272580746545">
        <ele>393.88062950316817</ele>
        <time>2022-04-11T10:19:16Z</time>
      </trkpt>
      <trkpt lat="34.32796938888832" lon="108.99256001810458">
        <ele>394.8273608516902</ele>
        <time>2022-04-11T10:19:20Z</time>
      </trkpt>
      <trkpt lat="34.328028145959564" lon="108.99217758324579">
        <ele>392.9465084541589</ele>
        <time>2022-04-11T10:19:26Z</time>
      </trkpt>
      <trkpt lat="34.32805578598843" lon="108.99172909785305">
        <ele>392.71529704425484</ele>
        <time>2022-04-11T10:19:34Z</time>
      </trkpt>
      <trkpt lat="34.32804845916249" lon="108.9914286389972">
        <ele>393.33777211792767</ele>
        <time>2022-04-11T10:19:42Z</time>
      </trkpt>
      <trkpt lat="34.32806671349114" lon="108.99126161920033">
        <ele>392.84755969420075</ele>
        <time>2022-04-11T10:19:46Z</time>
      </trkpt>
      <trkpt lat="34.32809485876413" lon="108.9912090295109">
        <ele>392.30012265220284</ele>
        <time>2022-04-11T10:19:58Z</time>
      </trkpt>
      <trkpt lat="34.32812674710804" lon="108.99100374284468">
        <ele>393.08012052997947</ele>
        <time>2022-04-11T10:20:17Z</time>
      </trkpt>
      <trkpt lat="34.32804747705739" lon="108.99061603840151">
        <ele>391.4619585964829</ele>
        <time>2022-04-11T10:20:25Z</time>
      </trkpt>
      <trkpt lat="34.32806518160682" lon="108.99026503382676">
        <ele>392.11122606974095</ele>
        <time>2022-04-11T10:20:33Z</time>
      </trkpt>
      <trkpt lat="34.328054945892546" lon="108.9899306146944">
        <ele>392.7654502745718</ele>
        <time>2022-04-11T10:20:41Z</time>
      </trkpt>
      <trkpt lat="34.32796177594255" lon="108.98939309750504">
        <ele>393.06183927692473</ele>
        <time>2022-04-11T10:20:53Z</time>
      </trkpt>
      <trkpt lat="34.327964810163095" lon="108.98912131552471">
        <ele>394.62178359366953</ele>
        <time>2022-04-11T10:21:01Z</time>
      </trkpt>
      <trkpt lat="34.32791269946682" lon="108.98881943989475">
        <ele>392.3112765792757</ele>
        <time>2022-04-11T10:21:05Z</time>
      </trkpt>
      <trkpt lat="34.3279059130807" lon="108.98867602135186">
        <ele>392.1509630922228</ele>
        <time>2022-04-11T10:21:07Z</time>
      </trkpt>
      <trkpt lat="34.32784643972667" lon="108.98852945026309">
        <ele>393.4376401975751</ele>
        <time>2022-04-11T10:21:11Z</time>
      </trkpt>
      <trkpt lat="34.327902339287796" lon="108.98816932692682">
        <ele>393.55403501726687</ele>
        <time>2022-04-11T10:21:17Z</time>
      </trkpt>
      <trkpt lat="34.32789036698035" lon="108.988067115023">
        <ele>393.3676086552441</ele>
        <time>2022-04-11T10:21:19Z</time>
      </trkpt>
      <trkpt lat="34.32792802929122" lon="108.98787064475015">
        <ele>394.3831963362172</ele>
        <time>2022-04-11T10:21:23Z</time>
      </trkpt>
      <trkpt lat="34.32790395263977" lon="108.98747045339215">
        <ele>394.7719460874796</ele>
        <time>2022-04-11T10:21:31Z</time>
      </trkpt>
      <trkpt lat="34.32787047553801" lon="108.98725413870659">
        <ele>395.4161438057199</ele>
        <time>2022-04-11T10:21:35Z</time>
      </trkpt>
      <trkpt lat="34.32792299666797" lon="108.98682063543049">
        <ele>395.3293935973197</ele>
        <time>2022-04-11T10:21:43Z</time>
      </trkpt>
      <trkpt lat="34.3279236777805" lon="108.9865464613586">
        <ele>394.8541315095499</ele>
        <time>2022-04-11T10:21:48Z</time>
      </trkpt>
      <trkpt lat="34.327942380031594" lon="108.98629774732306">
        <ele>394.3054147660732</ele>
        <time>2022-04-11T10:21:52Z</time>
      </trkpt>
      <trkpt lat="34.32791702274623" lon="108.98582288319062">
        <ele>392.8932379335165</ele>
        <time>2022-04-11T10:22:00Z</time>
      </trkpt>
      <trkpt lat="34.32801754173193" lon="108.98542308794669">
        <ele>392.82078929618</ele>
        <time>2022-04-11T10:22:08Z</time>
      </trkpt>
      <trkpt lat="34.328054922141206" lon="108.98509864783182">
        <ele>392.5218161912635</ele>
        <time>2022-04-11T10:22:14Z</time>
      </trkpt>
      <trkpt lat="34.3280543904189" lon="108.98477801899911">
        <ele>391.43442780151963</ele>
        <time>2022-04-11T10:22:22Z</time>
      </trkpt>
      <trkpt lat="34.328000365028004" lon="108.9845979037612">
        <ele>391.792598111555</ele>
        <time>2022-04-11T10:22:32Z</time>
      </trkpt>
      <trkpt lat="34.328072752638086" lon="108.98447310155153">
        <ele>391.87623626179993</ele>
        <time>2022-04-11T10:22:40Z</time>
      </trkpt>
      <trkpt lat="34.32808240404404" lon="108.98441347699027">
        <ele>391.8527750838548</ele>
        <time>2022-04-11T10:22:44Z</time>
      </trkpt>
      <trkpt lat="34.32816805798056" lon="108.98417204774917">
        <ele>392.33784599322826</ele>
        <time>2022-04-11T10:23:15Z</time>
      </trkpt>
      <trkpt lat="34.32808762171571" lon="108.98373588406076">
        <ele>393.8197499010712</ele>
        <time>2022-04-11T10:23:25Z</time>
      </trkpt>
      <trkpt lat="34.32810369645288" lon="108.983366398351">
        <ele>394.2720594741404</ele>
        <time>2022-04-11T10:23:31Z</time>
      </trkpt>
      <trkpt lat="34.328049475171845" lon="108.98283587675289">
        <ele>394.04094534367323</ele>
        <time>2022-04-11T10:23:41Z</time>
      </trkpt>
      <trkpt lat="34.328017751485575" lon="108.98258504488234">
        <ele>394.2341112131253</ele>
        <time>2022-04-11T10:23:46Z</time>
      </trkpt>
      <trkpt lat="34.32796063300929" lon="108.9824184367732">
        <ele>394.581693877466</ele>
        <time>2022-04-11T10:23:50Z</time>
      </trkpt>
      <trkpt lat="34.32800028696203" lon="108.98220028109611">
        <ele>394.5834784777835</ele>
        <time>2022-04-11T10:23:54Z</time>
      </trkpt>
      <trkpt lat="34.3280357462197" lon="108.98209878062826">
        <ele>393.7882834142074</ele>
        <time>2022-04-11T10:23:56Z</time>
      </trkpt>
      <trkpt lat="34.3280433815916" lon="108.98200661487114">
        <ele>394.8341540209949</ele>
        <time>2022-04-11T10:23:58Z</time>
      </trkpt>
      <trkpt lat="34.328013502054716" lon="108.98179981893865">
        <ele>394.8572783563286</ele>
        <time>2022-04-11T10:24:04Z</time>
      </trkpt>
      <trkpt lat="34.32798165051078" lon="108.98169882996123">
        <ele>394.55328134913</ele>
        <time>2022-04-11T10:24:06Z</time>
      </trkpt>
      <trkpt lat="34.32799838440521" lon="108.98151563875305">
        <ele>394.4244735473767</ele>
        <time>2022-04-11T10:24:10Z</time>
      </trkpt>
      <trkpt lat="34.32803090988813" lon="108.98143600499773">
        <ele>395.29693391826004</ele>
        <time>2022-04-11T10:24:12Z</time>
      </trkpt>
      <trkpt lat="34.32802440862704" lon="108.98122280422488">
        <ele>395.5438080970198</ele>
        <time>2022-04-11T10:24:20Z</time>
      </trkpt>
      <trkpt lat="34.32813145541582" lon="108.98113055038567">
        <ele>394.71642605308443</ele>
        <time>2022-04-11T10:24:34Z</time>
      </trkpt>
      <trkpt lat="34.32826788555246" lon="108.9810041597325">
        <ele>394.45187617931515</ele>
        <time>2022-04-11T10:24:57Z</time>
      </trkpt>
      <trkpt lat="34.32830323247514" lon="108.98088796696503">
        <ele>395.0971750598401</ele>
        <time>2022-04-11T10:25:05Z</time>
      </trkpt>
      <trkpt lat="34.328376208461556" lon="108.98082096840851">
        <ele>394.9511511037126</ele>
        <time>2022-04-11T10:25:11Z</time>
      </trkpt>
      <trkpt lat="34.32845647997026" lon="108.98079794490458">
        <ele>394.55621594469994</ele>
        <time>2022-04-11T10:25:23Z</time>
      </trkpt>
      <trkpt lat="34.32856342599748" lon="108.98077152866159">
        <ele>395.7770097218454</ele>
        <time>2022-04-11T10:25:32Z</time>
      </trkpt>
      <trkpt lat="34.32863217173991" lon="108.98071542084482">
        <ele>396.31673560943455</ele>
        <time>2022-04-11T10:25:38Z</time>
      </trkpt>
      <trkpt lat="34.328669794407865" lon="108.98060017851518">
        <ele>396.3745433874428</ele>
        <time>2022-04-11T10:25:44Z</time>
      </trkpt>
      <trkpt lat="34.328669843895696" lon="108.98050027291589">
        <ele>396.1289322562516</ele>
        <time>2022-04-11T10:25:50Z</time>
      </trkpt>
      <trkpt lat="34.32865008585376" lon="108.98040976091279">
        <ele>395.23146941978484</ele>
        <time>2022-04-11T10:25:56Z</time>
      </trkpt>
      <trkpt lat="34.32860726834259" lon="108.9803427847569">
        <ele>396.2135966960341</ele>
        <time>2022-04-11T10:26:10Z</time>
      </trkpt>
      <trkpt lat="34.328299062416285" lon="108.98022885408471">
        <ele>395.666895522736</ele>
        <time>2022-04-11T11:34:22Z</time>
      </trkpt>
      <trkpt lat="34.328337508393304" lon="108.98023327951398">
        <ele>395.928828407079</ele>
        <time>2022-04-11T11:34:27Z</time>
      </trkpt>
    </trkseg>
  </trk>
</gpx>