<?xml version="1.0" encoding="UTF-8"?>
<gpx xmlns="http://www.topografix.com/GPX/1/1" xmlns:gpxtpx="http://www.garmin.com/xmlschemas/TrackPointExtension/v1" xmlns:xsi="http://www.w3.org/2001/XMLSchema-instance" xsi:schemaLocation="http://www.topografix.com/GPX/1/1 http://www.topografix.com/GPX/1/1/gpx.xsd" version="1.1" creator="gpx.py -- https://github.com/tkrajina/gpxpy">
  <trk>
    <name>gpx from keep</name>
    <type>Run</type>
    <trkseg>
      <trkpt lat="34.297775453987754" lon="108.71038141311286">
        <ele>413.1371087885763</ele>
        <time>2026-09-20T11:33:04Z</time>
      </trkpt>
      <trkpt lat="34.29779406886438" lon="108.71048853050209">
        <ele>391.81119987558714</ele>
        <time>2026-09-20T11:33:54Z</time>
      </trkpt>
      <trkpt lat="34.29759510986504" lon="108.71062672385163">
        <ele>392.4551190010469</ele>
        <time>2026-09-20T11:34:00Z</time>
      </trkpt>
      <trkpt lat="34.29774319751014" lon="108.71025866147058">
        <ele>388.7391586303711</ele>
        <time>2026-09-20T11:34:04Z</time>
      </trkpt>
      <trkpt lat="34.29773392817484" lon="108.71020106933523">
        <ele>389.12410736083984</ele>
        <time>2026-09-20T11:34:07Z</time>
      </trkpt>
      <trkpt lat="34.29779137171822" lon="108.71011499897695">
        <ele>388.96828514896333</ele>
        <time>2026-09-20T11:34:13Z</time>
      </trkpt>
      <trkpt lat="34.298012369802905" lon="108.71015753847793">
        <ele>386.41884678509086</ele>
        <time>2026-09-20T11:34:22Z</time>
      </trkpt>
      <trkpt lat="34.298052741517466" lon="108.71028520590335">
        <ele>387.069847448729</ele>
        <time>2026-09-20T11:34:28Z</time>
      </trkpt>
      <trkpt lat="34.29807273172078" lon="108.71058449592128">
        <ele>389.088395351544</ele>
        <time>2026-09-20T11:34:40Z</time>
      </trkpt>
      <trkpt lat="34.298119561913445" lon="108.71072595753287">
        <ele>389.70074381213635</ele>
        <time>2026-09-20T11:34:46Z</time>
      </trkpt>
      <trkpt lat="34.298107241174904" lon="108.71080165389073">
        <ele>389.5621687369421</ele>
        <time>2026-09-20T11:34:49Z</time>
      </trkpt>
      <trkpt lat="34.298142587632505" lon="108.7108770693735">
        <ele>390.49980318918824</ele>
        <time>2026-09-20T11:34:52Z</time>
      </trkpt>
      <trkpt lat="34.29813680571428" lon="108.71102963240554">
        <ele>390.68111823964864</ele>
        <time>2026-09-20T11:34:58Z</time>
      </trkpt>
      <trkpt lat="34.298173992549" lon="108.7113094074554">
        <ele>389.8993117092177</ele>
        <time>2026-09-20T11:35:10Z</time>
      </trkpt>
      <trkpt lat="34.29816308127437" lon="108.71137602212254">
        <ele>389.9153891671449</ele>
        <time>2026-09-20T11:35:13Z</time>
      </trkpt>
      <trkpt lat="34.29790337432411" lon="108.7115124317451">
        <ele>389.62124861683697</ele>
        <time>2026-09-20T11:35:28Z</time>
      </trkpt>
      <trkpt lat="34.29778752984548" lon="108.71154537820257">
        <ele>389.02467143163085</ele>
        <time>2026-09-20T11:35:34Z</time>
      </trkpt>
      <trkpt lat="34.297479461404826" lon="108.71168389148833">
        <ele>390.3234895141795</ele>
        <time>2026-09-20T11:35:52Z</time>
      </trkpt>
      <trkpt lat="34.29727611416828" lon="108.71175033630543">
        <ele>390.2925594449043</ele>
        <time>2026-09-20T11:36:04Z</time>
      </trkpt>
      <trkpt lat="34.29718314878384" lon="108.71180148457118">
        <ele>390.8976315231994</ele>
        <time>2026-09-20T11:36:11Z</time>
      </trkpt>
      <trkpt lat="34.29701970881768" lon="108.71184611721391">
        <ele>389.6854985766113</ele>
        <time>2026-09-20T11:36:23Z</time>
      </trkpt>
      <trkpt lat="34.29676673204071" lon="108.71197036169202">
        <ele>389.61377284955233</ele>
        <time>2026-09-20T11:36:38Z</time>
      </trkpt>
      <trkpt lat="34.296664653532154" lon="108.71202237068974">
        <ele>389.21152490284294</ele>
        <time>2026-09-20T11:36:44Z</time>
      </trkpt>
      <trkpt lat="34.296518848247615" lon="108.71206043409715">
        <ele>388.5568227432668</ele>
        <time>2026-09-20T11:36:53Z</time>
      </trkpt>
      <trkpt lat="34.2964222869864" lon="108.712116627125">
        <ele>388.89290024805814</ele>
        <time>2026-09-20T11:36:59Z</time>
      </trkpt>
      <trkpt lat="34.29637548872301" lon="108.7121153719885">
        <ele>389.4293618593365</ele>
        <time>2026-09-20T11:37:02Z</time>
      </trkpt>
      <trkpt lat="34.2962910559985" lon="108.71203478012477">
        <ele>388.4974631667137</ele>
        <time>2026-09-20T11:37:08Z</time>
      </trkpt>
      <trkpt lat="34.296240934866155" lon="108.71166742503696">
        <ele>387.8128265561536</ele>
        <time>2026-09-20T11:37:26Z</time>
      </trkpt>
      <trkpt lat="34.29619865061177" lon="108.71130112657929">
        <ele>389.3840599656105</ele>
        <time>2026-09-20T11:37:44Z</time>
      </trkpt>
      <trkpt lat="34.296156656526826" lon="108.7109391175252">
        <ele>389.46710535883904</ele>
        <time>2026-09-20T11:38:02Z</time>
      </trkpt>
      <trkpt lat="34.29611872642231" lon="108.71061122143809">
        <ele>390.16242497600615</ele>
        <time>2026-09-20T11:38:18Z</time>
      </trkpt>
      <trkpt lat="34.29604758369076" lon="108.71027575568237">
        <ele>391.0252795461565</ele>
        <time>2026-09-20T11:38:34Z</time>
      </trkpt>
      <trkpt lat="34.29599095001601" lon="108.7099156934814">
        <ele>390.5414260709658</ele>
        <time>2026-09-20T11:38:52Z</time>
      </trkpt>
      <trkpt lat="34.29595648333737" lon="108.7095579051577">
        <ele>390.24642497859895</ele>
        <time>2026-09-20T11:39:10Z</time>
      </trkpt>
      <trkpt lat="34.29589339073288" lon="108.70919789558809">
        <ele>390.8274056054652</ele>
        <time>2026-09-20T11:39:28Z</time>
      </trkpt>
      <trkpt lat="34.295855265395865" lon="108.7089754829743">
        <ele>390.29445056058466</ele>
        <time>2026-09-20T11:39:40Z</time>
      </trkpt>
      <trkpt lat="34.295840672935114" lon="108.70861604470129">
        <ele>390.84296510834247</ele>
        <time>2026-09-20T11:39:58Z</time>
      </trkpt>
      <trkpt lat="34.29580619773948" lon="108.70824523076982">
        <ele>390.7158484933898</ele>
        <time>2026-09-20T11:40:16Z</time>
      </trkpt>
      <trkpt lat="34.2957673776618" lon="108.70786721144515">
        <ele>390.652455043979</ele>
        <time>2026-09-20T11:40:35Z</time>
      </trkpt>
      <trkpt lat="34.295747490575955" lon="108.70779284866155">
        <ele>390.0394564708695</ele>
        <time>2026-09-20T11:40:39Z</time>
      </trkpt>
      <trkpt lat="34.29577464102326" lon="108.70743232600967">
        <ele>390.12744583841413</ele>
        <time>2026-09-20T11:40:56Z</time>
      </trkpt>
      <trkpt lat="34.295725433109524" lon="108.70716791833928">
        <ele>388.6353738307953</ele>
        <time>2026-09-20T11:41:11Z</time>
      </trkpt>
      <trkpt lat="34.295713845718765" lon="108.7069385605648">
        <ele>388.7217064835131</ele>
        <time>2026-09-20T11:41:23Z</time>
      </trkpt>
      <trkpt lat="34.29566198981501" lon="108.70675377123814">
        <ele>390.5813575098291</ele>
        <time>2026-09-20T11:41:32Z</time>
      </trkpt>
      <trkpt lat="34.2956438731208" lon="108.7064220709203">
        <ele>388.7401126874611</ele>
        <time>2026-09-20T11:41:47Z</time>
      </trkpt>
      <trkpt lat="34.29566345575598" lon="108.70629691297673">
        <ele>388.365071143955</ele>
        <time>2026-09-20T11:41:53Z</time>
      </trkpt>
      <trkpt lat="34.2957603716582" lon="108.70606626767504">
        <ele>388.5339247249067</ele>
        <time>2026-09-20T11:42:05Z</time>
      </trkpt>
      <trkpt lat="34.29606449531116" lon="108.70604425043203">
        <ele>389.2595280120149</ele>
        <time>2026-09-20T11:42:23Z</time>
      </trkpt>
      <trkpt lat="34.29638750564082" lon="108.70596793012079">
        <ele>389.19610242638737</ele>
        <time>2026-09-20T11:42:42Z</time>
      </trkpt>
      <trkpt lat="34.29666109316438" lon="108.70591667558124">
        <ele>388.13355856668204</ele>
        <time>2026-09-20T11:42:58Z</time>
      </trkpt>
      <trkpt lat="34.29696309584323" lon="108.70586357135555">
        <ele>388.54123996850103</ele>
        <time>2026-09-20T11:43:16Z</time>
      </trkpt>
      <trkpt lat="34.297271693407815" lon="108.70582124398516">
        <ele>389.5428754584864</ele>
        <time>2026-09-20T11:43:34Z</time>
      </trkpt>
      <trkpt lat="34.29742382480026" lon="108.70577456094055">
        <ele>388.75629214104265</ele>
        <time>2026-09-20T11:43:43Z</time>
      </trkpt>
      <trkpt lat="34.29753425919959" lon="108.70577383162573">
        <ele>389.5512100746855</ele>
        <time>2026-09-20T11:43:49Z</time>
      </trkpt>
      <trkpt lat="34.29763366338971" lon="108.70574812743646">
        <ele>388.86791019979864</ele>
        <time>2026-09-20T11:43:55Z</time>
      </trkpt>
      <trkpt lat="34.29780213162036" lon="108.70574084556416">
        <ele>388.8021504636854</ele>
        <time>2026-09-20T11:44:04Z</time>
      </trkpt>
      <trkpt lat="34.2979719225024" lon="108.70566555468835">
        <ele>388.47712651547045</ele>
        <time>2026-09-20T11:44:19Z</time>
      </trkpt>
      <trkpt lat="34.29814779033604" lon="108.70566445491664">
        <ele>388.17420086823404</ele>
        <time>2026-09-20T11:44:31Z</time>
      </trkpt>
      <trkpt lat="34.29835679150308" lon="108.70563091061622">
        <ele>388.1847192905843</ele>
        <time>2026-09-20T11:44:43Z</time>
      </trkpt>
      <trkpt lat="34.298397491400856" lon="108.70560640228021">
        <ele>388.5618187887594</ele>
        <time>2026-09-20T11:44:47Z</time>
      </trkpt>
      <trkpt lat="34.298430538383016" lon="108.70555650781913">
        <ele>388.6061421977356</ele>
        <time>2026-09-20T11:44:51Z</time>
      </trkpt>
      <trkpt lat="34.29855334036941" lon="108.70557802436272">
        <ele>390.39691303577274</ele>
        <time>2026-09-20T11:44:59Z</time>
      </trkpt>
      <trkpt lat="34.2988199778658" lon="108.70554041076907">
        <ele>389.02873880416155</ele>
        <time>2026-09-20T11:45:15Z</time>
      </trkpt>
      <trkpt lat="34.29886786625006" lon="108.70551933449583">
        <ele>390.0707264719531</ele>
        <time>2026-09-20T11:45:18Z</time>
      </trkpt>
      <trkpt lat="34.29892363307466" lon="108.70551873901465">
        <ele>389.6308700060472</ele>
        <time>2026-09-20T11:45:21Z</time>
      </trkpt>
      <trkpt lat="34.29897430823937" lon="108.70549677093886">
        <ele>389.70887434948236</ele>
        <time>2026-09-20T11:45:24Z</time>
      </trkpt>
      <trkpt lat="34.29904658828493" lon="108.70549267937886">
        <ele>389.69125316198915</ele>
        <time>2026-09-20T11:45:30Z</time>
      </trkpt>
      <trkpt lat="34.29909728368915" lon="108.70545355090795">
        <ele>389.61107135470957</ele>
        <time>2026-09-20T11:45:36Z</time>
      </trkpt>
      <trkpt lat="34.29920127138933" lon="108.70544114071744">
        <ele>389.68426250480115</ele>
        <time>2026-09-20T11:45:42Z</time>
      </trkpt>
      <trkpt lat="34.299219037445525" lon="108.70551631664871">
        <ele>390.7278067013249</ele>
        <time>2026-09-20T11:45:48Z</time>
      </trkpt>
      <trkpt lat="34.299165054726444" lon="108.70552409005187">
        <ele>390.35250213742256</ele>
        <time>2026-09-20T11:45:51Z</time>
      </trkpt>
      <trkpt lat="34.29898654250786" lon="108.70559651548378">
        <ele>390.01915847323835</ele>
        <time>2026-09-20T11:46:00Z</time>
      </trkpt>
      <trkpt lat="34.29874881021708" lon="108.70565428329589">
        <ele>389.2001592889428</ele>
        <time>2026-09-20T11:46:12Z</time>
      </trkpt>
      <trkpt lat="34.2984642978932" lon="108.70568853520234">
        <ele>388.87219573464245</ele>
        <time>2026-09-20T11:46:27Z</time>
      </trkpt>
      <trkpt lat="34.29841711553987" lon="108.70568600732396">
        <ele>389.66634637955576</ele>
        <time>2026-09-20T11:46:30Z</time>
      </trkpt>
      <trkpt lat="34.29812571119632" lon="108.70575226759475">
        <ele>388.6527585890144</ele>
        <time>2026-09-20T11:46:47Z</time>
      </trkpt>
      <trkpt lat="34.297825003502325" lon="108.70580434556402">
        <ele>388.10610539093614</ele>
        <time>2026-09-20T11:47:03Z</time>
      </trkpt>
      <trkpt lat="34.297634316634486" lon="108.70583629798826">
        <ele>388.74821099918336</ele>
        <time>2026-09-20T11:47:13Z</time>
      </trkpt>
      <trkpt lat="34.29752542435351" lon="108.70581554473478">
        <ele>389.1616406328976</ele>
        <time>2026-09-20T11:47:19Z</time>
      </trkpt>
      <trkpt lat="34.29735686444535" lon="108.70586126414504">
        <ele>388.576107067056</ele>
        <time>2026-09-20T11:47:28Z</time>
      </trkpt>
      <trkpt lat="34.29731154007051" lon="108.70589178392527">
        <ele>388.63577210716903</ele>
        <time>2026-09-20T11:47:31Z</time>
      </trkpt>
      <trkpt lat="34.29702388695186" lon="108.70593813328365">
        <ele>388.7351989541203</ele>
        <time>2026-09-20T11:47:46Z</time>
      </trkpt>
      <trkpt lat="34.29678764990605" lon="108.70601787649782">
        <ele>387.572921756655</ele>
        <time>2026-09-20T11:47:58Z</time>
      </trkpt>
      <trkpt lat="34.29668170739541" lon="108.7060158594203">
        <ele>388.199873669073</ele>
        <time>2026-09-20T11:48:04Z</time>
      </trkpt>
      <trkpt lat="34.29660982323852" lon="108.70605506241807">
        <ele>387.949492813088</ele>
        <time>2026-09-20T11:48:10Z</time>
      </trkpt>
      <trkpt lat="34.29651201549216" lon="108.70604884790413">
        <ele>388.1564582325518</ele>
        <time>2026-09-20T11:48:16Z</time>
      </trkpt>
      <trkpt lat="34.29620274106591" lon="108.70610667813008">
        <ele>388.0411422010511</ele>
        <time>2026-09-20T11:48:34Z</time>
      </trkpt>
      <trkpt lat="34.29591593205076" lon="108.70615111161192">
        <ele>388.7278808141127</ele>
        <time>2026-09-20T11:48:51Z</time>
      </trkpt>
      <trkpt lat="34.29576557275088" lon="108.70615692773018">
        <ele>388.70745571050793</ele>
        <time>2026-09-20T11:48:59Z</time>
      </trkpt>
      <trkpt lat="34.29576502662308" lon="108.70607073432927">
        <ele>387.72564349044114</ele>
        <time>2026-09-20T11:49:07Z</time>
      </trkpt>
      <trkpt lat="34.296011720047815" lon="108.70603325131076">
        <ele>389.95814676303416</ele>
        <time>2026-09-20T11:49:22Z</time>
      </trkpt>
      <trkpt lat="34.29607163545771" lon="108.70603842501077">
        <ele>388.8834114121273</ele>
        <time>2026-09-20T11:49:25Z</time>
      </trkpt>
      <trkpt lat="34.296173747581115" lon="108.70599518864641">
        <ele>388.8392128273845</ele>
        <time>2026-09-20T11:49:31Z</time>
      </trkpt>
      <trkpt lat="34.29622826454375" lon="108.70599401326632">
        <ele>389.3039980856702</ele>
        <time>2026-09-20T11:49:34Z</time>
      </trkpt>
      <trkpt lat="34.296325215870034" lon="108.70595710753011">
        <ele>389.7632587682456</ele>
        <time>2026-09-20T11:49:40Z</time>
      </trkpt>
      <trkpt lat="34.296639918146596" lon="108.70592418395658">
        <ele>388.117703512311</ele>
        <time>2026-09-20T11:49:58Z</time>
      </trkpt>
      <trkpt lat="34.29675032327463" lon="108.70591779861533">
        <ele>388.39203843008727</ele>
        <time>2026-09-20T11:50:04Z</time>
      </trkpt>
      <trkpt lat="34.29706454030644" lon="108.70584979091737">
        <ele>390.02234430331737</ele>
        <time>2026-09-20T11:50:22Z</time>
      </trkpt>
      <trkpt lat="34.2971190679979" lon="108.7058301292915">
        <ele>389.3292208360508</ele>
        <time>2026-09-20T11:50:25Z</time>
      </trkpt>
      <trkpt lat="34.2974397442445" lon="108.70579187427902">
        <ele>388.5220237635076</ele>
        <time>2026-09-20T11:50:43Z</time>
      </trkpt>
      <trkpt lat="34.297765979019864" lon="108.7057197807187">
        <ele>387.89367024227977</ele>
        <time>2026-09-20T11:51:01Z</time>
      </trkpt>
      <trkpt lat="34.29790890179509" lon="108.7057087694815">
        <ele>388.40792902279645</ele>
        <time>2026-09-20T11:51:09Z</time>
      </trkpt>
      <trkpt lat="34.298200008613435" lon="108.7056444364133">
        <ele>388.1508099939674</ele>
        <time>2026-09-20T11:51:28Z</time>
      </trkpt>
      <trkpt lat="34.29848433476486" lon="108.70560649360337">
        <ele>388.30179292708635</ele>
        <time>2026-09-20T11:51:46Z</time>
      </trkpt>
      <trkpt lat="34.29864474464057" lon="108.70558354906248">
        <ele>389.39712702389807</ele>
        <time>2026-09-20T11:51:55Z</time>
      </trkpt>
      <trkpt lat="34.29869880379512" lon="108.70555493082452">
        <ele>389.0013142777607</ele>
        <time>2026-09-20T11:51:58Z</time>
      </trkpt>
      <trkpt lat="34.29882094941598" lon="108.7055369278198">
        <ele>387.2828015200794</ele>
        <time>2026-09-20T11:52:07Z</time>
      </trkpt>
      <trkpt lat="34.29889463888508" lon="108.70550210689017">
        <ele>388.09262688830495</ele>
        <time>2026-09-20T11:52:13Z</time>
      </trkpt>
      <trkpt lat="34.29918079181276" lon="108.70544637611637">
        <ele>388.85925617069006</ele>
        <time>2026-09-20T11:52:34Z</time>
      </trkpt>
      <trkpt lat="34.29925310441487" lon="108.70548373272652">
        <ele>389.91963465325534</ele>
        <time>2026-09-20T11:52:40Z</time>
      </trkpt>
      <trkpt lat="34.298971187028364" lon="108.70558520141465">
        <ele>388.695014340803</ele>
        <time>2026-09-20T11:52:55Z</time>
      </trkpt>
      <trkpt lat="34.298735023755256" lon="108.70562080953798">
        <ele>388.3858162686229</ele>
        <time>2026-09-20T11:53:07Z</time>
      </trkpt>
      <trkpt lat="34.29843714782756" lon="108.70568898709065">
        <ele>388.3092219037935</ele>
        <time>2026-09-20T11:53:23Z</time>
      </trkpt>
      <trkpt lat="34.29812352632151" lon="108.70574897058992">
        <ele>388.13803184311837</ele>
        <time>2026-09-20T11:53:41Z</time>
      </trkpt>
      <trkpt lat="34.29780151740941" lon="108.70580778812824">
        <ele>387.4807216534391</ele>
        <time>2026-09-20T11:53:59Z</time>
      </trkpt>
      <trkpt lat="34.29751476725676" lon="108.7058555294321">
        <ele>388.59260395541787</ele>
        <time>2026-09-20T11:54:14Z</time>
      </trkpt>
      <trkpt lat="34.297229891867396" lon="108.70589250412557">
        <ele>388.6719043646008</ele>
        <time>2026-09-20T11:54:29Z</time>
      </trkpt>
      <trkpt lat="34.29711793482113" lon="108.70593824368093">
        <ele>389.000424426049</ele>
        <time>2026-09-20T11:54:35Z</time>
      </trkpt>
      <trkpt lat="34.29688755113489" lon="108.70597273964066">
        <ele>389.17804102785885</ele>
        <time>2026-09-20T11:54:47Z</time>
      </trkpt>
      <trkpt lat="34.296770089794215" lon="108.70601284802412">
        <ele>387.8721324708313</ele>
        <time>2026-09-20T11:54:53Z</time>
      </trkpt>
      <trkpt lat="34.29645677675295" lon="108.70604247115489">
        <ele>388.8848280142993</ele>
        <time>2026-09-20T11:55:10Z</time>
      </trkpt>
      <trkpt lat="34.296386088352584" lon="108.7060730119149">
        <ele>388.6363741811365</ele>
        <time>2026-09-20T11:55:14Z</time>
      </trkpt>
      <trkpt lat="34.29609916280895" lon="108.70609814156127">
        <ele>388.39967355690897</ele>
        <time>2026-09-20T11:55:30Z</time>
      </trkpt>
      <trkpt lat="34.29595255828337" lon="108.70615308953094">
        <ele>389.19229011889547</ele>
        <time>2026-09-20T11:55:42Z</time>
      </trkpt>
      <trkpt lat="34.29577647656545" lon="108.7061551674736">
        <ele>387.93308424111456</ele>
        <time>2026-09-20T11:55:54Z</time>
      </trkpt>
      <trkpt lat="34.295737205265645" lon="108.70611859520862">
        <ele>388.28780910372734</ele>
        <time>2026-09-20T11:55:57Z</time>
      </trkpt>
      <trkpt lat="34.29576204800077" lon="108.70606868154417">
        <ele>389.17633188981563</ele>
        <time>2026-09-20T11:56:00Z</time>
      </trkpt>
      <trkpt lat="34.29608537230388" lon="108.70602451839484">
        <ele>388.36973665095866</ele>
        <time>2026-09-20T11:56:18Z</time>
      </trkpt>
      <trkpt lat="34.29635956119121" lon="108.70598058093317">
        <ele>389.4659717399627</ele>
        <time>2026-09-20T11:56:33Z</time>
      </trkpt>
      <trkpt lat="34.29664885235913" lon="108.70594107921465">
        <ele>388.5340931592509</ele>
        <time>2026-09-20T11:56:48Z</time>
      </trkpt>
      <trkpt lat="34.29687826970828" lon="108.7058776198392">
        <ele>389.09399670548737</ele>
        <time>2026-09-20T11:57:00Z</time>
      </trkpt>
      <trkpt lat="34.2969273044191" lon="108.70588837334925">
        <ele>388.71232465468347</ele>
        <time>2026-09-20T11:57:03Z</time>
      </trkpt>
      <trkpt lat="34.297226059389885" lon="108.70583198402574">
        <ele>388.6114039225504</ele>
        <time>2026-09-20T11:57:19Z</time>
      </trkpt>
      <trkpt lat="34.29735466383896" lon="108.70582224545207">
        <ele>388.1753609078005</ele>
        <time>2026-09-20T11:57:26Z</time>
      </trkpt>
      <trkpt lat="34.297587142345094" lon="108.70574720081457">
        <ele>389.4107653638348</ele>
        <time>2026-09-20T11:57:38Z</time>
      </trkpt>
      <trkpt lat="34.297641690460985" lon="108.70575743337744">
        <ele>389.3022323939949</ele>
        <time>2026-09-20T11:57:41Z</time>
      </trkpt>
      <trkpt lat="34.29792424801498" lon="108.70571138100539">
        <ele>388.9664652235806</ele>
        <time>2026-09-20T11:57:56Z</time>
      </trkpt>
      <trkpt lat="34.298218189453074" lon="108.70563544229192">
        <ele>387.9642408005893</ele>
        <time>2026-09-20T11:58:14Z</time>
      </trkpt>
      <trkpt lat="34.298533235041845" lon="108.7055979258153">
        <ele>388.63547754846513</ele>
        <time>2026-09-20T11:58:32Z</time>
      </trkpt>
      <trkpt lat="34.29884090842681" lon="108.70553183698357">
        <ele>388.34787348564714</ele>
        <time>2026-09-20T11:58:56Z</time>
      </trkpt>
      <trkpt lat="34.298992690754396" lon="108.70550616057582">
        <ele>388.67187113408</ele>
        <time>2026-09-20T11:59:05Z</time>
      </trkpt>
      <trkpt lat="34.29911277369828" lon="108.70545833565693">
        <ele>390.0982290627435</ele>
        <time>2026-09-20T11:59:14Z</time>
      </trkpt>
      <trkpt lat="34.29922272338957" lon="108.70544867005107">
        <ele>389.4002613425255</ele>
        <time>2026-09-20T11:59:21Z</time>
      </trkpt>
      <trkpt lat="34.29929400662888" lon="108.70553646450236">
        <ele>389.9742543939501</ele>
        <time>2026-09-20T11:59:28Z</time>
      </trkpt>
      <trkpt lat="34.299357825115806" lon="108.7059077897416">
        <ele>389.74834374152124</ele>
        <time>2026-09-20T11:59:46Z</time>
      </trkpt>
      <trkpt lat="34.29940024661648" lon="108.70603012977885">
        <ele>390.62136854976416</ele>
        <time>2026-09-20T11:59:52Z</time>
      </trkpt>
      <trkpt lat="34.29944428555973" lon="108.70626745728977">
        <ele>389.7990832468495</ele>
        <time>2026-09-20T12:00:04Z</time>
      </trkpt>
      <trkpt lat="34.29944854405266" lon="108.70646461992726">
        <ele>391.45923613291234</ele>
        <time>2026-09-20T12:00:13Z</time>
      </trkpt>
      <trkpt lat="34.29950265619865" lon="108.7068406966237">
        <ele>392.126548204571</ele>
        <time>2026-09-20T12:00:31Z</time>
      </trkpt>
      <trkpt lat="34.29953724466586" lon="108.70702548531993">
        <ele>390.98213070072234</ele>
        <time>2026-09-20T12:00:43Z</time>
      </trkpt>
      <trkpt lat="34.299594500529956" lon="108.70703266107057">
        <ele>393.45463108830154</ele>
        <time>2026-09-20T12:00:49Z</time>
      </trkpt>
      <trkpt lat="34.29961194944317" lon="108.70708819880825">
        <ele>392.8649632297456</ele>
        <time>2026-09-20T12:00:52Z</time>
      </trkpt>
      <trkpt lat="34.29960671945703" lon="108.70715043539916">
        <ele>391.31082373671234</ele>
        <time>2026-09-20T12:00:55Z</time>
      </trkpt>
      <trkpt lat="34.29962507071249" lon="108.70720575852079">
        <ele>391.495451672934</ele>
        <time>2026-09-20T12:00:58Z</time>
      </trkpt>
      <trkpt lat="34.29968508215958" lon="108.7075552121662">
        <ele>390.7731883767992</ele>
        <time>2026-09-20T12:01:13Z</time>
      </trkpt>
      <trkpt lat="34.29972482422664" lon="108.7079125097362">
        <ele>391.2354185730219</ele>
        <time>2026-09-20T12:01:29Z</time>
      </trkpt>
      <trkpt lat="34.29974312296534" lon="108.70804744936927">
        <ele>389.9041897710413</ele>
        <time>2026-09-20T12:01:35Z</time>
      </trkpt>
      <trkpt lat="34.29976822142765" lon="108.70811452639123">
        <ele>391.6736850719899</ele>
        <time>2026-09-20T12:01:38Z</time>
      </trkpt>
      <trkpt lat="34.299762738849815" lon="108.7082439701705">
        <ele>391.8326482269913</ele>
        <time>2026-09-20T12:01:44Z</time>
      </trkpt>
      <trkpt lat="34.29980112953985" lon="108.70858298847106">
        <ele>390.61583152692765</ele>
        <time>2026-09-20T12:01:59Z</time>
      </trkpt>
      <trkpt lat="34.29984692902827" lon="108.70893762242018">
        <ele>390.17845462448895</ele>
        <time>2026-09-20T12:02:14Z</time>
      </trkpt>
      <trkpt lat="34.29991776075197" lon="108.70921536218444">
        <ele>390.2276529567316</ele>
        <time>2026-09-20T12:02:26Z</time>
      </trkpt>
      <trkpt lat="34.299945706989334" lon="108.7094987987013">
        <ele>390.6853607147932</ele>
        <time>2026-09-20T12:02:38Z</time>
      </trkpt>
      <trkpt lat="34.29984096940179" lon="108.70972009573651">
        <ele>389.7731627719477</ele>
        <time>2026-09-20T12:02:50Z</time>
      </trkpt>
      <trkpt lat="34.29982578159066" lon="108.70988471299177">
        <ele>390.9464654168114</ele>
        <time>2026-09-20T12:02:56Z</time>
      </trkpt>
      <trkpt lat="34.299864120229444" lon="108.71011309084342">
        <ele>391.0256180418655</ele>
        <time>2026-09-20T12:03:05Z</time>
      </trkpt>
      <trkpt lat="34.29989692056558" lon="108.7101927622012">
        <ele>390.9365865252912</ele>
        <time>2026-09-20T12:03:08Z</time>
      </trkpt>
      <trkpt lat="34.29987982163821" lon="108.71027621677501">
        <ele>391.4881391078234</ele>
        <time>2026-09-20T12:03:11Z</time>
      </trkpt>
      <trkpt lat="34.29984331077056" lon="108.71032973620572">
        <ele>391.31851816456765</ele>
        <time>2026-09-20T12:03:14Z</time>
      </trkpt>
      <trkpt lat="34.29982620892134" lon="108.71040908768147">
        <ele>391.62638024706393</ele>
        <time>2026-09-20T12:03:17Z</time>
      </trkpt>
      <trkpt lat="34.299744275312165" lon="108.71045217573425">
        <ele>389.07454964891076</ele>
        <time>2026-09-20T12:03:20Z</time>
      </trkpt>
      <trkpt lat="34.29970612010688" lon="108.71051003134347">
        <ele>389.80198854301125</ele>
        <time>2026-09-20T12:03:23Z</time>
      </trkpt>
      <trkpt lat="34.299515193785574" lon="108.71058502647234">
        <ele>390.6836536694318</ele>
        <time>2026-09-20T12:03:33Z</time>
      </trkpt>
      <trkpt lat="34.29947833122924" lon="108.71061628819949">
        <ele>391.8086482314393</ele>
        <time>2026-09-20T12:03:37Z</time>
      </trkpt>
      <trkpt lat="34.29948554767891" lon="108.71074464504545">
        <ele>390.3624938875437</ele>
        <time>2026-09-20T12:03:46Z</time>
      </trkpt>
      <trkpt lat="34.29943846446904" lon="108.71082155738434">
        <ele>390.3303899690509</ele>
        <time>2026-09-20T12:03:52Z</time>
      </trkpt>
      <trkpt lat="34.299432592455055" lon="108.71089034225314">
        <ele>389.86944354046136</ele>
        <time>2026-09-20T12:05:19Z</time>
      </trkpt>
      <trkpt lat="34.29935661723519" lon="108.71089187279571">
        <ele>390.2722459472716</ele>
        <time>2026-09-20T12:05:25Z</time>
      </trkpt>
      <trkpt lat="34.29914700654285" lon="108.7109544643271">
        <ele>389.9911777880043</ele>
        <time>2026-09-20T12:05:41Z</time>
      </trkpt>
      <trkpt lat="34.2988650619532" lon="108.71107072970638">
        <ele>390.18170545063913</ele>
        <time>2026-09-20T12:06:02Z</time>
      </trkpt>
      <trkpt lat="34.29857254468116" lon="108.71119587559244">
        <ele>390.51710876915604</ele>
        <time>2026-09-20T12:06:23Z</time>
      </trkpt>
      <trkpt lat="34.298315644519626" lon="108.71130898065384">
        <ele>390.66559942346066</ele>
        <time>2026-09-20T12:06:44Z</time>
      </trkpt>
      <trkpt lat="34.29822773090756" lon="108.71133905322053">
        <ele>390.66906713694334</ele>
        <time>2026-09-20T12:06:50Z</time>
      </trkpt>
      <trkpt lat="34.29818698024907" lon="108.71129122895336">
        <ele>389.6760861054063</ele>
        <time>2026-09-20T12:06:53Z</time>
      </trkpt>
      <trkpt lat="34.2981236058412" lon="108.71096457043039">
        <ele>388.6305893640965</ele>
        <time>2026-09-20T12:07:11Z</time>
      </trkpt>
      <trkpt lat="34.298095969659165" lon="108.71078572068191">
        <ele>388.6290139798075</ele>
        <time>2026-09-20T12:07:23Z</time>
      </trkpt>
      <trkpt lat="34.2981245861502" lon="108.71073119485551">
        <ele>389.41084215510637</ele>
        <time>2026-09-20T12:07:26Z</time>
      </trkpt>
      <trkpt lat="34.29807490371677" lon="108.71057582067095">
        <ele>388.9737468371168</ele>
        <time>2026-09-20T12:07:35Z</time>
      </trkpt>
      <trkpt lat="34.29799087725231" lon="108.71048912183947">
        <ele>389.24875246267766</ele>
        <time>2026-09-20T12:07:42Z</time>
      </trkpt>
      <trkpt lat="34.29800690048396" lon="108.71037879591216">
        <ele>388.6751154605299</ele>
        <time>2026-09-20T12:07:49Z</time>
      </trkpt>
      <trkpt lat="34.298001975441416" lon="108.71031354614976">
        <ele>388.8812839547172</ele>
        <time>2026-09-20T12:07:53Z</time>
      </trkpt>
      <trkpt lat="34.29801869348362" lon="108.71021676863177">
        <ele>388.1475394424051</ele>
        <time>2026-09-20T12:07:59Z</time>
      </trkpt>
      <trkpt lat="34.29796976007118" lon="108.71016614821674">
        <ele>388.50923367310315</ele>
        <time>2026-09-20T12:08:05Z</time>
      </trkpt>
      <trkpt lat="34.29775024895831" lon="108.71020168303733">
        <ele>387.98009240068495</ele>
        <time>2026-09-20T12:08:20Z</time>
      </trkpt>
      <trkpt lat="34.2977662973137" lon="108.7102972261003">
        <ele>389.0238838195801</ele>
        <time>2026-09-20T12:08:29Z</time>
      </trkpt>
    </trkseg>
  </trk>
</gpx>