<?xml version="1.0" encoding="UTF-8"?>
<gpx xmlns="http://www.topografix.com/GPX/1/1" xmlns:gpxtpx="http://www.garmin.com/xmlschemas/TrackPointExtension/v1" xmlns:xsi="http://www.w3.org/2001/XMLSchema-instance" xsi:schemaLocation="http://www.topografix.com/GPX/1/1 http://www.topografix.com/GPX/1/1/gpx.xsd" version="1.1" creator="gpx.py -- https://github.com/tkrajina/gpxpy">
  <trk>
    <name>gpx from keep</name>
    <type>Ride</type>
    <trkseg>
      <trkpt lat="34.32832913367454" lon="108.98024652298052">
        <ele>403.9211025238037</ele>
        <time>2022-03-12T09:13:57Z</time>
      </trkpt>
      <trkpt lat="34.32822116842849" lon="108.98042389133788">
        <ele>407.0685329437256</ele>
        <time>2022-03-12T09:14:10Z</time>
      </trkpt>
      <trkpt lat="34.3283745240322" lon="108.98032671859835">
        <ele>408.12829208374023</ele>
        <time>2022-03-12T09:15:23Z</time>
      </trkpt>
      <trkpt lat="34.32830180636247" lon="108.98017563446476">
        <ele>402.70799827575684</ele>
        <time>2022-03-12T09:15:31Z</time>
      </trkpt>
      <trkpt lat="34.3283764596707" lon="108.98032183638244">
        <ele>401.4431610107422</ele>
        <time>2022-03-12T09:15:35Z</time>
      </trkpt>
      <trkpt lat="34.32829242969704" lon="108.98036131755039">
        <ele>403.6517639160156</ele>
        <time>2022-03-12T09:15:47Z</time>
      </trkpt>
      <trkpt lat="34.328104271458145" lon="108.98040518479625">
        <ele>397.8446807861328</ele>
        <time>2022-03-12T09:16:43Z</time>
      </trkpt>
      <trkpt lat="34.32831465697959" lon="108.98050003844982">
        <ele>397.16421127319336</ele>
        <time>2022-03-12T09:16:51Z</time>
      </trkpt>
      <trkpt lat="34.32847173368828" lon="108.98041711117405">
        <ele>397.0987968444824</ele>
        <time>2022-03-12T09:16:58Z</time>
      </trkpt>
      <trkpt lat="34.32868380637436" lon="108.98035905619776">
        <ele>397.1778793334961</ele>
        <time>2022-03-12T09:17:04Z</time>
      </trkpt>
      <trkpt lat="34.32874849490673" lon="108.98024450612901">
        <ele>397.24950408935547</ele>
        <time>2022-03-12T09:17:10Z</time>
      </trkpt>
      <trkpt lat="34.32861708263223" lon="108.98019570124691">
        <ele>395.88679393663284</ele>
        <time>2022-03-12T09:17:12Z</time>
      </trkpt>
      <trkpt lat="34.32864078765777" lon="108.98038773555">
        <ele>395.8831159537658</ele>
        <time>2022-03-12T09:17:14Z</time>
      </trkpt>
      <trkpt lat="34.32879626719499" lon="108.98044828391703">
        <ele>395.98741887509823</ele>
        <time>2022-03-12T09:17:18Z</time>
      </trkpt>
      <trkpt lat="34.32886595695866" lon="108.98041146724972">
        <ele>395.97393871843815</ele>
        <time>2022-03-12T09:17:25Z</time>
      </trkpt>
      <trkpt lat="34.32886406332651" lon="108.98051140958951">
        <ele>396.0286643151194</ele>
        <time>2022-03-12T09:17:27Z</time>
      </trkpt>
      <trkpt lat="34.328808181627494" lon="108.98064574238559">
        <ele>396.00370051991194</ele>
        <time>2022-03-12T09:17:31Z</time>
      </trkpt>
      <trkpt lat="34.32895295030892" lon="108.98077669724783">
        <ele>396.34376927278936</ele>
        <time>2022-03-12T09:17:33Z</time>
      </trkpt>
      <trkpt lat="34.32874337168541" lon="108.98084735450254">
        <ele>395.7989080576226</ele>
        <time>2022-03-12T09:17:37Z</time>
      </trkpt>
      <trkpt lat="34.32830876567789" lon="108.98087230118861">
        <ele>394.73860312998295</ele>
        <time>2022-03-12T09:17:51Z</time>
      </trkpt>
      <trkpt lat="34.32814649311127" lon="108.98086807721081">
        <ele>394.7258583884686</ele>
        <time>2022-03-12T09:17:58Z</time>
      </trkpt>
      <trkpt lat="34.328078884608104" lon="108.98092892030598">
        <ele>395.2447026828304</ele>
        <time>2022-03-12T09:18:03Z</time>
      </trkpt>
      <trkpt lat="34.328104906381" lon="108.98101045330989">
        <ele>394.94014315865934</ele>
        <time>2022-03-12T09:18:12Z</time>
      </trkpt>
      <trkpt lat="34.328258429393095" lon="108.98125134696696">
        <ele>395.42410911154</ele>
        <time>2022-03-12T09:18:53Z</time>
      </trkpt>
      <trkpt lat="34.328244539532015" lon="108.98156615894796">
        <ele>394.81731398776174</ele>
        <time>2022-03-12T09:19:02Z</time>
      </trkpt>
      <trkpt lat="34.328254449692466" lon="108.98165770376167">
        <ele>394.53653309028596</ele>
        <time>2022-03-12T09:19:04Z</time>
      </trkpt>
      <trkpt lat="34.32819609839294" lon="108.98187658477917">
        <ele>395.0196838239208</ele>
        <time>2022-03-12T09:19:10Z</time>
      </trkpt>
      <trkpt lat="34.328186260748964" lon="108.98209341729573">
        <ele>395.0619493499398</ele>
        <time>2022-03-12T09:19:15Z</time>
      </trkpt>
      <trkpt lat="34.328148784613035" lon="108.98222048844984">
        <ele>393.97728420142084</ele>
        <time>2022-03-12T09:19:18Z</time>
      </trkpt>
      <trkpt lat="34.32812089979137" lon="108.9827755400974">
        <ele>393.5717651527375</ele>
        <time>2022-03-12T09:19:30Z</time>
      </trkpt>
      <trkpt lat="34.32808048382912" lon="108.98309829730955">
        <ele>393.3438052870333</ele>
        <time>2022-03-12T09:19:36Z</time>
      </trkpt>
      <trkpt lat="34.328065421709034" lon="108.98355314916792">
        <ele>392.61397302057594</ele>
        <time>2022-03-12T09:19:44Z</time>
      </trkpt>
      <trkpt lat="34.32808707683629" lon="108.98380547834107">
        <ele>392.3323599183932</ele>
        <time>2022-03-12T09:19:48Z</time>
      </trkpt>
      <trkpt lat="34.32807469131734" lon="108.98393848239765">
        <ele>392.16136465780437</ele>
        <time>2022-03-12T09:19:50Z</time>
      </trkpt>
      <trkpt lat="34.32794877264161" lon="108.98426899089708">
        <ele>391.8786379955709</ele>
        <time>2022-03-12T09:19:56Z</time>
      </trkpt>
      <trkpt lat="34.32790294686595" lon="108.98461665126507">
        <ele>391.80761202052236</ele>
        <time>2022-03-12T09:20:02Z</time>
      </trkpt>
      <trkpt lat="34.327903105363724" lon="108.98521783820671">
        <ele>392.7748677097261</ele>
        <time>2022-03-12T09:20:12Z</time>
      </trkpt>
      <trkpt lat="34.327931331735705" lon="108.98545961002938">
        <ele>392.5339048979804</ele>
        <time>2022-03-12T09:20:16Z</time>
      </trkpt>
      <trkpt lat="34.32793430706925" lon="108.98570338869634">
        <ele>391.8728740885854</ele>
        <time>2022-03-12T09:20:20Z</time>
      </trkpt>
      <trkpt lat="34.32790211773845" lon="108.98617124694759">
        <ele>391.46668221149594</ele>
        <time>2022-03-12T09:20:28Z</time>
      </trkpt>
      <trkpt lat="34.327916737235164" lon="108.98672550954316">
        <ele>392.9378572627902</ele>
        <time>2022-03-12T09:20:38Z</time>
      </trkpt>
      <trkpt lat="34.32790826011572" lon="108.98726948606807">
        <ele>393.23173937480897</ele>
        <time>2022-03-12T09:20:48Z</time>
      </trkpt>
      <trkpt lat="34.327937460405586" lon="108.98772591223106">
        <ele>393.32476549129933</ele>
        <time>2022-03-12T09:20:56Z</time>
      </trkpt>
      <trkpt lat="34.32794658915734" lon="108.98832247489041">
        <ele>392.4789378475398</ele>
        <time>2022-03-12T09:21:06Z</time>
      </trkpt>
      <trkpt lat="34.32793589842683" lon="108.98889462220154">
        <ele>392.24075404927135</ele>
        <time>2022-03-12T09:21:16Z</time>
      </trkpt>
      <trkpt lat="34.32793374148151" lon="108.98906021204091">
        <ele>392.6020423900336</ele>
        <time>2022-03-12T09:21:19Z</time>
      </trkpt>
      <trkpt lat="34.32791184168267" lon="108.98917418646334">
        <ele>393.07545738480985</ele>
        <time>2022-03-12T09:21:21Z</time>
      </trkpt>
      <trkpt lat="34.32791991987566" lon="108.98952115529089">
        <ele>392.11771728284657</ele>
        <time>2022-03-12T09:21:28Z</time>
      </trkpt>
      <trkpt lat="34.32789158629585" lon="108.9897103118432">
        <ele>391.83145914878696</ele>
        <time>2022-03-12T09:21:32Z</time>
      </trkpt>
      <trkpt lat="34.327884327528466" lon="108.99017536048542">
        <ele>392.5798110831529</ele>
        <time>2022-03-12T09:21:44Z</time>
      </trkpt>
      <trkpt lat="34.32783615419819" lon="108.99037527313409">
        <ele>392.5975183621049</ele>
        <time>2022-03-12T09:21:54Z</time>
      </trkpt>
      <trkpt lat="34.32789192827059" lon="108.99043400390146">
        <ele>392.0793438395485</ele>
        <time>2022-03-12T09:22:00Z</time>
      </trkpt>
      <trkpt lat="34.32798805460202" lon="108.99045715052748">
        <ele>392.44474029913545</ele>
        <time>2022-03-12T09:22:06Z</time>
      </trkpt>
      <trkpt lat="34.32807963992701" lon="108.99050425058606">
        <ele>393.09449728764594</ele>
        <time>2022-03-12T09:22:12Z</time>
      </trkpt>
      <trkpt lat="34.32813185713307" lon="108.99060747834352">
        <ele>392.5380183085799</ele>
        <time>2022-03-12T09:22:16Z</time>
      </trkpt>
      <trkpt lat="34.32813075732514" lon="108.99073596287691">
        <ele>392.2662183782086</ele>
        <time>2022-03-12T09:22:20Z</time>
      </trkpt>
      <trkpt lat="34.32810430366939" lon="108.99091258238538">
        <ele>392.3756618145853</ele>
        <time>2022-03-12T09:22:24Z</time>
      </trkpt>
      <trkpt lat="34.32814228907333" lon="108.99098792193574">
        <ele>391.4396086735651</ele>
        <time>2022-03-12T09:22:26Z</time>
      </trkpt>
      <trkpt lat="34.328116953802706" lon="108.99128958975571">
        <ele>393.04057098645717</ele>
        <time>2022-03-12T09:22:34Z</time>
      </trkpt>
      <trkpt lat="34.3280972742636" lon="108.99138131191322">
        <ele>393.57910536881536</ele>
        <time>2022-03-12T09:22:38Z</time>
      </trkpt>
      <trkpt lat="34.328042156612504" lon="108.99144708894366">
        <ele>393.1121396459639</ele>
        <time>2022-03-12T09:22:42Z</time>
      </trkpt>
      <trkpt lat="34.327945974090106" lon="108.99139629923101">
        <ele>392.8581926561892</ele>
        <time>2022-03-12T09:22:46Z</time>
      </trkpt>
      <trkpt lat="34.32785501601967" lon="108.99143991201417">
        <ele>392.6657066466287</ele>
        <time>2022-03-12T09:22:50Z</time>
      </trkpt>
      <trkpt lat="34.32783088935377" lon="108.99157831281757">
        <ele>394.59604445658624</ele>
        <time>2022-03-12T09:22:54Z</time>
      </trkpt>
      <trkpt lat="34.32784672455896" lon="108.99210960186801">
        <ele>391.90057083405554</ele>
        <time>2022-03-12T09:23:10Z</time>
      </trkpt>
      <trkpt lat="34.3278562373856" lon="108.99220553146243">
        <ele>391.9438692573458</ele>
        <time>2022-03-12T09:23:14Z</time>
      </trkpt>
      <trkpt lat="34.32789089524815" lon="108.99229962011032">
        <ele>391.7227225312963</ele>
        <time>2022-03-12T09:23:18Z</time>
      </trkpt>
      <trkpt lat="34.32788209910374" lon="108.99263943403147">
        <ele>390.54365137498826</ele>
        <time>2022-03-12T09:23:30Z</time>
      </trkpt>
      <trkpt lat="34.32789409349753" lon="108.9927742561302">
        <ele>391.51244399510324</ele>
        <time>2022-03-12T09:23:34Z</time>
      </trkpt>
      <trkpt lat="34.32780913729867" lon="108.99329342475609">
        <ele>393.0326418885961</ele>
        <time>2022-03-12T09:23:46Z</time>
      </trkpt>
      <trkpt lat="34.327797379454275" lon="108.99346070403735">
        <ele>392.0601897891611</ele>
        <time>2022-03-12T09:23:50Z</time>
      </trkpt>
      <trkpt lat="34.32783090491836" lon="108.99379427527157">
        <ele>392.2805484281853</ele>
        <time>2022-03-12T09:23:58Z</time>
      </trkpt>
      <trkpt lat="34.32779957415499" lon="108.99412749848194">
        <ele>390.9395809378475</ele>
        <time>2022-03-12T09:24:10Z</time>
      </trkpt>
      <trkpt lat="34.32784146137138" lon="108.9943802581807">
        <ele>390.1241429867223</ele>
        <time>2022-03-12T09:24:16Z</time>
      </trkpt>
      <trkpt lat="34.3278492976429" lon="108.99453923871253">
        <ele>391.32258560787886</ele>
        <time>2022-03-12T09:24:20Z</time>
      </trkpt>
      <trkpt lat="34.32781001146249" lon="108.99485617114276">
        <ele>390.94847879279405</ele>
        <time>2022-03-12T09:24:28Z</time>
      </trkpt>
      <trkpt lat="34.32787279853421" lon="108.9954109990171">
        <ele>394.05035592615604</ele>
        <time>2022-03-12T09:24:30Z</time>
      </trkpt>
      <trkpt lat="34.32789673027203" lon="108.9959302392482">
        <ele>394.3370864605531</ele>
        <time>2022-03-12T09:24:40Z</time>
      </trkpt>
      <trkpt lat="34.32788744195348" lon="108.99623500555325">
        <ele>394.22984971664846</ele>
        <time>2022-03-12T09:24:46Z</time>
      </trkpt>
      <trkpt lat="34.327908900463" lon="108.99632401926827">
        <ele>394.13567816931754</ele>
        <time>2022-03-12T09:24:48Z</time>
      </trkpt>
      <trkpt lat="34.32789863700696" lon="108.99643318310231">
        <ele>393.4510284168646</ele>
        <time>2022-03-12T09:24:50Z</time>
      </trkpt>
      <trkpt lat="34.327857853297346" lon="108.99651464498027">
        <ele>393.9098803065717</ele>
        <time>2022-03-12T09:24:54Z</time>
      </trkpt>
      <trkpt lat="34.327827309190106" lon="108.99714194341803">
        <ele>393.3557791085914</ele>
        <time>2022-03-12T09:25:04Z</time>
      </trkpt>
      <trkpt lat="34.327834277093615" lon="108.99770594488896">
        <ele>392.9243636364117</ele>
        <time>2022-03-12T09:25:14Z</time>
      </trkpt>
      <trkpt lat="34.32784972823351" lon="108.99817619414804">
        <ele>393.36030787974596</ele>
        <time>2022-03-12T09:25:22Z</time>
      </trkpt>
      <trkpt lat="34.3279051869961" lon="108.99861185692129">
        <ele>393.3609344866127</ele>
        <time>2022-03-12T09:25:30Z</time>
      </trkpt>
      <trkpt lat="34.327912461890115" lon="108.99917921647025">
        <ele>393.2265305928886</ele>
        <time>2022-03-12T09:25:40Z</time>
      </trkpt>
      <trkpt lat="34.3279345461635" lon="108.99972211094403">
        <ele>392.8104418767616</ele>
        <time>2022-03-12T09:25:50Z</time>
      </trkpt>
      <trkpt lat="34.32795000079298" lon="108.999941808692">
        <ele>393.44235655106604</ele>
        <time>2022-03-12T09:25:54Z</time>
      </trkpt>
      <trkpt lat="34.327923200568996" lon="109.00017191517108">
        <ele>392.28995891846716</ele>
        <time>2022-03-12T09:25:58Z</time>
      </trkpt>
      <trkpt lat="34.3279463956051" lon="109.00075567279919">
        <ele>394.17959213163704</ele>
        <time>2022-03-12T09:26:08Z</time>
      </trkpt>
      <trkpt lat="34.327950562820355" lon="109.00085824069171">
        <ele>394.00560948159546</ele>
        <time>2022-03-12T09:26:10Z</time>
      </trkpt>
      <trkpt lat="34.32789237009108" lon="109.00126063629268">
        <ele>394.5884906221181</ele>
        <time>2022-03-12T09:26:18Z</time>
      </trkpt>
      <trkpt lat="34.327897201712304" lon="109.0017896974477">
        <ele>394.1308060931042</ele>
        <time>2022-03-12T09:26:28Z</time>
      </trkpt>
      <trkpt lat="34.32788971466141" lon="109.00231619871295">
        <ele>393.77829543687403</ele>
        <time>2022-03-12T09:26:38Z</time>
      </trkpt>
      <trkpt lat="34.32788956571398" lon="109.0025153821496">
        <ele>394.09939675498754</ele>
        <time>2022-03-12T09:26:42Z</time>
      </trkpt>
      <trkpt lat="34.3279088523251" lon="109.00260903313453">
        <ele>394.13267143722624</ele>
        <time>2022-03-12T09:26:44Z</time>
      </trkpt>
      <trkpt lat="34.32786969350565" lon="109.00316987890837">
        <ele>394.471862484701</ele>
        <time>2022-03-12T09:26:56Z</time>
      </trkpt>
      <trkpt lat="34.32786388426758" lon="109.00342744832948">
        <ele>394.6047298004851</ele>
        <time>2022-03-12T09:27:02Z</time>
      </trkpt>
      <trkpt lat="34.32787630895875" lon="109.00352073949864">
        <ele>394.8389249769971</ele>
        <time>2022-03-12T09:27:04Z</time>
      </trkpt>
      <trkpt lat="34.3278534875342" lon="109.00371098106942">
        <ele>394.41127664688975</ele>
        <time>2022-03-12T09:27:08Z</time>
      </trkpt>
      <trkpt lat="34.32785094627308" lon="109.00433167186289">
        <ele>394.1333139138296</ele>
        <time>2022-03-12T09:27:20Z</time>
      </trkpt>
      <trkpt lat="34.32792667315757" lon="109.00461577430085">
        <ele>394.2067666267976</ele>
        <time>2022-03-12T09:27:26Z</time>
      </trkpt>
      <trkpt lat="34.327938542992804" lon="109.00471712842888">
        <ele>394.2802636856213</ele>
        <time>2022-03-12T09:27:28Z</time>
      </trkpt>
      <trkpt lat="34.32791962508237" lon="109.00502781573783">
        <ele>394.9312699781731</ele>
        <time>2022-03-12T09:27:34Z</time>
      </trkpt>
      <trkpt lat="34.32793333287487" lon="109.00535453490998">
        <ele>393.9012362975627</ele>
        <time>2022-03-12T09:27:40Z</time>
      </trkpt>
      <trkpt lat="34.327911078441055" lon="109.00545975250328">
        <ele>393.9985086340457</ele>
        <time>2022-03-12T09:27:42Z</time>
      </trkpt>
      <trkpt lat="34.32785623466616" lon="109.00555570429343">
        <ele>393.8596656443551</ele>
        <time>2022-03-12T09:27:44Z</time>
      </trkpt>
      <trkpt lat="34.32785192668237" lon="109.006138738401">
        <ele>393.4160535018891</ele>
        <time>2022-03-12T09:27:56Z</time>
      </trkpt>
      <trkpt lat="34.32786691309527" lon="109.00674444287881">
        <ele>393.9720289958641</ele>
        <time>2022-03-12T09:28:08Z</time>
      </trkpt>
      <trkpt lat="34.327875412630625" lon="109.00728746029559">
        <ele>394.5130228549242</ele>
        <time>2022-03-12T09:28:18Z</time>
      </trkpt>
      <trkpt lat="34.32784910510108" lon="109.0076355567796">
        <ele>393.2997931614518</ele>
        <time>2022-03-12T09:28:24Z</time>
      </trkpt>
      <trkpt lat="34.32785753944932" lon="109.0082057200462">
        <ele>392.70105391927063</ele>
        <time>2022-03-12T09:28:32Z</time>
      </trkpt>
      <trkpt lat="34.3278834926917" lon="109.00884175704506">
        <ele>392.46932128816843</ele>
        <time>2022-03-12T09:28:41Z</time>
      </trkpt>
      <trkpt lat="34.3278823340578" lon="109.00953086354228">
        <ele>389.8605794357136</ele>
        <time>2022-03-12T09:28:48Z</time>
      </trkpt>
      <trkpt lat="34.32789035648209" lon="109.01006744562972">
        <ele>386.8510723831132</ele>
        <time>2022-03-12T09:28:54Z</time>
      </trkpt>
      <trkpt lat="34.327897241590335" lon="109.01059015420454">
        <ele>386.663357575424</ele>
        <time>2022-03-12T09:29:00Z</time>
      </trkpt>
      <trkpt lat="34.32787196819455" lon="109.01117615184621">
        <ele>387.2503335820511</ele>
        <time>2022-03-12T09:29:08Z</time>
      </trkpt>
      <trkpt lat="34.32788569265134" lon="109.01180891760576">
        <ele>387.5179276559502</ele>
        <time>2022-03-12T09:29:18Z</time>
      </trkpt>
      <trkpt lat="34.327889269275815" lon="109.01238380059289">
        <ele>388.11252333782613</ele>
        <time>2022-03-12T09:29:28Z</time>
      </trkpt>
      <trkpt lat="34.327864612561505" lon="109.01286319441539">
        <ele>389.5435931170359</ele>
        <time>2022-03-12T09:29:36Z</time>
      </trkpt>
      <trkpt lat="34.327864576746116" lon="109.0134690234054">
        <ele>389.15657103061676</ele>
        <time>2022-03-12T09:29:46Z</time>
      </trkpt>
      <trkpt lat="34.32788393037151" lon="109.01395343308754">
        <ele>389.5245604868978</ele>
        <time>2022-03-12T09:29:54Z</time>
      </trkpt>
      <trkpt lat="34.32787325324326" lon="109.01407285057479">
        <ele>389.15400612261146</ele>
        <time>2022-03-12T09:29:56Z</time>
      </trkpt>
      <trkpt lat="34.32789197846583" lon="109.01453832569733">
        <ele>387.87191540841013</ele>
        <time>2022-03-12T09:30:04Z</time>
      </trkpt>
      <trkpt lat="34.327907909225075" lon="109.01464983714965">
        <ele>387.7366172550246</ele>
        <time>2022-03-12T09:30:06Z</time>
      </trkpt>
      <trkpt lat="34.327898854415146" lon="109.01519673960921">
        <ele>386.9192001130432</ele>
        <time>2022-03-12T09:30:16Z</time>
      </trkpt>
      <trkpt lat="34.32788413489307" lon="109.01540998713742">
        <ele>387.479031983763</ele>
        <time>2022-03-12T09:30:20Z</time>
      </trkpt>
      <trkpt lat="34.32789617422115" lon="109.01562313861152">
        <ele>388.2368550077081</ele>
        <time>2022-03-12T09:30:24Z</time>
      </trkpt>
      <trkpt lat="34.32784953543102" lon="109.0160570131827">
        <ele>386.973051995039</ele>
        <time>2022-03-12T09:30:32Z</time>
      </trkpt>
      <trkpt lat="34.32782900997961" lon="109.01659731536071">
        <ele>387.17879404500127</ele>
        <time>2022-03-12T09:30:42Z</time>
      </trkpt>
      <trkpt lat="34.32776096741394" lon="109.01700753403863">
        <ele>388.618341781199</ele>
        <time>2022-03-12T09:30:50Z</time>
      </trkpt>
      <trkpt lat="34.327643275166665" lon="109.0173827006396">
        <ele>388.5423542680219</ele>
        <time>2022-03-12T09:30:58Z</time>
      </trkpt>
      <trkpt lat="34.32761967012269" lon="109.01789226167402">
        <ele>389.1014868542552</ele>
        <time>2022-03-12T09:31:08Z</time>
      </trkpt>
      <trkpt lat="34.32765638327632" lon="109.01824155650087">
        <ele>388.72229129448533</ele>
        <time>2022-03-12T09:31:16Z</time>
      </trkpt>
      <trkpt lat="34.32760875046011" lon="109.01852901967652">
        <ele>388.1249503493309</ele>
        <time>2022-03-12T09:31:22Z</time>
      </trkpt>
      <trkpt lat="34.3273039903173" lon="109.01900241147655">
        <ele>388.30439698230475</ele>
        <time>2022-03-12T09:31:34Z</time>
      </trkpt>
      <trkpt lat="34.32720084891214" lon="109.01916195278679">
        <ele>388.5665910439566</ele>
        <time>2022-03-12T09:31:38Z</time>
      </trkpt>
      <trkpt lat="34.32706014080607" lon="109.01944950849767">
        <ele>387.7015110142529</ele>
        <time>2022-03-12T09:31:44Z</time>
      </trkpt>
      <trkpt lat="34.32675708199661" lon="109.01989213046768">
        <ele>387.94038157816976</ele>
        <time>2022-03-12T09:31:54Z</time>
      </trkpt>
      <trkpt lat="34.32639003924161" lon="109.02036240837172">
        <ele>388.1073117684573</ele>
        <time>2022-03-12T09:32:04Z</time>
      </trkpt>
      <trkpt lat="34.32622395794773" lon="109.02054614287407">
        <ele>389.30659384373575</ele>
        <time>2022-03-12T09:32:08Z</time>
      </trkpt>
      <trkpt lat="34.32588413692065" lon="109.02085614986987">
        <ele>389.385810110718</ele>
        <time>2022-03-12T09:32:16Z</time>
      </trkpt>
      <trkpt lat="34.32541290630325" lon="109.02115665546376">
        <ele>388.82774993777275</ele>
        <time>2022-03-12T09:32:26Z</time>
      </trkpt>
      <trkpt lat="34.324945701558754" lon="109.02140637779608">
        <ele>388.5142268165946</ele>
        <time>2022-03-12T09:32:36Z</time>
      </trkpt>
      <trkpt lat="34.32446193385097" lon="109.02161611427503">
        <ele>390.02516583912075</ele>
        <time>2022-03-12T09:32:46Z</time>
      </trkpt>
      <trkpt lat="34.3239451280829" lon="109.02170490653315">
        <ele>388.44739418197423</ele>
        <time>2022-03-12T09:32:56Z</time>
      </trkpt>
      <trkpt lat="34.32343086075387" lon="109.02175258178323">
        <ele>390.0534717794508</ele>
        <time>2022-03-12T09:33:06Z</time>
      </trkpt>
      <trkpt lat="34.32292297029797" lon="109.02177806588355">
        <ele>390.6415814086795</ele>
        <time>2022-03-12T09:33:16Z</time>
      </trkpt>
      <trkpt lat="34.32250385037281" lon="109.02178392239854">
        <ele>390.9714228194207</ele>
        <time>2022-03-12T09:33:24Z</time>
      </trkpt>
      <trkpt lat="34.321979572714234" lon="109.02171315197029">
        <ele>390.1822791835293</ele>
        <time>2022-03-12T09:33:34Z</time>
      </trkpt>
      <trkpt lat="34.32156643722557" lon="109.02166770495465">
        <ele>390.0870402501896</ele>
        <time>2022-03-12T09:33:42Z</time>
      </trkpt>
      <trkpt lat="34.321053602093855" lon="109.0216156364469">
        <ele>391.23002562858164</ele>
        <time>2022-03-12T09:33:52Z</time>
      </trkpt>
      <trkpt lat="34.32064513328276" lon="109.02154045244919">
        <ele>391.9637569896877</ele>
        <time>2022-03-12T09:34:00Z</time>
      </trkpt>
      <trkpt lat="34.32023430031578" lon="109.02150109851895">
        <ele>391.90062771271914</ele>
        <time>2022-03-12T09:34:08Z</time>
      </trkpt>
      <trkpt lat="34.32002896116332" lon="109.02144471449526">
        <ele>390.9939012825489</ele>
        <time>2022-03-12T09:34:12Z</time>
      </trkpt>
      <trkpt lat="34.319505834719294" lon="109.02140740725969">
        <ele>391.699584627524</ele>
        <time>2022-03-12T09:34:22Z</time>
      </trkpt>
      <trkpt lat="34.31899072630543" lon="109.02140746355852">
        <ele>391.48532431200147</ele>
        <time>2022-03-12T09:34:32Z</time>
      </trkpt>
      <trkpt lat="34.318571905026836" lon="109.02143765041946">
        <ele>390.5866079637781</ele>
        <time>2022-03-12T09:34:40Z</time>
      </trkpt>
      <trkpt lat="34.3182637178791" lon="109.02148901624145">
        <ele>391.5897480621934</ele>
        <time>2022-03-12T09:34:46Z</time>
      </trkpt>
      <trkpt lat="34.31815210544683" lon="109.02149224209498">
        <ele>391.2238368438557</ele>
        <time>2022-03-12T09:34:48Z</time>
      </trkpt>
      <trkpt lat="34.31794207341491" lon="109.02152497585894">
        <ele>392.2829758822918</ele>
        <time>2022-03-12T09:34:52Z</time>
      </trkpt>
      <trkpt lat="34.31739843287027" lon="109.02157742427667">
        <ele>391.18674735631794</ele>
        <time>2022-03-12T09:35:02Z</time>
      </trkpt>
      <trkpt lat="34.31696603310141" lon="109.02162960360916">
        <ele>392.05525615625083</ele>
        <time>2022-03-12T09:35:10Z</time>
      </trkpt>
      <trkpt lat="34.3165459111104" lon="109.02170955579997">
        <ele>391.7490331940353</ele>
        <time>2022-03-12T09:35:18Z</time>
      </trkpt>
      <trkpt lat="34.316173404917755" lon="109.0218496312985">
        <ele>391.5434047617018</ele>
        <time>2022-03-12T09:35:26Z</time>
      </trkpt>
      <trkpt lat="34.31609003622608" lon="109.0219350054114">
        <ele>391.610702291131</ele>
        <time>2022-03-12T09:35:30Z</time>
      </trkpt>
      <trkpt lat="34.316088186686706" lon="109.02205606386178">
        <ele>391.31253223028034</ele>
        <time>2022-03-12T09:35:34Z</time>
      </trkpt>
      <trkpt lat="34.31597049090314" lon="109.0222231268122">
        <ele>391.1605245191604</ele>
        <time>2022-03-12T09:35:44Z</time>
      </trkpt>
      <trkpt lat="34.315916662329094" lon="109.02226250403501">
        <ele>391.41385194286704</ele>
        <time>2022-03-12T09:35:54Z</time>
      </trkpt>
      <trkpt lat="34.315811348190344" lon="109.02246743332272">
        <ele>390.9489614292979</ele>
        <time>2022-03-12T09:36:27Z</time>
      </trkpt>
      <trkpt lat="34.31579867078683" lon="109.02258972116162">
        <ele>390.4999413974583</ele>
        <time>2022-03-12T09:36:30Z</time>
      </trkpt>
      <trkpt lat="34.31582623161451" lon="109.022764615923">
        <ele>389.95121496357024</ele>
        <time>2022-03-12T09:36:34Z</time>
      </trkpt>
      <trkpt lat="34.31599741943639" lon="109.02323688760696">
        <ele>388.1164942458272</ele>
        <time>2022-03-12T09:36:46Z</time>
      </trkpt>
      <trkpt lat="34.31615372416933" lon="109.02359104189593">
        <ele>387.9018149115145</ele>
        <time>2022-03-12T09:36:52Z</time>
      </trkpt>
      <trkpt lat="34.31617403525597" lon="109.02370539156439">
        <ele>387.6638457858935</ele>
        <time>2022-03-12T09:36:54Z</time>
      </trkpt>
      <trkpt lat="34.31615077137565" lon="109.02381575071935">
        <ele>387.8554795840755</ele>
        <time>2022-03-12T09:36:56Z</time>
      </trkpt>
      <trkpt lat="34.316090107564776" lon="109.02388140629529">
        <ele>388.02238643262535</ele>
        <time>2022-03-12T09:36:58Z</time>
      </trkpt>
      <trkpt lat="34.31577802839918" lon="109.0240249007692">
        <ele>388.73243694845587</ele>
        <time>2022-03-12T09:37:06Z</time>
      </trkpt>
      <trkpt lat="34.3153409848804" lon="109.02431313839378">
        <ele>390.11332287080586</ele>
        <time>2022-03-12T09:37:18Z</time>
      </trkpt>
      <trkpt lat="34.314933806471146" lon="109.02460491729794">
        <ele>390.6434934362769</ele>
        <time>2022-03-12T09:37:30Z</time>
      </trkpt>
      <trkpt lat="34.31482517793333" lon="109.02470550343165">
        <ele>390.9732880089432</ele>
        <time>2022-03-12T09:37:34Z</time>
      </trkpt>
      <trkpt lat="34.31441320599063" lon="109.02500862256954">
        <ele>390.51141344197094</ele>
        <time>2022-03-12T09:37:46Z</time>
      </trkpt>
      <trkpt lat="34.31398934361182" lon="109.02525352575078">
        <ele>391.02220014669</ele>
        <time>2022-03-12T09:37:56Z</time>
      </trkpt>
      <trkpt lat="34.31390707979385" lon="109.02531274287168">
        <ele>390.8977988967672</ele>
        <time>2022-03-12T09:37:58Z</time>
      </trkpt>
      <trkpt lat="34.313427634932445" lon="109.0255283506126">
        <ele>391.21917573176324</ele>
        <time>2022-03-12T09:38:08Z</time>
      </trkpt>
      <trkpt lat="34.31307746746841" lon="109.02574359471342">
        <ele>391.3066914547235</ele>
        <time>2022-03-12T09:38:16Z</time>
      </trkpt>
      <trkpt lat="34.31281561546283" lon="109.02593950452803">
        <ele>392.18945070914924</ele>
        <time>2022-03-12T09:38:22Z</time>
      </trkpt>
      <trkpt lat="34.312539352126464" lon="109.02609628070246">
        <ele>392.56514468509704</ele>
        <time>2022-03-12T09:38:28Z</time>
      </trkpt>
      <trkpt lat="34.3125760992623" lon="109.02620141043745">
        <ele>392.1097322916612</ele>
        <time>2022-03-12T09:38:32Z</time>
      </trkpt>
      <trkpt lat="34.312089241943696" lon="109.02647753413166">
        <ele>393.21733556780964</ele>
        <time>2022-03-12T09:38:40Z</time>
      </trkpt>
      <trkpt lat="34.31190556559463" lon="109.0266296926579">
        <ele>392.6248004352674</ele>
        <time>2022-03-12T09:38:44Z</time>
      </trkpt>
      <trkpt lat="34.31180718203257" lon="109.0268281331928">
        <ele>391.58366647548974</ele>
        <time>2022-03-12T09:38:50Z</time>
      </trkpt>
      <trkpt lat="34.31174993063212" lon="109.02689704507534">
        <ele>391.93807401135564</ele>
        <time>2022-03-12T09:38:53Z</time>
      </trkpt>
      <trkpt lat="34.31160977361349" lon="109.02719616046915">
        <ele>391.53691595606506</ele>
        <time>2022-03-12T09:38:58Z</time>
      </trkpt>
      <trkpt lat="34.31154703403261" lon="109.02744930390351">
        <ele>391.61554486863315</ele>
        <time>2022-03-12T09:39:02Z</time>
      </trkpt>
      <trkpt lat="34.31152240465883" lon="109.02778097052375">
        <ele>392.8005622951314</ele>
        <time>2022-03-12T09:39:08Z</time>
      </trkpt>
      <trkpt lat="34.311458649462004" lon="109.0281418833135">
        <ele>392.1135378796607</ele>
        <time>2022-03-12T09:39:14Z</time>
      </trkpt>
      <trkpt lat="34.31141722441577" lon="109.02823979925121">
        <ele>393.2700759442523</ele>
        <time>2022-03-12T09:39:17Z</time>
      </trkpt>
      <trkpt lat="34.31137196188846" lon="109.02844717579543">
        <ele>392.58649140316993</ele>
        <time>2022-03-12T09:39:20Z</time>
      </trkpt>
      <trkpt lat="34.31131625264277" lon="109.02855800969077">
        <ele>393.2174345962703</ele>
        <time>2022-03-12T09:39:22Z</time>
      </trkpt>
      <trkpt lat="34.31113518050162" lon="109.0288180737629">
        <ele>391.30702554713935</ele>
        <time>2022-03-12T09:39:28Z</time>
      </trkpt>
      <trkpt lat="34.31095890860899" lon="109.02901391226197">
        <ele>391.7424550540745</ele>
        <time>2022-03-12T09:39:32Z</time>
      </trkpt>
      <trkpt lat="34.310548887413646" lon="109.02940672666028">
        <ele>391.3282478619367</ele>
        <time>2022-03-12T09:39:42Z</time>
      </trkpt>
      <trkpt lat="34.31018513239155" lon="109.02974412017599">
        <ele>391.6418582499027</ele>
        <time>2022-03-12T09:39:52Z</time>
      </trkpt>
      <trkpt lat="34.30988609161332" lon="109.02999655431115">
        <ele>392.79041798692197</ele>
        <time>2022-03-12T09:40:00Z</time>
      </trkpt>
      <trkpt lat="34.309482614611404" lon="109.03027135717088">
        <ele>394.6582120656967</ele>
        <time>2022-03-12T09:40:10Z</time>
      </trkpt>
      <trkpt lat="34.30905662765814" lon="109.0304802648271">
        <ele>394.69785856828094</ele>
        <time>2022-03-12T09:40:20Z</time>
      </trkpt>
      <trkpt lat="34.30853709199016" lon="109.03060630826003">
        <ele>395.38799743074924</ele>
        <time>2022-03-12T09:40:30Z</time>
      </trkpt>
      <trkpt lat="34.30821028510472" lon="109.03064977033836">
        <ele>396.0362123902887</ele>
        <time>2022-03-12T09:40:36Z</time>
      </trkpt>
      <trkpt lat="34.30777657352587" lon="109.0306857012361">
        <ele>395.04669691156596</ele>
        <time>2022-03-12T09:40:44Z</time>
      </trkpt>
      <trkpt lat="34.30733690626492" lon="109.03074357007206">
        <ele>394.6811542836949</ele>
        <time>2022-03-12T09:40:52Z</time>
      </trkpt>
      <trkpt lat="34.30722422640744" lon="109.03073999860568">
        <ele>393.97950105089694</ele>
        <time>2022-03-12T09:40:54Z</time>
      </trkpt>
      <trkpt lat="34.30677922972332" lon="109.03080984599977">
        <ele>392.7763789733872</ele>
        <time>2022-03-12T09:41:02Z</time>
      </trkpt>
      <trkpt lat="34.30636013337453" lon="109.03082805931983">
        <ele>391.88242742046714</ele>
        <time>2022-03-12T09:41:10Z</time>
      </trkpt>
      <trkpt lat="34.306277188809254" lon="109.03081777748773">
        <ele>391.62110424321145</ele>
        <time>2022-03-12T09:41:12Z</time>
      </trkpt>
      <trkpt lat="34.30619761058865" lon="109.0308533639084">
        <ele>391.3873003665358</ele>
        <time>2022-03-12T09:41:14Z</time>
      </trkpt>
      <trkpt lat="34.30620627757209" lon="109.03100853358306">
        <ele>391.57409065030515</ele>
        <time>2022-03-12T09:41:18Z</time>
      </trkpt>
      <trkpt lat="34.30626875791551" lon="109.03118400697299">
        <ele>391.306044338271</ele>
        <time>2022-03-12T09:41:22Z</time>
      </trkpt>
      <trkpt lat="34.30630898692115" lon="109.0314142993238">
        <ele>390.37153097987175</ele>
        <time>2022-03-12T09:41:26Z</time>
      </trkpt>
      <trkpt lat="34.306325369264805" lon="109.03175799134627">
        <ele>390.96777952089906</ele>
        <time>2022-03-12T09:41:32Z</time>
      </trkpt>
      <trkpt lat="34.30635949051273" lon="109.03199637508607">
        <ele>391.1051654275507</ele>
        <time>2022-03-12T09:41:36Z</time>
      </trkpt>
      <trkpt lat="34.30640913511602" lon="109.0326249859784">
        <ele>391.92831825185567</ele>
        <time>2022-03-12T09:41:46Z</time>
      </trkpt>
      <trkpt lat="34.30646006529073" lon="109.03327145510575">
        <ele>392.1584799764678</ele>
        <time>2022-03-12T09:41:56Z</time>
      </trkpt>
      <trkpt lat="34.306509219319594" lon="109.03352440154224">
        <ele>391.62629231531173</ele>
        <time>2022-03-12T09:42:00Z</time>
      </trkpt>
      <trkpt lat="34.30651674075923" lon="109.03404270057248">
        <ele>392.134875388816</ele>
        <time>2022-03-12T09:42:08Z</time>
      </trkpt>
      <trkpt lat="34.306585113614474" lon="109.03463571064754">
        <ele>392.6370877651498</ele>
        <time>2022-03-12T09:42:18Z</time>
      </trkpt>
      <trkpt lat="34.30657850798163" lon="109.03474272787044">
        <ele>392.75512442644686</ele>
        <time>2022-03-12T09:42:20Z</time>
      </trkpt>
      <trkpt lat="34.306537387237846" lon="109.0348297718459">
        <ele>392.3870502077043</ele>
        <time>2022-03-12T09:42:22Z</time>
      </trkpt>
      <trkpt lat="34.306538344335955" lon="109.03496531603287">
        <ele>392.8412774661556</ele>
        <time>2022-03-12T09:42:26Z</time>
      </trkpt>
      <trkpt lat="34.3065119233805" lon="109.035086410621">
        <ele>392.97374950163066</ele>
        <time>2022-03-12T09:42:30Z</time>
      </trkpt>
      <trkpt lat="34.30654715065648" lon="109.03529909549444">
        <ele>392.8790860902518</ele>
        <time>2022-03-12T09:42:36Z</time>
      </trkpt>
      <trkpt lat="34.3065675331791" lon="109.03583375226927">
        <ele>392.0689264088869</ele>
        <time>2022-03-12T09:42:48Z</time>
      </trkpt>
      <trkpt lat="34.306563123425086" lon="109.03602929802447">
        <ele>392.0866953851655</ele>
        <time>2022-03-12T09:42:52Z</time>
      </trkpt>
      <trkpt lat="34.306629412211834" lon="109.03654424847872">
        <ele>392.6271216990426</ele>
        <time>2022-03-12T09:43:12Z</time>
      </trkpt>
      <trkpt lat="34.30660412082868" lon="109.03668584840008">
        <ele>392.2008535955101</ele>
        <time>2022-03-12T09:43:23Z</time>
      </trkpt>
      <trkpt lat="34.30663534656648" lon="109.03689356698274">
        <ele>392.59064090810716</ele>
        <time>2022-03-12T09:43:35Z</time>
      </trkpt>
      <trkpt lat="34.30661832191907" lon="109.03697934809615">
        <ele>392.71550712455064</ele>
        <time>2022-03-12T09:43:41Z</time>
      </trkpt>
      <trkpt lat="34.30638740125528" lon="109.0371087906181">
        <ele>391.7008823044598</ele>
        <time>2022-03-12T09:44:05Z</time>
      </trkpt>
      <trkpt lat="34.30646341074437" lon="109.03713233069335">
        <ele>392.0580053217709</ele>
        <time>2022-03-12T09:44:21Z</time>
      </trkpt>
      <trkpt lat="34.30656018920983" lon="109.03704237212888">
        <ele>391.70657535549253</ele>
        <time>2022-03-12T09:51:01Z</time>
      </trkpt>
      <trkpt lat="34.306558421283206" lon="109.03704250598767">
        <ele>392.7799024330452</ele>
        <time>2022-03-12T09:51:15Z</time>
      </trkpt>
      <trkpt lat="34.30662057116154" lon="109.03701471660719">
        <ele>392.07048897631466</ele>
        <time>2022-03-12T09:51:20Z</time>
      </trkpt>
      <trkpt lat="34.30655102956666" lon="109.03672722121406">
        <ele>392.1345232985914</ele>
        <time>2022-03-12T09:51:34Z</time>
      </trkpt>
      <trkpt lat="34.30655239164357" lon="109.03660999476833">
        <ele>392.09291223902255</ele>
        <time>2022-03-12T09:51:40Z</time>
      </trkpt>
      <trkpt lat="34.306527570982176" lon="109.03651663011232">
        <ele>391.91869097575545</ele>
        <time>2022-03-12T09:51:50Z</time>
      </trkpt>
      <trkpt lat="34.30648744396492" lon="109.03649496545998">
        <ele>391.6133087752387</ele>
        <time>2022-03-12T09:51:56Z</time>
      </trkpt>
      <trkpt lat="34.30639115578945" lon="109.03624514278">
        <ele>391.1757272752002</ele>
        <time>2022-03-12T09:52:17Z</time>
      </trkpt>
      <trkpt lat="34.30637883634656" lon="109.03610266360933">
        <ele>391.9107763376087</ele>
        <time>2022-03-12T09:52:21Z</time>
      </trkpt>
      <trkpt lat="34.30645479206111" lon="109.03570954365632">
        <ele>392.0096746701747</ele>
        <time>2022-03-12T09:52:31Z</time>
      </trkpt>
      <trkpt lat="34.30644738600485" lon="109.03545266968814">
        <ele>392.57197774760425</ele>
        <time>2022-03-12T09:52:37Z</time>
      </trkpt>
      <trkpt lat="34.306421552512724" lon="109.03536144971281">
        <ele>392.36977980006486</ele>
        <time>2022-03-12T09:52:41Z</time>
      </trkpt>
      <trkpt lat="34.306394208448665" lon="109.03509748737349">
        <ele>391.9329544287175</ele>
        <time>2022-03-12T09:52:49Z</time>
      </trkpt>
      <trkpt lat="34.30641726431716" lon="109.03499026927145">
        <ele>392.2587236566469</ele>
        <time>2022-03-12T09:52:53Z</time>
      </trkpt>
      <trkpt lat="34.30650987103875" lon="109.03491950874502">
        <ele>392.5986896120012</ele>
        <time>2022-03-12T09:52:55Z</time>
      </trkpt>
      <trkpt lat="34.30656216344734" lon="109.03481927308268">
        <ele>392.9159620432183</ele>
        <time>2022-03-12T09:52:58Z</time>
      </trkpt>
      <trkpt lat="34.3064798023304" lon="109.03434571426784">
        <ele>393.10464660078287</ele>
        <time>2022-03-12T09:53:10Z</time>
      </trkpt>
      <trkpt lat="34.306412849787385" lon="109.03404159296684">
        <ele>392.2502413969487</ele>
        <time>2022-03-12T09:53:19Z</time>
      </trkpt>
      <trkpt lat="34.30640510913592" lon="109.03389584773167">
        <ele>392.8180027063936</ele>
        <time>2022-03-12T09:53:22Z</time>
      </trkpt>
      <trkpt lat="34.30635472615134" lon="109.03365173843004">
        <ele>393.74433880485594</ele>
        <time>2022-03-12T09:53:28Z</time>
      </trkpt>
      <trkpt lat="34.30639911818398" lon="109.03348280532163">
        <ele>392.34920328389853</ele>
        <time>2022-03-12T09:53:32Z</time>
      </trkpt>
      <trkpt lat="34.30644002249313" lon="109.03321390109801">
        <ele>393.14709975756705</ele>
        <time>2022-03-12T09:53:40Z</time>
      </trkpt>
      <trkpt lat="34.30642609465102" lon="109.0330552263492">
        <ele>391.2499966574833</ele>
        <time>2022-03-12T09:53:44Z</time>
      </trkpt>
      <trkpt lat="34.306453821492575" lon="109.03290141762191">
        <ele>391.7240578979254</ele>
        <time>2022-03-12T09:53:48Z</time>
      </trkpt>
      <trkpt lat="34.30633088999712" lon="109.03262930755734">
        <ele>390.4609031835571</ele>
        <time>2022-03-12T09:53:54Z</time>
      </trkpt>
      <trkpt lat="34.3063358904621" lon="109.0325298414357">
        <ele>392.20296375919133</ele>
        <time>2022-03-12T09:53:56Z</time>
      </trkpt>
      <trkpt lat="34.30626470336878" lon="109.03227185641676">
        <ele>393.46940327528864</ele>
        <time>2022-03-12T09:54:02Z</time>
      </trkpt>
      <trkpt lat="34.306224352256216" lon="109.03218561793649">
        <ele>392.66222626157105</ele>
        <time>2022-03-12T09:54:04Z</time>
      </trkpt>
      <trkpt lat="34.30620628415825" lon="109.03209553645401">
        <ele>392.68364983890206</ele>
        <time>2022-03-12T09:54:06Z</time>
      </trkpt>
      <trkpt lat="34.306268039261866" lon="109.03200521265813">
        <ele>392.8823843281716</ele>
        <time>2022-03-12T09:54:08Z</time>
      </trkpt>
      <trkpt lat="34.30635701402936" lon="109.03194648799956">
        <ele>392.75484813097864</ele>
        <time>2022-03-12T09:54:10Z</time>
      </trkpt>
      <trkpt lat="34.30669320469298" lon="109.03158623892578">
        <ele>391.38768005371094</ele>
        <time>2022-03-12T09:54:20Z</time>
      </trkpt>
      <trkpt lat="34.30690652418436" lon="109.03139211342119">
        <ele>391.52714252192527</ele>
        <time>2022-03-12T09:54:26Z</time>
      </trkpt>
      <trkpt lat="34.30737463412264" lon="109.03112347122809">
        <ele>393.10716690775007</ele>
        <time>2022-03-12T09:54:38Z</time>
      </trkpt>
      <trkpt lat="34.30761849761309" lon="109.031047546161">
        <ele>393.18795330636203</ele>
        <time>2022-03-12T09:54:44Z</time>
      </trkpt>
      <trkpt lat="34.30778752949017" lon="109.03097382220581">
        <ele>393.19391502067447</ele>
        <time>2022-03-12T09:54:48Z</time>
      </trkpt>
      <trkpt lat="34.30824275613558" lon="109.03087568480909">
        <ele>394.64048753585666</ele>
        <time>2022-03-12T09:54:56Z</time>
      </trkpt>
      <trkpt lat="34.30872738430933" lon="109.03074096124237">
        <ele>394.2939075473696</ele>
        <time>2022-03-12T09:55:04Z</time>
      </trkpt>
      <trkpt lat="34.30883769370574" lon="109.03068541754112">
        <ele>393.8966325055808</ele>
        <time>2022-03-12T09:55:06Z</time>
      </trkpt>
      <trkpt lat="34.309148417128604" lon="109.03059792435768">
        <ele>394.6957070911303</ele>
        <time>2022-03-12T09:55:12Z</time>
      </trkpt>
      <trkpt lat="34.30960854041204" lon="109.03032346409962">
        <ele>391.80685616098344</ele>
        <time>2022-03-12T09:55:22Z</time>
      </trkpt>
      <trkpt lat="34.30970098222942" lon="109.03027092210542">
        <ele>391.4196012718603</ele>
        <time>2022-03-12T09:55:24Z</time>
      </trkpt>
      <trkpt lat="34.309971926613365" lon="109.03002732693085">
        <ele>392.3646374894306</ele>
        <time>2022-03-12T09:55:30Z</time>
      </trkpt>
      <trkpt lat="34.31033100120835" lon="109.02971981383544">
        <ele>392.7466980526224</ele>
        <time>2022-03-12T09:55:38Z</time>
      </trkpt>
      <trkpt lat="34.310679500583255" lon="109.02939213401233">
        <ele>391.7360942289233</ele>
        <time>2022-03-12T09:55:46Z</time>
      </trkpt>
      <trkpt lat="34.311020552449136" lon="109.02904836804707">
        <ele>391.7441355045885</ele>
        <time>2022-03-12T09:55:54Z</time>
      </trkpt>
      <trkpt lat="34.311220937092386" lon="109.02880099447633">
        <ele>391.68889563623816</ele>
        <time>2022-03-12T09:56:00Z</time>
      </trkpt>
      <trkpt lat="34.311376999490875" lon="109.02846302526402">
        <ele>392.16740574594587</ele>
        <time>2022-03-12T09:56:08Z</time>
      </trkpt>
      <trkpt lat="34.3114886880552" lon="109.02790201527638">
        <ele>392.375366801396</ele>
        <time>2022-03-12T09:56:18Z</time>
      </trkpt>
      <trkpt lat="34.31155565079294" lon="109.02728374259884">
        <ele>391.9554880736396</ele>
        <time>2022-03-12T09:56:28Z</time>
      </trkpt>
      <trkpt lat="34.311589751413976" lon="109.02715786811726">
        <ele>392.87566330004483</ele>
        <time>2022-03-12T09:56:30Z</time>
      </trkpt>
      <trkpt lat="34.31177127078957" lon="109.02681854388486">
        <ele>394.4467192450538</ele>
        <time>2022-03-12T09:56:36Z</time>
      </trkpt>
      <trkpt lat="34.31193770627117" lon="109.02661344949529">
        <ele>392.3899824488908</ele>
        <time>2022-03-12T09:56:40Z</time>
      </trkpt>
      <trkpt lat="34.31212941343798" lon="109.02645692986046">
        <ele>391.4828933663666</ele>
        <time>2022-03-12T09:56:44Z</time>
      </trkpt>
      <trkpt lat="34.31225300575299" lon="109.02640277378823">
        <ele>393.45440731197596</ele>
        <time>2022-03-12T09:56:46Z</time>
      </trkpt>
      <trkpt lat="34.31254565177863" lon="109.026223998481">
        <ele>391.26899142563343</ele>
        <time>2022-03-12T09:56:52Z</time>
      </trkpt>
      <trkpt lat="34.31263761464532" lon="109.0261257608369">
        <ele>392.12871041335166</ele>
        <time>2022-03-12T09:56:54Z</time>
      </trkpt>
      <trkpt lat="34.31269375042068" lon="109.02600433134992">
        <ele>392.06730557605624</ele>
        <time>2022-03-12T09:56:56Z</time>
      </trkpt>
      <trkpt lat="34.31288969597436" lon="109.02590551424714">
        <ele>392.68789899814874</ele>
        <time>2022-03-12T09:57:00Z</time>
      </trkpt>
      <trkpt lat="34.313137859312285" lon="109.02574131292553">
        <ele>393.3439502539113</ele>
        <time>2022-03-12T09:57:06Z</time>
      </trkpt>
      <trkpt lat="34.313508160345854" lon="109.0256177446296">
        <ele>392.6815136745572</ele>
        <time>2022-03-12T09:57:14Z</time>
      </trkpt>
      <trkpt lat="34.31397750905358" lon="109.02543635132182">
        <ele>391.2309185191989</ele>
        <time>2022-03-12T09:57:24Z</time>
      </trkpt>
      <trkpt lat="34.31434036076545" lon="109.02524247380299">
        <ele>391.303718582727</ele>
        <time>2022-03-12T09:57:32Z</time>
      </trkpt>
      <trkpt lat="34.314761444834744" lon="109.02494091110295">
        <ele>390.2371808970347</ele>
        <time>2022-03-12T09:57:42Z</time>
      </trkpt>
      <trkpt lat="34.31521969802187" lon="109.02461000746823">
        <ele>390.3624023217708</ele>
        <time>2022-03-12T09:57:52Z</time>
      </trkpt>
      <trkpt lat="34.31556835877287" lon="109.02439382048917">
        <ele>390.17222311347723</ele>
        <time>2022-03-12T09:57:59Z</time>
      </trkpt>
      <trkpt lat="34.31603626033017" lon="109.0241471690143">
        <ele>389.44260376226157</ele>
        <time>2022-03-12T09:58:09Z</time>
      </trkpt>
      <trkpt lat="34.31612783923077" lon="109.02410068684591">
        <ele>389.3950647879392</ele>
        <time>2022-03-12T09:58:11Z</time>
      </trkpt>
      <trkpt lat="34.31618113682419" lon="109.02402940408709">
        <ele>389.50694118998945</ele>
        <time>2022-03-12T09:58:13Z</time>
      </trkpt>
      <trkpt lat="34.31618944635142" lon="109.02392613989328">
        <ele>390.0018267221749</ele>
        <time>2022-03-12T09:58:15Z</time>
      </trkpt>
      <trkpt lat="34.316175666855045" lon="109.02382463714203">
        <ele>389.8862557243556</ele>
        <time>2022-03-12T09:58:17Z</time>
      </trkpt>
      <trkpt lat="34.31620549768752" lon="109.0234222920732">
        <ele>389.71481987833977</ele>
        <time>2022-03-12T09:58:25Z</time>
      </trkpt>
      <trkpt lat="34.31616159977773" lon="109.02321855463282">
        <ele>389.4990715198219</ele>
        <time>2022-03-12T09:58:29Z</time>
      </trkpt>
      <trkpt lat="34.3159568855236" lon="109.02271631422548">
        <ele>389.2628193581477</ele>
        <time>2022-03-12T09:58:39Z</time>
      </trkpt>
      <trkpt lat="34.31580660172673" lon="109.02235856042378">
        <ele>389.77512247674167</ele>
        <time>2022-03-12T09:58:47Z</time>
      </trkpt>
      <trkpt lat="34.31581644706234" lon="109.02226344194176">
        <ele>389.6280616344884</ele>
        <time>2022-03-12T09:58:49Z</time>
      </trkpt>
      <trkpt lat="34.31588443517248" lon="109.02219723398653">
        <ele>390.31794583052397</ele>
        <time>2022-03-12T09:58:51Z</time>
      </trkpt>
      <trkpt lat="34.31621042404919" lon="109.02200582323509">
        <ele>389.43056096322834</ele>
        <time>2022-03-12T09:58:59Z</time>
      </trkpt>
      <trkpt lat="34.31661834540553" lon="109.02185245359642">
        <ele>391.23415039107203</ele>
        <time>2022-03-12T09:59:07Z</time>
      </trkpt>
      <trkpt lat="34.317096982149536" lon="109.02178058364825">
        <ele>391.0780005501583</ele>
        <time>2022-03-12T09:59:16Z</time>
      </trkpt>
      <trkpt lat="34.31752872635229" lon="109.02170626348511">
        <ele>391.49497851356864</ele>
        <time>2022-03-12T09:59:24Z</time>
      </trkpt>
      <trkpt lat="34.31795708589977" lon="109.02163784086098">
        <ele>391.98802048619837</ele>
        <time>2022-03-12T09:59:32Z</time>
      </trkpt>
      <trkpt lat="34.318057114537254" lon="109.02160479820301">
        <ele>392.9364348370582</ele>
        <time>2022-03-12T09:59:34Z</time>
      </trkpt>
      <trkpt lat="34.31816430247179" lon="109.0216010352226">
        <ele>391.3358246842399</ele>
        <time>2022-03-12T09:59:36Z</time>
      </trkpt>
      <trkpt lat="34.318616779665795" lon="109.0215274130375">
        <ele>391.58752143010497</ele>
        <time>2022-03-12T09:59:44Z</time>
      </trkpt>
      <trkpt lat="34.318858038379076" lon="109.02148677441075">
        <ele>392.1113256253302</ele>
        <time>2022-03-12T09:59:48Z</time>
      </trkpt>
      <trkpt lat="34.3189803288736" lon="109.02149812996329">
        <ele>392.509127041325</ele>
        <time>2022-03-12T09:59:50Z</time>
      </trkpt>
      <trkpt lat="34.319334261266825" lon="109.02149559509772">
        <ele>391.270540419966</ele>
        <time>2022-03-12T09:59:56Z</time>
      </trkpt>
      <trkpt lat="34.31969281359592" lon="109.02150162877952">
        <ele>391.3357478277758</ele>
        <time>2022-03-12T10:00:02Z</time>
      </trkpt>
      <trkpt lat="34.32016801323512" lon="109.02158160258452">
        <ele>389.9677091082558</ele>
        <time>2022-03-12T10:00:10Z</time>
      </trkpt>
      <trkpt lat="34.320633168422056" lon="109.02168654998668">
        <ele>388.7481773663312</ele>
        <time>2022-03-12T10:00:18Z</time>
      </trkpt>
      <trkpt lat="34.32111267037048" lon="109.02175737657325">
        <ele>388.9166627936065</ele>
        <time>2022-03-12T10:00:26Z</time>
      </trkpt>
      <trkpt lat="34.32157276604759" lon="109.02181337557644">
        <ele>389.89392616879195</ele>
        <time>2022-03-12T10:00:34Z</time>
      </trkpt>
      <trkpt lat="34.32203257664777" lon="109.0218890255529">
        <ele>390.49683100916445</ele>
        <time>2022-03-12T10:00:42Z</time>
      </trkpt>
      <trkpt lat="34.3223793730395" lon="109.02194718049527">
        <ele>389.7736014975235</ele>
        <time>2022-03-12T10:00:48Z</time>
      </trkpt>
      <trkpt lat="34.322858154324756" lon="109.02196466802788">
        <ele>390.03646749071777</ele>
        <time>2022-03-12T10:00:56Z</time>
      </trkpt>
      <trkpt lat="34.32309203160323" lon="109.02195620298586">
        <ele>390.3865582384169</ele>
        <time>2022-03-12T10:01:00Z</time>
      </trkpt>
      <trkpt lat="34.32320219329074" lon="109.0219827965542">
        <ele>389.80024629924446</ele>
        <time>2022-03-12T10:01:02Z</time>
      </trkpt>
      <trkpt lat="34.32353938069659" lon="109.02192698398979">
        <ele>389.2794988397509</ele>
        <time>2022-03-12T10:01:08Z</time>
      </trkpt>
      <trkpt lat="34.32378095871388" lon="109.02192239413024">
        <ele>389.37084573321044</ele>
        <time>2022-03-12T10:01:12Z</time>
      </trkpt>
      <trkpt lat="34.324245575120365" lon="109.02181704704086">
        <ele>387.8641333989799</ele>
        <time>2022-03-12T10:01:20Z</time>
      </trkpt>
      <trkpt lat="34.32470312205903" lon="109.02166250099776">
        <ele>389.04473837278783</ele>
        <time>2022-03-12T10:01:28Z</time>
      </trkpt>
      <trkpt lat="34.32515051943673" lon="109.02145202083871">
        <ele>389.35326810739934</ele>
        <time>2022-03-12T10:01:36Z</time>
      </trkpt>
      <trkpt lat="34.32536143873141" lon="109.0213410091401">
        <ele>388.3669746434316</ele>
        <time>2022-03-12T10:01:40Z</time>
      </trkpt>
      <trkpt lat="34.325779409592755" lon="109.02102466788881">
        <ele>388.6050753034651</ele>
        <time>2022-03-12T10:01:48Z</time>
      </trkpt>
      <trkpt lat="34.32617012360401" lon="109.02070598735092">
        <ele>388.9831342343241</ele>
        <time>2022-03-12T10:01:56Z</time>
      </trkpt>
      <trkpt lat="34.32635889044081" lon="109.02054515394657">
        <ele>388.70741285197437</ele>
        <time>2022-03-12T10:02:00Z</time>
      </trkpt>
      <trkpt lat="34.32668910232348" lon="109.0201605332167">
        <ele>388.3101477092132</ele>
        <time>2022-03-12T10:02:08Z</time>
      </trkpt>
      <trkpt lat="34.32696738489073" lon="109.01973648532525">
        <ele>389.7399196671322</ele>
        <time>2022-03-12T10:02:16Z</time>
      </trkpt>
      <trkpt lat="34.32724656929198" lon="109.01931333246316">
        <ele>388.78405148908496</ele>
        <time>2022-03-12T10:02:24Z</time>
      </trkpt>
      <trkpt lat="34.32751744654543" lon="109.01888311351685">
        <ele>389.4471397502348</ele>
        <time>2022-03-12T10:02:32Z</time>
      </trkpt>
      <trkpt lat="34.3277036852427" lon="109.01852595745711">
        <ele>389.3165758261457</ele>
        <time>2022-03-12T10:02:38Z</time>
      </trkpt>
      <trkpt lat="34.328006006879576" lon="109.01806212403268">
        <ele>387.78127810359</ele>
        <time>2022-03-12T10:02:46Z</time>
      </trkpt>
      <trkpt lat="34.3282227959584" lon="109.01768772302678">
        <ele>387.4842404909432</ele>
        <time>2022-03-12T10:02:52Z</time>
      </trkpt>
      <trkpt lat="34.32830715957726" lon="109.01757917873623">
        <ele>388.2382588926703</ele>
        <time>2022-03-12T10:02:54Z</time>
      </trkpt>
      <trkpt lat="34.32837259635006" lon="109.01745168016951">
        <ele>388.51172948628664</ele>
        <time>2022-03-12T10:02:56Z</time>
      </trkpt>
      <trkpt lat="34.328608470648994" lon="109.01710825887746">
        <ele>388.62759359925985</ele>
        <time>2022-03-12T10:03:02Z</time>
      </trkpt>
      <trkpt lat="34.328869924636784" lon="109.01662015538868">
        <ele>387.9607700807974</ele>
        <time>2022-03-12T10:03:10Z</time>
      </trkpt>
      <trkpt lat="34.329000826110295" lon="109.01637989975329">
        <ele>388.1178040849045</ele>
        <time>2022-03-12T10:03:14Z</time>
      </trkpt>
      <trkpt lat="34.329325175963554" lon="109.01587867517587">
        <ele>387.62231661286205</ele>
        <time>2022-03-12T10:03:23Z</time>
      </trkpt>
      <trkpt lat="34.32950560144916" lon="109.015603645249">
        <ele>389.2759500583634</ele>
        <time>2022-03-12T10:03:28Z</time>
      </trkpt>
      <trkpt lat="34.32985849409717" lon="109.01521588058233">
        <ele>387.6943862847984</ele>
        <time>2022-03-12T10:03:36Z</time>
      </trkpt>
      <trkpt lat="34.32994463176011" lon="109.0151182009155">
        <ele>389.2618360640481</ele>
        <time>2022-03-12T10:03:38Z</time>
      </trkpt>
      <trkpt lat="34.330333813498996" lon="109.014771865394">
        <ele>388.28523016907275</ele>
        <time>2022-03-12T10:03:46Z</time>
      </trkpt>
      <trkpt lat="34.33043852536642" lon="109.01468695165303">
        <ele>388.54966172296554</ele>
        <time>2022-03-12T10:03:48Z</time>
      </trkpt>
      <trkpt lat="34.33055069801532" lon="109.01462862326828">
        <ele>387.4499018397182</ele>
        <time>2022-03-12T10:03:50Z</time>
      </trkpt>
      <trkpt lat="34.33083676223397" lon="109.01435437674057">
        <ele>389.22668660711497</ele>
        <time>2022-03-12T10:03:56Z</time>
      </trkpt>
      <trkpt lat="34.33123428146091" lon="109.01407429634509">
        <ele>388.9526277044788</ele>
        <time>2022-03-12T10:04:04Z</time>
      </trkpt>
      <trkpt lat="34.331630772521166" lon="109.0137780485647">
        <ele>388.8108204146847</ele>
        <time>2022-03-12T10:04:12Z</time>
      </trkpt>
      <trkpt lat="34.331812106849" lon="109.01362842636422">
        <ele>388.1390198748559</ele>
        <time>2022-03-12T10:04:16Z</time>
      </trkpt>
      <trkpt lat="34.33193934582413" lon="109.01348547646751">
        <ele>387.97422169707716</ele>
        <time>2022-03-12T10:04:20Z</time>
      </trkpt>
      <trkpt lat="34.332116196778124" lon="109.01345233824857">
        <ele>388.5282897427678</ele>
        <time>2022-03-12T10:04:24Z</time>
      </trkpt>
      <trkpt lat="34.33219978172122" lon="109.0134175535495">
        <ele>388.33058714400977</ele>
        <time>2022-03-12T10:04:26Z</time>
      </trkpt>
      <trkpt lat="34.332364531129656" lon="109.01325187390597">
        <ele>388.42524764779955</ele>
        <time>2022-03-12T10:04:34Z</time>
      </trkpt>
      <trkpt lat="34.332430916770086" lon="109.01320686548334">
        <ele>388.5261725978926</ele>
        <time>2022-03-12T10:04:38Z</time>
      </trkpt>
      <trkpt lat="34.33251849704599" lon="109.0131782687493">
        <ele>387.8391089690849</ele>
        <time>2022-03-12T10:04:44Z</time>
      </trkpt>
      <trkpt lat="34.33276320822704" lon="109.01302698725402">
        <ele>387.16105358023196</ele>
        <time>2022-03-12T10:04:56Z</time>
      </trkpt>
      <trkpt lat="34.33281572089652" lon="109.01294707201177">
        <ele>387.1504538943991</ele>
        <time>2022-03-12T10:05:00Z</time>
      </trkpt>
      <trkpt lat="34.33294036820941" lon="109.0128794575862">
        <ele>386.9967223331332</ele>
        <time>2022-03-12T10:05:04Z</time>
      </trkpt>
      <trkpt lat="34.332958394971364" lon="109.01303306040877">
        <ele>387.11441162694246</ele>
        <time>2022-03-12T10:05:08Z</time>
      </trkpt>
      <trkpt lat="34.33285717719162" lon="109.01306293938443">
        <ele>387.2190261911601</ele>
        <time>2022-03-12T10:05:12Z</time>
      </trkpt>
      <trkpt lat="34.33283858634962" lon="109.01296589874917">
        <ele>387.02098183054477</ele>
        <time>2022-03-12T10:05:22Z</time>
      </trkpt>
      <trkpt lat="34.332790922111066" lon="109.01287669303882">
        <ele>387.02089872583747</ele>
        <time>2022-03-12T10:05:26Z</time>
      </trkpt>
      <trkpt lat="34.332687478352774" lon="109.01279814476585">
        <ele>387.6487172516063</ele>
        <time>2022-03-12T10:05:30Z</time>
      </trkpt>
      <trkpt lat="34.33250929193439" lon="109.01252442285201">
        <ele>388.2641218993813</ele>
        <time>2022-03-12T10:05:42Z</time>
      </trkpt>
      <trkpt lat="34.33247202069073" lon="109.01243104679426">
        <ele>389.21643877774477</ele>
        <time>2022-03-12T10:05:46Z</time>
      </trkpt>
      <trkpt lat="34.33242005928087" lon="109.01235072561548">
        <ele>388.69446318782866</ele>
        <time>2022-03-12T10:05:50Z</time>
      </trkpt>
      <trkpt lat="34.332398407239154" lon="109.01224289835355">
        <ele>388.9089587870985</ele>
        <time>2022-03-12T10:05:54Z</time>
      </trkpt>
      <trkpt lat="34.33241673770064" lon="109.01198162852336">
        <ele>389.0351923117414</ele>
        <time>2022-03-12T10:06:00Z</time>
      </trkpt>
      <trkpt lat="34.33237988898089" lon="109.01186208532485">
        <ele>388.7869430910796</ele>
        <time>2022-03-12T10:06:04Z</time>
      </trkpt>
      <trkpt lat="34.3322831990271" lon="109.0117362022773">
        <ele>388.3869058508426</ele>
        <time>2022-03-12T10:06:08Z</time>
      </trkpt>
      <trkpt lat="34.33225261980652" lon="109.01159392536425">
        <ele>387.52945075090975</ele>
        <time>2022-03-12T10:06:12Z</time>
      </trkpt>
      <trkpt lat="34.33224752031853" lon="109.01147175354177">
        <ele>387.5758812054992</ele>
        <time>2022-03-12T10:06:16Z</time>
      </trkpt>
      <trkpt lat="34.332152843735656" lon="109.01122757181554">
        <ele>386.3085528742522</ele>
        <time>2022-03-12T10:06:24Z</time>
      </trkpt>
      <trkpt lat="34.33210383680803" lon="109.01115534415588">
        <ele>386.29492507781833</ele>
        <time>2022-03-12T10:06:28Z</time>
      </trkpt>
      <trkpt lat="34.33203698693227" lon="109.01110871801559">
        <ele>386.0196384387091</ele>
        <time>2022-03-12T10:06:30Z</time>
      </trkpt>
      <trkpt lat="34.33197329194841" lon="109.01093194966057">
        <ele>385.9653475647792</ele>
        <time>2022-03-12T10:06:34Z</time>
      </trkpt>
      <trkpt lat="34.33191493732797" lon="109.01070541230769">
        <ele>386.16862987168133</ele>
        <time>2022-03-12T10:06:40Z</time>
      </trkpt>
      <trkpt lat="34.33185622091334" lon="109.01057370361471">
        <ele>386.03858652804047</ele>
        <time>2022-03-12T10:06:50Z</time>
      </trkpt>
      <trkpt lat="34.33180641774093" lon="109.01040839268624">
        <ele>385.74310496822</ele>
        <time>2022-03-12T10:06:59Z</time>
      </trkpt>
      <trkpt lat="34.33177523355959" lon="109.01016779431953">
        <ele>386.0519868321717</ele>
        <time>2022-03-12T10:07:05Z</time>
      </trkpt>
      <trkpt lat="34.331786937183416" lon="109.00960588422986">
        <ele>387.5443834280595</ele>
        <time>2022-03-12T10:07:19Z</time>
      </trkpt>
      <trkpt lat="34.3318406967139" lon="109.00932155811688">
        <ele>387.08647721260786</ele>
        <time>2022-03-12T10:07:25Z</time>
      </trkpt>
      <trkpt lat="34.33187104488827" lon="109.00924225207457">
        <ele>387.2107759658247</ele>
        <time>2022-03-12T10:07:27Z</time>
      </trkpt>
      <trkpt lat="34.331890234268535" lon="109.00905359904078">
        <ele>386.44134071748704</ele>
        <time>2022-03-12T10:07:31Z</time>
      </trkpt>
      <trkpt lat="34.331838592857515" lon="109.00880389441095">
        <ele>386.906131288968</ele>
        <time>2022-03-12T10:07:35Z</time>
      </trkpt>
      <trkpt lat="34.331825228441396" lon="109.00855849330051">
        <ele>385.53065379243344</ele>
        <time>2022-03-12T10:07:42Z</time>
      </trkpt>
      <trkpt lat="34.331852380478594" lon="109.0079629404255">
        <ele>387.6958769047633</ele>
        <time>2022-03-12T10:07:54Z</time>
      </trkpt>
      <trkpt lat="34.33184597305063" lon="109.0074114355049">
        <ele>388.0791332265362</ele>
        <time>2022-03-12T10:08:04Z</time>
      </trkpt>
      <trkpt lat="34.331853348066375" lon="109.00730489474327">
        <ele>386.627856801264</ele>
        <time>2022-03-12T10:08:06Z</time>
      </trkpt>
      <trkpt lat="34.33183437876816" lon="109.00697441624544">
        <ele>386.29441493656486</ele>
        <time>2022-03-12T10:08:12Z</time>
      </trkpt>
      <trkpt lat="34.331833427847876" lon="109.00664352404831">
        <ele>386.9268144685775</ele>
        <time>2022-03-12T10:08:18Z</time>
      </trkpt>
      <trkpt lat="34.3318136526066" lon="109.00655991271775">
        <ele>387.3864419590682</ele>
        <time>2022-03-12T10:08:20Z</time>
      </trkpt>
      <trkpt lat="34.33181966150016" lon="109.00618794910622">
        <ele>386.6283074617386</ele>
        <time>2022-03-12T10:08:28Z</time>
      </trkpt>
      <trkpt lat="34.33179376062273" lon="109.00599112289478">
        <ele>386.79117798712105</ele>
        <time>2022-03-12T10:08:34Z</time>
      </trkpt>
      <trkpt lat="34.33184956799882" lon="109.00588345303727">
        <ele>387.08233362063766</ele>
        <time>2022-03-12T10:08:40Z</time>
      </trkpt>
      <trkpt lat="34.33191403058823" lon="109.00558202521633">
        <ele>386.83051682822406</ele>
        <time>2022-03-12T10:08:48Z</time>
      </trkpt>
      <trkpt lat="34.33188308722746" lon="109.00545184139277">
        <ele>386.6011717384681</ele>
        <time>2022-03-12T10:08:52Z</time>
      </trkpt>
      <trkpt lat="34.33196212611232" lon="109.00522192240592">
        <ele>386.4382546581328</ele>
        <time>2022-03-12T10:09:00Z</time>
      </trkpt>
      <trkpt lat="34.33196033898556" lon="109.0050711093298">
        <ele>387.35654826648533</ele>
        <time>2022-03-12T10:09:04Z</time>
      </trkpt>
      <trkpt lat="34.33193591378396" lon="109.0049860893265">
        <ele>386.86371253058314</ele>
        <time>2022-03-12T10:09:06Z</time>
      </trkpt>
      <trkpt lat="34.3319237113637" lon="109.00481306624337">
        <ele>387.0297507857904</ele>
        <time>2022-03-12T10:09:10Z</time>
      </trkpt>
      <trkpt lat="34.33200752795087" lon="109.0046206451269">
        <ele>387.39928380586207</ele>
        <time>2022-03-12T10:09:18Z</time>
      </trkpt>
      <trkpt lat="34.332034158941106" lon="109.00446899051356">
        <ele>387.60960690677166</ele>
        <time>2022-03-12T10:09:22Z</time>
      </trkpt>
      <trkpt lat="34.3320151158411" lon="109.00436284138236">
        <ele>387.65589721500874</ele>
        <time>2022-03-12T10:09:24Z</time>
      </trkpt>
      <trkpt lat="34.33192197131789" lon="109.00406690744191">
        <ele>387.3117177579552</ele>
        <time>2022-03-12T10:09:30Z</time>
      </trkpt>
      <trkpt lat="34.33183769551301" lon="109.00356892411007">
        <ele>387.27630833536386</ele>
        <time>2022-03-12T10:09:40Z</time>
      </trkpt>
      <trkpt lat="34.331837462150155" lon="109.00296062134022">
        <ele>388.5547422962263</ele>
        <time>2022-03-12T10:09:52Z</time>
      </trkpt>
      <trkpt lat="34.33183662513385" lon="109.00273755305308">
        <ele>389.153213923797</ele>
        <time>2022-03-12T10:09:56Z</time>
      </trkpt>
      <trkpt lat="34.33185001481153" lon="109.00263116218986">
        <ele>388.46341577731073</ele>
        <time>2022-03-12T10:09:58Z</time>
      </trkpt>
      <trkpt lat="34.331838400140036" lon="109.00209490771849">
        <ele>388.3915624441579</ele>
        <time>2022-03-12T10:10:08Z</time>
      </trkpt>
      <trkpt lat="34.33185126190151" lon="109.00155800969225">
        <ele>390.68234447482973</ele>
        <time>2022-03-12T10:10:18Z</time>
      </trkpt>
      <trkpt lat="34.33185813894776" lon="109.0012360810583">
        <ele>390.88276518601924</ele>
        <time>2022-03-12T10:10:24Z</time>
      </trkpt>
      <trkpt lat="34.33188447249387" lon="109.00061585620384">
        <ele>390.8545444905758</ele>
        <time>2022-03-12T10:10:36Z</time>
      </trkpt>
      <trkpt lat="34.33189601296123" lon="109.00009533512745">
        <ele>390.98650744743645</ele>
        <time>2022-03-12T10:10:46Z</time>
      </trkpt>
      <trkpt lat="34.33188825229258" lon="108.99988988184347">
        <ele>390.4196371277794</ele>
        <time>2022-03-12T10:10:50Z</time>
      </trkpt>
      <trkpt lat="34.33188591751652" lon="108.99936705284789">
        <ele>391.67271031904966</ele>
        <time>2022-03-12T10:11:02Z</time>
      </trkpt>
      <trkpt lat="34.33183958255551" lon="108.99910369024907">
        <ele>391.5467749061063</ele>
        <time>2022-03-12T10:11:08Z</time>
      </trkpt>
      <trkpt lat="34.3317583019976" lon="108.99850770491253">
        <ele>391.2909248098731</ele>
        <time>2022-03-12T10:11:20Z</time>
      </trkpt>
      <trkpt lat="34.33165411242946" lon="108.99819921825363">
        <ele>392.4737738771364</ele>
        <time>2022-03-12T10:11:26Z</time>
      </trkpt>
      <trkpt lat="34.33155945438873" lon="108.99767471650809">
        <ele>392.76399373356253</ele>
        <time>2022-03-12T10:11:36Z</time>
      </trkpt>
      <trkpt lat="34.331469782030936" lon="108.99737603120889">
        <ele>392.65560570918024</ele>
        <time>2022-03-12T10:11:42Z</time>
      </trkpt>
      <trkpt lat="34.331370581869976" lon="108.99697478765775">
        <ele>392.14804187975824</ele>
        <time>2022-03-12T10:11:50Z</time>
      </trkpt>
      <trkpt lat="34.33128933151135" lon="108.99667222946863">
        <ele>392.24069079756737</ele>
        <time>2022-03-12T10:11:56Z</time>
      </trkpt>
      <trkpt lat="34.33112696561017" lon="108.9961568242236">
        <ele>392.6447600405663</ele>
        <time>2022-03-12T10:12:06Z</time>
      </trkpt>
      <trkpt lat="34.3310435198668" lon="108.9958502683392">
        <ele>393.08159111626446</ele>
        <time>2022-03-12T10:12:12Z</time>
      </trkpt>
      <trkpt lat="34.33106635025365" lon="108.995680867991">
        <ele>392.4897436965257</ele>
        <time>2022-03-12T10:12:16Z</time>
      </trkpt>
      <trkpt lat="34.33100391309343" lon="108.99549986616498">
        <ele>393.0676228310913</ele>
        <time>2022-03-12T10:12:20Z</time>
      </trkpt>
      <trkpt lat="34.330981539743824" lon="108.99538594239498">
        <ele>392.5286378553137</ele>
        <time>2022-03-12T10:12:22Z</time>
      </trkpt>
      <trkpt lat="34.3309849869833" lon="108.99511975298324">
        <ele>392.7429510112852</ele>
        <time>2022-03-12T10:12:28Z</time>
      </trkpt>
      <trkpt lat="34.3309272685351" lon="108.99477966387948">
        <ele>393.34821503795683</ele>
        <time>2022-03-12T10:12:34Z</time>
      </trkpt>
      <trkpt lat="34.33095330186618" lon="108.99469282693225">
        <ele>392.1183715108782</ele>
        <time>2022-03-12T10:12:36Z</time>
      </trkpt>
      <trkpt lat="34.33089850120307" lon="108.99443430896481">
        <ele>392.5761423846707</ele>
        <time>2022-03-12T10:12:40Z</time>
      </trkpt>
      <trkpt lat="34.3308079804438" lon="108.99423223722013">
        <ele>393.2656593564898</ele>
        <time>2022-03-12T10:12:42Z</time>
      </trkpt>
      <trkpt lat="34.33078091970098" lon="108.99406286127535">
        <ele>392.5871309963986</ele>
        <time>2022-03-12T10:12:44Z</time>
      </trkpt>
      <trkpt lat="34.33078606950117" lon="108.99384361665115">
        <ele>392.03801778052</ele>
        <time>2022-03-12T10:12:48Z</time>
      </trkpt>
      <trkpt lat="34.33082540252001" lon="108.9936552603837">
        <ele>392.6755066877231</ele>
        <time>2022-03-12T10:12:52Z</time>
      </trkpt>
      <trkpt lat="34.33087446475705" lon="108.99355311622334">
        <ele>393.28335024416447</ele>
        <time>2022-03-12T10:12:54Z</time>
      </trkpt>
      <trkpt lat="34.33091753285138" lon="108.99337689097922">
        <ele>393.0172487096861</ele>
        <time>2022-03-12T10:12:58Z</time>
      </trkpt>
      <trkpt lat="34.330873342701885" lon="108.99293699014845">
        <ele>392.66707890015095</ele>
        <time>2022-03-12T10:13:04Z</time>
      </trkpt>
      <trkpt lat="34.330884022363335" lon="108.9925272377948">
        <ele>392.8479828312993</ele>
        <time>2022-03-12T10:13:10Z</time>
      </trkpt>
      <trkpt lat="34.33084019050841" lon="108.99227545004858">
        <ele>392.70348225161433</ele>
        <time>2022-03-12T10:13:14Z</time>
      </trkpt>
      <trkpt lat="34.33086837906696" lon="108.99206764572196">
        <ele>392.2656664280221</ele>
        <time>2022-03-12T10:13:18Z</time>
      </trkpt>
      <trkpt lat="34.33086341360773" lon="108.99150029103261">
        <ele>392.2663812972605</ele>
        <time>2022-03-12T10:13:28Z</time>
      </trkpt>
      <trkpt lat="34.33084837463606" lon="108.99125261651474">
        <ele>392.31218114402145</ele>
        <time>2022-03-12T10:13:32Z</time>
      </trkpt>
      <trkpt lat="34.33084981275873" lon="108.990982448497">
        <ele>392.49338114913553</ele>
        <time>2022-03-12T10:13:36Z</time>
      </trkpt>
      <trkpt lat="34.33087608191797" lon="108.99085078235939">
        <ele>391.72194191161543</ele>
        <time>2022-03-12T10:13:38Z</time>
      </trkpt>
      <trkpt lat="34.33087694328417" lon="108.99071505622197">
        <ele>391.7186591848731</ele>
        <time>2022-03-12T10:13:40Z</time>
      </trkpt>
      <trkpt lat="34.330853623178086" lon="108.99057923167484">
        <ele>391.2487558601424</ele>
        <time>2022-03-12T10:13:42Z</time>
      </trkpt>
      <trkpt lat="34.330887523462046" lon="108.99001797045636">
        <ele>391.3335443288088</ele>
        <time>2022-03-12T10:13:50Z</time>
      </trkpt>
      <trkpt lat="34.33091607495227" lon="108.98976323347999">
        <ele>391.5344333201647</ele>
        <time>2022-03-12T10:13:54Z</time>
      </trkpt>
      <trkpt lat="34.3309177475106" lon="108.98951138995263">
        <ele>392.6708464594558</ele>
        <time>2022-03-12T10:13:58Z</time>
      </trkpt>
      <trkpt lat="34.33088018714872" lon="108.98924882513931">
        <ele>390.8592280363664</ele>
        <time>2022-03-12T10:14:02Z</time>
      </trkpt>
      <trkpt lat="34.33087828625634" lon="108.9889963015501">
        <ele>392.049389638938</ele>
        <time>2022-03-12T10:14:06Z</time>
      </trkpt>
      <trkpt lat="34.33092463279201" lon="108.98891582964306">
        <ele>392.17610880732536</ele>
        <time>2022-03-12T10:14:08Z</time>
      </trkpt>
      <trkpt lat="34.330927162580615" lon="108.9887866464122">
        <ele>391.6180598344654</ele>
        <time>2022-03-12T10:14:10Z</time>
      </trkpt>
      <trkpt lat="34.33096992554494" lon="108.98844570854871">
        <ele>392.476035089232</ele>
        <time>2022-03-12T10:14:16Z</time>
      </trkpt>
      <trkpt lat="34.33091199215966" lon="108.98832957343207">
        <ele>392.7289231615141</ele>
        <time>2022-03-12T10:14:18Z</time>
      </trkpt>
      <trkpt lat="34.33086012373503" lon="108.98800730780175">
        <ele>391.753158765845</ele>
        <time>2022-03-12T10:14:22Z</time>
      </trkpt>
      <trkpt lat="34.33087024284019" lon="108.98787525027328">
        <ele>392.7888243999332</ele>
        <time>2022-03-12T10:14:24Z</time>
      </trkpt>
      <trkpt lat="34.33085606868363" lon="108.98753042138688">
        <ele>393.2997682271525</ele>
        <time>2022-03-12T10:14:30Z</time>
      </trkpt>
      <trkpt lat="34.3308996762343" lon="108.9872285224776">
        <ele>392.74690677784383</ele>
        <time>2022-03-12T10:14:36Z</time>
      </trkpt>
      <trkpt lat="34.33088219702379" lon="108.98711225216168">
        <ele>393.2863427121192</ele>
        <time>2022-03-12T10:14:38Z</time>
      </trkpt>
      <trkpt lat="34.3308788912646" lon="108.9865657892388">
        <ele>393.04665599763393</ele>
        <time>2022-03-12T10:14:48Z</time>
      </trkpt>
      <trkpt lat="34.330828657600314" lon="108.98610741731197">
        <ele>393.28089323733</ele>
        <time>2022-03-12T10:14:56Z</time>
      </trkpt>
      <trkpt lat="34.33077226768332" lon="108.98604311762524">
        <ele>394.18678068276495</ele>
        <time>2022-03-12T10:14:57Z</time>
      </trkpt>
      <trkpt lat="34.330699703521795" lon="108.98582922349918">
        <ele>393.7999238902703</ele>
        <time>2022-03-12T10:15:01Z</time>
      </trkpt>
      <trkpt lat="34.33068443592185" lon="108.98570762081032">
        <ele>393.58505885116756</ele>
        <time>2022-03-12T10:15:03Z</time>
      </trkpt>
      <trkpt lat="34.33064147652642" lon="108.98556633580503">
        <ele>393.38284392189234</ele>
        <time>2022-03-12T10:15:05Z</time>
      </trkpt>
      <trkpt lat="34.3306495137342" lon="108.98528823595234">
        <ele>393.55709173344076</ele>
        <time>2022-03-12T10:15:09Z</time>
      </trkpt>
      <trkpt lat="34.3307791008739" lon="108.98521407096348">
        <ele>394.0534520968795</ele>
        <time>2022-03-12T10:15:11Z</time>
      </trkpt>
      <trkpt lat="34.33090908927859" lon="108.98516568072904">
        <ele>394.285589360632</ele>
        <time>2022-03-12T10:15:13Z</time>
      </trkpt>
      <trkpt lat="34.330906832813966" lon="108.98505891580764">
        <ele>393.9382054209709</ele>
        <time>2022-03-12T10:15:15Z</time>
      </trkpt>
      <trkpt lat="34.33093362482142" lon="108.98497289794753">
        <ele>394.1503639034927</ele>
        <time>2022-03-12T10:15:17Z</time>
      </trkpt>
      <trkpt lat="34.33092655848531" lon="108.98476635384833">
        <ele>392.91073537338525</ele>
        <time>2022-03-12T10:15:21Z</time>
      </trkpt>
      <trkpt lat="34.330977985321596" lon="108.98419163954841">
        <ele>395.0022663362324</ele>
        <time>2022-03-12T10:15:31Z</time>
      </trkpt>
      <trkpt lat="34.330975892898344" lon="108.9839794865009">
        <ele>394.8557368358597</ele>
        <time>2022-03-12T10:15:35Z</time>
      </trkpt>
      <trkpt lat="34.33101267275383" lon="108.98343152052239">
        <ele>394.8656368255615</ele>
        <time>2022-03-12T10:15:45Z</time>
      </trkpt>
      <trkpt lat="34.3310422794612" lon="108.98289756218075">
        <ele>395.63745667692274</ele>
        <time>2022-03-12T10:15:55Z</time>
      </trkpt>
      <trkpt lat="34.33103781868966" lon="108.98267501453931">
        <ele>395.5347416391596</ele>
        <time>2022-03-12T10:15:59Z</time>
      </trkpt>
      <trkpt lat="34.33104026722072" lon="108.98238975374832">
        <ele>395.9309254940599</ele>
        <time>2022-03-12T10:16:04Z</time>
      </trkpt>
      <trkpt lat="34.33102701486122" lon="108.98227368476151">
        <ele>394.8659387957305</ele>
        <time>2022-03-12T10:16:06Z</time>
      </trkpt>
      <trkpt lat="34.33102679076168" lon="108.98171839026632">
        <ele>395.8530849274248</ele>
        <time>2022-03-12T10:16:16Z</time>
      </trkpt>
      <trkpt lat="34.33101168011809" lon="108.98116359311354">
        <ele>396.36111043859273</ele>
        <time>2022-03-12T10:16:26Z</time>
      </trkpt>
      <trkpt lat="34.33104187879987" lon="108.98062822846208">
        <ele>396.75066867563874</ele>
        <time>2022-03-12T10:16:36Z</time>
      </trkpt>
      <trkpt lat="34.33106037493375" lon="108.98003724046337">
        <ele>395.8900307742879</ele>
        <time>2022-03-12T10:16:46Z</time>
      </trkpt>
      <trkpt lat="34.33104541708277" lon="108.97984108943469">
        <ele>395.3959640180692</ele>
        <time>2022-03-12T10:16:50Z</time>
      </trkpt>
      <trkpt lat="34.33094163842832" lon="108.9797712746542">
        <ele>395.69663143437356</ele>
        <time>2022-03-12T10:16:54Z</time>
      </trkpt>
      <trkpt lat="34.33079560564653" lon="108.97981331870687">
        <ele>395.3240710012615</ele>
        <time>2022-03-12T10:16:58Z</time>
      </trkpt>
      <trkpt lat="34.330478251061415" lon="108.97977410199705">
        <ele>394.94930191431195</ele>
        <time>2022-03-12T10:17:06Z</time>
      </trkpt>
      <trkpt lat="34.330407110562916" lon="108.97979004422567">
        <ele>395.4512933054939</ele>
        <time>2022-03-12T10:17:08Z</time>
      </trkpt>
      <trkpt lat="34.330039921424714" lon="108.97979957981266">
        <ele>396.0037372093648</ele>
        <time>2022-03-12T10:17:18Z</time>
      </trkpt>
      <trkpt lat="34.32994040158555" lon="108.9797841739165">
        <ele>395.5141297793016</ele>
        <time>2022-03-12T10:17:22Z</time>
      </trkpt>
      <trkpt lat="34.33001627363646" lon="108.97984567316729">
        <ele>395.25052987691015</ele>
        <time>2022-03-12T10:17:42Z</time>
      </trkpt>
      <trkpt lat="34.33009005092602" lon="108.97984731406551">
        <ele>394.0289865238592</ele>
        <time>2022-03-12T10:17:48Z</time>
      </trkpt>
      <trkpt lat="34.33007150049043" lon="108.97980045651869">
        <ele>395.53383539337665</ele>
        <time>2022-03-12T10:18:00Z</time>
      </trkpt>
      <trkpt lat="34.33018323443958" lon="108.97985179034208">
        <ele>395.2161416998133</ele>
        <time>2022-03-12T10:18:10Z</time>
      </trkpt>
      <trkpt lat="34.33016165873646" lon="108.97971292984315">
        <ele>394.83935346920043</ele>
        <time>2022-03-12T10:18:24Z</time>
      </trkpt>
    </trkseg>
  </trk>
</gpx>