<?xml version="1.0" encoding="UTF-8"?>
<gpx xmlns="http://www.topografix.com/GPX/1/1" xmlns:gpxtpx="http://www.garmin.com/xmlschemas/TrackPointExtension/v1" xmlns:xsi="http://www.w3.org/2001/XMLSchema-instance" xsi:schemaLocation="http://www.topografix.com/GPX/1/1 http://www.topografix.com/GPX/1/1/gpx.xsd" version="1.1" creator="gpx.py -- https://github.com/tkrajina/gpxpy">
  <trk>
    <name>gpx from keep</name>
    <type>Ride</type>
    <trkseg>
      <trkpt lat="34.30648183989802" lon="109.03698673315732">
        <ele>391.4062101044592</ele>
        <time>2022-03-04T10:03:16Z</time>
      </trkpt>
      <trkpt lat="34.306557216783915" lon="109.03704457164666">
        <ele>391.50334663130343</ele>
        <time>2022-03-04T10:03:29Z</time>
      </trkpt>
      <trkpt lat="34.30662908318987" lon="109.03702725733687">
        <ele>391.65059037785977</ele>
        <time>2022-03-04T10:03:33Z</time>
      </trkpt>
      <trkpt lat="34.30662619641077" lon="109.03672053295932">
        <ele>391.87440870143473</ele>
        <time>2022-03-04T10:03:55Z</time>
      </trkpt>
      <trkpt lat="34.306532776969604" lon="109.0365413410357">
        <ele>391.8731100857258</ele>
        <time>2022-03-04T10:04:19Z</time>
      </trkpt>
      <trkpt lat="34.30652919034847" lon="109.03636811513132">
        <ele>391.89163446892053</ele>
        <time>2022-03-04T10:04:56Z</time>
      </trkpt>
      <trkpt lat="34.306523319527415" lon="109.03628126521129">
        <ele>392.206018361263</ele>
        <time>2022-03-04T10:04:58Z</time>
      </trkpt>
      <trkpt lat="34.306477658020576" lon="109.03612125080788">
        <ele>392.15220949519426</ele>
        <time>2022-03-04T10:05:02Z</time>
      </trkpt>
      <trkpt lat="34.30638422686365" lon="109.03590867867872">
        <ele>392.4405772248283</ele>
        <time>2022-03-04T10:05:08Z</time>
      </trkpt>
      <trkpt lat="34.30640567908044" lon="109.03579063920414">
        <ele>391.9878544388339</ele>
        <time>2022-03-04T10:05:12Z</time>
      </trkpt>
      <trkpt lat="34.3063983553938" lon="109.03568894388991">
        <ele>392.18395083397627</ele>
        <time>2022-03-04T10:05:16Z</time>
      </trkpt>
      <trkpt lat="34.30637528557045" lon="109.03560562249099">
        <ele>391.89627253077924</ele>
        <time>2022-03-04T10:05:18Z</time>
      </trkpt>
      <trkpt lat="34.3063859101236" lon="109.03549115365">
        <ele>392.2859595064074</ele>
        <time>2022-03-04T10:05:21Z</time>
      </trkpt>
      <trkpt lat="34.30633097035638" lon="109.03537428281656">
        <ele>392.4889097958803</ele>
        <time>2022-03-04T10:05:24Z</time>
      </trkpt>
      <trkpt lat="34.306318423826234" lon="109.03517063094978">
        <ele>392.0525017892942</ele>
        <time>2022-03-04T10:05:30Z</time>
      </trkpt>
      <trkpt lat="34.30635146603871" lon="109.03507158067873">
        <ele>391.7009139470756</ele>
        <time>2022-03-04T10:05:33Z</time>
      </trkpt>
      <trkpt lat="34.30634925805039" lon="109.03492923433623">
        <ele>392.332923758775</ele>
        <time>2022-03-04T10:05:36Z</time>
      </trkpt>
      <trkpt lat="34.306397583368295" lon="109.03479137348043">
        <ele>392.5431537721306</ele>
        <time>2022-03-04T10:05:40Z</time>
      </trkpt>
      <trkpt lat="34.30632117528429" lon="109.0344660022947">
        <ele>392.3922445354983</ele>
        <time>2022-03-04T10:05:49Z</time>
      </trkpt>
      <trkpt lat="34.30620933276721" lon="109.03433784361066">
        <ele>393.0490026185289</ele>
        <time>2022-03-04T10:05:53Z</time>
      </trkpt>
      <trkpt lat="34.30614558651502" lon="109.03422341712484">
        <ele>392.88831161428243</ele>
        <time>2022-03-04T10:05:57Z</time>
      </trkpt>
      <trkpt lat="34.30617287108987" lon="109.03378630603679">
        <ele>392.1489598574117</ele>
        <time>2022-03-04T10:06:07Z</time>
      </trkpt>
      <trkpt lat="34.306166261070835" lon="109.03352732652833">
        <ele>391.75265438947827</ele>
        <time>2022-03-04T10:06:11Z</time>
      </trkpt>
      <trkpt lat="34.3062093506766" lon="109.03329273631216">
        <ele>392.27160122524947</ele>
        <time>2022-03-04T10:06:15Z</time>
      </trkpt>
      <trkpt lat="34.306182054773544" lon="109.03319317984881">
        <ele>392.12003892380744</ele>
        <time>2022-03-04T10:06:17Z</time>
      </trkpt>
      <trkpt lat="34.30618346080498" lon="109.0330343597675">
        <ele>392.17245765402913</ele>
        <time>2022-03-04T10:06:21Z</time>
      </trkpt>
      <trkpt lat="34.306159108945074" lon="109.03286442826408">
        <ele>392.83097248803824</ele>
        <time>2022-03-04T10:06:25Z</time>
      </trkpt>
      <trkpt lat="34.30618566562083" lon="109.03263304532167">
        <ele>392.7346113631502</ele>
        <time>2022-03-04T10:06:29Z</time>
      </trkpt>
      <trkpt lat="34.30604639432504" lon="109.03236932921719">
        <ele>393.0859175398946</ele>
        <time>2022-03-04T10:06:35Z</time>
      </trkpt>
      <trkpt lat="34.306089685264176" lon="109.03222848130255">
        <ele>392.3744433131069</ele>
        <time>2022-03-04T10:06:39Z</time>
      </trkpt>
      <trkpt lat="34.3064664931084" lon="109.03194752462053">
        <ele>393.8024052847177</ele>
        <time>2022-03-04T10:06:49Z</time>
      </trkpt>
      <trkpt lat="34.306760547077616" lon="109.0316590768372">
        <ele>392.3670850908384</ele>
        <time>2022-03-04T10:06:57Z</time>
      </trkpt>
      <trkpt lat="34.30699755164855" lon="109.03136731482053">
        <ele>392.29599052947015</ele>
        <time>2022-03-04T10:07:03Z</time>
      </trkpt>
      <trkpt lat="34.3073003104758" lon="109.03112243317923">
        <ele>392.8463912149891</ele>
        <time>2022-03-04T10:07:11Z</time>
      </trkpt>
      <trkpt lat="34.30767394402018" lon="109.0309387953977">
        <ele>393.6398986168206</ele>
        <time>2022-03-04T10:07:21Z</time>
      </trkpt>
      <trkpt lat="34.30776167375506" lon="109.030924575179">
        <ele>393.7894966490567</ele>
        <time>2022-03-04T10:07:23Z</time>
      </trkpt>
      <trkpt lat="34.307929405709416" lon="109.0307883088113">
        <ele>394.64197857957333</ele>
        <time>2022-03-04T10:07:29Z</time>
      </trkpt>
      <trkpt lat="34.30823638132528" lon="109.03063833545316">
        <ele>394.32259188964963</ele>
        <time>2022-03-04T10:07:39Z</time>
      </trkpt>
      <trkpt lat="34.30839843371938" lon="109.0306116671112">
        <ele>394.5536965522915</ele>
        <time>2022-03-04T10:07:43Z</time>
      </trkpt>
      <trkpt lat="34.30882817732595" lon="109.03033455403462">
        <ele>395.47884825244546</ele>
        <time>2022-03-04T10:07:57Z</time>
      </trkpt>
      <trkpt lat="34.3089925588825" lon="109.03018894316885">
        <ele>395.3002322530374</ele>
        <time>2022-03-04T10:08:03Z</time>
      </trkpt>
      <trkpt lat="34.30919480851263" lon="109.03009240042898">
        <ele>395.93661367241293</ele>
        <time>2022-03-04T10:08:09Z</time>
      </trkpt>
      <trkpt lat="34.309339238711985" lon="109.03004844850115">
        <ele>395.34290245268494</ele>
        <time>2022-03-04T10:08:13Z</time>
      </trkpt>
      <trkpt lat="34.30962892725488" lon="109.02984058465337">
        <ele>395.3979889303446</ele>
        <time>2022-03-04T10:08:21Z</time>
      </trkpt>
      <trkpt lat="34.309763596749654" lon="109.02978380485315">
        <ele>394.3996189199388</ele>
        <time>2022-03-04T10:08:25Z</time>
      </trkpt>
      <trkpt lat="34.311041627070466" lon="109.0289460641039">
        <ele>392.1750921215862</ele>
        <time>2022-03-04T10:08:29Z</time>
      </trkpt>
      <trkpt lat="34.31111982297516" lon="109.02883127816614">
        <ele>391.8279106458649</ele>
        <time>2022-03-04T10:08:31Z</time>
      </trkpt>
      <trkpt lat="34.31116677367291" lon="109.02871226189387">
        <ele>391.38833652064204</ele>
        <time>2022-03-04T10:08:33Z</time>
      </trkpt>
      <trkpt lat="34.31135444251137" lon="109.02833459365169">
        <ele>390.36162838246673</ele>
        <time>2022-03-04T10:08:39Z</time>
      </trkpt>
      <trkpt lat="34.31136421359112" lon="109.02821530783926">
        <ele>391.0233451118693</ele>
        <time>2022-03-04T10:08:41Z</time>
      </trkpt>
      <trkpt lat="34.31140772407909" lon="109.02810485737754">
        <ele>390.94362971000373</ele>
        <time>2022-03-04T10:08:43Z</time>
      </trkpt>
      <trkpt lat="34.31150491177984" lon="109.02762741041556">
        <ele>392.2974708257243</ele>
        <time>2022-03-04T10:08:51Z</time>
      </trkpt>
      <trkpt lat="34.31150376279388" lon="109.02750448113639">
        <ele>392.51012246496975</ele>
        <time>2022-03-04T10:08:53Z</time>
      </trkpt>
      <trkpt lat="34.311584101768936" lon="109.02714326704059">
        <ele>392.2048735059798</ele>
        <time>2022-03-04T10:08:59Z</time>
      </trkpt>
      <trkpt lat="34.311797230880806" lon="109.02671214355841">
        <ele>391.2848556600511</ele>
        <time>2022-03-04T10:09:07Z</time>
      </trkpt>
      <trkpt lat="34.31203404782824" lon="109.02648350833242">
        <ele>391.841733017005</ele>
        <time>2022-03-04T10:09:13Z</time>
      </trkpt>
      <trkpt lat="34.31244812569437" lon="109.02620340468663">
        <ele>393.14233709219843</ele>
        <time>2022-03-04T10:09:23Z</time>
      </trkpt>
      <trkpt lat="34.31255356099741" lon="109.02613765146404">
        <ele>393.2686561634764</ele>
        <time>2022-03-04T10:09:25Z</time>
      </trkpt>
      <trkpt lat="34.31266396509536" lon="109.02612446027204">
        <ele>393.5228418270126</ele>
        <time>2022-03-04T10:09:27Z</time>
      </trkpt>
      <trkpt lat="34.31282774492095" lon="109.02600127212203">
        <ele>393.70754949748516</ele>
        <time>2022-03-04T10:09:31Z</time>
      </trkpt>
      <trkpt lat="34.312859319982785" lon="109.02590551897138">
        <ele>392.9591655964032</ele>
        <time>2022-03-04T10:09:33Z</time>
      </trkpt>
      <trkpt lat="34.31294678694792" lon="109.0258896211674">
        <ele>392.9719403842464</ele>
        <time>2022-03-04T10:09:35Z</time>
      </trkpt>
      <trkpt lat="34.31307037672123" lon="109.02577257118061">
        <ele>392.7063865605742</ele>
        <time>2022-03-04T10:09:39Z</time>
      </trkpt>
      <trkpt lat="34.31323164983304" lon="109.02570015041375">
        <ele>391.96464536339045</ele>
        <time>2022-03-04T10:09:43Z</time>
      </trkpt>
      <trkpt lat="34.313317207416375" lon="109.02564094590234">
        <ele>391.9365215282887</ele>
        <time>2022-03-04T10:09:45Z</time>
      </trkpt>
      <trkpt lat="34.31350103859059" lon="109.02560148789058">
        <ele>391.47424571961164</ele>
        <time>2022-03-04T10:09:49Z</time>
      </trkpt>
      <trkpt lat="34.31358072384748" lon="109.02554769840422">
        <ele>391.45718540623784</ele>
        <time>2022-03-04T10:09:51Z</time>
      </trkpt>
      <trkpt lat="34.31368186229979" lon="109.02553870076544">
        <ele>392.2220581136644</ele>
        <time>2022-03-04T10:09:53Z</time>
      </trkpt>
      <trkpt lat="34.31412453116354" lon="109.02533782238552">
        <ele>391.2764001376927</ele>
        <time>2022-03-04T10:10:03Z</time>
      </trkpt>
      <trkpt lat="34.314278336585964" lon="109.02522634029266">
        <ele>391.22148938756436</ele>
        <time>2022-03-04T10:10:07Z</time>
      </trkpt>
      <trkpt lat="34.31451874999384" lon="109.02508831114609">
        <ele>390.7589049600065</ele>
        <time>2022-03-04T10:10:13Z</time>
      </trkpt>
      <trkpt lat="34.314579582797435" lon="109.0250175706542">
        <ele>389.7675444688648</ele>
        <time>2022-03-04T10:10:15Z</time>
      </trkpt>
      <trkpt lat="34.31467094311565" lon="109.02499237514245">
        <ele>390.2910346854478</ele>
        <time>2022-03-04T10:10:17Z</time>
      </trkpt>
      <trkpt lat="34.31475655122715" lon="109.02493945683341">
        <ele>390.317534243688</ele>
        <time>2022-03-04T10:10:19Z</time>
      </trkpt>
      <trkpt lat="34.31482190579099" lon="109.02486700761573">
        <ele>389.85378994233906</ele>
        <time>2022-03-04T10:10:21Z</time>
      </trkpt>
      <trkpt lat="34.31491807735817" lon="109.0248171892232">
        <ele>389.82545563206077</ele>
        <time>2022-03-04T10:10:23Z</time>
      </trkpt>
      <trkpt lat="34.314996556331785" lon="109.0247488702006">
        <ele>389.9151898883283</ele>
        <time>2022-03-04T10:10:25Z</time>
      </trkpt>
      <trkpt lat="34.31509625486595" lon="109.02469846338819">
        <ele>389.6801289282739</ele>
        <time>2022-03-04T10:10:27Z</time>
      </trkpt>
      <trkpt lat="34.31526666239117" lon="109.02456048653437">
        <ele>389.4750719219446</ele>
        <time>2022-03-04T10:10:31Z</time>
      </trkpt>
      <trkpt lat="34.315706263390474" lon="109.0242732011833">
        <ele>390.0442453213036</ele>
        <time>2022-03-04T10:10:41Z</time>
      </trkpt>
      <trkpt lat="34.31581157495909" lon="109.0242436476124">
        <ele>389.7983636977151</ele>
        <time>2022-03-04T10:10:43Z</time>
      </trkpt>
      <trkpt lat="34.31615276018564" lon="109.02405207694144">
        <ele>389.6136777475476</ele>
        <time>2022-03-04T10:10:51Z</time>
      </trkpt>
      <trkpt lat="34.31640740270419" lon="109.02396052936346">
        <ele>390.1291555017233</ele>
        <time>2022-03-04T10:10:57Z</time>
      </trkpt>
      <trkpt lat="34.316516032416544" lon="109.02389120187047">
        <ele>389.31002250593156</ele>
        <time>2022-03-04T10:11:13Z</time>
      </trkpt>
      <trkpt lat="34.316424607180565" lon="109.02380883319161">
        <ele>390.24865356087685</ele>
        <time>2022-03-04T10:11:30Z</time>
      </trkpt>
      <trkpt lat="34.3161929706906" lon="109.02326752929163">
        <ele>389.1524824742228</ele>
        <time>2022-03-04T10:11:45Z</time>
      </trkpt>
      <trkpt lat="34.31599021238128" lon="109.02284763683332">
        <ele>387.89573659934103</ele>
        <time>2022-03-04T10:11:59Z</time>
      </trkpt>
      <trkpt lat="34.31593603343034" lon="109.02270690662654">
        <ele>388.3573950827122</ele>
        <time>2022-03-04T10:12:03Z</time>
      </trkpt>
      <trkpt lat="34.315921897301024" lon="109.02252963556776">
        <ele>389.3844332797453</ele>
        <time>2022-03-04T10:12:07Z</time>
      </trkpt>
      <trkpt lat="34.31598725832833" lon="109.02230630462722">
        <ele>388.8231503777206</ele>
        <time>2022-03-04T10:12:11Z</time>
      </trkpt>
      <trkpt lat="34.315942412721704" lon="109.02206088503948">
        <ele>389.99061409477144</ele>
        <time>2022-03-04T10:12:17Z</time>
      </trkpt>
      <trkpt lat="34.31595780427302" lon="109.0219746814885">
        <ele>390.5816772952676</ele>
        <time>2022-03-04T10:12:19Z</time>
      </trkpt>
      <trkpt lat="34.31596787091632" lon="109.02131774504535">
        <ele>393.4254740346223</ele>
        <time>2022-03-04T10:12:35Z</time>
      </trkpt>
      <trkpt lat="34.31594009138597" lon="109.02101175830335">
        <ele>394.44711918663234</ele>
        <time>2022-03-04T10:12:43Z</time>
      </trkpt>
      <trkpt lat="34.315989654301404" lon="109.0205432411014">
        <ele>395.30890325829387</ele>
        <time>2022-03-04T10:12:53Z</time>
      </trkpt>
      <trkpt lat="34.31597169829407" lon="109.02032900578715">
        <ele>395.55569161567837</ele>
        <time>2022-03-04T10:12:57Z</time>
      </trkpt>
      <trkpt lat="34.315940237354134" lon="109.02004271241107">
        <ele>396.9126669354737</ele>
        <time>2022-03-04T10:13:03Z</time>
      </trkpt>
      <trkpt lat="34.3159379578406" lon="109.01974930254087">
        <ele>398.6337004126981</ele>
        <time>2022-03-04T10:13:09Z</time>
      </trkpt>
      <trkpt lat="34.31595729745346" lon="109.01951388076003">
        <ele>399.01729361061007</ele>
        <time>2022-03-04T10:13:13Z</time>
      </trkpt>
      <trkpt lat="34.31593788215095" lon="109.01941659056743">
        <ele>399.87500173039734</ele>
        <time>2022-03-04T10:13:15Z</time>
      </trkpt>
      <trkpt lat="34.31595463459544" lon="109.01915012517621">
        <ele>400.77920581027865</ele>
        <time>2022-03-04T10:13:21Z</time>
      </trkpt>
      <trkpt lat="34.31594959685784" lon="109.0188227525341">
        <ele>401.05715758539736</ele>
        <time>2022-03-04T10:13:29Z</time>
      </trkpt>
      <trkpt lat="34.315933106316244" lon="109.01865761105618">
        <ele>401.4955420801416</ele>
        <time>2022-03-04T10:13:33Z</time>
      </trkpt>
      <trkpt lat="34.315956843661446" lon="109.01849920269298">
        <ele>402.3672140361741</ele>
        <time>2022-03-04T10:13:37Z</time>
      </trkpt>
      <trkpt lat="34.31595784702099" lon="109.01819645548305">
        <ele>403.5544560048729</ele>
        <time>2022-03-04T10:13:45Z</time>
      </trkpt>
      <trkpt lat="34.31585820675505" lon="109.01763869369968">
        <ele>404.8267384832725</ele>
        <time>2022-03-04T10:14:01Z</time>
      </trkpt>
      <trkpt lat="34.315815882174284" lon="109.01751944921853">
        <ele>405.18269963003695</ele>
        <time>2022-03-04T10:14:05Z</time>
      </trkpt>
      <trkpt lat="34.3157834553842" lon="109.01724495642588">
        <ele>405.36913408804685</ele>
        <time>2022-03-04T10:14:13Z</time>
      </trkpt>
      <trkpt lat="34.31561886919807" lon="109.0166669548396">
        <ele>407.3900280725211</ele>
        <time>2022-03-04T10:14:29Z</time>
      </trkpt>
      <trkpt lat="34.315575447237485" lon="109.01648137687513">
        <ele>408.1262278407812</ele>
        <time>2022-03-04T10:14:33Z</time>
      </trkpt>
      <trkpt lat="34.31554932512324" lon="109.01619758273198">
        <ele>408.82478530239314</ele>
        <time>2022-03-04T10:14:41Z</time>
      </trkpt>
      <trkpt lat="34.315573291796646" lon="109.01605201195672">
        <ele>408.3527631117031</ele>
        <time>2022-03-04T10:14:45Z</time>
      </trkpt>
      <trkpt lat="34.31548318188985" lon="109.0157708032081">
        <ele>408.5272038029507</ele>
        <time>2022-03-04T10:14:53Z</time>
      </trkpt>
      <trkpt lat="34.31547288632017" lon="109.0153601044934">
        <ele>408.91713265236467</ele>
        <time>2022-03-04T10:15:05Z</time>
      </trkpt>
      <trkpt lat="34.31542898507493" lon="109.01509044267361">
        <ele>409.2405483359471</ele>
        <time>2022-03-04T10:15:13Z</time>
      </trkpt>
      <trkpt lat="34.3154251132567" lon="109.014944354966">
        <ele>409.42323671560735</ele>
        <time>2022-03-04T10:15:17Z</time>
      </trkpt>
      <trkpt lat="34.31546030661378" lon="109.01480283561769">
        <ele>408.24798511341214</ele>
        <time>2022-03-04T10:15:21Z</time>
      </trkpt>
      <trkpt lat="34.31552024392702" lon="109.0146702996479">
        <ele>408.6596785923466</ele>
        <time>2022-03-04T10:15:25Z</time>
      </trkpt>
      <trkpt lat="34.315502288899665" lon="109.01446249826256">
        <ele>409.4311492787674</ele>
        <time>2022-03-04T10:15:29Z</time>
      </trkpt>
      <trkpt lat="34.31553192755245" lon="109.01417045916271">
        <ele>408.37804449070245</ele>
        <time>2022-03-04T10:15:33Z</time>
      </trkpt>
      <trkpt lat="34.31551991114047" lon="109.01385244215071">
        <ele>407.9615801246837</ele>
        <time>2022-03-04T10:15:37Z</time>
      </trkpt>
      <trkpt lat="34.31553687377062" lon="109.01371305967041">
        <ele>407.6229487936944</ele>
        <time>2022-03-04T10:15:39Z</time>
      </trkpt>
      <trkpt lat="34.31546208325228" lon="109.01302764460483">
        <ele>407.8436295557767</ele>
        <time>2022-03-04T10:15:49Z</time>
      </trkpt>
      <trkpt lat="34.31544651809447" lon="109.01283247898785">
        <ele>408.60897972714156</ele>
        <time>2022-03-04T10:15:51Z</time>
      </trkpt>
      <trkpt lat="34.31548860184863" lon="109.01218999401583">
        <ele>408.6220792392269</ele>
        <time>2022-03-04T10:15:57Z</time>
      </trkpt>
      <trkpt lat="34.31550763011866" lon="109.01195636186192">
        <ele>408.2337680021301</ele>
        <time>2022-03-04T10:15:59Z</time>
      </trkpt>
      <trkpt lat="34.31548781192318" lon="109.01176754355794">
        <ele>408.7476179692894</ele>
        <time>2022-03-04T10:16:01Z</time>
      </trkpt>
      <trkpt lat="34.31553182837517" lon="109.01134955176562">
        <ele>408.61300579458475</ele>
        <time>2022-03-04T10:16:05Z</time>
      </trkpt>
      <trkpt lat="34.31553380778482" lon="109.0111285859347">
        <ele>409.04406755324453</ele>
        <time>2022-03-04T10:16:07Z</time>
      </trkpt>
      <trkpt lat="34.31558144369194" lon="109.01072165555797">
        <ele>409.30615476332605</ele>
        <time>2022-03-04T10:16:11Z</time>
      </trkpt>
      <trkpt lat="34.31561831816756" lon="109.01055719879776">
        <ele>408.8857096498832</ele>
        <time>2022-03-04T10:16:13Z</time>
      </trkpt>
      <trkpt lat="34.31574825887267" lon="109.01036475509935">
        <ele>409.0781563334167</ele>
        <time>2022-03-04T10:16:15Z</time>
      </trkpt>
      <trkpt lat="34.31590806938556" lon="109.01017493081329">
        <ele>408.38320625480264</ele>
        <time>2022-03-04T10:16:17Z</time>
      </trkpt>
      <trkpt lat="34.316060057204325" lon="109.00992967639853">
        <ele>409.0352960098535</ele>
        <time>2022-03-04T10:16:19Z</time>
      </trkpt>
      <trkpt lat="34.31620295503731" lon="109.0098102277889">
        <ele>407.9932489208877</ele>
        <time>2022-03-04T10:16:21Z</time>
      </trkpt>
      <trkpt lat="34.31662300178657" lon="109.0096745165405">
        <ele>408.65259433258325</ele>
        <time>2022-03-04T10:16:29Z</time>
      </trkpt>
      <trkpt lat="34.31700607142925" lon="109.0096128531272">
        <ele>408.85069859493524</ele>
        <time>2022-03-04T10:16:37Z</time>
      </trkpt>
      <trkpt lat="34.31728950867593" lon="109.00963096784268">
        <ele>408.7034124182537</ele>
        <time>2022-03-04T10:16:43Z</time>
      </trkpt>
      <trkpt lat="34.31753886587899" lon="109.00960443853607">
        <ele>409.0352105246857</ele>
        <time>2022-03-04T10:16:49Z</time>
      </trkpt>
      <trkpt lat="34.317791618705506" lon="109.00965426480626">
        <ele>408.3406334510073</ele>
        <time>2022-03-04T10:16:57Z</time>
      </trkpt>
      <trkpt lat="34.318160695175315" lon="109.00965071939676">
        <ele>408.7133878590539</ele>
        <time>2022-03-04T10:17:05Z</time>
      </trkpt>
      <trkpt lat="34.31834598624663" lon="109.00959133622207">
        <ele>408.45316219795495</ele>
        <time>2022-03-04T10:17:09Z</time>
      </trkpt>
      <trkpt lat="34.318536259435156" lon="109.00958085758833">
        <ele>408.06225038599223</ele>
        <time>2022-03-04T10:17:13Z</time>
      </trkpt>
      <trkpt lat="34.31873327424969" lon="109.00960138589127">
        <ele>407.6284917667508</ele>
        <time>2022-03-04T10:17:17Z</time>
      </trkpt>
      <trkpt lat="34.31917044577194" lon="109.0095878223929">
        <ele>406.9431872209534</ele>
        <time>2022-03-04T10:17:25Z</time>
      </trkpt>
      <trkpt lat="34.3196250846153" lon="109.00958772839797">
        <ele>406.0808612611145</ele>
        <time>2022-03-04T10:17:33Z</time>
      </trkpt>
      <trkpt lat="34.31974157392571" lon="109.00960277876858">
        <ele>406.56634999159724</ele>
        <time>2022-03-04T10:17:35Z</time>
      </trkpt>
      <trkpt lat="34.32019668149857" lon="109.00958245625037">
        <ele>405.89166785683483</ele>
        <time>2022-03-04T10:17:43Z</time>
      </trkpt>
      <trkpt lat="34.32056054832676" lon="109.00957742339818">
        <ele>403.8019058536738</ele>
        <time>2022-03-04T10:17:49Z</time>
      </trkpt>
      <trkpt lat="34.32105945268261" lon="109.00961243232696">
        <ele>402.60595970228314</ele>
        <time>2022-03-04T10:17:57Z</time>
      </trkpt>
      <trkpt lat="34.321570046994566" lon="109.00959444649529">
        <ele>401.4402298582718</ele>
        <time>2022-03-04T10:18:05Z</time>
      </trkpt>
      <trkpt lat="34.32209034543475" lon="109.00957854586551">
        <ele>400.6470978073776</ele>
        <time>2022-03-04T10:18:13Z</time>
      </trkpt>
      <trkpt lat="34.32249025908836" lon="109.0095515467685">
        <ele>399.29920032341033</ele>
        <time>2022-03-04T10:18:19Z</time>
      </trkpt>
      <trkpt lat="34.32262382139638" lon="109.00956153318626">
        <ele>399.0399948414415</ele>
        <time>2022-03-04T10:18:21Z</time>
      </trkpt>
      <trkpt lat="34.323172658338976" lon="109.0094783493396">
        <ele>397.7797287059948</ele>
        <time>2022-03-04T10:18:29Z</time>
      </trkpt>
      <trkpt lat="34.323579119784455" lon="109.009380451816">
        <ele>396.9898043619469</ele>
        <time>2022-03-04T10:18:35Z</time>
      </trkpt>
      <trkpt lat="34.32384718877085" lon="109.00933038188504">
        <ele>396.07490559853613</ele>
        <time>2022-03-04T10:18:39Z</time>
      </trkpt>
      <trkpt lat="34.32428817168875" lon="109.00919263875399">
        <ele>395.9482332644984</ele>
        <time>2022-03-04T10:18:47Z</time>
      </trkpt>
      <trkpt lat="34.32479736091807" lon="109.00901009773396">
        <ele>395.08460920862854</ele>
        <time>2022-03-04T10:18:57Z</time>
      </trkpt>
      <trkpt lat="34.32529104818108" lon="109.00878241984263">
        <ele>394.6264972817153</ele>
        <time>2022-03-04T10:19:07Z</time>
      </trkpt>
      <trkpt lat="34.3255673889018" lon="109.00865426468299">
        <ele>394.9520055009052</ele>
        <time>2022-03-04T10:19:13Z</time>
      </trkpt>
      <trkpt lat="34.32599867056917" lon="109.00841542231548">
        <ele>394.882132999599</ele>
        <time>2022-03-04T10:19:23Z</time>
      </trkpt>
      <trkpt lat="34.326435664015534" lon="109.00813324157987">
        <ele>394.6491750041023</ele>
        <time>2022-03-04T10:19:33Z</time>
      </trkpt>
      <trkpt lat="34.326802523754885" lon="109.0079121635621">
        <ele>394.2028164388612</ele>
        <time>2022-03-04T10:19:41Z</time>
      </trkpt>
      <trkpt lat="34.32721963040478" lon="109.00758995987086">
        <ele>393.600563518703</ele>
        <time>2022-03-04T10:19:51Z</time>
      </trkpt>
      <trkpt lat="34.32765614920392" lon="109.00726224379618">
        <ele>393.8139770058915</ele>
        <time>2022-03-04T10:20:01Z</time>
      </trkpt>
      <trkpt lat="34.327848401068785" lon="109.00717694867686">
        <ele>393.65746209863573</ele>
        <time>2022-03-04T10:20:05Z</time>
      </trkpt>
      <trkpt lat="34.32809679481718" lon="109.0070233747894">
        <ele>393.65883226599544</ele>
        <time>2022-03-04T10:20:13Z</time>
      </trkpt>
      <trkpt lat="34.32810428895628" lon="109.00703384875568">
        <ele>393.70399496052414</ele>
        <time>2022-03-04T10:20:21Z</time>
      </trkpt>
      <trkpt lat="34.32812547096249" lon="109.0068927750753">
        <ele>393.72543063387275</ele>
        <time>2022-03-04T10:20:36Z</time>
      </trkpt>
      <trkpt lat="34.32807006010884" lon="109.00642602686928">
        <ele>394.2761216657236</ele>
        <time>2022-03-04T10:20:46Z</time>
      </trkpt>
      <trkpt lat="34.32804557783766" lon="109.00581490633061">
        <ele>394.89019906520844</ele>
        <time>2022-03-04T10:20:58Z</time>
      </trkpt>
      <trkpt lat="34.328017079178466" lon="109.0055115505741">
        <ele>394.895972837694</ele>
        <time>2022-03-04T10:21:04Z</time>
      </trkpt>
      <trkpt lat="34.327915564834186" lon="109.00522343754622">
        <ele>394.5413354905322</ele>
        <time>2022-03-04T10:21:10Z</time>
      </trkpt>
      <trkpt lat="34.327901942309516" lon="109.00511320336909">
        <ele>394.54645993653685</ele>
        <time>2022-03-04T10:21:12Z</time>
      </trkpt>
      <trkpt lat="34.327900063886105" lon="109.00474168878885">
        <ele>394.2701497999951</ele>
        <time>2022-03-04T10:21:18Z</time>
      </trkpt>
      <trkpt lat="34.32788686240797" lon="109.00461021202568">
        <ele>393.8921462595463</ele>
        <time>2022-03-04T10:21:20Z</time>
      </trkpt>
      <trkpt lat="34.32791946857633" lon="109.00422567392233">
        <ele>394.4867714596912</ele>
        <time>2022-03-04T10:21:26Z</time>
      </trkpt>
      <trkpt lat="34.327959906316686" lon="109.00407933934679">
        <ele>393.9067150680348</ele>
        <time>2022-03-04T10:21:28Z</time>
      </trkpt>
      <trkpt lat="34.3279730439816" lon="109.00362123634983">
        <ele>393.58766387123615</ele>
        <time>2022-03-04T10:21:36Z</time>
      </trkpt>
      <trkpt lat="34.327990161199835" lon="109.00348253467176">
        <ele>393.6075919121504</ele>
        <time>2022-03-04T10:21:38Z</time>
      </trkpt>
      <trkpt lat="34.32798161988625" lon="109.00324255764136">
        <ele>394.58038864005357</ele>
        <time>2022-03-04T10:21:42Z</time>
      </trkpt>
      <trkpt lat="34.327992364863505" lon="109.0031071344158">
        <ele>394.3552305744961</ele>
        <time>2022-03-04T10:21:44Z</time>
      </trkpt>
      <trkpt lat="34.32783148949015" lon="109.00258756660563">
        <ele>394.84221143461764</ele>
        <time>2022-03-04T10:21:54Z</time>
      </trkpt>
      <trkpt lat="34.327838161346165" lon="109.00221279041149">
        <ele>395.03752239979804</ele>
        <time>2022-03-04T10:22:00Z</time>
      </trkpt>
      <trkpt lat="34.32786484333095" lon="109.00208997022608">
        <ele>395.7332283016294</ele>
        <time>2022-03-04T10:22:02Z</time>
      </trkpt>
      <trkpt lat="34.32786427434794" lon="109.00152432844617">
        <ele>395.0608021700755</ele>
        <time>2022-03-04T10:22:11Z</time>
      </trkpt>
      <trkpt lat="34.327851430163825" lon="109.00140143410978">
        <ele>395.356751030311</ele>
        <time>2022-03-04T10:22:13Z</time>
      </trkpt>
      <trkpt lat="34.32781698055269" lon="109.00129757309914">
        <ele>394.78848179616034</ele>
        <time>2022-03-04T10:22:15Z</time>
      </trkpt>
      <trkpt lat="34.32777102814892" lon="109.00073839557969">
        <ele>394.72203953098506</ele>
        <time>2022-03-04T10:22:25Z</time>
      </trkpt>
      <trkpt lat="34.32779809675094" lon="109.00050090590018">
        <ele>394.57449229154736</ele>
        <time>2022-03-04T10:22:29Z</time>
      </trkpt>
      <trkpt lat="34.327797712073306" lon="109.00027524136141">
        <ele>394.457253315486</ele>
        <time>2022-03-04T10:22:33Z</time>
      </trkpt>
      <trkpt lat="34.32788493807179" lon="109.00001667158116">
        <ele>394.4058811329305</ele>
        <time>2022-03-04T10:22:37Z</time>
      </trkpt>
      <trkpt lat="34.327883136121045" lon="108.99982216034232">
        <ele>394.2761199455708</ele>
        <time>2022-03-04T10:22:41Z</time>
      </trkpt>
      <trkpt lat="34.32792037769902" lon="108.9996983035397">
        <ele>394.77232059650123</ele>
        <time>2022-03-04T10:22:43Z</time>
      </trkpt>
      <trkpt lat="34.32792675294325" lon="108.99956846196281">
        <ele>394.54830111563206</ele>
        <time>2022-03-04T10:22:45Z</time>
      </trkpt>
      <trkpt lat="34.32795221530712" lon="108.99945116411806">
        <ele>394.2666577845812</ele>
        <time>2022-03-04T10:22:47Z</time>
      </trkpt>
      <trkpt lat="34.32794637808778" lon="108.99931593848022">
        <ele>394.3837384721264</ele>
        <time>2022-03-04T10:22:49Z</time>
      </trkpt>
      <trkpt lat="34.327828332099934" lon="108.9991085855279">
        <ele>393.8363667149097</ele>
        <time>2022-03-04T10:22:53Z</time>
      </trkpt>
      <trkpt lat="34.327817133683816" lon="108.99898904287699">
        <ele>394.2146361935884</ele>
        <time>2022-03-04T10:22:55Z</time>
      </trkpt>
      <trkpt lat="34.32784052560635" lon="108.99849917633458">
        <ele>394.38866362161934</ele>
        <time>2022-03-04T10:23:03Z</time>
      </trkpt>
      <trkpt lat="34.327954470850536" lon="108.9979726718313">
        <ele>395.526907004416</ele>
        <time>2022-03-04T10:23:11Z</time>
      </trkpt>
      <trkpt lat="34.32797015770685" lon="108.99785487124488">
        <ele>395.7965164296329</ele>
        <time>2022-03-04T10:23:13Z</time>
      </trkpt>
      <trkpt lat="34.327966271420664" lon="108.99774576034991">
        <ele>395.59729573503137</ele>
        <time>2022-03-04T10:23:15Z</time>
      </trkpt>
      <trkpt lat="34.32791324254235" lon="108.99757934460638">
        <ele>395.1996028777212</ele>
        <time>2022-03-04T10:23:19Z</time>
      </trkpt>
      <trkpt lat="34.32791892395831" lon="108.99745216468715">
        <ele>394.0810616677627</ele>
        <time>2022-03-04T10:23:21Z</time>
      </trkpt>
      <trkpt lat="34.3278897315842" lon="108.99725625072773">
        <ele>394.68893833924085</ele>
        <time>2022-03-04T10:23:25Z</time>
      </trkpt>
      <trkpt lat="34.32789237636862" lon="108.99701048688863">
        <ele>395.1443987619132</ele>
        <time>2022-03-04T10:23:29Z</time>
      </trkpt>
      <trkpt lat="34.327866909828955" lon="108.99679554475462">
        <ele>395.81414404232055</ele>
        <time>2022-03-04T10:23:33Z</time>
      </trkpt>
      <trkpt lat="34.32795546651832" lon="108.9964301578017">
        <ele>395.78607125673443</ele>
        <time>2022-03-04T10:23:37Z</time>
      </trkpt>
      <trkpt lat="34.32796413872759" lon="108.99631757976896">
        <ele>395.3654745724052</ele>
        <time>2022-03-04T10:23:39Z</time>
      </trkpt>
      <trkpt lat="34.32801233975666" lon="108.99609366910188">
        <ele>395.163789909333</ele>
        <time>2022-03-04T10:23:51Z</time>
      </trkpt>
      <trkpt lat="34.3279778397642" lon="108.99594965937347">
        <ele>396.44642826449126</ele>
        <time>2022-03-04T10:23:55Z</time>
      </trkpt>
      <trkpt lat="34.32800399714948" lon="108.99539443928862">
        <ele>395.36110995244235</ele>
        <time>2022-03-04T10:24:05Z</time>
      </trkpt>
      <trkpt lat="34.328010056592404" lon="108.99515479865059">
        <ele>395.5220816228539</ele>
        <time>2022-03-04T10:24:09Z</time>
      </trkpt>
      <trkpt lat="34.32797912986358" lon="108.99480733377207">
        <ele>394.2971595497802</ele>
        <time>2022-03-04T10:24:15Z</time>
      </trkpt>
      <trkpt lat="34.327967535193274" lon="108.9941944513672">
        <ele>394.98399204481393</ele>
        <time>2022-03-04T10:24:25Z</time>
      </trkpt>
      <trkpt lat="34.32796620448435" lon="108.99361376948472">
        <ele>394.39403776824474</ele>
        <time>2022-03-04T10:24:35Z</time>
      </trkpt>
      <trkpt lat="34.32792020066521" lon="108.99298814453019">
        <ele>394.49302137922496</ele>
        <time>2022-03-04T10:24:45Z</time>
      </trkpt>
      <trkpt lat="34.32792746256241" lon="108.99285081065564">
        <ele>394.33302377630025</ele>
        <time>2022-03-04T10:24:47Z</time>
      </trkpt>
      <trkpt lat="34.32799921492948" lon="108.99259348981833">
        <ele>393.80301205813885</ele>
        <time>2022-03-04T10:24:51Z</time>
      </trkpt>
      <trkpt lat="34.327990755284326" lon="108.99248852104088">
        <ele>393.7650371864438</ele>
        <time>2022-03-04T10:24:53Z</time>
      </trkpt>
      <trkpt lat="34.32800188362801" lon="108.99215281965103">
        <ele>393.59744685702026</ele>
        <time>2022-03-04T10:24:59Z</time>
      </trkpt>
      <trkpt lat="34.32797163241471" lon="108.99196759997714">
        <ele>395.26331424247473</ele>
        <time>2022-03-04T10:25:03Z</time>
      </trkpt>
      <trkpt lat="34.3279915356763" lon="108.9918496159206">
        <ele>394.1766101485118</ele>
        <time>2022-03-04T10:25:05Z</time>
      </trkpt>
      <trkpt lat="34.32798750493721" lon="108.99161606670575">
        <ele>393.3002129616216</ele>
        <time>2022-03-04T10:25:09Z</time>
      </trkpt>
      <trkpt lat="34.32801147831404" lon="108.99136957344953">
        <ele>392.63259544596076</ele>
        <time>2022-03-04T10:25:15Z</time>
      </trkpt>
      <trkpt lat="34.32803299426826" lon="108.99128512541446">
        <ele>392.7336729224771</ele>
        <time>2022-03-04T10:25:19Z</time>
      </trkpt>
      <trkpt lat="34.32803299426826" lon="108.99128512541446">
        <ele>392.7336729224771</ele>
        <time>2022-03-04T10:25:27Z</time>
      </trkpt>
      <trkpt lat="34.32806861548738" lon="108.99110233622501">
        <ele>392.4264513766393</ele>
        <time>2022-03-04T10:25:34Z</time>
      </trkpt>
      <trkpt lat="34.32809308687445" lon="108.99058053570143">
        <ele>392.6488544670865</ele>
        <time>2022-03-04T10:25:46Z</time>
      </trkpt>
      <trkpt lat="34.328073715465" lon="108.99046910141554">
        <ele>392.1987490411848</ele>
        <time>2022-03-04T10:25:48Z</time>
      </trkpt>
      <trkpt lat="34.328026906827965" lon="108.99039034834574">
        <ele>391.9288131752983</ele>
        <time>2022-03-04T10:25:50Z</time>
      </trkpt>
      <trkpt lat="34.32800701905644" lon="108.99019384192499">
        <ele>392.07511892262846</ele>
        <time>2022-03-04T10:25:54Z</time>
      </trkpt>
      <trkpt lat="34.32796866474708" lon="108.99003365313861">
        <ele>392.5519058126956</ele>
        <time>2022-03-04T10:26:00Z</time>
      </trkpt>
      <trkpt lat="34.32793471674434" lon="108.98949196119025">
        <ele>391.73398026637733</ele>
        <time>2022-03-04T10:26:08Z</time>
      </trkpt>
      <trkpt lat="34.32794076366068" lon="108.98937487489381">
        <ele>392.19287348911166</ele>
        <time>2022-03-04T10:26:10Z</time>
      </trkpt>
      <trkpt lat="34.3278946621424" lon="108.98906581804691">
        <ele>392.47986294329166</ele>
        <time>2022-03-04T10:26:16Z</time>
      </trkpt>
      <trkpt lat="34.327830138907316" lon="108.98895646505747">
        <ele>391.98828420601785</ele>
        <time>2022-03-04T10:26:18Z</time>
      </trkpt>
      <trkpt lat="34.32775920990854" lon="108.98873282831025">
        <ele>392.427414723672</ele>
        <time>2022-03-04T10:26:22Z</time>
      </trkpt>
      <trkpt lat="34.32777128332558" lon="108.98827979460492">
        <ele>392.53687629755586</ele>
        <time>2022-03-04T10:26:29Z</time>
      </trkpt>
      <trkpt lat="34.32785256592473" lon="108.98798739087587">
        <ele>393.48874625284225</ele>
        <time>2022-03-04T10:26:33Z</time>
      </trkpt>
      <trkpt lat="34.327876628154044" lon="108.98772170644177">
        <ele>393.69810857530683</ele>
        <time>2022-03-04T10:26:37Z</time>
      </trkpt>
      <trkpt lat="34.32776843735041" lon="108.98728996947581">
        <ele>394.63436485268176</ele>
        <time>2022-03-04T10:26:45Z</time>
      </trkpt>
      <trkpt lat="34.3277491103189" lon="108.98708265378451">
        <ele>394.5242035863921</ele>
        <time>2022-03-04T10:26:49Z</time>
      </trkpt>
      <trkpt lat="34.327853557691135" lon="108.98655140872611">
        <ele>393.9067446514964</ele>
        <time>2022-03-04T10:26:57Z</time>
      </trkpt>
      <trkpt lat="34.32787455355026" lon="108.98626517899072">
        <ele>393.7850380195305</ele>
        <time>2022-03-04T10:27:01Z</time>
      </trkpt>
      <trkpt lat="34.327842379891095" lon="108.98602064637686">
        <ele>393.29231640603393</ele>
        <time>2022-03-04T10:27:05Z</time>
      </trkpt>
      <trkpt lat="34.327892176551394" lon="108.9857538267625">
        <ele>391.8175242189318</ele>
        <time>2022-03-04T10:27:09Z</time>
      </trkpt>
      <trkpt lat="34.32789904162575" lon="108.9856378678061">
        <ele>392.21986406482756</ele>
        <time>2022-03-04T10:27:11Z</time>
      </trkpt>
      <trkpt lat="34.32801100778973" lon="108.98521336248164">
        <ele>392.4440381685272</ele>
        <time>2022-03-04T10:27:17Z</time>
      </trkpt>
      <trkpt lat="34.32802245413003" lon="108.98464484955413">
        <ele>392.31671199575067</ele>
        <time>2022-03-04T10:27:27Z</time>
      </trkpt>
      <trkpt lat="34.32804997920278" lon="108.98401295506126">
        <ele>391.8419341156259</ele>
        <time>2022-03-04T10:27:37Z</time>
      </trkpt>
      <trkpt lat="34.32804633970422" lon="108.98359578746066">
        <ele>393.26698842830956</ele>
        <time>2022-03-04T10:27:45Z</time>
      </trkpt>
      <trkpt lat="34.32805855241712" lon="108.98338801316072">
        <ele>393.54345026332885</ele>
        <time>2022-03-04T10:27:49Z</time>
      </trkpt>
      <trkpt lat="34.32805269104151" lon="108.98285886673857">
        <ele>393.71407862287015</ele>
        <time>2022-03-04T10:27:59Z</time>
      </trkpt>
      <trkpt lat="34.327997003338176" lon="108.98265430498948">
        <ele>394.27011552639306</ele>
        <time>2022-03-04T10:28:03Z</time>
      </trkpt>
      <trkpt lat="34.32799860149491" lon="108.9825424554026">
        <ele>394.0439230501652</ele>
        <time>2022-03-04T10:28:05Z</time>
      </trkpt>
      <trkpt lat="34.32795432721313" lon="108.98236763595312">
        <ele>394.04086471442133</ele>
        <time>2022-03-04T10:28:09Z</time>
      </trkpt>
      <trkpt lat="34.32795454612374" lon="108.98223003726393">
        <ele>394.34342866111547</ele>
        <time>2022-03-04T10:28:11Z</time>
      </trkpt>
      <trkpt lat="34.328008871960215" lon="108.98199659542351">
        <ele>394.54406032245606</ele>
        <time>2022-03-04T10:28:15Z</time>
      </trkpt>
      <trkpt lat="34.32802943619477" lon="108.981671438778">
        <ele>394.8357121376321</ele>
        <time>2022-03-04T10:28:21Z</time>
      </trkpt>
      <trkpt lat="34.32805573611688" lon="108.98156059504682">
        <ele>395.03757494781166</ele>
        <time>2022-03-04T10:28:23Z</time>
      </trkpt>
      <trkpt lat="34.32804721676249" lon="108.9814287463643">
        <ele>395.2717984681949</ele>
        <time>2022-03-04T10:28:27Z</time>
      </trkpt>
      <trkpt lat="34.32802095589999" lon="108.98130977540839">
        <ele>395.22062000632286</ele>
        <time>2022-03-04T10:28:31Z</time>
      </trkpt>
      <trkpt lat="34.328083381578935" lon="108.98121161395358">
        <ele>394.9828903628513</ele>
        <time>2022-03-04T10:28:39Z</time>
      </trkpt>
      <trkpt lat="34.32820822640056" lon="108.98103457562178">
        <ele>393.74935560207814</ele>
        <time>2022-03-04T10:28:58Z</time>
      </trkpt>
      <trkpt lat="34.32821617179294" lon="108.98091553135134">
        <ele>394.6802838454023</ele>
        <time>2022-03-04T10:29:04Z</time>
      </trkpt>
      <trkpt lat="34.32820075809226" lon="108.98080648349283">
        <ele>395.10089763160795</ele>
        <time>2022-03-04T10:29:10Z</time>
      </trkpt>
      <trkpt lat="34.32826132908207" lon="108.98074568854254">
        <ele>395.33244925923645</ele>
        <time>2022-03-04T10:29:20Z</time>
      </trkpt>
      <trkpt lat="34.32834481516433" lon="108.98075905056962">
        <ele>395.3973371712491</ele>
        <time>2022-03-04T10:29:28Z</time>
      </trkpt>
      <trkpt lat="34.328443403929484" lon="108.98080691791951">
        <ele>395.4107497781515</ele>
        <time>2022-03-04T10:29:34Z</time>
      </trkpt>
      <trkpt lat="34.328519411559476" lon="108.98073105234747">
        <ele>395.2907665260136</ele>
        <time>2022-03-04T10:29:40Z</time>
      </trkpt>
      <trkpt lat="34.32853080777593" lon="108.98063923853478">
        <ele>395.3448431575671</ele>
        <time>2022-03-04T10:29:46Z</time>
      </trkpt>
      <trkpt lat="34.32852122467161" lon="108.98053365826736">
        <ele>395.5510161239654</ele>
        <time>2022-03-04T10:29:52Z</time>
      </trkpt>
      <trkpt lat="34.32853862928688" lon="108.98048534677933">
        <ele>395.46591703314334</ele>
        <time>2022-03-04T10:29:56Z</time>
      </trkpt>
    </trkseg>
  </trk>
</gpx>