<?xml version="1.0" encoding="UTF-8"?>
<gpx xmlns="http://www.topografix.com/GPX/1/1" xmlns:gpxtpx="http://www.garmin.com/xmlschemas/TrackPointExtension/v1" xmlns:xsi="http://www.w3.org/2001/XMLSchema-instance" xsi:schemaLocation="http://www.topografix.com/GPX/1/1 http://www.topografix.com/GPX/1/1/gpx.xsd" version="1.1" creator="gpx.py -- https://github.com/tkrajina/gpxpy">
  <trk>
    <name>gpx from keep</name>
    <type>Ride</type>
    <trkseg>
      <trkpt lat="34.30628556237776" lon="109.03713294902454">
        <ele>390.86867091059685</ele>
        <time>2022-03-10T10:00:38Z</time>
      </trkpt>
      <trkpt lat="34.306445302719574" lon="109.03703819924584">
        <ele>391.3794783744961</ele>
        <time>2022-03-10T10:00:55Z</time>
      </trkpt>
      <trkpt lat="34.306491741717956" lon="109.0371113141376">
        <ele>392.12536964938045</ele>
        <time>2022-03-10T10:01:05Z</time>
      </trkpt>
      <trkpt lat="34.30656492008148" lon="109.0371273146203">
        <ele>392.09770816843957</ele>
        <time>2022-03-10T10:01:11Z</time>
      </trkpt>
      <trkpt lat="34.30662507118444" lon="109.0370607133628">
        <ele>392.59809837304056</ele>
        <time>2022-03-10T10:01:19Z</time>
      </trkpt>
      <trkpt lat="34.30660764225729" lon="109.03696859342331">
        <ele>392.4594157487154</ele>
        <time>2022-03-10T10:01:25Z</time>
      </trkpt>
      <trkpt lat="34.30664148692147" lon="109.0368852122216">
        <ele>392.6232575774193</ele>
        <time>2022-03-10T10:01:33Z</time>
      </trkpt>
      <trkpt lat="34.30660643969049" lon="109.03670580451958">
        <ele>392.8539300430566</ele>
        <time>2022-03-10T10:01:49Z</time>
      </trkpt>
      <trkpt lat="34.306610061333245" lon="109.03660370834984">
        <ele>392.5550126032904</ele>
        <time>2022-03-10T10:02:00Z</time>
      </trkpt>
      <trkpt lat="34.30653433011249" lon="109.03652330826648">
        <ele>391.8550351569429</ele>
        <time>2022-03-10T10:02:42Z</time>
      </trkpt>
      <trkpt lat="34.306463443149" lon="109.03631602998236">
        <ele>392.3689827155322</ele>
        <time>2022-03-10T10:02:49Z</time>
      </trkpt>
      <trkpt lat="34.30637746139328" lon="109.03616422910902">
        <ele>393.5156554831192</ele>
        <time>2022-03-10T10:02:55Z</time>
      </trkpt>
      <trkpt lat="34.30640629801826" lon="109.03601695781052">
        <ele>393.397769308649</ele>
        <time>2022-03-10T10:02:59Z</time>
      </trkpt>
      <trkpt lat="34.30640420411267" lon="109.0358958424851">
        <ele>393.868769002147</ele>
        <time>2022-03-10T10:03:03Z</time>
      </trkpt>
      <trkpt lat="34.30646573438884" lon="109.0357527695953">
        <ele>393.3948413161561</ele>
        <time>2022-03-10T10:03:07Z</time>
      </trkpt>
      <trkpt lat="34.30648406171088" lon="109.0356111766156">
        <ele>393.0904201064259</ele>
        <time>2022-03-10T10:03:11Z</time>
      </trkpt>
      <trkpt lat="34.306475181078916" lon="109.03549015711756">
        <ele>393.271466743201</ele>
        <time>2022-03-10T10:03:14Z</time>
      </trkpt>
      <trkpt lat="34.30644402573611" lon="109.0354006352203">
        <ele>393.31392351165414</ele>
        <time>2022-03-10T10:03:16Z</time>
      </trkpt>
      <trkpt lat="34.30650200788907" lon="109.03525319609362">
        <ele>393.3814083309844</ele>
        <time>2022-03-10T10:03:20Z</time>
      </trkpt>
      <trkpt lat="34.30652680216573" lon="109.03512261071866">
        <ele>393.6897670896724</ele>
        <time>2022-03-10T10:03:25Z</time>
      </trkpt>
      <trkpt lat="34.30647829612879" lon="109.03459521610668">
        <ele>392.9892959985882</ele>
        <time>2022-03-10T10:03:36Z</time>
      </trkpt>
      <trkpt lat="34.30644370928293" lon="109.0344951219677">
        <ele>393.37385024223477</ele>
        <time>2022-03-10T10:03:39Z</time>
      </trkpt>
      <trkpt lat="34.30643336279378" lon="109.03438821826788">
        <ele>393.55267550516874</ele>
        <time>2022-03-10T10:03:42Z</time>
      </trkpt>
      <trkpt lat="34.30634530389686" lon="109.03420321819816">
        <ele>392.56390304584056</ele>
        <time>2022-03-10T10:03:47Z</time>
      </trkpt>
      <trkpt lat="34.306230807780885" lon="109.03405627448534">
        <ele>392.8458198290318</ele>
        <time>2022-03-10T10:03:53Z</time>
      </trkpt>
      <trkpt lat="34.306197031343835" lon="109.03395709223022">
        <ele>393.1121984291822</ele>
        <time>2022-03-10T10:03:56Z</time>
      </trkpt>
      <trkpt lat="34.30618401040032" lon="109.03381978362614">
        <ele>393.0606988724321</ele>
        <time>2022-03-10T10:03:59Z</time>
      </trkpt>
      <trkpt lat="34.3062036872533" lon="109.03372490854095">
        <ele>393.3664030022919</ele>
        <time>2022-03-10T10:04:02Z</time>
      </trkpt>
      <trkpt lat="34.306206312048815" lon="109.03328209455036">
        <ele>392.5867889095098</ele>
        <time>2022-03-10T10:04:13Z</time>
      </trkpt>
      <trkpt lat="34.30633324316681" lon="109.03271163862318">
        <ele>391.64382744487375</ele>
        <time>2022-03-10T10:04:27Z</time>
      </trkpt>
      <trkpt lat="34.306398589159755" lon="109.03235574661373">
        <ele>391.68102251086384</ele>
        <time>2022-03-10T10:04:36Z</time>
      </trkpt>
      <trkpt lat="34.30639762015562" lon="109.03226411720847">
        <ele>392.10728302784264</ele>
        <time>2022-03-10T10:04:38Z</time>
      </trkpt>
      <trkpt lat="34.30645030177301" lon="109.03208317230322">
        <ele>392.87251575291157</ele>
        <time>2022-03-10T10:04:42Z</time>
      </trkpt>
      <trkpt lat="34.30653144308159" lon="109.03201278695975">
        <ele>392.8123236251995</ele>
        <time>2022-03-10T10:04:45Z</time>
      </trkpt>
      <trkpt lat="34.306963646511484" lon="109.03188074991154">
        <ele>391.9056756198406</ele>
        <time>2022-03-10T10:04:53Z</time>
      </trkpt>
      <trkpt lat="34.30736936255297" lon="109.03158516136536">
        <ele>392.16499835439026</ele>
        <time>2022-03-10T10:05:01Z</time>
      </trkpt>
      <trkpt lat="34.30754566000647" lon="109.03142141202449">
        <ele>392.4530136240646</ele>
        <time>2022-03-10T10:05:05Z</time>
      </trkpt>
      <trkpt lat="34.30763688656318" lon="109.03131397212904">
        <ele>392.5383175490424</ele>
        <time>2022-03-10T10:05:07Z</time>
      </trkpt>
      <trkpt lat="34.30771052537753" lon="109.0311931664769">
        <ele>392.869282909669</ele>
        <time>2022-03-10T10:05:09Z</time>
      </trkpt>
      <trkpt lat="34.30776353113343" lon="109.03105370617038">
        <ele>393.18024669308215</ele>
        <time>2022-03-10T10:05:11Z</time>
      </trkpt>
      <trkpt lat="34.30790916081843" lon="109.03092843053435">
        <ele>393.62609998788685</ele>
        <time>2022-03-10T10:05:15Z</time>
      </trkpt>
      <trkpt lat="34.308167015959064" lon="109.030825369448">
        <ele>393.9228663323447</ele>
        <time>2022-03-10T10:05:21Z</time>
      </trkpt>
      <trkpt lat="34.30860411273909" lon="109.03073762383846">
        <ele>393.73765538912266</ele>
        <time>2022-03-10T10:05:31Z</time>
      </trkpt>
      <trkpt lat="34.3090340879253" lon="109.0306262240408">
        <ele>394.30481755919755</ele>
        <time>2022-03-10T10:05:41Z</time>
      </trkpt>
      <trkpt lat="34.30937529552056" lon="109.0304915924087">
        <ele>393.44626461248845</ele>
        <time>2022-03-10T10:05:49Z</time>
      </trkpt>
      <trkpt lat="34.30979854567379" lon="109.03020718313115">
        <ele>392.8616799917072</ele>
        <time>2022-03-10T10:05:59Z</time>
      </trkpt>
      <trkpt lat="34.310201195195276" lon="109.02986629678847">
        <ele>391.8212445303798</ele>
        <time>2022-03-10T10:06:09Z</time>
      </trkpt>
      <trkpt lat="34.31060040408479" lon="109.0295071779991">
        <ele>391.35282183252275</ele>
        <time>2022-03-10T10:06:19Z</time>
      </trkpt>
      <trkpt lat="34.31099724214583" lon="109.02910883822473">
        <ele>390.743975520134</ele>
        <time>2022-03-10T10:06:29Z</time>
      </trkpt>
      <trkpt lat="34.3111970163259" lon="109.02885379946572">
        <ele>390.66457625851035</ele>
        <time>2022-03-10T10:06:35Z</time>
      </trkpt>
      <trkpt lat="34.31133784604423" lon="109.02855228744217">
        <ele>390.6952351219952</ele>
        <time>2022-03-10T10:06:41Z</time>
      </trkpt>
      <trkpt lat="34.311397548293755" lon="109.02832829405627">
        <ele>390.94902526400983</ele>
        <time>2022-03-10T10:06:45Z</time>
      </trkpt>
      <trkpt lat="34.311411132469956" lon="109.0282157359824">
        <ele>391.3850998925045</ele>
        <time>2022-03-10T10:06:47Z</time>
      </trkpt>
      <trkpt lat="34.31144753752281" lon="109.02810802948608">
        <ele>392.1353345103562</ele>
        <time>2022-03-10T10:06:49Z</time>
      </trkpt>
      <trkpt lat="34.31149504681739" lon="109.02753813866225">
        <ele>392.10942236706614</ele>
        <time>2022-03-10T10:06:59Z</time>
      </trkpt>
      <trkpt lat="34.31160708867004" lon="109.02706700240608">
        <ele>391.9827740341425</ele>
        <time>2022-03-10T10:07:07Z</time>
      </trkpt>
      <trkpt lat="34.3116515687228" lon="109.02695372162778">
        <ele>391.68820300884545</ele>
        <time>2022-03-10T10:07:09Z</time>
      </trkpt>
      <trkpt lat="34.31185488253358" lon="109.02665594272648">
        <ele>391.65833600703627</ele>
        <time>2022-03-10T10:07:15Z</time>
      </trkpt>
      <trkpt lat="34.312255791646926" lon="109.02631422010815">
        <ele>392.6130025582388</ele>
        <time>2022-03-10T10:07:25Z</time>
      </trkpt>
      <trkpt lat="34.312303034518365" lon="109.02624195153349">
        <ele>392.8207589853555</ele>
        <time>2022-03-10T10:07:27Z</time>
      </trkpt>
      <trkpt lat="34.3125736616928" lon="109.02607109255499">
        <ele>392.894728587009</ele>
        <time>2022-03-10T10:07:33Z</time>
      </trkpt>
      <trkpt lat="34.3126978801938" lon="109.02602398983203">
        <ele>392.43500267807394</ele>
        <time>2022-03-10T10:07:35Z</time>
      </trkpt>
      <trkpt lat="34.31278349479241" lon="109.02595437293557">
        <ele>392.26198572386056</ele>
        <time>2022-03-10T10:07:37Z</time>
      </trkpt>
      <trkpt lat="34.31322526347993" lon="109.02574932479534">
        <ele>392.535221635364</ele>
        <time>2022-03-10T10:07:47Z</time>
      </trkpt>
      <trkpt lat="34.31359761105289" lon="109.02559809990748">
        <ele>392.3700042683631</ele>
        <time>2022-03-10T10:07:55Z</time>
      </trkpt>
      <trkpt lat="34.313895789139345" lon="109.0255105340782">
        <ele>392.5549007328227</ele>
        <time>2022-03-10T10:08:01Z</time>
      </trkpt>
      <trkpt lat="34.31398331951241" lon="109.02545507554224">
        <ele>391.9422046262771</ele>
        <time>2022-03-10T10:08:03Z</time>
      </trkpt>
      <trkpt lat="34.31407928403345" lon="109.02542165146146">
        <ele>391.8910618107766</ele>
        <time>2022-03-10T10:08:05Z</time>
      </trkpt>
      <trkpt lat="34.314497734765126" lon="109.0251416166631">
        <ele>391.2035245578736</ele>
        <time>2022-03-10T10:08:15Z</time>
      </trkpt>
      <trkpt lat="34.314757848103746" lon="109.02496998209072">
        <ele>390.46328402590007</ele>
        <time>2022-03-10T10:08:21Z</time>
      </trkpt>
      <trkpt lat="34.31524107413193" lon="109.02463327803727">
        <ele>389.92439029272646</ele>
        <time>2022-03-10T10:08:32Z</time>
      </trkpt>
      <trkpt lat="34.31570132957596" lon="109.02434330546755">
        <ele>389.7186760203913</ele>
        <time>2022-03-10T10:08:42Z</time>
      </trkpt>
      <trkpt lat="34.315887119163406" lon="109.0242533488276">
        <ele>389.2629549931735</ele>
        <time>2022-03-10T10:08:46Z</time>
      </trkpt>
      <trkpt lat="34.31633700819523" lon="109.02401903135126">
        <ele>389.5191986048594</ele>
        <time>2022-03-10T10:08:56Z</time>
      </trkpt>
      <trkpt lat="34.31648240302487" lon="109.02395713625862">
        <ele>390.17770609259605</ele>
        <time>2022-03-10T10:09:00Z</time>
      </trkpt>
      <trkpt lat="34.31667534164679" lon="109.02379828698025">
        <ele>389.4651118600741</ele>
        <time>2022-03-10T10:09:11Z</time>
      </trkpt>
      <trkpt lat="34.3171286412219" lon="109.02356721158291">
        <ele>389.48755068238825</ele>
        <time>2022-03-10T10:09:23Z</time>
      </trkpt>
      <trkpt lat="34.31731251429189" lon="109.02348985391059">
        <ele>388.7937833899632</ele>
        <time>2022-03-10T10:09:27Z</time>
      </trkpt>
      <trkpt lat="34.31741417449536" lon="109.02347494030485">
        <ele>388.59570021834224</ele>
        <time>2022-03-10T10:09:29Z</time>
      </trkpt>
      <trkpt lat="34.31791573877495" lon="109.02332620820083">
        <ele>388.06915442831814</ele>
        <time>2022-03-10T10:09:39Z</time>
      </trkpt>
      <trkpt lat="34.3184398555542" lon="109.02323738663848">
        <ele>387.51643008738756</ele>
        <time>2022-03-10T10:09:49Z</time>
      </trkpt>
      <trkpt lat="34.31893911228617" lon="109.02319615296648">
        <ele>388.7048695227131</ele>
        <time>2022-03-10T10:09:59Z</time>
      </trkpt>
      <trkpt lat="34.319414417101434" lon="109.02321252109182">
        <ele>389.5680917566642</ele>
        <time>2022-03-10T10:10:09Z</time>
      </trkpt>
      <trkpt lat="34.31989769019565" lon="109.02324062161954">
        <ele>388.8900109156966</ele>
        <time>2022-03-10T10:10:19Z</time>
      </trkpt>
      <trkpt lat="34.32037941803913" lon="109.02326377794081">
        <ele>388.6102644940838</ele>
        <time>2022-03-10T10:10:29Z</time>
      </trkpt>
      <trkpt lat="34.32088185273339" lon="109.02327107360372">
        <ele>388.6275816829875</ele>
        <time>2022-03-10T10:10:39Z</time>
      </trkpt>
      <trkpt lat="34.32140149297765" lon="109.02332101169185">
        <ele>389.05052127316594</ele>
        <time>2022-03-10T10:10:49Z</time>
      </trkpt>
      <trkpt lat="34.321915221161234" lon="109.02336063333381">
        <ele>388.52853967342526</ele>
        <time>2022-03-10T10:10:59Z</time>
      </trkpt>
      <trkpt lat="34.322317785263074" lon="109.02336284381636">
        <ele>387.8056634310633</ele>
        <time>2022-03-10T10:11:07Z</time>
      </trkpt>
      <trkpt lat="34.32281525075939" lon="109.02341701310061">
        <ele>388.2946680141613</ele>
        <time>2022-03-10T10:11:17Z</time>
      </trkpt>
      <trkpt lat="34.32290335264354" lon="109.02339210082027">
        <ele>387.77936494816095</ele>
        <time>2022-03-10T10:11:19Z</time>
      </trkpt>
      <trkpt lat="34.32297677941373" lon="109.02318000632546">
        <ele>387.4662253903225</ele>
        <time>2022-03-10T10:11:33Z</time>
      </trkpt>
      <trkpt lat="34.3231625293102" lon="109.0230515511691">
        <ele>387.382935045287</ele>
        <time>2022-03-10T10:11:44Z</time>
      </trkpt>
      <trkpt lat="34.32323376947405" lon="109.02290194878104">
        <ele>386.70134985633194</ele>
        <time>2022-03-10T10:11:48Z</time>
      </trkpt>
      <trkpt lat="34.323311981354365" lon="109.02238721932851">
        <ele>384.4034128161147</ele>
        <time>2022-03-10T10:11:58Z</time>
      </trkpt>
      <trkpt lat="34.32334144324625" lon="109.02213597055594">
        <ele>385.1588949840516</ele>
        <time>2022-03-10T10:12:02Z</time>
      </trkpt>
      <trkpt lat="34.32340356883686" lon="109.02202247565099">
        <ele>385.66881464701146</ele>
        <time>2022-03-10T10:12:04Z</time>
      </trkpt>
      <trkpt lat="34.3235031229585" lon="109.02196623208276">
        <ele>386.18318703211844</ele>
        <time>2022-03-10T10:12:06Z</time>
      </trkpt>
      <trkpt lat="34.32393732426085" lon="109.02192150680553">
        <ele>387.6340563604608</ele>
        <time>2022-03-10T10:12:14Z</time>
      </trkpt>
      <trkpt lat="34.32443392533913" lon="109.02177185167612">
        <ele>387.49325157050043</ele>
        <time>2022-03-10T10:12:24Z</time>
      </trkpt>
      <trkpt lat="34.3247313706677" lon="109.02167248941218">
        <ele>387.809708875604</ele>
        <time>2022-03-10T10:12:30Z</time>
      </trkpt>
      <trkpt lat="34.32511978060966" lon="109.02149607408418">
        <ele>388.02458969317377</ele>
        <time>2022-03-10T10:12:38Z</time>
      </trkpt>
      <trkpt lat="34.325584571859615" lon="109.02122817661164">
        <ele>387.1993572227657</ele>
        <time>2022-03-10T10:12:48Z</time>
      </trkpt>
      <trkpt lat="34.32602694226336" lon="109.02090249675364">
        <ele>387.9077552864328</ele>
        <time>2022-03-10T10:12:58Z</time>
      </trkpt>
      <trkpt lat="34.32635797675888" lon="109.02060384968414">
        <ele>388.7337830970064</ele>
        <time>2022-03-10T10:13:06Z</time>
      </trkpt>
      <trkpt lat="34.32664834967911" lon="109.02025972144287">
        <ele>388.82803327124566</ele>
        <time>2022-03-10T10:13:14Z</time>
      </trkpt>
      <trkpt lat="34.326925495731764" lon="109.01984402080406">
        <ele>388.56176761817187</ele>
        <time>2022-03-10T10:13:23Z</time>
      </trkpt>
      <trkpt lat="34.32721710995367" lon="109.0193683460912">
        <ele>388.27389825694263</ele>
        <time>2022-03-10T10:13:33Z</time>
      </trkpt>
      <trkpt lat="34.327506972022526" lon="109.01890169695638">
        <ele>388.23811930511147</ele>
        <time>2022-03-10T10:13:43Z</time>
      </trkpt>
      <trkpt lat="34.32779587492955" lon="109.0184367796787">
        <ele>388.3090888084844</ele>
        <time>2022-03-10T10:13:53Z</time>
      </trkpt>
      <trkpt lat="34.3278921497089" lon="109.01831217964099">
        <ele>387.4054580880329</ele>
        <time>2022-03-10T10:14:07Z</time>
      </trkpt>
      <trkpt lat="34.32785479544726" lon="109.01812648477618">
        <ele>387.72192425560206</ele>
        <time>2022-03-10T10:14:34Z</time>
      </trkpt>
      <trkpt lat="34.32782550301627" lon="109.0180298433596">
        <ele>387.51832060236484</ele>
        <time>2022-03-10T10:14:36Z</time>
      </trkpt>
      <trkpt lat="34.32787597502686" lon="109.01745382153454">
        <ele>388.6099677020684</ele>
        <time>2022-03-10T10:14:46Z</time>
      </trkpt>
      <trkpt lat="34.327932023908865" lon="109.01696812855191">
        <ele>388.12009930517524</ele>
        <time>2022-03-10T10:14:54Z</time>
      </trkpt>
      <trkpt lat="34.327948690878436" lon="109.01634500169106">
        <ele>387.2646430321038</ele>
        <time>2022-03-10T10:15:04Z</time>
      </trkpt>
      <trkpt lat="34.32797473409244" lon="109.01571042682107">
        <ele>386.6729751713574</ele>
        <time>2022-03-10T10:15:14Z</time>
      </trkpt>
      <trkpt lat="34.32801567248634" lon="109.01516106944844">
        <ele>386.6107816081494</ele>
        <time>2022-03-10T10:15:23Z</time>
      </trkpt>
      <trkpt lat="34.32804530632772" lon="109.01458381575515">
        <ele>387.14884088840336</ele>
        <time>2022-03-10T10:15:33Z</time>
      </trkpt>
      <trkpt lat="34.328032483647874" lon="109.01400648950582">
        <ele>386.87102016434073</ele>
        <time>2022-03-10T10:15:43Z</time>
      </trkpt>
      <trkpt lat="34.328061983409114" lon="109.01341519786696">
        <ele>387.69295875448734</ele>
        <time>2022-03-10T10:15:53Z</time>
      </trkpt>
      <trkpt lat="34.32806794925265" lon="109.0128175589127">
        <ele>387.75212007481605</ele>
        <time>2022-03-10T10:16:03Z</time>
      </trkpt>
      <trkpt lat="34.32806924017218" lon="109.01220413936848">
        <ele>387.11313494388014</ele>
        <time>2022-03-10T10:16:13Z</time>
      </trkpt>
      <trkpt lat="34.3280775179362" lon="109.01158643295992">
        <ele>386.38271389808506</ele>
        <time>2022-03-10T10:16:23Z</time>
      </trkpt>
      <trkpt lat="34.32808264033008" lon="109.01098302827693">
        <ele>386.5944636883214</ele>
        <time>2022-03-10T10:16:33Z</time>
      </trkpt>
      <trkpt lat="34.328045481578584" lon="109.01036825220501">
        <ele>385.9702221592888</ele>
        <time>2022-03-10T10:16:43Z</time>
      </trkpt>
      <trkpt lat="34.328048805339975" lon="109.01025892383618">
        <ele>386.20465354900807</ele>
        <time>2022-03-10T10:16:45Z</time>
      </trkpt>
      <trkpt lat="34.32803337988158" lon="109.01014589315102">
        <ele>386.33534309174865</ele>
        <time>2022-03-10T10:16:47Z</time>
      </trkpt>
      <trkpt lat="34.328036375383924" lon="109.0095460740251">
        <ele>388.196276136674</ele>
        <time>2022-03-10T10:16:59Z</time>
      </trkpt>
      <trkpt lat="34.328034266022165" lon="109.00895292153056">
        <ele>390.83211289159954</ele>
        <time>2022-03-10T10:17:13Z</time>
      </trkpt>
      <trkpt lat="34.328067012281" lon="109.00840885388263">
        <ele>393.3117314260453</ele>
        <time>2022-03-10T10:17:25Z</time>
      </trkpt>
      <trkpt lat="34.32807246672767" lon="109.00783049782821">
        <ele>393.8955456074327</ele>
        <time>2022-03-10T10:17:37Z</time>
      </trkpt>
      <trkpt lat="34.32805362185934" lon="109.0075186016248">
        <ele>394.5695084091276</ele>
        <time>2022-03-10T10:17:43Z</time>
      </trkpt>
      <trkpt lat="34.32803938190749" lon="109.00700972481825">
        <ele>394.80062841717154</ele>
        <time>2022-03-10T10:17:53Z</time>
      </trkpt>
      <trkpt lat="34.32798952064533" lon="109.00681863566435">
        <ele>394.46794455032796</ele>
        <time>2022-03-10T10:17:57Z</time>
      </trkpt>
      <trkpt lat="34.328001712338136" lon="109.0067095249454">
        <ele>394.7359461952001</ele>
        <time>2022-03-10T10:17:59Z</time>
      </trkpt>
      <trkpt lat="34.32806550429536" lon="109.00650982570264">
        <ele>394.63411543611437</ele>
        <time>2022-03-10T10:18:03Z</time>
      </trkpt>
      <trkpt lat="34.32808127852978" lon="109.00630462966606">
        <ele>394.56043107714504</ele>
        <time>2022-03-10T10:18:07Z</time>
      </trkpt>
      <trkpt lat="34.32803963533307" lon="109.00569938937797">
        <ele>394.14797743968666</ele>
        <time>2022-03-10T10:18:17Z</time>
      </trkpt>
      <trkpt lat="34.32796709042614" lon="109.00508515826463">
        <ele>393.3415608871728</ele>
        <time>2022-03-10T10:18:27Z</time>
      </trkpt>
      <trkpt lat="34.32796804197725" lon="109.00472191273616">
        <ele>393.0644277231768</ele>
        <time>2022-03-10T10:18:33Z</time>
      </trkpt>
      <trkpt lat="34.32794600098303" lon="109.00436834800733">
        <ele>394.55401371698827</ele>
        <time>2022-03-10T10:18:39Z</time>
      </trkpt>
      <trkpt lat="34.32800627468241" lon="109.00387569103924">
        <ele>395.3487349152565</ele>
        <time>2022-03-10T10:18:47Z</time>
      </trkpt>
      <trkpt lat="34.32798614516782" lon="109.00361303915835">
        <ele>395.43708766810596</ele>
        <time>2022-03-10T10:18:51Z</time>
      </trkpt>
      <trkpt lat="34.32799396979495" lon="109.00348120617898">
        <ele>395.1336271921173</ele>
        <time>2022-03-10T10:18:53Z</time>
      </trkpt>
      <trkpt lat="34.32793830518314" lon="109.00306591760213">
        <ele>395.33588496781886</ele>
        <time>2022-03-10T10:18:59Z</time>
      </trkpt>
      <trkpt lat="34.3279481379826" lon="109.00252861228854">
        <ele>394.61671644914895</ele>
        <time>2022-03-10T10:19:07Z</time>
      </trkpt>
      <trkpt lat="34.32795745872351" lon="109.0019995259094">
        <ele>394.8402223587036</ele>
        <time>2022-03-10T10:19:15Z</time>
      </trkpt>
      <trkpt lat="34.32793461372272" lon="109.00145986583081">
        <ele>395.27313544228673</ele>
        <time>2022-03-10T10:19:23Z</time>
      </trkpt>
      <trkpt lat="34.32790262028268" lon="109.00090555988992">
        <ele>395.1896518105641</ele>
        <time>2022-03-10T10:19:31Z</time>
      </trkpt>
      <trkpt lat="34.32791804756989" lon="109.00027347936351">
        <ele>394.7772179041058</ele>
        <time>2022-03-10T10:19:41Z</time>
      </trkpt>
      <trkpt lat="34.32794146484076" lon="108.99971902122142">
        <ele>395.1710078641772</ele>
        <time>2022-03-10T10:19:51Z</time>
      </trkpt>
      <trkpt lat="34.327965244012084" lon="108.9995971854039">
        <ele>396.1690644407645</ele>
        <time>2022-03-10T10:19:53Z</time>
      </trkpt>
      <trkpt lat="34.32792356755938" lon="108.99897213573394">
        <ele>393.3442906178534</ele>
        <time>2022-03-10T10:20:03Z</time>
      </trkpt>
      <trkpt lat="34.32791440585452" lon="108.99883461381714">
        <ele>393.04465611372143</ele>
        <time>2022-03-10T10:20:05Z</time>
      </trkpt>
      <trkpt lat="34.32797590402838" lon="108.99838119305034">
        <ele>394.8846955234185</ele>
        <time>2022-03-10T10:20:11Z</time>
      </trkpt>
      <trkpt lat="34.327950361151984" lon="108.99825915503388">
        <ele>394.98620680347085</ele>
        <time>2022-03-10T10:20:13Z</time>
      </trkpt>
      <trkpt lat="34.327968839183434" lon="108.99797723170433">
        <ele>395.13541430514306</ele>
        <time>2022-03-10T10:20:17Z</time>
      </trkpt>
      <trkpt lat="34.32796851732453" lon="108.99733790196397">
        <ele>394.9339380348101</ele>
        <time>2022-03-10T10:20:27Z</time>
      </trkpt>
      <trkpt lat="34.32795704489116" lon="108.99681350852859">
        <ele>395.2331994920969</ele>
        <time>2022-03-10T10:20:35Z</time>
      </trkpt>
      <trkpt lat="34.32794832584181" lon="108.99654358054953">
        <ele>395.31561705935746</ele>
        <time>2022-03-10T10:20:39Z</time>
      </trkpt>
      <trkpt lat="34.32798237256379" lon="108.99602244813127">
        <ele>395.32074874825776</ele>
        <time>2022-03-10T10:20:47Z</time>
      </trkpt>
      <trkpt lat="34.32796461357335" lon="108.99541056588016">
        <ele>394.45433622505516</ele>
        <time>2022-03-10T10:20:57Z</time>
      </trkpt>
      <trkpt lat="34.32799920955826" lon="108.99517361674974">
        <ele>394.98523323237896</ele>
        <time>2022-03-10T10:21:01Z</time>
      </trkpt>
      <trkpt lat="34.32800814112578" lon="108.9945651668204">
        <ele>393.54416164476424</ele>
        <time>2022-03-10T10:21:11Z</time>
      </trkpt>
      <trkpt lat="34.327999300928596" lon="108.99406067383941">
        <ele>393.73146313615143</ele>
        <time>2022-03-10T10:21:19Z</time>
      </trkpt>
      <trkpt lat="34.32801630052732" lon="108.99393718284387">
        <ele>393.61031480133533</ele>
        <time>2022-03-10T10:21:21Z</time>
      </trkpt>
      <trkpt lat="34.32801152580503" lon="108.99332223420397">
        <ele>393.97411144617945</ele>
        <time>2022-03-10T10:21:31Z</time>
      </trkpt>
      <trkpt lat="34.327996658542034" lon="108.99274321074738">
        <ele>396.09588875155896</ele>
        <time>2022-03-10T10:21:41Z</time>
      </trkpt>
      <trkpt lat="34.3280097258903" lon="108.99219359629032">
        <ele>394.38777810242027</ele>
        <time>2022-03-10T10:21:49Z</time>
      </trkpt>
      <trkpt lat="34.328045530904284" lon="108.99193627778656">
        <ele>393.5436418596655</ele>
        <time>2022-03-10T10:21:53Z</time>
      </trkpt>
      <trkpt lat="34.32805939612014" lon="108.99157546296122">
        <ele>392.83103358000517</ele>
        <time>2022-03-10T10:21:59Z</time>
      </trkpt>
      <trkpt lat="34.328049120482696" lon="108.99143481120888">
        <ele>393.4718044809997</ele>
        <time>2022-03-10T10:22:03Z</time>
      </trkpt>
      <trkpt lat="34.3280708116779" lon="108.99121773221204">
        <ele>392.8060507411137</ele>
        <time>2022-03-10T10:22:21Z</time>
      </trkpt>
      <trkpt lat="34.32805455653371" lon="108.99101594238856">
        <ele>392.8774958308786</ele>
        <time>2022-03-10T10:22:30Z</time>
      </trkpt>
      <trkpt lat="34.328039331018516" lon="108.9904441437004">
        <ele>391.54507740214467</ele>
        <time>2022-03-10T10:22:40Z</time>
      </trkpt>
      <trkpt lat="34.32805362552972" lon="108.99019874539599">
        <ele>392.38491675723344</ele>
        <time>2022-03-10T10:22:44Z</time>
      </trkpt>
      <trkpt lat="34.32803803448734" lon="108.98995660579513">
        <ele>392.2716191401705</ele>
        <time>2022-03-10T10:22:48Z</time>
      </trkpt>
      <trkpt lat="34.32799118918728" lon="108.98948515897574">
        <ele>392.0072806952521</ele>
        <time>2022-03-10T10:22:56Z</time>
      </trkpt>
      <trkpt lat="34.32799511345469" lon="108.98923666657289">
        <ele>391.80253097973764</ele>
        <time>2022-03-10T10:23:00Z</time>
      </trkpt>
      <trkpt lat="34.3279186780243" lon="108.98869989407683">
        <ele>391.11402147542685</ele>
        <time>2022-03-10T10:23:08Z</time>
      </trkpt>
      <trkpt lat="34.327864596391954" lon="108.98858198842568">
        <ele>390.7102857818827</ele>
        <time>2022-03-10T10:23:10Z</time>
      </trkpt>
      <trkpt lat="34.32786099329106" lon="108.98819994757339">
        <ele>392.723166055046</ele>
        <time>2022-03-10T10:23:16Z</time>
      </trkpt>
      <trkpt lat="34.32788207833171" lon="108.98793736251103">
        <ele>394.7585947001353</ele>
        <time>2022-03-10T10:23:20Z</time>
      </trkpt>
      <trkpt lat="34.32786196669252" lon="108.98768774906468">
        <ele>394.86554751265794</ele>
        <time>2022-03-10T10:23:24Z</time>
      </trkpt>
      <trkpt lat="34.32782066261924" lon="108.98744652827362">
        <ele>394.18153944797814</ele>
        <time>2022-03-10T10:23:28Z</time>
      </trkpt>
      <trkpt lat="34.327802314715235" lon="108.98707304969024">
        <ele>393.8693360053003</ele>
        <time>2022-03-10T10:23:34Z</time>
      </trkpt>
      <trkpt lat="34.3278449761854" lon="108.98677914444002">
        <ele>394.9364218460396</ele>
        <time>2022-03-10T10:23:38Z</time>
      </trkpt>
      <trkpt lat="34.32785820523847" lon="108.98615865607304">
        <ele>393.23366615828127</ele>
        <time>2022-03-10T10:23:47Z</time>
      </trkpt>
      <trkpt lat="34.327839310639554" lon="108.985901751435">
        <ele>392.34443714283407</ele>
        <time>2022-03-10T10:23:51Z</time>
      </trkpt>
      <trkpt lat="34.3278458002383" lon="108.98563645580371">
        <ele>392.2230627750978</ele>
        <time>2022-03-10T10:23:55Z</time>
      </trkpt>
      <trkpt lat="34.32795978558752" lon="108.98503001885804">
        <ele>393.45314198639244</ele>
        <time>2022-03-10T10:24:05Z</time>
      </trkpt>
      <trkpt lat="34.32799166196289" lon="108.9848483541803">
        <ele>392.7576226592064</ele>
        <time>2022-03-10T10:24:09Z</time>
      </trkpt>
      <trkpt lat="34.32800293508797" lon="108.98458090477762">
        <ele>392.4875009469688</ele>
        <time>2022-03-10T10:24:17Z</time>
      </trkpt>
      <trkpt lat="34.32802939249556" lon="108.98448042080176">
        <ele>392.39640457276255</ele>
        <time>2022-03-10T10:24:21Z</time>
      </trkpt>
      <trkpt lat="34.32802248587778" lon="108.98442975647046">
        <ele>392.19147432688624</ele>
        <time>2022-03-10T10:24:31Z</time>
      </trkpt>
      <trkpt lat="34.328061842197314" lon="108.98415691253584">
        <ele>391.9658718351275</ele>
        <time>2022-03-10T10:25:16Z</time>
      </trkpt>
      <trkpt lat="34.328072812044965" lon="108.98359063242368">
        <ele>392.71642673946917</ele>
        <time>2022-03-10T10:25:28Z</time>
      </trkpt>
      <trkpt lat="34.328040967665466" lon="108.98305372814181">
        <ele>393.0058985501528</ele>
        <time>2022-03-10T10:25:38Z</time>
      </trkpt>
      <trkpt lat="34.32800405384185" lon="108.98273898226934">
        <ele>393.6930648488924</ele>
        <time>2022-03-10T10:25:44Z</time>
      </trkpt>
      <trkpt lat="34.32801025939014" lon="108.98262323586819">
        <ele>394.14684063754976</ele>
        <time>2022-03-10T10:25:46Z</time>
      </trkpt>
      <trkpt lat="34.32798354671078" lon="108.98241056031517">
        <ele>393.48729949630797</ele>
        <time>2022-03-10T10:25:50Z</time>
      </trkpt>
      <trkpt lat="34.327985613096764" lon="108.98226539301601">
        <ele>393.97574888542295</ele>
        <time>2022-03-10T10:25:53Z</time>
      </trkpt>
      <trkpt lat="34.328031378249676" lon="108.98209593059877">
        <ele>394.36486105713993</ele>
        <time>2022-03-10T10:25:57Z</time>
      </trkpt>
      <trkpt lat="34.32803955906469" lon="108.98199869518722">
        <ele>393.9067269247025</ele>
        <time>2022-03-10T10:25:59Z</time>
      </trkpt>
      <trkpt lat="34.3280205808226" lon="108.98191516807626">
        <ele>394.42285313177854</ele>
        <time>2022-03-10T10:26:01Z</time>
      </trkpt>
      <trkpt lat="34.32805757769228" lon="108.98180658136476">
        <ele>394.6317818649113</ele>
        <time>2022-03-10T10:26:03Z</time>
      </trkpt>
      <trkpt lat="34.32805397760495" lon="108.981522924972">
        <ele>394.68866030313075</ele>
        <time>2022-03-10T10:26:09Z</time>
      </trkpt>
      <trkpt lat="34.32807004911639" lon="108.9813792839689">
        <ele>394.2837404962629</ele>
        <time>2022-03-10T10:26:13Z</time>
      </trkpt>
      <trkpt lat="34.328099976725056" lon="108.98128224092001">
        <ele>395.18745403457433</ele>
        <time>2022-03-10T10:26:17Z</time>
      </trkpt>
      <trkpt lat="34.32809568220615" lon="108.98119266972942">
        <ele>395.37881346419454</ele>
        <time>2022-03-10T10:26:23Z</time>
      </trkpt>
      <trkpt lat="34.328144259850944" lon="108.98114287080645">
        <ele>394.98199137020856</ele>
        <time>2022-03-10T10:26:31Z</time>
      </trkpt>
      <trkpt lat="34.32816718006918" lon="108.98096907427136">
        <ele>395.15495919808745</ele>
        <time>2022-03-10T10:26:48Z</time>
      </trkpt>
      <trkpt lat="34.32817332009811" lon="108.98088247344492">
        <ele>395.54142926447093</ele>
        <time>2022-03-10T10:26:54Z</time>
      </trkpt>
      <trkpt lat="34.32822522650766" lon="108.98078474638385">
        <ele>397.1041609244421</ele>
        <time>2022-03-10T10:27:02Z</time>
      </trkpt>
      <trkpt lat="34.328296465698294" lon="108.98074862949619">
        <ele>394.90668107103556</ele>
        <time>2022-03-10T10:27:16Z</time>
      </trkpt>
      <trkpt lat="34.32855122077696" lon="108.98084860211704">
        <ele>395.81691144406796</ele>
        <time>2022-03-10T10:27:41Z</time>
      </trkpt>
      <trkpt lat="34.328627488429404" lon="108.98091183197742">
        <ele>396.05430129822344</ele>
        <time>2022-03-10T10:27:47Z</time>
      </trkpt>
      <trkpt lat="34.3286491279458" lon="108.98099863310317">
        <ele>395.8292560009286</ele>
        <time>2022-03-10T10:27:53Z</time>
      </trkpt>
      <trkpt lat="34.32869667849477" lon="108.98099939559832">
        <ele>395.51063476130366</ele>
        <time>2022-03-10T10:28:03Z</time>
      </trkpt>
      <trkpt lat="34.328738733218565" lon="108.98096383867819">
        <ele>394.6372208427638</ele>
        <time>2022-03-10T10:28:32Z</time>
      </trkpt>
      <trkpt lat="34.32868505013386" lon="108.98086895998163">
        <ele>395.58410438522696</ele>
        <time>2022-03-10T10:28:38Z</time>
      </trkpt>
      <trkpt lat="34.328628498247355" lon="108.98081511474535">
        <ele>395.6461338698864</ele>
        <time>2022-03-10T10:28:42Z</time>
      </trkpt>
      <trkpt lat="34.32858366264252" lon="108.9807188880807">
        <ele>395.4738862402737</ele>
        <time>2022-03-10T10:28:48Z</time>
      </trkpt>
      <trkpt lat="34.32855427707292" lon="108.98045421805719">
        <ele>395.3980318047106</ele>
        <time>2022-03-10T10:29:06Z</time>
      </trkpt>
      <trkpt lat="34.32858850220669" lon="108.98037169771699">
        <ele>395.66010783892125</ele>
        <time>2022-03-10T10:29:12Z</time>
      </trkpt>
      <trkpt lat="34.32865929200221" lon="108.98035175883045">
        <ele>395.8122972268611</ele>
        <time>2022-03-10T10:29:18Z</time>
      </trkpt>
      <trkpt lat="34.328585369497446" lon="108.98037077665393">
        <ele>395.8674553819001</ele>
        <time>2022-03-10T10:29:24Z</time>
      </trkpt>
      <trkpt lat="34.32869525154634" lon="108.98039826575796">
        <ele>395.83122300636023</ele>
        <time>2022-03-10T10:29:27Z</time>
      </trkpt>
      <trkpt lat="34.32822116842849" lon="108.98042389133788">
        <ele>410.83999007336126</ele>
        <time>2022-03-10T10:29:39Z</time>
      </trkpt>
      <trkpt lat="34.3283596200966" lon="108.98043447986501">
        <ele>408.0816345214844</ele>
        <time>2022-03-10T10:29:46Z</time>
      </trkpt>
      <trkpt lat="34.32845797404904" lon="108.98040968253406">
        <ele>410.3795471191406</ele>
        <time>2022-03-10T10:29:57Z</time>
      </trkpt>
    </trkseg>
  </trk>
</gpx>