<?xml version="1.0" encoding="UTF-8"?>
<gpx xmlns="http://www.topografix.com/GPX/1/1" xmlns:gpxtpx="http://www.garmin.com/xmlschemas/TrackPointExtension/v1" xmlns:xsi="http://www.w3.org/2001/XMLSchema-instance" xsi:schemaLocation="http://www.topografix.com/GPX/1/1 http://www.topografix.com/GPX/1/1/gpx.xsd" version="1.1" creator="gpx.py -- https://github.com/tkrajina/gpxpy">
  <trk>
    <name>gpx from keep</name>
    <type>Ride</type>
    <trkseg>
      <trkpt lat="34.30635608612654" lon="109.03719781423251">
        <ele>413.2288818359375</ele>
        <time>2022-04-08T09:40:59Z</time>
      </trkpt>
      <trkpt lat="34.30655206041666" lon="109.0369654039088">
        <ele>413.0793762207031</ele>
        <time>2022-04-08T09:41:12Z</time>
      </trkpt>
      <trkpt lat="34.30653013725393" lon="109.03709153454578">
        <ele>412.9941711425781</ele>
        <time>2022-04-08T09:41:18Z</time>
      </trkpt>
      <trkpt lat="34.306457992841224" lon="109.03723039373932">
        <ele>412.9745178222656</ele>
        <time>2022-04-08T09:41:24Z</time>
      </trkpt>
      <trkpt lat="34.30630297035511" lon="109.03719784492502">
        <ele>412.96539306640625</ele>
        <time>2022-04-08T09:41:30Z</time>
      </trkpt>
      <trkpt lat="34.306167263276656" lon="109.03791721227836">
        <ele>412.9591064453125</ele>
        <time>2022-04-08T09:42:43Z</time>
      </trkpt>
      <trkpt lat="34.306240762693974" lon="109.03736083993486">
        <ele>412.958984375</ele>
        <time>2022-04-08T09:42:50Z</time>
      </trkpt>
      <trkpt lat="34.30631011525391" lon="109.03728757747314">
        <ele>412.9589538574219</ele>
        <time>2022-04-08T09:42:53Z</time>
      </trkpt>
      <trkpt lat="34.306167263276656" lon="109.03791721227836">
        <ele>412.9589538574219</ele>
        <time>2022-04-08T09:42:59Z</time>
      </trkpt>
      <trkpt lat="34.30644451371929" lon="109.03714531955012">
        <ele>412.9589538574219</ele>
        <time>2022-04-08T09:43:06Z</time>
      </trkpt>
      <trkpt lat="34.306558414978895" lon="109.03702176869886">
        <ele>412.9589538574219</ele>
        <time>2022-04-08T09:43:20Z</time>
      </trkpt>
      <trkpt lat="34.30626578481452" lon="109.03708748214974">
        <ele>390.96275425984265</ele>
        <time>2022-04-08T09:43:23Z</time>
      </trkpt>
      <trkpt lat="34.3064080142696" lon="109.03710096775278">
        <ele>390.94882531439674</ele>
        <time>2022-04-08T09:43:25Z</time>
      </trkpt>
      <trkpt lat="34.306602956124955" lon="109.03716806069373">
        <ele>391.3762327255772</ele>
        <time>2022-04-08T09:43:27Z</time>
      </trkpt>
      <trkpt lat="34.30669440202974" lon="109.03718216614197">
        <ele>391.9337490661784</ele>
        <time>2022-04-08T09:43:30Z</time>
      </trkpt>
      <trkpt lat="34.30677524612611" lon="109.03712155200904">
        <ele>392.06605283722627</ele>
        <time>2022-04-08T09:43:31Z</time>
      </trkpt>
      <trkpt lat="34.30671103707739" lon="109.03721785118167">
        <ele>392.18761245906353</ele>
        <time>2022-04-08T09:43:34Z</time>
      </trkpt>
      <trkpt lat="34.30654651808941" lon="109.03709844992493">
        <ele>392.163724723272</ele>
        <time>2022-04-08T09:43:38Z</time>
      </trkpt>
      <trkpt lat="34.30641553849458" lon="109.03694474255266">
        <ele>392.33067722804844</ele>
        <time>2022-04-08T09:43:47Z</time>
      </trkpt>
      <trkpt lat="34.30637536076053" lon="109.03702238423398">
        <ele>391.9106933940202</ele>
        <time>2022-04-08T09:43:53Z</time>
      </trkpt>
      <trkpt lat="34.30652913465626" lon="109.03695327485903">
        <ele>392.6780606098473</ele>
        <time>2022-04-08T09:44:01Z</time>
      </trkpt>
      <trkpt lat="34.30656024887079" lon="109.03686809380338">
        <ele>392.78838187269866</ele>
        <time>2022-04-08T09:44:06Z</time>
      </trkpt>
      <trkpt lat="34.30657294693964" lon="109.03677788006961">
        <ele>391.52520166058093</ele>
        <time>2022-04-08T09:44:13Z</time>
      </trkpt>
      <trkpt lat="34.3065665552669" lon="109.03668794145517">
        <ele>392.04807884898037</ele>
        <time>2022-04-08T09:44:19Z</time>
      </trkpt>
      <trkpt lat="34.30646874644609" lon="109.03653545143342">
        <ele>391.8660273188725</ele>
        <time>2022-04-08T09:44:29Z</time>
      </trkpt>
      <trkpt lat="34.30644429141079" lon="109.03634039603172">
        <ele>391.1029295101762</ele>
        <time>2022-04-08T09:44:43Z</time>
      </trkpt>
      <trkpt lat="34.30649171153549" lon="109.03631674260536">
        <ele>391.8218072121963</ele>
        <time>2022-04-08T09:44:51Z</time>
      </trkpt>
      <trkpt lat="34.30651293691119" lon="109.03622160609162">
        <ele>391.7250872403383</ele>
        <time>2022-04-08T09:44:58Z</time>
      </trkpt>
      <trkpt lat="34.30649721906035" lon="109.03612608573711">
        <ele>391.58887516055256</ele>
        <time>2022-04-08T09:45:04Z</time>
      </trkpt>
      <trkpt lat="34.306588320935894" lon="109.03629616929624">
        <ele>392.0602464247495</ele>
        <time>2022-04-08T09:45:25Z</time>
      </trkpt>
      <trkpt lat="34.30646692196156" lon="109.03606942921114">
        <ele>392.46094569563866</ele>
        <time>2022-04-08T09:45:46Z</time>
      </trkpt>
      <trkpt lat="34.30643212809198" lon="109.03591972585053">
        <ele>392.21007154043764</ele>
        <time>2022-04-08T09:45:50Z</time>
      </trkpt>
      <trkpt lat="34.30643421619632" lon="109.03564732508958">
        <ele>392.308738659136</ele>
        <time>2022-04-08T09:45:58Z</time>
      </trkpt>
      <trkpt lat="34.306416668971245" lon="109.0354540895865">
        <ele>392.4001823719591</ele>
        <time>2022-04-08T09:46:02Z</time>
      </trkpt>
      <trkpt lat="34.30639002751917" lon="109.03536898892823">
        <ele>392.32938774768263</ele>
        <time>2022-04-08T09:46:04Z</time>
      </trkpt>
      <trkpt lat="34.306350194780585" lon="109.0350077965884">
        <ele>392.29809265676886</ele>
        <time>2022-04-08T09:46:12Z</time>
      </trkpt>
      <trkpt lat="34.30639062019982" lon="109.03492345361161">
        <ele>392.4588034125045</ele>
        <time>2022-04-08T09:46:14Z</time>
      </trkpt>
      <trkpt lat="34.30638517177071" lon="109.03461809734488">
        <ele>392.5676450310275</ele>
        <time>2022-04-08T09:46:22Z</time>
      </trkpt>
      <trkpt lat="34.3063433109041" lon="109.03417643584028">
        <ele>392.1353802345693</ele>
        <time>2022-04-08T09:46:34Z</time>
      </trkpt>
      <trkpt lat="34.30629988355678" lon="109.0340762167493">
        <ele>392.00602420512587</ele>
        <time>2022-04-08T09:46:37Z</time>
      </trkpt>
      <trkpt lat="34.30628651818619" lon="109.03397317707547">
        <ele>392.1409986624494</ele>
        <time>2022-04-08T09:46:40Z</time>
      </trkpt>
      <trkpt lat="34.30620630107363" lon="109.03376472924363">
        <ele>391.82629388943315</ele>
        <time>2022-04-08T09:46:46Z</time>
      </trkpt>
      <trkpt lat="34.306232400744676" lon="109.0336680505377">
        <ele>391.88117347098887</ele>
        <time>2022-04-08T09:46:49Z</time>
      </trkpt>
      <trkpt lat="34.306369386587455" lon="109.03352608474754">
        <ele>392.2533842436969</ele>
        <time>2022-04-08T09:46:54Z</time>
      </trkpt>
      <trkpt lat="34.30637275575329" lon="109.03339917515619">
        <ele>392.36056669428945</ele>
        <time>2022-04-08T09:46:57Z</time>
      </trkpt>
      <trkpt lat="34.30627118323733" lon="109.0332085387652">
        <ele>392.5838729245588</ele>
        <time>2022-04-08T09:47:05Z</time>
      </trkpt>
      <trkpt lat="34.306233351456335" lon="109.03291811505788">
        <ele>392.66567272879183</ele>
        <time>2022-04-08T09:47:15Z</time>
      </trkpt>
      <trkpt lat="34.30625702769762" lon="109.03268861297104">
        <ele>392.7947809686884</ele>
        <time>2022-04-08T09:47:21Z</time>
      </trkpt>
      <trkpt lat="34.306304313779464" lon="109.03248511761835">
        <ele>393.5675857057795</ele>
        <time>2022-04-08T09:47:26Z</time>
      </trkpt>
      <trkpt lat="34.30629715761927" lon="109.03236947712836">
        <ele>393.3333756895736</ele>
        <time>2022-04-08T09:47:30Z</time>
      </trkpt>
      <trkpt lat="34.306165065969715" lon="109.03222865528603">
        <ele>393.12367292959243</ele>
        <time>2022-04-08T09:47:34Z</time>
      </trkpt>
      <trkpt lat="34.30608748860926" lon="109.03207023737774">
        <ele>393.1960973078385</ele>
        <time>2022-04-08T09:47:38Z</time>
      </trkpt>
      <trkpt lat="34.30599949801915" lon="109.03154220098956">
        <ele>392.52801159303635</ele>
        <time>2022-04-08T09:47:51Z</time>
      </trkpt>
      <trkpt lat="34.30602427941668" lon="109.03142405299215">
        <ele>392.1609827624634</ele>
        <time>2022-04-08T09:47:53Z</time>
      </trkpt>
      <trkpt lat="34.306110928779965" lon="109.03132820753743">
        <ele>392.2399034444243</ele>
        <time>2022-04-08T09:47:55Z</time>
      </trkpt>
      <trkpt lat="34.30625225832068" lon="109.03122554636025">
        <ele>392.4795926436782</ele>
        <time>2022-04-08T09:47:57Z</time>
      </trkpt>
      <trkpt lat="34.30662440542224" lon="109.03101077464974">
        <ele>391.7155964402482</ele>
        <time>2022-04-08T09:48:03Z</time>
      </trkpt>
      <trkpt lat="34.30706667241171" lon="109.03091900689209">
        <ele>391.6962750023231</ele>
        <time>2022-04-08T09:48:11Z</time>
      </trkpt>
      <trkpt lat="34.30725555465205" lon="109.03089468435947">
        <ele>391.3864134615287</ele>
        <time>2022-04-08T09:48:15Z</time>
      </trkpt>
      <trkpt lat="34.307727711875714" lon="109.03080755561808">
        <ele>393.913241523318</ele>
        <time>2022-04-08T09:48:25Z</time>
      </trkpt>
      <trkpt lat="34.30790101620133" lon="109.03081666805683">
        <ele>393.42858760710806</ele>
        <time>2022-04-08T09:48:29Z</time>
      </trkpt>
      <trkpt lat="34.308161241974176" lon="109.03080198224724">
        <ele>394.5469266753644</ele>
        <time>2022-04-08T09:48:37Z</time>
      </trkpt>
      <trkpt lat="34.30831749808777" lon="109.03075887610771">
        <ele>394.32802218943834</ele>
        <time>2022-04-08T09:48:41Z</time>
      </trkpt>
      <trkpt lat="34.30856806958255" lon="109.03073371021674">
        <ele>393.58907738514245</ele>
        <time>2022-04-08T09:48:47Z</time>
      </trkpt>
      <trkpt lat="34.30870975054576" lon="109.03069065580488">
        <ele>393.8097788002342</ele>
        <time>2022-04-08T09:48:51Z</time>
      </trkpt>
      <trkpt lat="34.308890073846115" lon="109.03066649359423">
        <ele>393.2425688877702</ele>
        <time>2022-04-08T09:48:55Z</time>
      </trkpt>
      <trkpt lat="34.30933232874237" lon="109.03050620422306">
        <ele>392.8769745519385</ele>
        <time>2022-04-08T09:49:05Z</time>
      </trkpt>
      <trkpt lat="34.30959742466355" lon="109.03034704077817">
        <ele>393.07287496700883</ele>
        <time>2022-04-08T09:49:11Z</time>
      </trkpt>
      <trkpt lat="34.30981655853878" lon="109.03018934792921">
        <ele>393.04650781769305</ele>
        <time>2022-04-08T09:49:16Z</time>
      </trkpt>
      <trkpt lat="34.310178099368194" lon="109.02986755939051">
        <ele>392.71549618802965</ele>
        <time>2022-04-08T09:49:25Z</time>
      </trkpt>
      <trkpt lat="34.310608494627246" lon="109.02946318328404">
        <ele>391.5592872938141</ele>
        <time>2022-04-08T09:49:36Z</time>
      </trkpt>
      <trkpt lat="34.31100356843888" lon="109.02906003801877">
        <ele>390.697628531605</ele>
        <time>2022-04-08T09:49:47Z</time>
      </trkpt>
      <trkpt lat="34.31115230300892" lon="109.02886911786437">
        <ele>391.0816291179508</ele>
        <time>2022-04-08T09:49:55Z</time>
      </trkpt>
      <trkpt lat="34.31136770688265" lon="109.02835116231876">
        <ele>391.3134596571326</ele>
        <time>2022-04-08T09:50:09Z</time>
      </trkpt>
      <trkpt lat="34.31146040084302" lon="109.02794653839656">
        <ele>392.2849328862503</ele>
        <time>2022-04-08T09:50:17Z</time>
      </trkpt>
      <trkpt lat="34.31153268712132" lon="109.02733685915238">
        <ele>392.0841182721779</ele>
        <time>2022-04-08T09:50:27Z</time>
      </trkpt>
      <trkpt lat="34.31162043036881" lon="109.02709005470204">
        <ele>391.537928879261</ele>
        <time>2022-04-08T09:50:31Z</time>
      </trkpt>
      <trkpt lat="34.31177183424324" lon="109.02680183669723">
        <ele>392.36280189454556</ele>
        <time>2022-04-08T09:50:36Z</time>
      </trkpt>
      <trkpt lat="34.31192296925857" lon="109.02662835622317">
        <ele>391.3125740075484</ele>
        <time>2022-04-08T09:50:40Z</time>
      </trkpt>
      <trkpt lat="34.31230853228318" lon="109.02628835837534">
        <ele>393.1212113806978</ele>
        <time>2022-04-08T09:50:50Z</time>
      </trkpt>
      <trkpt lat="34.31248712546407" lon="109.02615192984744">
        <ele>393.4785570204258</ele>
        <time>2022-04-08T09:50:54Z</time>
      </trkpt>
      <trkpt lat="34.3128076347482" lon="109.02597102303875">
        <ele>393.09295057784766</ele>
        <time>2022-04-08T09:51:00Z</time>
      </trkpt>
      <trkpt lat="34.31284063535973" lon="109.02587089570098">
        <ele>393.34568747133017</ele>
        <time>2022-04-08T09:51:02Z</time>
      </trkpt>
      <trkpt lat="34.312959393367905" lon="109.0258045001023">
        <ele>393.3285664524883</ele>
        <time>2022-04-08T09:51:06Z</time>
      </trkpt>
      <trkpt lat="34.3130845692597" lon="109.02576181882385">
        <ele>393.38710847403854</ele>
        <time>2022-04-08T09:51:10Z</time>
      </trkpt>
      <trkpt lat="34.31318279548021" lon="109.02575730907209">
        <ele>392.9461262188852</ele>
        <time>2022-04-08T09:51:14Z</time>
      </trkpt>
      <trkpt lat="34.313725264514694" lon="109.02553087629066">
        <ele>392.6153760999441</ele>
        <time>2022-04-08T09:51:36Z</time>
      </trkpt>
      <trkpt lat="34.31414524880742" lon="109.02537252465528">
        <ele>391.0170303294435</ele>
        <time>2022-04-08T09:51:46Z</time>
      </trkpt>
      <trkpt lat="34.31460242404519" lon="109.02510254690806">
        <ele>390.4490779032931</ele>
        <time>2022-04-08T09:51:57Z</time>
      </trkpt>
      <trkpt lat="34.315001622205855" lon="109.02479927582021">
        <ele>390.52791931293905</ele>
        <time>2022-04-08T09:52:07Z</time>
      </trkpt>
      <trkpt lat="34.315177845065065" lon="109.0246910646507">
        <ele>389.88892233837396</ele>
        <time>2022-04-08T09:52:11Z</time>
      </trkpt>
      <trkpt lat="34.31524175538707" lon="109.02461747786502">
        <ele>390.27149355690926</ele>
        <time>2022-04-08T09:52:13Z</time>
      </trkpt>
      <trkpt lat="34.315706804284744" lon="109.02434841735439">
        <ele>389.85696547850966</ele>
        <time>2022-04-08T09:52:23Z</time>
      </trkpt>
      <trkpt lat="34.31615524865529" lon="109.0241002096038">
        <ele>389.65898686647415</ele>
        <time>2022-04-08T09:52:33Z</time>
      </trkpt>
      <trkpt lat="34.31624701145892" lon="109.02405809894692">
        <ele>390.1845856215805</ele>
        <time>2022-04-08T09:52:35Z</time>
      </trkpt>
      <trkpt lat="34.31631653281281" lon="109.02400323577369">
        <ele>390.11127748619765</ele>
        <time>2022-04-08T09:52:37Z</time>
      </trkpt>
      <trkpt lat="34.31646538956969" lon="109.02395799422267">
        <ele>390.0848819203675</ele>
        <time>2022-04-08T09:52:41Z</time>
      </trkpt>
      <trkpt lat="34.316544833570305" lon="109.02389061625723">
        <ele>390.4414746686816</ele>
        <time>2022-04-08T09:52:45Z</time>
      </trkpt>
      <trkpt lat="34.31656973648391" lon="109.02390750895086">
        <ele>390.91702701803297</ele>
        <time>2022-04-08T09:52:54Z</time>
      </trkpt>
      <trkpt lat="34.31634976556975" lon="109.02357634223465">
        <ele>389.6897638775408</ele>
        <time>2022-04-08T09:53:33Z</time>
      </trkpt>
      <trkpt lat="34.31626745148357" lon="109.02340397446322">
        <ele>388.5303925918415</ele>
        <time>2022-04-08T09:53:37Z</time>
      </trkpt>
      <trkpt lat="34.31623816941428" lon="109.02329822733486">
        <ele>388.0676731662825</ele>
        <time>2022-04-08T09:53:39Z</time>
      </trkpt>
      <trkpt lat="34.315968940629695" lon="109.02287506640485">
        <ele>388.4757999079302</ele>
        <time>2022-04-08T09:53:55Z</time>
      </trkpt>
      <trkpt lat="34.315911855477154" lon="109.02270132747802">
        <ele>388.0848987819627</ele>
        <time>2022-04-08T09:53:59Z</time>
      </trkpt>
      <trkpt lat="34.315886413649146" lon="109.02212287612585">
        <ele>390.40029739867896</ele>
        <time>2022-04-08T09:54:13Z</time>
      </trkpt>
      <trkpt lat="34.31583046905313" lon="109.02175644851658">
        <ele>393.0131358457729</ele>
        <time>2022-04-08T09:54:24Z</time>
      </trkpt>
      <trkpt lat="34.315797255779366" lon="109.02121160850847">
        <ele>394.69403780438006</ele>
        <time>2022-04-08T09:54:40Z</time>
      </trkpt>
      <trkpt lat="34.31578215057845" lon="109.02079844010285">
        <ele>395.6309279985726</ele>
        <time>2022-04-08T09:54:52Z</time>
      </trkpt>
      <trkpt lat="34.315798941205145" lon="109.02063769803067">
        <ele>396.03861748985946</ele>
        <time>2022-04-08T09:54:56Z</time>
      </trkpt>
      <trkpt lat="34.31579589983259" lon="109.02037764286217">
        <ele>397.3659055000171</ele>
        <time>2022-04-08T09:55:04Z</time>
      </trkpt>
      <trkpt lat="34.315814025324364" lon="109.02019265276103">
        <ele>397.281673386693</ele>
        <time>2022-04-08T09:55:08Z</time>
      </trkpt>
      <trkpt lat="34.31582290542302" lon="109.01989571703179">
        <ele>398.60220195166767</ele>
        <time>2022-04-08T09:55:16Z</time>
      </trkpt>
      <trkpt lat="34.315810328857545" lon="109.01934295312225">
        <ele>400.1627010246739</ele>
        <time>2022-04-08T09:55:28Z</time>
      </trkpt>
      <trkpt lat="34.315816810574105" lon="109.01878437478395">
        <ele>402.04751581326127</ele>
        <time>2022-04-08T09:55:42Z</time>
      </trkpt>
      <trkpt lat="34.315859976599526" lon="109.01856033952195">
        <ele>401.7455540895462</ele>
        <time>2022-04-08T09:55:46Z</time>
      </trkpt>
      <trkpt lat="34.31583616207121" lon="109.01800547242408">
        <ele>404.1473065735772</ele>
        <time>2022-04-08T09:56:02Z</time>
      </trkpt>
      <trkpt lat="34.31581621008768" lon="109.01790451417834">
        <ele>404.3603785773739</ele>
        <time>2022-04-08T09:56:05Z</time>
      </trkpt>
      <trkpt lat="34.315796798816315" lon="109.01734392800086">
        <ele>405.5443234303966</ele>
        <time>2022-04-08T09:56:21Z</time>
      </trkpt>
      <trkpt lat="34.315802029168765" lon="109.0171960678873">
        <ele>405.3736355882138</ele>
        <time>2022-04-08T09:56:25Z</time>
      </trkpt>
      <trkpt lat="34.31576550206031" lon="109.01659861799389">
        <ele>407.56700969394296</ele>
        <time>2022-04-08T09:56:39Z</time>
      </trkpt>
      <trkpt lat="34.31572632869485" lon="109.01642118685879">
        <ele>408.0969573063776</ele>
        <time>2022-04-08T09:56:43Z</time>
      </trkpt>
      <trkpt lat="34.31572291110966" lon="109.0163251424875">
        <ele>407.7416375987232</ele>
        <time>2022-04-08T09:56:45Z</time>
      </trkpt>
      <trkpt lat="34.315785642818" lon="109.01610307559507">
        <ele>408.3264221716672</ele>
        <time>2022-04-08T09:56:49Z</time>
      </trkpt>
      <trkpt lat="34.315768850544295" lon="109.01599066335865">
        <ele>408.40936943981797</ele>
        <time>2022-04-08T09:56:51Z</time>
      </trkpt>
      <trkpt lat="34.315788037248616" lon="109.01540848050473">
        <ele>408.2638753838837</ele>
        <time>2022-04-08T09:56:59Z</time>
      </trkpt>
      <trkpt lat="34.315818162246686" lon="109.01484261417234">
        <ele>408.70251802448183</ele>
        <time>2022-04-08T09:57:07Z</time>
      </trkpt>
      <trkpt lat="34.31579950343648" lon="109.0142142198073">
        <ele>409.0268248980865</ele>
        <time>2022-04-08T09:57:23Z</time>
      </trkpt>
      <trkpt lat="34.31579634418837" lon="109.01368797576563">
        <ele>408.4145773416385</ele>
        <time>2022-04-08T09:57:35Z</time>
      </trkpt>
      <trkpt lat="34.31577461844464" lon="109.01313262976879">
        <ele>409.7305057067424</ele>
        <time>2022-04-08T09:57:45Z</time>
      </trkpt>
      <trkpt lat="34.315777212429616" lon="109.01281139736139">
        <ele>409.2458592476323</ele>
        <time>2022-04-08T09:57:53Z</time>
      </trkpt>
      <trkpt lat="34.31575911373012" lon="109.0124701800097">
        <ele>409.7831965824589</ele>
        <time>2022-04-08T09:58:01Z</time>
      </trkpt>
      <trkpt lat="34.31578110085166" lon="109.01237508948961">
        <ele>408.08021651394665</ele>
        <time>2022-04-08T09:58:03Z</time>
      </trkpt>
      <trkpt lat="34.31574574091897" lon="109.01193785103202">
        <ele>409.5296451719478</ele>
        <time>2022-04-08T09:58:13Z</time>
      </trkpt>
      <trkpt lat="34.31575754029512" lon="109.01138230660223">
        <ele>409.8898556800559</ele>
        <time>2022-04-08T09:58:27Z</time>
      </trkpt>
      <trkpt lat="34.31586289544886" lon="109.01120737957339">
        <ele>409.0310843065381</ele>
        <time>2022-04-08T09:58:31Z</time>
      </trkpt>
      <trkpt lat="34.31603614090526" lon="109.01110369637762">
        <ele>409.8936957232654</ele>
        <time>2022-04-08T09:58:35Z</time>
      </trkpt>
      <trkpt lat="34.31622016267869" lon="109.01087573109827">
        <ele>409.5429086647928</ele>
        <time>2022-04-08T09:58:41Z</time>
      </trkpt>
      <trkpt lat="34.31631215661825" lon="109.01065495255448">
        <ele>409.4248231789097</ele>
        <time>2022-04-08T09:58:45Z</time>
      </trkpt>
      <trkpt lat="34.316536772879246" lon="109.01037369383971">
        <ele>408.6545108817518</ele>
        <time>2022-04-08T09:58:53Z</time>
      </trkpt>
      <trkpt lat="34.316916187466795" lon="109.01005508088402">
        <ele>408.52738816291094</ele>
        <time>2022-04-08T09:59:05Z</time>
      </trkpt>
      <trkpt lat="34.31699830552101" lon="109.01001148820241">
        <ele>409.2737070089206</ele>
        <time>2022-04-08T09:59:07Z</time>
      </trkpt>
      <trkpt lat="34.31708967664872" lon="109.00993297975046">
        <ele>409.06246900651604</ele>
        <time>2022-04-08T09:59:09Z</time>
      </trkpt>
      <trkpt lat="34.31714346550919" lon="109.0098400545772">
        <ele>408.87495621014386</ele>
        <time>2022-04-08T09:59:11Z</time>
      </trkpt>
      <trkpt lat="34.31731042842975" lon="109.00971341940345">
        <ele>409.4434965737164</ele>
        <time>2022-04-08T09:59:15Z</time>
      </trkpt>
      <trkpt lat="34.317464452286565" lon="109.00965486670026">
        <ele>409.31421807035804</ele>
        <time>2022-04-08T09:59:19Z</time>
      </trkpt>
      <trkpt lat="34.31764032366469" lon="109.00961391467226">
        <ele>408.91338879801333</ele>
        <time>2022-04-08T09:59:23Z</time>
      </trkpt>
      <trkpt lat="34.31793010351174" lon="109.00940283422925">
        <ele>408.6152972141281</ele>
        <time>2022-04-08T09:59:31Z</time>
      </trkpt>
      <trkpt lat="34.31804340785464" lon="109.00928823619213">
        <ele>409.2445158492774</ele>
        <time>2022-04-08T09:59:35Z</time>
      </trkpt>
      <trkpt lat="34.31815241544789" lon="109.00921132972668">
        <ele>408.7980071529746</ele>
        <time>2022-04-08T09:59:39Z</time>
      </trkpt>
      <trkpt lat="34.318265810331766" lon="109.00917776655766">
        <ele>408.7662952048704</ele>
        <time>2022-04-08T09:59:43Z</time>
      </trkpt>
      <trkpt lat="34.31834086349642" lon="109.00911224972175">
        <ele>409.2998555107042</ele>
        <time>2022-04-08T09:59:45Z</time>
      </trkpt>
      <trkpt lat="34.31852694723119" lon="109.00870223358358">
        <ele>408.8063381621614</ele>
        <time>2022-04-08T09:59:51Z</time>
      </trkpt>
      <trkpt lat="34.318582016983605" lon="109.00846610354594">
        <ele>408.6766591370106</ele>
        <time>2022-04-08T09:59:55Z</time>
      </trkpt>
      <trkpt lat="34.31862265100802" lon="109.0081386162886">
        <ele>409.4855496007949</ele>
        <time>2022-04-08T10:00:01Z</time>
      </trkpt>
      <trkpt lat="34.318643066247326" lon="109.00779431191033">
        <ele>408.65955621004105</ele>
        <time>2022-04-08T10:00:07Z</time>
      </trkpt>
      <trkpt lat="34.31859768350344" lon="109.00716276465346">
        <ele>408.45848855841905</ele>
        <time>2022-04-08T10:00:19Z</time>
      </trkpt>
      <trkpt lat="34.31861957345432" lon="109.00660379592794">
        <ele>407.62346996646374</ele>
        <time>2022-04-08T10:00:29Z</time>
      </trkpt>
      <trkpt lat="34.31862950919328" lon="109.00603396263763">
        <ele>408.8571276227012</ele>
        <time>2022-04-08T10:00:39Z</time>
      </trkpt>
      <trkpt lat="34.31868147271701" lon="109.0054350593262">
        <ele>409.18459777347744</ele>
        <time>2022-04-08T10:00:49Z</time>
      </trkpt>
      <trkpt lat="34.31871516510249" lon="109.00489205101819">
        <ele>411.3560919640586</ele>
        <time>2022-04-08T10:00:59Z</time>
      </trkpt>
      <trkpt lat="34.318705308432115" lon="109.00456414393572">
        <ele>411.9044744381681</ele>
        <time>2022-04-08T10:01:05Z</time>
      </trkpt>
      <trkpt lat="34.31871880211358" lon="109.00421673165216">
        <ele>409.8666599718854</ele>
        <time>2022-04-08T10:01:11Z</time>
      </trkpt>
      <trkpt lat="34.31869190903773" lon="109.00387612614519">
        <ele>410.14508629683405</ele>
        <time>2022-04-08T10:01:17Z</time>
      </trkpt>
      <trkpt lat="34.318707384507924" lon="109.0035524132752">
        <ele>409.0532036535442</ele>
        <time>2022-04-08T10:01:23Z</time>
      </trkpt>
      <trkpt lat="34.31864443551574" lon="109.00299791192131">
        <ele>409.46913431957364</ele>
        <time>2022-04-08T10:01:33Z</time>
      </trkpt>
      <trkpt lat="34.31865766730149" lon="109.00275741724587">
        <ele>408.98543583601713</ele>
        <time>2022-04-08T10:01:37Z</time>
      </trkpt>
      <trkpt lat="34.31865526564876" lon="109.00222822964906">
        <ele>408.1874655438587</ele>
        <time>2022-04-08T10:01:47Z</time>
      </trkpt>
      <trkpt lat="34.318650727068665" lon="109.00171848762452">
        <ele>408.2005474930629</ele>
        <time>2022-04-08T10:01:57Z</time>
      </trkpt>
      <trkpt lat="34.31863289702509" lon="109.00143110910795">
        <ele>408.15192390978336</ele>
        <time>2022-04-08T10:02:05Z</time>
      </trkpt>
      <trkpt lat="34.31865377039292" lon="109.00086357499607">
        <ele>407.54049279913306</ele>
        <time>2022-04-08T10:02:15Z</time>
      </trkpt>
      <trkpt lat="34.318673079358256" lon="109.00025853499668">
        <ele>406.66606441605836</ele>
        <time>2022-04-08T10:02:25Z</time>
      </trkpt>
      <trkpt lat="34.318692389355384" lon="109.00002987346207">
        <ele>406.52699690964073</ele>
        <time>2022-04-08T10:02:29Z</time>
      </trkpt>
      <trkpt lat="34.31882922964414" lon="108.99967109626418">
        <ele>403.42732904292643</ele>
        <time>2022-04-08T10:02:39Z</time>
      </trkpt>
      <trkpt lat="34.318879178807336" lon="108.99937069163796">
        <ele>402.81697214301676</ele>
        <time>2022-04-08T10:02:45Z</time>
      </trkpt>
      <trkpt lat="34.31885369857991" lon="108.99880314616831">
        <ele>400.18040598370135</ele>
        <time>2022-04-08T10:02:55Z</time>
      </trkpt>
      <trkpt lat="34.31882283137199" lon="108.99842369913931">
        <ele>400.42850522045046</ele>
        <time>2022-04-08T10:03:03Z</time>
      </trkpt>
      <trkpt lat="34.31883247808307" lon="108.99807865398066">
        <ele>401.2617754712701</ele>
        <time>2022-04-08T10:03:09Z</time>
      </trkpt>
      <trkpt lat="34.318815236291755" lon="108.99798936445623">
        <ele>402.30482240207493</ele>
        <time>2022-04-08T10:03:11Z</time>
      </trkpt>
      <trkpt lat="34.31882432564998" lon="108.99734645031982">
        <ele>400.861077724956</ele>
        <time>2022-04-08T10:03:25Z</time>
      </trkpt>
      <trkpt lat="34.318825210417685" lon="108.99694220580076">
        <ele>401.60903935786337</ele>
        <time>2022-04-08T10:03:33Z</time>
      </trkpt>
      <trkpt lat="34.31884055296763" lon="108.99683924230717">
        <ele>401.2001273194328</ele>
        <time>2022-04-08T10:03:35Z</time>
      </trkpt>
      <trkpt lat="34.3188261756604" lon="108.99674304783912">
        <ele>401.32044687960297</ele>
        <time>2022-04-08T10:03:37Z</time>
      </trkpt>
      <trkpt lat="34.31878627829964" lon="108.99651396516083">
        <ele>401.7917833356187</ele>
        <time>2022-04-08T10:03:41Z</time>
      </trkpt>
      <trkpt lat="34.31879443411002" lon="108.99616685036084">
        <ele>402.40371255297214</ele>
        <time>2022-04-08T10:03:47Z</time>
      </trkpt>
      <trkpt lat="34.31877224398643" lon="108.99597008859052">
        <ele>401.9443476945162</ele>
        <time>2022-04-08T10:03:51Z</time>
      </trkpt>
      <trkpt lat="34.31873035808429" lon="108.99589329555465">
        <ele>402.27996573690325</ele>
        <time>2022-04-08T10:03:53Z</time>
      </trkpt>
      <trkpt lat="34.31859471767385" lon="108.9957908259751">
        <ele>402.5655896998942</ele>
        <time>2022-04-08T10:03:57Z</time>
      </trkpt>
      <trkpt lat="34.318566810917496" lon="108.99569699560178">
        <ele>402.3464668011293</ele>
        <time>2022-04-08T10:03:59Z</time>
      </trkpt>
      <trkpt lat="34.31855454420546" lon="108.9954763158631">
        <ele>403.344639304094</ele>
        <time>2022-04-08T10:04:03Z</time>
      </trkpt>
      <trkpt lat="34.318458502515604" lon="108.9950585567257">
        <ele>404.02406687662005</ele>
        <time>2022-04-08T10:04:11Z</time>
      </trkpt>
      <trkpt lat="34.31844787405302" lon="108.99493147701921">
        <ele>404.221313203685</ele>
        <time>2022-04-08T10:04:13Z</time>
      </trkpt>
      <trkpt lat="34.31839784235072" lon="108.99483153460818">
        <ele>404.7043661316857</ele>
        <time>2022-04-08T10:04:15Z</time>
      </trkpt>
      <trkpt lat="34.31837867363266" lon="108.99473462444912">
        <ele>404.92219839338213</ele>
        <time>2022-04-08T10:04:17Z</time>
      </trkpt>
      <trkpt lat="34.318378995083755" lon="108.9945657770889">
        <ele>405.98756702709943</ele>
        <time>2022-04-08T10:04:21Z</time>
      </trkpt>
      <trkpt lat="34.318404376783846" lon="108.99434328505762">
        <ele>405.97775070834905</ele>
        <time>2022-04-08T10:04:25Z</time>
      </trkpt>
      <trkpt lat="34.318383825149475" lon="108.99421615410786">
        <ele>406.6120201610029</ele>
        <time>2022-04-08T10:04:27Z</time>
      </trkpt>
      <trkpt lat="34.31844055548913" lon="108.99360329599483">
        <ele>404.57677053660154</ele>
        <time>2022-04-08T10:04:37Z</time>
      </trkpt>
      <trkpt lat="34.3184082693835" lon="108.99306544301722">
        <ele>404.6994100054726</ele>
        <time>2022-04-08T10:04:45Z</time>
      </trkpt>
      <trkpt lat="34.318399950189395" lon="108.99293974513543">
        <ele>404.93419181834906</ele>
        <time>2022-04-08T10:04:47Z</time>
      </trkpt>
      <trkpt lat="34.31848396809177" lon="108.99279997688686">
        <ele>404.83299691509455</ele>
        <time>2022-04-08T10:04:49Z</time>
      </trkpt>
      <trkpt lat="34.318529543918814" lon="108.99266552930519">
        <ele>404.39041396044195</ele>
        <time>2022-04-08T10:04:51Z</time>
      </trkpt>
      <trkpt lat="34.318548678224985" lon="108.99228203024937">
        <ele>402.4045998714864</ele>
        <time>2022-04-08T10:04:57Z</time>
      </trkpt>
      <trkpt lat="34.31864758019205" lon="108.99174756924555">
        <ele>400.04532350972295</ele>
        <time>2022-04-08T10:05:05Z</time>
      </trkpt>
      <trkpt lat="34.31867441902458" lon="108.99121038775733">
        <ele>399.82893470302224</ele>
        <time>2022-04-08T10:05:13Z</time>
      </trkpt>
      <trkpt lat="34.31867804636705" lon="108.99083817548703">
        <ele>400.93253787979484</ele>
        <time>2022-04-08T10:05:19Z</time>
      </trkpt>
      <trkpt lat="34.31864637102754" lon="108.99051136220442">
        <ele>399.89676983933896</ele>
        <time>2022-04-08T10:05:25Z</time>
      </trkpt>
      <trkpt lat="34.318651781857845" lon="108.99041243600635">
        <ele>400.8034763839096</ele>
        <time>2022-04-08T10:05:30Z</time>
      </trkpt>
      <trkpt lat="34.318614646867935" lon="108.99020490302013">
        <ele>399.1186059480533</ele>
        <time>2022-04-08T10:05:44Z</time>
      </trkpt>
      <trkpt lat="34.31860151051376" lon="108.98990348784758">
        <ele>400.0913849864155</ele>
        <time>2022-04-08T10:05:52Z</time>
      </trkpt>
      <trkpt lat="34.318632492321235" lon="108.98955968272259">
        <ele>399.6982311150059</ele>
        <time>2022-04-08T10:06:00Z</time>
      </trkpt>
      <trkpt lat="34.318624676688145" lon="108.98935313265999">
        <ele>399.6311568226665</ele>
        <time>2022-04-08T10:06:04Z</time>
      </trkpt>
      <trkpt lat="34.31864485446053" lon="108.989143109347">
        <ele>398.6693594874814</ele>
        <time>2022-04-08T10:06:08Z</time>
      </trkpt>
      <trkpt lat="34.318636932644964" lon="108.9885895398036">
        <ele>399.7464069677517</ele>
        <time>2022-04-08T10:06:18Z</time>
      </trkpt>
      <trkpt lat="34.3186467312931" lon="108.98847436470051">
        <ele>399.4400263382122</ele>
        <time>2022-04-08T10:06:20Z</time>
      </trkpt>
      <trkpt lat="34.31862981701924" lon="108.98836504346953">
        <ele>399.2735983878374</ele>
        <time>2022-04-08T10:06:22Z</time>
      </trkpt>
      <trkpt lat="34.318598239096794" lon="108.98778774626247">
        <ele>401.0759693682194</ele>
        <time>2022-04-08T10:06:32Z</time>
      </trkpt>
      <trkpt lat="34.318611359786225" lon="108.98751576306138">
        <ele>401.87919037695974</ele>
        <time>2022-04-08T10:06:37Z</time>
      </trkpt>
      <trkpt lat="34.31858147571728" lon="108.98727728849171">
        <ele>402.58149243798107</ele>
        <time>2022-04-08T10:06:41Z</time>
      </trkpt>
      <trkpt lat="34.3186265001518" lon="108.98699174474808">
        <ele>403.4519044300541</ele>
        <time>2022-04-08T10:06:47Z</time>
      </trkpt>
      <trkpt lat="34.318563357511735" lon="108.98649064912033">
        <ele>402.53929577115923</ele>
        <time>2022-04-08T10:06:55Z</time>
      </trkpt>
      <trkpt lat="34.31855244932535" lon="108.98624145325756">
        <ele>402.3477530060336</ele>
        <time>2022-04-08T10:06:59Z</time>
      </trkpt>
      <trkpt lat="34.318567446305906" lon="108.98611385102028">
        <ele>402.37833812925965</ele>
        <time>2022-04-08T10:07:01Z</time>
      </trkpt>
      <trkpt lat="34.31850051055811" lon="108.98578956176529">
        <ele>402.5876846620813</ele>
        <time>2022-04-08T10:07:07Z</time>
      </trkpt>
      <trkpt lat="34.31853725623408" lon="108.98554188680855">
        <ele>402.6915276776999</ele>
        <time>2022-04-08T10:07:11Z</time>
      </trkpt>
      <trkpt lat="34.31857636160211" lon="108.98542712030499">
        <ele>401.91946170385927</ele>
        <time>2022-04-08T10:07:13Z</time>
      </trkpt>
      <trkpt lat="34.31860427164917" lon="108.98496371675843">
        <ele>401.0967470370233</ele>
        <time>2022-04-08T10:07:21Z</time>
      </trkpt>
      <trkpt lat="34.318699054275825" lon="108.98456890342518">
        <ele>402.54725033417344</ele>
        <time>2022-04-08T10:07:29Z</time>
      </trkpt>
      <trkpt lat="34.318690139998715" lon="108.9844677317217">
        <ele>402.59928636066616</ele>
        <time>2022-04-08T10:07:31Z</time>
      </trkpt>
      <trkpt lat="34.31862617154352" lon="108.98425785582407">
        <ele>402.11072603426874</ele>
        <time>2022-04-08T10:07:35Z</time>
      </trkpt>
      <trkpt lat="34.318639029283744" lon="108.98401228587618">
        <ele>402.65237522963434</ele>
        <time>2022-04-08T10:07:39Z</time>
      </trkpt>
      <trkpt lat="34.318694918152815" lon="108.98377018890353">
        <ele>401.6968030044809</ele>
        <time>2022-04-08T10:07:43Z</time>
      </trkpt>
      <trkpt lat="34.318743294902575" lon="108.98365799331835">
        <ele>401.57128072623163</ele>
        <time>2022-04-08T10:07:45Z</time>
      </trkpt>
      <trkpt lat="34.31873898215718" lon="108.98357115499428">
        <ele>402.95836648065597</ele>
        <time>2022-04-08T10:07:47Z</time>
      </trkpt>
      <trkpt lat="34.31876294974841" lon="108.9834737775323">
        <ele>402.3399478988722</ele>
        <time>2022-04-08T10:07:49Z</time>
      </trkpt>
      <trkpt lat="34.31877016269306" lon="108.98315767965647">
        <ele>402.28484083060175</ele>
        <time>2022-04-08T10:07:55Z</time>
      </trkpt>
      <trkpt lat="34.318733431900014" lon="108.98283933618394">
        <ele>401.3918547667563</ele>
        <time>2022-04-08T10:08:01Z</time>
      </trkpt>
      <trkpt lat="34.318701604465794" lon="108.98270713444123">
        <ele>402.2157617844641</ele>
        <time>2022-04-08T10:08:03Z</time>
      </trkpt>
      <trkpt lat="34.318712604861595" lon="108.98259188139511">
        <ele>401.3051397977397</ele>
        <time>2022-04-08T10:08:05Z</time>
      </trkpt>
      <trkpt lat="34.31870008843281" lon="108.98234028549186">
        <ele>402.1214286023751</ele>
        <time>2022-04-08T10:08:09Z</time>
      </trkpt>
      <trkpt lat="34.318748918109186" lon="108.98185708872127">
        <ele>402.01423981413245</ele>
        <time>2022-04-08T10:08:17Z</time>
      </trkpt>
      <trkpt lat="34.318744352163975" lon="108.98175122169734">
        <ele>401.94830666761845</ele>
        <time>2022-04-08T10:08:19Z</time>
      </trkpt>
      <trkpt lat="34.31876080492549" lon="108.98159415072334">
        <ele>401.4968246668577</ele>
        <time>2022-04-08T10:08:22Z</time>
      </trkpt>
      <trkpt lat="34.31871090457657" lon="108.98130651818434">
        <ele>402.3998672282323</ele>
        <time>2022-04-08T10:08:30Z</time>
      </trkpt>
      <trkpt lat="34.31878671613355" lon="108.98096091047883">
        <ele>402.4626729367301</ele>
        <time>2022-04-08T10:08:36Z</time>
      </trkpt>
      <trkpt lat="34.318823175286106" lon="108.98085301213378">
        <ele>402.20323433727026</ele>
        <time>2022-04-08T10:08:38Z</time>
      </trkpt>
      <trkpt lat="34.318834377416024" lon="108.98029338454712">
        <ele>399.699355780147</ele>
        <time>2022-04-08T10:08:47Z</time>
      </trkpt>
      <trkpt lat="34.31887020690784" lon="108.97986379432173">
        <ele>400.16321700811386</ele>
        <time>2022-04-08T10:08:55Z</time>
      </trkpt>
      <trkpt lat="34.31886444601598" lon="108.97976696447701">
        <ele>400.73277364950627</ele>
        <time>2022-04-08T10:08:57Z</time>
      </trkpt>
      <trkpt lat="34.318884959671024" lon="108.97962366308421">
        <ele>400.56993309408426</ele>
        <time>2022-04-08T10:09:01Z</time>
      </trkpt>
      <trkpt lat="34.31891033386055" lon="108.97954635840448">
        <ele>399.1390521833673</ele>
        <time>2022-04-08T10:09:13Z</time>
      </trkpt>
      <trkpt lat="34.31887719020656" lon="108.97934330276296">
        <ele>399.0114415669814</ele>
        <time>2022-04-08T10:09:20Z</time>
      </trkpt>
      <trkpt lat="34.3188634696766" lon="108.97918373603207">
        <ele>398.2238472532481</ele>
        <time>2022-04-08T10:09:24Z</time>
      </trkpt>
      <trkpt lat="34.31886936740551" lon="108.97890366388148">
        <ele>398.0378163186833</ele>
        <time>2022-04-08T10:09:32Z</time>
      </trkpt>
      <trkpt lat="34.31885691028546" lon="108.97825384579124">
        <ele>395.5441158795729</ele>
        <time>2022-04-08T10:09:46Z</time>
      </trkpt>
      <trkpt lat="34.31886754073956" lon="108.97815312661419">
        <ele>394.66189452819526</ele>
        <time>2022-04-08T10:09:48Z</time>
      </trkpt>
      <trkpt lat="34.31884449549476" lon="108.97779555391938">
        <ele>395.16649062838405</ele>
        <time>2022-04-08T10:09:54Z</time>
      </trkpt>
      <trkpt lat="34.318859435173216" lon="108.97719668780996">
        <ele>395.1536643151194</ele>
        <time>2022-04-08T10:10:08Z</time>
      </trkpt>
      <trkpt lat="34.31886764585557" lon="108.9767872317401">
        <ele>395.7286586565897</ele>
        <time>2022-04-08T10:10:20Z</time>
      </trkpt>
      <trkpt lat="34.318813374295125" lon="108.9763778683649">
        <ele>396.3494756920263</ele>
        <time>2022-04-08T10:10:30Z</time>
      </trkpt>
      <trkpt lat="34.318810394587246" lon="108.9761755488562">
        <ele>395.16821053624153</ele>
        <time>2022-04-08T10:10:38Z</time>
      </trkpt>
      <trkpt lat="34.318784608418454" lon="108.97596426548566">
        <ele>395.46905536111444</ele>
        <time>2022-04-08T10:10:45Z</time>
      </trkpt>
      <trkpt lat="34.31879667727585" lon="108.97570593969006">
        <ele>395.65751346293837</ele>
        <time>2022-04-08T10:10:49Z</time>
      </trkpt>
      <trkpt lat="34.31878094875403" lon="108.97544844787079">
        <ele>395.5451255282387</ele>
        <time>2022-04-08T10:10:53Z</time>
      </trkpt>
      <trkpt lat="34.31880224808743" lon="108.97520384951873">
        <ele>396.45425812900066</ele>
        <time>2022-04-08T10:10:57Z</time>
      </trkpt>
      <trkpt lat="34.318800445353666" lon="108.97484931049542">
        <ele>396.3624935261905</ele>
        <time>2022-04-08T10:11:03Z</time>
      </trkpt>
      <trkpt lat="34.31882595600543" lon="108.97438903188332">
        <ele>397.6100592818111</ele>
        <time>2022-04-08T10:11:11Z</time>
      </trkpt>
      <trkpt lat="34.318790796300334" lon="108.9738312605841">
        <ele>397.07592077739537</ele>
        <time>2022-04-08T10:11:21Z</time>
      </trkpt>
      <trkpt lat="34.318766170892765" lon="108.97362135231225">
        <ele>396.35975494608283</ele>
        <time>2022-04-08T10:11:25Z</time>
      </trkpt>
      <trkpt lat="34.31873445853529" lon="108.97350486439576">
        <ele>396.56513493228704</ele>
        <time>2022-04-08T10:11:27Z</time>
      </trkpt>
      <trkpt lat="34.31872554127957" lon="108.97339822830337">
        <ele>396.66136997938156</ele>
        <time>2022-04-08T10:11:29Z</time>
      </trkpt>
      <trkpt lat="34.31874423958278" lon="108.97328279291304">
        <ele>396.7020743181929</ele>
        <time>2022-04-08T10:11:31Z</time>
      </trkpt>
      <trkpt lat="34.31871692801073" lon="108.97283690589042">
        <ele>395.8755835350603</ele>
        <time>2022-04-08T10:11:39Z</time>
      </trkpt>
      <trkpt lat="34.31872087211626" lon="108.97226873554577">
        <ele>395.7395786428824</ele>
        <time>2022-04-08T10:11:49Z</time>
      </trkpt>
      <trkpt lat="34.318695045159245" lon="108.97217298306674">
        <ele>395.8897119117901</ele>
        <time>2022-04-08T10:11:51Z</time>
      </trkpt>
      <trkpt lat="34.31871135847425" lon="108.97206090159813">
        <ele>395.7931533306837</ele>
        <time>2022-04-08T10:11:53Z</time>
      </trkpt>
      <trkpt lat="34.318689909596216" lon="108.97184689249809">
        <ele>396.20277775637805</ele>
        <time>2022-04-08T10:11:57Z</time>
      </trkpt>
      <trkpt lat="34.31872368964834" lon="108.97171083695746">
        <ele>396.30376065149903</ele>
        <time>2022-04-08T10:11:59Z</time>
      </trkpt>
      <trkpt lat="34.3186986815473" lon="108.97134849000585">
        <ele>397.2119540674612</ele>
        <time>2022-04-08T10:12:05Z</time>
      </trkpt>
      <trkpt lat="34.31874047304712" lon="108.97088662002692">
        <ele>397.48357610963285</ele>
        <time>2022-04-08T10:12:13Z</time>
      </trkpt>
      <trkpt lat="34.31872175306881" lon="108.97059328237128">
        <ele>397.4628935866058</ele>
        <time>2022-04-08T10:12:19Z</time>
      </trkpt>
      <trkpt lat="34.3187389829863" lon="108.97049020127793">
        <ele>397.1392721273005</ele>
        <time>2022-04-08T10:12:21Z</time>
      </trkpt>
      <trkpt lat="34.3187310812509" lon="108.97037988746386">
        <ele>397.1158517450094</ele>
        <time>2022-04-08T10:12:25Z</time>
      </trkpt>
      <trkpt lat="34.318750796876124" lon="108.97034879998395">
        <ele>397.4818004127592</ele>
        <time>2022-04-08T10:12:35Z</time>
      </trkpt>
      <trkpt lat="34.318742929163015" lon="108.97014468021335">
        <ele>396.79093213379383</ele>
        <time>2022-04-08T10:15:26Z</time>
      </trkpt>
      <trkpt lat="34.318708113593104" lon="108.96992201472477">
        <ele>397.57132619060576</ele>
        <time>2022-04-08T10:15:32Z</time>
      </trkpt>
      <trkpt lat="34.31872380963817" lon="108.96971252078743">
        <ele>398.51170389633626</ele>
        <time>2022-04-08T10:15:38Z</time>
      </trkpt>
      <trkpt lat="34.318757289919205" lon="108.96962232201156">
        <ele>398.3222655626014</ele>
        <time>2022-04-08T10:15:40Z</time>
      </trkpt>
      <trkpt lat="34.318894965481164" lon="108.9695235684113">
        <ele>398.1781813548878</ele>
        <time>2022-04-08T10:15:46Z</time>
      </trkpt>
      <trkpt lat="34.31887563529629" lon="108.96924147234586">
        <ele>398.5357213104144</ele>
        <time>2022-04-08T10:15:54Z</time>
      </trkpt>
      <trkpt lat="34.31889368921803" lon="108.96915154794169">
        <ele>397.3490798184648</ele>
        <time>2022-04-08T10:15:56Z</time>
      </trkpt>
      <trkpt lat="34.31888474029383" lon="108.96889419094302">
        <ele>398.82123331259936</ele>
        <time>2022-04-08T10:16:02Z</time>
      </trkpt>
      <trkpt lat="34.31891355673051" lon="108.9687668874407">
        <ele>398.45160930790007</ele>
        <time>2022-04-08T10:16:04Z</time>
      </trkpt>
      <trkpt lat="34.31893510614106" lon="108.96833781989056">
        <ele>398.19969492126256</ele>
        <time>2022-04-08T10:16:12Z</time>
      </trkpt>
      <trkpt lat="34.31891306352182" lon="108.968237128639">
        <ele>398.6025874884799</ele>
        <time>2022-04-08T10:16:14Z</time>
      </trkpt>
      <trkpt lat="34.31892182818357" lon="108.96798704783619">
        <ele>396.73802503105253</ele>
        <time>2022-04-08T10:16:20Z</time>
      </trkpt>
      <trkpt lat="34.31895909249462" lon="108.96788500171084">
        <ele>398.27280979231</ele>
        <time>2022-04-08T10:16:26Z</time>
      </trkpt>
      <trkpt lat="34.318937401909935" lon="108.96776813292227">
        <ele>398.14150992129</ele>
        <time>2022-04-08T10:16:32Z</time>
      </trkpt>
      <trkpt lat="34.3189381815993" lon="108.96763089388088">
        <ele>398.04976713843644</ele>
        <time>2022-04-08T10:16:36Z</time>
      </trkpt>
      <trkpt lat="34.318901369503166" lon="108.96750023645079">
        <ele>398.4221950620413</ele>
        <time>2022-04-08T10:16:40Z</time>
      </trkpt>
      <trkpt lat="34.318864572474745" lon="108.96722967613931">
        <ele>399.4575181854889</ele>
        <time>2022-04-08T10:16:48Z</time>
      </trkpt>
      <trkpt lat="34.318806821433874" lon="108.96711702416611">
        <ele>398.69222948513925</ele>
        <time>2022-04-08T10:16:52Z</time>
      </trkpt>
      <trkpt lat="34.3187313840195" lon="108.96707842439454">
        <ele>400.92802452482283</ele>
        <time>2022-04-08T10:16:54Z</time>
      </trkpt>
      <trkpt lat="34.318685297051424" lon="108.96698946541451">
        <ele>401.0056195203215</ele>
        <time>2022-04-08T10:16:56Z</time>
      </trkpt>
      <trkpt lat="34.31854914591007" lon="108.96662519813961">
        <ele>398.9588304273784</ele>
        <time>2022-04-08T10:17:02Z</time>
      </trkpt>
      <trkpt lat="34.31856202869924" lon="108.96630784029867">
        <ele>398.70370717998594</ele>
        <time>2022-04-08T10:17:07Z</time>
      </trkpt>
      <trkpt lat="34.31854846654466" lon="108.96606024765714">
        <ele>398.76998883951455</ele>
        <time>2022-04-08T10:17:11Z</time>
      </trkpt>
      <trkpt lat="34.318569896237" lon="108.96577560493792">
        <ele>398.8415867285803</ele>
        <time>2022-04-08T10:17:16Z</time>
      </trkpt>
      <trkpt lat="34.31860919059606" lon="108.96552501840839">
        <ele>399.1299134893343</ele>
        <time>2022-04-08T10:17:20Z</time>
      </trkpt>
      <trkpt lat="34.31861601629398" lon="108.96528429337216">
        <ele>399.5255161197856</ele>
        <time>2022-04-08T10:17:24Z</time>
      </trkpt>
      <trkpt lat="34.318646609113564" lon="108.96469479583915">
        <ele>398.5231190500781</ele>
        <time>2022-04-08T10:17:34Z</time>
      </trkpt>
      <trkpt lat="34.31861083262384" lon="108.9643833036024">
        <ele>399.0821039881557</ele>
        <time>2022-04-08T10:17:39Z</time>
      </trkpt>
      <trkpt lat="34.31864238851718" lon="108.96414355767861">
        <ele>399.70374225173146</ele>
        <time>2022-04-08T10:17:43Z</time>
      </trkpt>
      <trkpt lat="34.318640198545125" lon="108.96393977242775">
        <ele>400.1580674126744</ele>
        <time>2022-04-08T10:17:47Z</time>
      </trkpt>
      <trkpt lat="34.31866250390082" lon="108.96385048284552">
        <ele>399.12093208078295</ele>
        <time>2022-04-08T10:17:49Z</time>
      </trkpt>
      <trkpt lat="34.318719109878934" lon="108.9637849972483">
        <ele>399.34674408938736</ele>
        <time>2022-04-08T10:17:51Z</time>
      </trkpt>
      <trkpt lat="34.318788682644964" lon="108.96374818104617">
        <ele>399.31875276751816</ele>
        <time>2022-04-08T10:17:53Z</time>
      </trkpt>
      <trkpt lat="34.31881263971577" lon="108.96365361764653">
        <ele>399.52742707170546</ele>
        <time>2022-04-08T10:17:57Z</time>
      </trkpt>
      <trkpt lat="34.318711328658246" lon="108.96355136295067">
        <ele>400.0749916853383</ele>
        <time>2022-04-08T10:18:01Z</time>
      </trkpt>
      <trkpt lat="34.31870779496784" lon="108.96306829813955">
        <ele>400.17470601573586</ele>
        <time>2022-04-08T10:18:11Z</time>
      </trkpt>
      <trkpt lat="34.318727552680684" lon="108.96286200482285">
        <ele>398.8114409074187</ele>
        <time>2022-04-08T10:18:15Z</time>
      </trkpt>
      <trkpt lat="34.31876191041767" lon="108.96246336753222">
        <ele>398.8509982507676</ele>
        <time>2022-04-08T10:18:23Z</time>
      </trkpt>
      <trkpt lat="34.31879303765318" lon="108.96227526977319">
        <ele>398.54235062003136</ele>
        <time>2022-04-08T10:18:27Z</time>
      </trkpt>
      <trkpt lat="34.318789903184616" lon="108.9621849138724">
        <ele>398.2353035816923</ele>
        <time>2022-04-08T10:18:29Z</time>
      </trkpt>
      <trkpt lat="34.318835689925926" lon="108.96182090311203">
        <ele>397.5464966017753</ele>
        <time>2022-04-08T10:18:37Z</time>
      </trkpt>
      <trkpt lat="34.31879570282861" lon="108.96145258641641">
        <ele>397.3586423192173</ele>
        <time>2022-04-08T10:18:47Z</time>
      </trkpt>
      <trkpt lat="34.31883481357717" lon="108.96134997233133">
        <ele>397.1029171189293</ele>
        <time>2022-04-08T10:18:51Z</time>
      </trkpt>
      <trkpt lat="34.31879401988391" lon="108.96100920849153">
        <ele>396.9848402282223</ele>
        <time>2022-04-08T10:19:00Z</time>
      </trkpt>
      <trkpt lat="34.31881216767414" lon="108.96044565437725">
        <ele>396.0655331360176</ele>
        <time>2022-04-08T10:19:13Z</time>
      </trkpt>
      <trkpt lat="34.31881362358932" lon="108.96005262573148">
        <ele>396.08119108341634</ele>
        <time>2022-04-08T10:19:21Z</time>
      </trkpt>
      <trkpt lat="34.31883794777147" lon="108.95991004341975">
        <ele>395.26444567833096</ele>
        <time>2022-04-08T10:19:24Z</time>
      </trkpt>
      <trkpt lat="34.31887436964504" lon="108.95939994778965">
        <ele>394.28754609730095</ele>
        <time>2022-04-08T10:19:35Z</time>
      </trkpt>
      <trkpt lat="34.31894172943884" lon="108.95908683709892">
        <ele>393.11385007202625</ele>
        <time>2022-04-08T10:19:41Z</time>
      </trkpt>
      <trkpt lat="34.31894669015715" lon="108.958981487214">
        <ele>393.53202405013144</ele>
        <time>2022-04-08T10:19:43Z</time>
      </trkpt>
      <trkpt lat="34.31898723535315" lon="108.9588682653068">
        <ele>393.61907933000475</ele>
        <time>2022-04-08T10:19:45Z</time>
      </trkpt>
      <trkpt lat="34.31902594922881" lon="108.95864460685355">
        <ele>393.0093167023733</ele>
        <time>2022-04-08T10:19:49Z</time>
      </trkpt>
      <trkpt lat="34.319103698743696" lon="108.9583494436082">
        <ele>393.0648874118924</ele>
        <time>2022-04-08T10:19:55Z</time>
      </trkpt>
      <trkpt lat="34.31916739976726" lon="108.95822840039597">
        <ele>393.35482902731746</ele>
        <time>2022-04-08T10:19:57Z</time>
      </trkpt>
      <trkpt lat="34.3192387215463" lon="108.95817617503698">
        <ele>393.91546058561653</ele>
        <time>2022-04-08T10:19:59Z</time>
      </trkpt>
      <trkpt lat="34.31932203627179" lon="108.95824479264657">
        <ele>393.2404046067968</ele>
        <time>2022-04-08T10:20:04Z</time>
      </trkpt>
      <trkpt lat="34.31982457753193" lon="108.95825875625125">
        <ele>393.06888045277447</ele>
        <time>2022-04-08T10:20:18Z</time>
      </trkpt>
      <trkpt lat="34.32020877232308" lon="108.95815185787288">
        <ele>394.14399675745517</ele>
        <time>2022-04-08T10:20:28Z</time>
      </trkpt>
      <trkpt lat="34.32033696431006" lon="108.958135106393">
        <ele>393.7884410265833</ele>
        <time>2022-04-08T10:20:32Z</time>
      </trkpt>
      <trkpt lat="34.32042296836564" lon="108.95816538407922">
        <ele>393.5864084875211</ele>
        <time>2022-04-08T10:20:34Z</time>
      </trkpt>
      <trkpt lat="34.320509728104255" lon="108.95816862181144">
        <ele>393.4535150118172</ele>
        <time>2022-04-08T10:20:36Z</time>
      </trkpt>
      <trkpt lat="34.320674630343206" lon="108.95810938873643">
        <ele>394.29320898558944</ele>
        <time>2022-04-08T10:20:42Z</time>
      </trkpt>
      <trkpt lat="34.32077110984661" lon="108.95815400880197">
        <ele>394.11101012211293</ele>
        <time>2022-04-08T10:20:46Z</time>
      </trkpt>
      <trkpt lat="34.320891850594776" lon="108.95814239908778">
        <ele>394.38853937387466</ele>
        <time>2022-04-08T10:20:50Z</time>
      </trkpt>
      <trkpt lat="34.320980089628655" lon="108.95811077504173">
        <ele>394.0160750616342</ele>
        <time>2022-04-08T10:21:02Z</time>
      </trkpt>
      <trkpt lat="34.321531091609" lon="108.95826819282708">
        <ele>395.0355885075405</ele>
        <time>2022-04-08T10:21:28Z</time>
      </trkpt>
      <trkpt lat="34.32164411225105" lon="108.95824812450158">
        <ele>394.06251248531044</ele>
        <time>2022-04-08T10:21:31Z</time>
      </trkpt>
      <trkpt lat="34.3217655471272" lon="108.95819845753049">
        <ele>393.8694920325652</ele>
        <time>2022-04-08T10:21:35Z</time>
      </trkpt>
      <trkpt lat="34.32201380635464" lon="108.95822771149491">
        <ele>394.0042578987777</ele>
        <time>2022-04-08T10:21:41Z</time>
      </trkpt>
      <trkpt lat="34.32207134311002" lon="108.95814648412257">
        <ele>393.9862987603992</ele>
        <time>2022-04-08T10:21:45Z</time>
      </trkpt>
      <trkpt lat="34.322240155678195" lon="108.95805010394973">
        <ele>394.49621342122555</ele>
        <time>2022-04-08T10:21:53Z</time>
      </trkpt>
      <trkpt lat="34.32231034724763" lon="108.95797757917244">
        <ele>393.93492998648435</ele>
        <time>2022-04-08T10:22:09Z</time>
      </trkpt>
      <trkpt lat="34.32246190421868" lon="108.95796039044906">
        <ele>393.64910710789263</ele>
        <time>2022-04-08T10:22:13Z</time>
      </trkpt>
      <trkpt lat="34.32262957620201" lon="108.95798752715453">
        <ele>393.80143590644</ele>
        <time>2022-04-08T10:22:17Z</time>
      </trkpt>
      <trkpt lat="34.32282618854315" lon="108.9581252138097">
        <ele>392.50898452755064</ele>
        <time>2022-04-08T10:22:21Z</time>
      </trkpt>
      <trkpt lat="34.32301254778065" lon="108.95819611580464">
        <ele>392.3918567877263</ele>
        <time>2022-04-08T10:22:23Z</time>
      </trkpt>
      <trkpt lat="34.32326378401615" lon="108.95832952082664">
        <ele>393.8710602549836</ele>
        <time>2022-04-08T10:22:37Z</time>
      </trkpt>
      <trkpt lat="34.32272718031706" lon="108.958340481252">
        <ele>394.03884701337665</ele>
        <time>2022-04-08T10:47:40Z</time>
      </trkpt>
      <trkpt lat="34.3228058062008" lon="108.95835506093839">
        <ele>393.87483691237867</ele>
        <time>2022-04-08T10:47:44Z</time>
      </trkpt>
      <trkpt lat="34.32288720275882" lon="108.95833753193344">
        <ele>394.152493853122</ele>
        <time>2022-04-08T10:47:48Z</time>
      </trkpt>
      <trkpt lat="34.32295945119504" lon="108.95829176172914">
        <ele>394.10767245758325</ele>
        <time>2022-04-08T10:47:52Z</time>
      </trkpt>
      <trkpt lat="34.32304857276831" lon="108.95826519101053">
        <ele>393.99547036457807</ele>
        <time>2022-04-08T10:47:58Z</time>
      </trkpt>
      <trkpt lat="34.323139894223054" lon="108.95828539638114">
        <ele>393.8059370815754</ele>
        <time>2022-04-08T10:48:30Z</time>
      </trkpt>
      <trkpt lat="34.32305503756768" lon="108.9583091316608">
        <ele>393.75858272146434</ele>
        <time>2022-04-08T10:48:33Z</time>
      </trkpt>
      <trkpt lat="34.32257210112538" lon="108.9585677939478">
        <ele>394.7217640783638</ele>
        <time>2022-04-08T10:48:49Z</time>
      </trkpt>
      <trkpt lat="34.32221280587743" lon="108.9585612232532">
        <ele>395.2445907378569</ele>
        <time>2022-04-08T10:49:01Z</time>
      </trkpt>
      <trkpt lat="34.32201314550225" lon="108.95865762743169">
        <ele>393.8028514208272</ele>
        <time>2022-04-08T10:49:09Z</time>
      </trkpt>
      <trkpt lat="34.32193722752383" lon="108.95859668329341">
        <ele>393.7199160614982</ele>
        <time>2022-04-08T10:49:13Z</time>
      </trkpt>
      <trkpt lat="34.321820389109334" lon="108.95858664675238">
        <ele>393.60189110506326</ele>
        <time>2022-04-08T10:49:15Z</time>
      </trkpt>
      <trkpt lat="34.321690503476006" lon="108.95862942288115">
        <ele>394.11799965053797</ele>
        <time>2022-04-08T10:49:19Z</time>
      </trkpt>
      <trkpt lat="34.3216480357653" lon="108.9587192232943">
        <ele>394.30065431818366</ele>
        <time>2022-04-08T10:49:23Z</time>
      </trkpt>
      <trkpt lat="34.32168019833405" lon="108.95885463255622">
        <ele>394.08459183666855</ele>
        <time>2022-04-08T10:49:27Z</time>
      </trkpt>
      <trkpt lat="34.32168272592193" lon="108.95942976432586">
        <ele>394.13394389953464</ele>
        <time>2022-04-08T10:49:41Z</time>
      </trkpt>
      <trkpt lat="34.321677412509565" lon="108.95959141864424">
        <ele>394.29999481048435</ele>
        <time>2022-04-08T10:49:45Z</time>
      </trkpt>
      <trkpt lat="34.321630147263136" lon="108.9597022704721">
        <ele>394.05931877344847</ele>
        <time>2022-04-08T10:49:49Z</time>
      </trkpt>
      <trkpt lat="34.32164361117242" lon="108.95982455942219">
        <ele>394.177944351919</ele>
        <time>2022-04-08T10:49:53Z</time>
      </trkpt>
      <trkpt lat="34.3216146731257" lon="108.95993225354168">
        <ele>394.0921618239954</ele>
        <time>2022-04-08T10:49:57Z</time>
      </trkpt>
      <trkpt lat="34.32167673879106" lon="108.9602391258312">
        <ele>394.06711584795266</ele>
        <time>2022-04-08T10:50:09Z</time>
      </trkpt>
      <trkpt lat="34.32173800451671" lon="108.96044894395571">
        <ele>394.85214350838214</ele>
        <time>2022-04-08T10:50:15Z</time>
      </trkpt>
      <trkpt lat="34.32168696391435" lon="108.9607853754482">
        <ele>394.22041442990303</ele>
        <time>2022-04-08T10:50:23Z</time>
      </trkpt>
      <trkpt lat="34.32159508843989" lon="108.96092351148285">
        <ele>394.00450535677373</ele>
        <time>2022-04-08T10:50:27Z</time>
      </trkpt>
      <trkpt lat="34.32145213046322" lon="108.96097104785565">
        <ele>393.80688812583685</ele>
        <time>2022-04-08T10:50:29Z</time>
      </trkpt>
      <trkpt lat="34.321283833764916" lon="108.96098696681129">
        <ele>394.26348726451397</ele>
        <time>2022-04-08T10:50:31Z</time>
      </trkpt>
      <trkpt lat="34.321034748697784" lon="108.96105800943064">
        <ele>394.25446930900216</ele>
        <time>2022-04-08T10:50:37Z</time>
      </trkpt>
      <trkpt lat="34.32088048891673" lon="108.96107706914748">
        <ele>394.50269115157425</ele>
        <time>2022-04-08T10:50:41Z</time>
      </trkpt>
      <trkpt lat="34.32081358938357" lon="108.96111553290785">
        <ele>394.6834593620151</ele>
        <time>2022-04-08T10:50:43Z</time>
      </trkpt>
      <trkpt lat="34.320617538107555" lon="108.9611017956235">
        <ele>393.7417000690475</ele>
        <time>2022-04-08T10:50:47Z</time>
      </trkpt>
      <trkpt lat="34.320526629214676" lon="108.96111783336843">
        <ele>394.7041063159704</ele>
        <time>2022-04-08T10:50:49Z</time>
      </trkpt>
      <trkpt lat="34.320116802024245" lon="108.9611061139427">
        <ele>395.3926980122924</ele>
        <time>2022-04-08T10:50:59Z</time>
      </trkpt>
      <trkpt lat="34.320036368989875" lon="108.96112226161384">
        <ele>395.75553076993674</ele>
        <time>2022-04-08T10:51:01Z</time>
      </trkpt>
      <trkpt lat="34.31995337816634" lon="108.96111391338319">
        <ele>395.8850043071434</ele>
        <time>2022-04-08T10:51:03Z</time>
      </trkpt>
      <trkpt lat="34.319786000609604" lon="108.9611417513737">
        <ele>397.0951360333711</ele>
        <time>2022-04-08T10:51:07Z</time>
      </trkpt>
      <trkpt lat="34.31934176085944" lon="108.96110493795875">
        <ele>397.4844318050891</ele>
        <time>2022-04-08T10:51:17Z</time>
      </trkpt>
      <trkpt lat="34.31918540417018" lon="108.96110367393284">
        <ele>398.04353346209973</ele>
        <time>2022-04-08T10:51:21Z</time>
      </trkpt>
      <trkpt lat="34.31911646339885" lon="108.96114440920807">
        <ele>398.4938218276948</ele>
        <time>2022-04-08T10:51:23Z</time>
      </trkpt>
      <trkpt lat="34.319027888244825" lon="108.96115991708692">
        <ele>397.9267421076074</ele>
        <time>2022-04-08T10:51:25Z</time>
      </trkpt>
      <trkpt lat="34.318960444491736" lon="108.96125316055803">
        <ele>397.7643397990614</ele>
        <time>2022-04-08T10:51:29Z</time>
      </trkpt>
      <trkpt lat="34.31897294001527" lon="108.96128549682035">
        <ele>396.8706768201664</ele>
        <time>2022-04-08T10:51:45Z</time>
      </trkpt>
      <trkpt lat="34.3187414848709" lon="108.9615299939249">
        <ele>398.64461473189294</ele>
        <time>2022-04-08T10:52:38Z</time>
      </trkpt>
      <trkpt lat="34.31870677928078" lon="108.96167875805513">
        <ele>398.7432870082557</ele>
        <time>2022-04-08T10:52:42Z</time>
      </trkpt>
      <trkpt lat="34.318719016743934" lon="108.9617789886769">
        <ele>398.4333303477615</ele>
        <time>2022-04-08T10:52:45Z</time>
      </trkpt>
      <trkpt lat="34.3186737115193" lon="108.96214587833332">
        <ele>398.4491641269997</ele>
        <time>2022-04-08T10:52:53Z</time>
      </trkpt>
      <trkpt lat="34.31866037673301" lon="108.96280466927571">
        <ele>400.2504725474864</ele>
        <time>2022-04-08T10:53:11Z</time>
      </trkpt>
      <trkpt lat="34.31866976082464" lon="108.96305022238289">
        <ele>400.3506699036807</ele>
        <time>2022-04-08T10:53:17Z</time>
      </trkpt>
      <trkpt lat="34.31865535465566" lon="108.9631441277614">
        <ele>400.6812699167058</ele>
        <time>2022-04-08T10:53:19Z</time>
      </trkpt>
      <trkpt lat="34.318670876914034" lon="108.96327510432995">
        <ele>400.77323445957154</ele>
        <time>2022-04-08T10:53:23Z</time>
      </trkpt>
      <trkpt lat="34.318594886337905" lon="108.96388464729087">
        <ele>400.3309411080554</ele>
        <time>2022-04-08T10:53:39Z</time>
      </trkpt>
      <trkpt lat="34.31858329723838" lon="108.96424989474241">
        <ele>400.05565295834094</ele>
        <time>2022-04-08T10:53:51Z</time>
      </trkpt>
      <trkpt lat="34.318513564346155" lon="108.96446784228398">
        <ele>400.33766208589077</ele>
        <time>2022-04-08T10:53:57Z</time>
      </trkpt>
      <trkpt lat="34.31847974049665" lon="108.96471711515989">
        <ele>400.2563023418188</ele>
        <time>2022-04-08T10:54:03Z</time>
      </trkpt>
      <trkpt lat="34.31852767266232" lon="108.96506723976032">
        <ele>399.57959782425314</ele>
        <time>2022-04-08T10:54:13Z</time>
      </trkpt>
      <trkpt lat="34.31846612804402" lon="108.96519032064137">
        <ele>399.34968811366707</ele>
        <time>2022-04-08T10:54:17Z</time>
      </trkpt>
      <trkpt lat="34.3184621684624" lon="108.96529202598586">
        <ele>399.3392385682091</ele>
        <time>2022-04-08T10:54:21Z</time>
      </trkpt>
      <trkpt lat="34.31840085822458" lon="108.96534653055538">
        <ele>398.9141985094175</ele>
        <time>2022-04-08T10:54:23Z</time>
      </trkpt>
      <trkpt lat="34.31839685825704" lon="108.96549478291091">
        <ele>399.69348734617233</ele>
        <time>2022-04-08T10:54:27Z</time>
      </trkpt>
      <trkpt lat="34.31833504968858" lon="108.9656214930766">
        <ele>399.54097072407603</ele>
        <time>2022-04-08T10:54:29Z</time>
      </trkpt>
      <trkpt lat="34.318349591103775" lon="108.96615012862821">
        <ele>399.44401124026626</ele>
        <time>2022-04-08T10:54:43Z</time>
      </trkpt>
      <trkpt lat="34.318622452419234" lon="108.96618113087081">
        <ele>400.1055904440582</ele>
        <time>2022-04-08T10:54:53Z</time>
      </trkpt>
      <trkpt lat="34.31870086910997" lon="108.96625506360672">
        <ele>399.61291524767876</ele>
        <time>2022-04-08T10:54:57Z</time>
      </trkpt>
      <trkpt lat="34.31875901919466" lon="108.96635827219818">
        <ele>398.8262984342873</ele>
        <time>2022-04-08T10:55:05Z</time>
      </trkpt>
      <trkpt lat="34.318919876431245" lon="108.96660888621999">
        <ele>400.2717556646094</ele>
        <time>2022-04-08T10:55:18Z</time>
      </trkpt>
      <trkpt lat="34.31903065507843" lon="108.96672819414356">
        <ele>399.074025596492</ele>
        <time>2022-04-08T10:55:22Z</time>
      </trkpt>
      <trkpt lat="34.31948756782879" lon="108.96679179519396">
        <ele>399.32540685869753</ele>
        <time>2022-04-08T10:55:34Z</time>
      </trkpt>
      <trkpt lat="34.31955928561087" lon="108.96676369524451">
        <ele>399.5162976514548</ele>
        <time>2022-04-08T10:55:38Z</time>
      </trkpt>
      <trkpt lat="34.32000558400257" lon="108.96675059744562">
        <ele>400.1833328856155</ele>
        <time>2022-04-08T10:55:54Z</time>
      </trkpt>
      <trkpt lat="34.32024085145096" lon="108.9667257326812">
        <ele>400.52146175596863</ele>
        <time>2022-04-08T10:56:02Z</time>
      </trkpt>
      <trkpt lat="34.32029787707173" lon="108.96678478379586">
        <ele>399.64874134398997</ele>
        <time>2022-04-08T10:56:06Z</time>
      </trkpt>
      <trkpt lat="34.32041238090496" lon="108.96704708386079">
        <ele>399.45198243297637</ele>
        <time>2022-04-08T10:56:12Z</time>
      </trkpt>
      <trkpt lat="34.32051993632913" lon="108.96745011729352">
        <ele>398.9081167774275</ele>
        <time>2022-04-08T10:56:20Z</time>
      </trkpt>
      <trkpt lat="34.3205428816383" lon="108.96758566534534">
        <ele>398.3557354202494</ele>
        <time>2022-04-08T10:56:22Z</time>
      </trkpt>
      <trkpt lat="34.32062513946313" lon="108.96767247056796">
        <ele>398.54685484524816</ele>
        <time>2022-04-08T10:56:26Z</time>
      </trkpt>
      <trkpt lat="34.320657633676795" lon="108.96783215677254">
        <ele>398.59271123819053</ele>
        <time>2022-04-08T10:56:28Z</time>
      </trkpt>
      <trkpt lat="34.3206971772807" lon="108.96816253637587">
        <ele>398.85033037513494</ele>
        <time>2022-04-08T10:56:34Z</time>
      </trkpt>
      <trkpt lat="34.32077273346778" lon="108.96835917172027">
        <ele>397.95886224135756</ele>
        <time>2022-04-08T10:56:38Z</time>
      </trkpt>
      <trkpt lat="34.32083823868265" lon="108.96859768732605">
        <ele>397.09385511651635</ele>
        <time>2022-04-08T10:56:42Z</time>
      </trkpt>
      <trkpt lat="34.32082538929937" lon="108.96879985573825">
        <ele>396.40025507472456</ele>
        <time>2022-04-08T10:56:46Z</time>
      </trkpt>
      <trkpt lat="34.3209014189083" lon="108.96924515846051">
        <ele>395.9383269837126</ele>
        <time>2022-04-08T10:56:54Z</time>
      </trkpt>
      <trkpt lat="34.32098366095034" lon="108.9695571837693">
        <ele>395.9665949251503</ele>
        <time>2022-04-08T10:56:59Z</time>
      </trkpt>
      <trkpt lat="34.32105088508" lon="108.96967634936205">
        <ele>395.9470203081146</ele>
        <time>2022-04-08T10:57:01Z</time>
      </trkpt>
      <trkpt lat="34.321073915340556" lon="108.9697997026419">
        <ele>396.1651082672179</ele>
        <time>2022-04-08T10:57:03Z</time>
      </trkpt>
      <trkpt lat="34.32106227445049" lon="108.97002547654768">
        <ele>396.00398260261863</ele>
        <time>2022-04-08T10:57:07Z</time>
      </trkpt>
      <trkpt lat="34.32102404123461" lon="108.97014539283386">
        <ele>395.50072059594095</ele>
        <time>2022-04-08T10:57:09Z</time>
      </trkpt>
      <trkpt lat="34.321010900563756" lon="108.97028027847878">
        <ele>396.7402251986787</ele>
        <time>2022-04-08T10:57:13Z</time>
      </trkpt>
      <trkpt lat="34.32102630979083" lon="108.97049005981202">
        <ele>396.6454527005553</ele>
        <time>2022-04-08T10:57:17Z</time>
      </trkpt>
      <trkpt lat="34.321058218754914" lon="108.97060081643552">
        <ele>396.179133400321</ele>
        <time>2022-04-08T10:57:19Z</time>
      </trkpt>
      <trkpt lat="34.3210377586846" lon="108.97075108064756">
        <ele>397.0229570493102</ele>
        <time>2022-04-08T10:57:21Z</time>
      </trkpt>
      <trkpt lat="34.32103641434642" lon="108.97098864227188">
        <ele>398.23413050174713</ele>
        <time>2022-04-08T10:57:25Z</time>
      </trkpt>
      <trkpt lat="34.321085012594125" lon="108.9711892546073">
        <ele>398.50587008707225</ele>
        <time>2022-04-08T10:57:29Z</time>
      </trkpt>
      <trkpt lat="34.32104807653557" lon="108.97128299517226">
        <ele>399.3069093041122</ele>
        <time>2022-04-08T10:57:33Z</time>
      </trkpt>
      <trkpt lat="34.32111860962299" lon="108.97122145853278">
        <ele>400.7563420208171</ele>
        <time>2022-04-08T10:57:37Z</time>
      </trkpt>
      <trkpt lat="34.32164387782403" lon="108.97113123019206">
        <ele>400.5062695071101</ele>
        <time>2022-04-08T10:57:51Z</time>
      </trkpt>
      <trkpt lat="34.32181775632937" lon="108.97121586403622">
        <ele>398.89372640196234</ele>
        <time>2022-04-08T10:57:57Z</time>
      </trkpt>
      <trkpt lat="34.322213918624186" lon="108.97115853547994">
        <ele>399.41535516269505</ele>
        <time>2022-04-08T10:58:03Z</time>
      </trkpt>
      <trkpt lat="34.32236694032864" lon="108.97117298495638">
        <ele>400.2108071828261</ele>
        <time>2022-04-08T10:58:07Z</time>
      </trkpt>
      <trkpt lat="34.32249033947203" lon="108.9712056709671">
        <ele>400.7086751656607</ele>
        <time>2022-04-08T10:58:09Z</time>
      </trkpt>
      <trkpt lat="34.32267734332473" lon="108.97116256801276">
        <ele>401.3051395053044</ele>
        <time>2022-04-08T10:58:13Z</time>
      </trkpt>
      <trkpt lat="34.32278140732938" lon="108.97119161629043">
        <ele>401.091282306239</ele>
        <time>2022-04-08T10:58:15Z</time>
      </trkpt>
      <trkpt lat="34.322982526921884" lon="108.9711931712248">
        <ele>400.67288206052035</ele>
        <time>2022-04-08T10:58:19Z</time>
      </trkpt>
      <trkpt lat="34.32332376412095" lon="108.9712441850995">
        <ele>398.73727531637996</ele>
        <time>2022-04-08T10:58:25Z</time>
      </trkpt>
      <trkpt lat="34.323435107404634" lon="108.971298526391">
        <ele>398.35678701568395</ele>
        <time>2022-04-08T10:58:27Z</time>
      </trkpt>
      <trkpt lat="34.3235407573138" lon="108.97132007251913">
        <ele>398.2946169245988</ele>
        <time>2022-04-08T10:58:29Z</time>
      </trkpt>
      <trkpt lat="34.323635177022915" lon="108.97131064413976">
        <ele>397.65895151533186</ele>
        <time>2022-04-08T10:58:31Z</time>
      </trkpt>
      <trkpt lat="34.32411172328039" lon="108.97141494193984">
        <ele>397.01295372936875</ele>
        <time>2022-04-08T10:58:39Z</time>
      </trkpt>
      <trkpt lat="34.324442439662086" lon="108.97141989681667">
        <ele>396.50955750234425</ele>
        <time>2022-04-08T10:58:45Z</time>
      </trkpt>
      <trkpt lat="34.32465609022752" lon="108.97146367170637">
        <ele>396.7806986859068</ele>
        <time>2022-04-08T10:58:49Z</time>
      </trkpt>
      <trkpt lat="34.32476180071251" lon="108.97146470924943">
        <ele>397.23017570748925</ele>
        <time>2022-04-08T10:58:51Z</time>
      </trkpt>
      <trkpt lat="34.32493900974546" lon="108.9714270529554">
        <ele>396.72283060941845</ele>
        <time>2022-04-08T10:58:55Z</time>
      </trkpt>
      <trkpt lat="34.325128455269" lon="108.97142331206207">
        <ele>396.1195190604776</ele>
        <time>2022-04-08T10:58:59Z</time>
      </trkpt>
      <trkpt lat="34.325208398399944" lon="108.97137519489769">
        <ele>395.5226093363017</ele>
        <time>2022-04-08T10:59:01Z</time>
      </trkpt>
      <trkpt lat="34.32531242748883" lon="108.9713650636298">
        <ele>395.0465423297137</ele>
        <time>2022-04-08T10:59:03Z</time>
      </trkpt>
      <trkpt lat="34.32549423785954" lon="108.97142675562618">
        <ele>395.8553175870329</ele>
        <time>2022-04-08T10:59:07Z</time>
      </trkpt>
      <trkpt lat="34.32581536836786" lon="108.97140804580496">
        <ele>396.72562078014016</ele>
        <time>2022-04-08T10:59:13Z</time>
      </trkpt>
      <trkpt lat="34.32597077685177" lon="108.97148024378603">
        <ele>397.17998423986137</ele>
        <time>2022-04-08T10:59:17Z</time>
      </trkpt>
      <trkpt lat="34.326074453436604" lon="108.97143398654525">
        <ele>397.0787648400292</ele>
        <time>2022-04-08T10:59:19Z</time>
      </trkpt>
      <trkpt lat="34.32617045247044" lon="108.97142501684436">
        <ele>396.17081154696643</ele>
        <time>2022-04-08T10:59:21Z</time>
      </trkpt>
      <trkpt lat="34.326299920801866" lon="108.97146385597188">
        <ele>396.8978040488437</ele>
        <time>2022-04-08T10:59:25Z</time>
      </trkpt>
      <trkpt lat="34.32677565742371" lon="108.97135719296062">
        <ele>397.0118621569127</ele>
        <time>2022-04-08T10:59:37Z</time>
      </trkpt>
      <trkpt lat="34.32687038071244" lon="108.97132457576673">
        <ele>396.2091871779412</ele>
        <time>2022-04-08T10:59:39Z</time>
      </trkpt>
      <trkpt lat="34.32709285579737" lon="108.9713181521832">
        <ele>395.2130103856325</ele>
        <time>2022-04-08T10:59:43Z</time>
      </trkpt>
      <trkpt lat="34.32743108573059" lon="108.97137527971235">
        <ele>395.52706415206194</ele>
        <time>2022-04-08T10:59:49Z</time>
      </trkpt>
      <trkpt lat="34.327530464009946" lon="108.9713561946702">
        <ele>395.76294547785074</ele>
        <time>2022-04-08T10:59:51Z</time>
      </trkpt>
      <trkpt lat="34.32772005202503" lon="108.97142795047654">
        <ele>396.07833360042423</ele>
        <time>2022-04-08T10:59:55Z</time>
      </trkpt>
      <trkpt lat="34.327793196220135" lon="108.97148825217519">
        <ele>397.113190789707</ele>
        <time>2022-04-08T10:59:57Z</time>
      </trkpt>
      <trkpt lat="34.327841607316046" lon="108.97163502728466">
        <ele>396.83883171901107</ele>
        <time>2022-04-08T10:59:59Z</time>
      </trkpt>
      <trkpt lat="34.32784078345141" lon="108.97175635345712">
        <ele>397.02341350819916</ele>
        <time>2022-04-08T11:00:01Z</time>
      </trkpt>
      <trkpt lat="34.3278684083608" lon="108.9719384070133">
        <ele>397.33096112217754</ele>
        <time>2022-04-08T11:00:05Z</time>
      </trkpt>
      <trkpt lat="34.32790219873567" lon="108.97204853835895">
        <ele>397.4202620824799</ele>
        <time>2022-04-08T11:00:07Z</time>
      </trkpt>
      <trkpt lat="34.32792334618244" lon="108.97228738001466">
        <ele>397.73068406339735</ele>
        <time>2022-04-08T11:00:11Z</time>
      </trkpt>
      <trkpt lat="34.32796963627558" lon="108.97240945413051">
        <ele>398.1847344581038</ele>
        <time>2022-04-08T11:00:13Z</time>
      </trkpt>
      <trkpt lat="34.327976822450886" lon="108.97251796003914">
        <ele>398.13425347115844</ele>
        <time>2022-04-08T11:00:15Z</time>
      </trkpt>
      <trkpt lat="34.32801313361789" lon="108.97263419649036">
        <ele>398.7802934208885</ele>
        <time>2022-04-08T11:00:19Z</time>
      </trkpt>
      <trkpt lat="34.32801325689018" lon="108.97274020992434">
        <ele>398.67385468725115</ele>
        <time>2022-04-08T11:00:21Z</time>
      </trkpt>
      <trkpt lat="34.32807204464186" lon="108.97316427081944">
        <ele>398.7477810261771</ele>
        <time>2022-04-08T11:00:29Z</time>
      </trkpt>
      <trkpt lat="34.328050432420156" lon="108.97337753911162">
        <ele>398.6874210238457</ele>
        <time>2022-04-08T11:00:33Z</time>
      </trkpt>
      <trkpt lat="34.32811870725437" lon="108.97360698667167">
        <ele>398.2055024076253</ele>
        <time>2022-04-08T11:00:37Z</time>
      </trkpt>
      <trkpt lat="34.32812306563385" lon="108.97386210415137">
        <ele>397.2023841291666</ele>
        <time>2022-04-08T11:00:41Z</time>
      </trkpt>
      <trkpt lat="34.328102089876225" lon="108.97398422133632">
        <ele>397.6581726409495</ele>
        <time>2022-04-08T11:00:43Z</time>
      </trkpt>
      <trkpt lat="34.32812300544401" lon="108.97422628369614">
        <ele>397.23612651601434</ele>
        <time>2022-04-08T11:00:47Z</time>
      </trkpt>
      <trkpt lat="34.32811352975536" lon="108.97434487876001">
        <ele>397.4315592320636</ele>
        <time>2022-04-08T11:00:49Z</time>
      </trkpt>
      <trkpt lat="34.32817051477296" lon="108.97490428454387">
        <ele>396.8450262034312</ele>
        <time>2022-04-08T11:00:59Z</time>
      </trkpt>
      <trkpt lat="34.32819404558883" lon="108.97501596644362">
        <ele>396.2282806131989</ele>
        <time>2022-04-08T11:01:01Z</time>
      </trkpt>
      <trkpt lat="34.32808348481904" lon="108.97540270453788">
        <ele>396.53996134363115</ele>
        <time>2022-04-08T11:01:07Z</time>
      </trkpt>
      <trkpt lat="34.32803481962558" lon="108.97584511360301">
        <ele>396.0090892771259</ele>
        <time>2022-04-08T11:01:15Z</time>
      </trkpt>
      <trkpt lat="34.32803760307342" lon="108.97594483967717">
        <ele>395.5758023234084</ele>
        <time>2022-04-08T11:01:17Z</time>
      </trkpt>
      <trkpt lat="34.328016557152225" lon="108.97604290406953">
        <ele>395.80290764570236</ele>
        <time>2022-04-08T11:01:19Z</time>
      </trkpt>
      <trkpt lat="34.328013484530494" lon="108.97615255581745">
        <ele>395.70101225189865</ele>
        <time>2022-04-08T11:01:21Z</time>
      </trkpt>
      <trkpt lat="34.327990486550696" lon="108.97627187583065">
        <ele>396.0015294579789</ele>
        <time>2022-04-08T11:01:23Z</time>
      </trkpt>
      <trkpt lat="34.32794607232985" lon="108.97668967345405">
        <ele>396.39432208333164</ele>
        <time>2022-04-08T11:01:31Z</time>
      </trkpt>
      <trkpt lat="34.327989407809035" lon="108.97707826135368">
        <ele>396.2962705353275</ele>
        <time>2022-04-08T11:01:39Z</time>
      </trkpt>
      <trkpt lat="34.327984372597506" lon="108.97717509914808">
        <ele>395.78111577033997</ele>
        <time>2022-04-08T11:01:41Z</time>
      </trkpt>
      <trkpt lat="34.328074484330855" lon="108.97735853506687">
        <ele>396.88293597474694</ele>
        <time>2022-04-08T11:01:45Z</time>
      </trkpt>
      <trkpt lat="34.32809941528547" lon="108.97746442313952">
        <ele>397.1206281809136</ele>
        <time>2022-04-08T11:01:47Z</time>
      </trkpt>
      <trkpt lat="34.328109557845806" lon="108.97787609596199">
        <ele>396.3746732128784</ele>
        <time>2022-04-08T11:01:57Z</time>
      </trkpt>
      <trkpt lat="34.328038166591675" lon="108.97836498911678">
        <ele>395.60809659119695</ele>
        <time>2022-04-08T11:02:07Z</time>
      </trkpt>
      <trkpt lat="34.32804365137446" lon="108.97853323082738">
        <ele>396.3402928356081</ele>
        <time>2022-04-08T11:02:11Z</time>
      </trkpt>
      <trkpt lat="34.32802843634047" lon="108.97864027466909">
        <ele>396.9467651890591</ele>
        <time>2022-04-08T11:02:15Z</time>
      </trkpt>
      <trkpt lat="34.32803005098095" lon="108.97879894354905">
        <ele>397.0834397766739</ele>
        <time>2022-04-08T11:02:19Z</time>
      </trkpt>
      <trkpt lat="34.32806692962879" lon="108.97897081074466">
        <ele>397.10352674126625</ele>
        <time>2022-04-08T11:02:23Z</time>
      </trkpt>
      <trkpt lat="34.32808188836132" lon="108.97912612325138">
        <ele>397.21730131469667</ele>
        <time>2022-04-08T11:02:27Z</time>
      </trkpt>
      <trkpt lat="34.328065872236074" lon="108.97928268557533">
        <ele>396.8936729962006</ele>
        <time>2022-04-08T11:02:31Z</time>
      </trkpt>
      <trkpt lat="34.32802551941646" lon="108.97937414338087">
        <ele>396.036001666449</ele>
        <time>2022-04-08T11:02:41Z</time>
      </trkpt>
      <trkpt lat="34.32794511416858" lon="108.97974383684986">
        <ele>396.08635613229126</ele>
        <time>2022-04-08T11:03:00Z</time>
      </trkpt>
      <trkpt lat="34.328020345922496" lon="108.9797133403794">
        <ele>395.84465835336596</ele>
        <time>2022-04-08T11:03:02Z</time>
      </trkpt>
      <trkpt lat="34.32806953182747" lon="108.97978661510889">
        <ele>396.4580192929134</ele>
        <time>2022-04-08T11:03:04Z</time>
      </trkpt>
      <trkpt lat="34.3280829916098" lon="108.98000212786668">
        <ele>395.8320766566321</ele>
        <time>2022-04-08T11:03:12Z</time>
      </trkpt>
      <trkpt lat="34.32810848401948" lon="108.98009427741025">
        <ele>395.3239271193743</ele>
        <time>2022-04-08T11:03:17Z</time>
      </trkpt>
      <trkpt lat="34.328293814693446" lon="108.9803737653654">
        <ele>395.80410137958825</ele>
        <time>2022-04-08T11:03:27Z</time>
      </trkpt>
      <trkpt lat="34.32835753787815" lon="108.98043877891251">
        <ele>395.939510489814</ele>
        <time>2022-04-08T11:03:31Z</time>
      </trkpt>
      <trkpt lat="34.328268883692594" lon="108.98057973382521">
        <ele>396.01203483715653</ele>
        <time>2022-04-08T11:03:35Z</time>
      </trkpt>
      <trkpt lat="34.32820309148736" lon="108.98063230415949">
        <ele>395.900455808267</ele>
        <time>2022-04-08T11:03:39Z</time>
      </trkpt>
      <trkpt lat="34.32819721973748" lon="108.98060651384054">
        <ele>395.9306267183274</ele>
        <time>2022-04-08T11:03:41Z</time>
      </trkpt>
      <trkpt lat="34.32826450436037" lon="108.98066253929278">
        <ele>395.5279406905174</ele>
        <time>2022-04-08T11:04:04Z</time>
      </trkpt>
      <trkpt lat="34.32827781931803" lon="108.98076966193291">
        <ele>395.08666618261486</ele>
        <time>2022-04-08T11:04:12Z</time>
      </trkpt>
      <trkpt lat="34.328358233373756" lon="108.98077012247488">
        <ele>395.41834716964513</ele>
        <time>2022-04-08T11:04:22Z</time>
      </trkpt>
      <trkpt lat="34.32850754219897" lon="108.98082531285976">
        <ele>395.1066987346858</ele>
        <time>2022-04-08T11:04:36Z</time>
      </trkpt>
      <trkpt lat="34.32856579117892" lon="108.98074866525668">
        <ele>396.09697882365435</ele>
        <time>2022-04-08T11:04:42Z</time>
      </trkpt>
      <trkpt lat="34.32861561929615" lon="108.98051871948131">
        <ele>395.9894125889987</ele>
        <time>2022-04-08T11:04:54Z</time>
      </trkpt>
      <trkpt lat="34.32861086045999" lon="108.98040711789201">
        <ele>395.82999488711357</ele>
        <time>2022-04-08T11:05:00Z</time>
      </trkpt>
      <trkpt lat="34.32864347018998" lon="108.98029952370293">
        <ele>395.73625545948744</ele>
        <time>2022-04-08T11:05:06Z</time>
      </trkpt>
      <trkpt lat="34.32869416070482" lon="108.9801998409479">
        <ele>396.0541651044041</ele>
        <time>2022-04-08T11:05:12Z</time>
      </trkpt>
      <trkpt lat="34.32872033735197" lon="108.9800020301219">
        <ele>395.6800278313458</ele>
        <time>2022-04-08T11:05:26Z</time>
      </trkpt>
      <trkpt lat="34.32876508785588" lon="108.98000929256979">
        <ele>395.8326955595985</ele>
        <time>2022-04-08T11:05:30Z</time>
      </trkpt>
      <trkpt lat="34.32890240461987" lon="108.98012393015858">
        <ele>395.7908462630585</ele>
        <time>2022-04-08T11:06:03Z</time>
      </trkpt>
      <trkpt lat="34.32884779447872" lon="108.98019273642991">
        <ele>396.02598271984607</ele>
        <time>2022-04-08T11:06:09Z</time>
      </trkpt>
      <trkpt lat="34.32886399913227" lon="108.98028373121856">
        <ele>396.1566248703748</ele>
        <time>2022-04-08T11:06:15Z</time>
      </trkpt>
      <trkpt lat="34.32892118712169" lon="108.98035510614672">
        <ele>395.9433516561985</ele>
        <time>2022-04-08T11:06:27Z</time>
      </trkpt>
      <trkpt lat="34.32880028336912" lon="108.98042317973561">
        <ele>395.3693976830691</ele>
        <time>2022-04-08T11:06:33Z</time>
      </trkpt>
      <trkpt lat="34.32890366315608" lon="108.9803536226771">
        <ele>395.85246656183153</ele>
        <time>2022-04-08T11:06:35Z</time>
      </trkpt>
      <trkpt lat="34.32853140708126" lon="108.97995821664162">
        <ele>413.51180333713125</ele>
        <time>2022-04-08T11:06:49Z</time>
      </trkpt>
      <trkpt lat="34.32826809507195" lon="108.9803594606815">
        <ele>409.6546325683594</ele>
        <time>2022-04-08T11:06:57Z</time>
      </trkpt>
      <trkpt lat="34.328107334918236" lon="108.98042681199767">
        <ele>413.71240234375</ele>
        <time>2022-04-08T11:07:03Z</time>
      </trkpt>
      <trkpt lat="34.32804388747505" lon="108.98038573099895">
        <ele>418.3122253417969</ele>
        <time>2022-04-08T11:07:11Z</time>
      </trkpt>
      <trkpt lat="34.32853140708126" lon="108.97995821664162">
        <ele>449.5832214355469</ele>
        <time>2022-04-08T11:07:36Z</time>
      </trkpt>
      <trkpt lat="34.328290552736576" lon="108.98044580436482">
        <ele>464.97900390625</ele>
        <time>2022-04-08T11:07:43Z</time>
      </trkpt>
      <trkpt lat="34.32853140708126" lon="108.97995821664162">
        <ele>476.1072082519531</ele>
        <time>2022-04-08T11:07:49Z</time>
      </trkpt>
      <trkpt lat="34.32828663788454" lon="108.98028966541541">
        <ele>486.51470947265625</ele>
        <time>2022-04-08T11:07:55Z</time>
      </trkpt>
      <trkpt lat="34.32853140708126" lon="108.97995821664162">
        <ele>495.31207275390625</ele>
        <time>2022-04-08T11:08:09Z</time>
      </trkpt>
      <trkpt lat="34.3283453620188" lon="108.98026203185441">
        <ele>497.801513671875</ele>
        <time>2022-04-08T11:08:58Z</time>
      </trkpt>
      <trkpt lat="34.32853140708126" lon="108.97995821664162">
        <ele>497.8017883300781</ele>
        <time>2022-04-08T11:09:28Z</time>
      </trkpt>
      <trkpt lat="34.32824819197818" lon="108.9802631215192">
        <ele>435.1569371810183</ele>
        <time>2022-04-08T11:09:32Z</time>
      </trkpt>
    </trkseg>
  </trk>
</gpx>