<?xml version="1.0" encoding="UTF-8"?>
<gpx xmlns="http://www.topografix.com/GPX/1/1" xmlns:gpxtpx="http://www.garmin.com/xmlschemas/TrackPointExtension/v1" xmlns:xsi="http://www.w3.org/2001/XMLSchema-instance" xsi:schemaLocation="http://www.topografix.com/GPX/1/1 http://www.topografix.com/GPX/1/1/gpx.xsd" version="1.1" creator="gpx.py -- https://github.com/tkrajina/gpxpy">
  <trk>
    <name>gpx from keep</name>
    <type>Ride</type>
    <trkseg>
      <trkpt lat="34.306439534536324" lon="109.0370529742681">
        <ele>391.50677218381315</ele>
        <time>2022-05-05T12:36:44Z</time>
      </trkpt>
      <trkpt lat="34.30646090111138" lon="109.03713903898887">
        <ele>391.73055533505976</ele>
        <time>2022-05-05T12:36:59Z</time>
      </trkpt>
      <trkpt lat="34.30653985347128" lon="109.03710538777216">
        <ele>392.0661880671978</ele>
        <time>2022-05-05T12:37:05Z</time>
      </trkpt>
      <trkpt lat="34.30660344246946" lon="109.03704567055871">
        <ele>391.7174206767231</ele>
        <time>2022-05-05T12:37:16Z</time>
      </trkpt>
      <trkpt lat="34.306598874747586" lon="109.03685854383194">
        <ele>392.6233243914321</ele>
        <time>2022-05-05T12:37:25Z</time>
      </trkpt>
      <trkpt lat="34.30658137536714" lon="109.03676478621172">
        <ele>392.10694808792323</ele>
        <time>2022-05-05T12:37:31Z</time>
      </trkpt>
      <trkpt lat="34.3065863538785" lon="109.03666852137891">
        <ele>391.90717785432935</ele>
        <time>2022-05-05T12:37:37Z</time>
      </trkpt>
      <trkpt lat="34.30654977437227" lon="109.03657960562478">
        <ele>391.87821922730654</ele>
        <time>2022-05-05T12:37:43Z</time>
      </trkpt>
      <trkpt lat="34.3065381852132" lon="109.03647967930166">
        <ele>391.66358129680157</ele>
        <time>2022-05-05T12:37:49Z</time>
      </trkpt>
      <trkpt lat="34.306565458129604" lon="109.0363939190442">
        <ele>391.2913177618757</ele>
        <time>2022-05-05T12:37:56Z</time>
      </trkpt>
      <trkpt lat="34.30651272130533" lon="109.03600576994195">
        <ele>391.91688246279955</ele>
        <time>2022-05-05T12:38:24Z</time>
      </trkpt>
      <trkpt lat="34.30654821375435" lon="109.03595481510716">
        <ele>391.75556306075305</ele>
        <time>2022-05-05T12:38:33Z</time>
      </trkpt>
      <trkpt lat="34.306589163446816" lon="109.03584484668086">
        <ele>392.0348247522488</ele>
        <time>2022-05-05T12:38:58Z</time>
      </trkpt>
      <trkpt lat="34.306518625732515" lon="109.03565773186065">
        <ele>392.61023155320436</ele>
        <time>2022-05-05T12:39:09Z</time>
      </trkpt>
      <trkpt lat="34.30649869667153" lon="109.03529923697414">
        <ele>393.42250680550933</ele>
        <time>2022-05-05T12:39:18Z</time>
      </trkpt>
      <trkpt lat="34.30642518481517" lon="109.03512621234617">
        <ele>392.1712610144168</ele>
        <time>2022-05-05T12:39:26Z</time>
      </trkpt>
      <trkpt lat="34.306443185127726" lon="109.03501911920975">
        <ele>392.57777754124254</ele>
        <time>2022-05-05T12:39:29Z</time>
      </trkpt>
      <trkpt lat="34.30644342066907" lon="109.03490189952561">
        <ele>392.77701416425407</ele>
        <time>2022-05-05T12:39:33Z</time>
      </trkpt>
      <trkpt lat="34.30642356510625" lon="109.03478899476137">
        <ele>392.4434228874743</ele>
        <time>2022-05-05T12:39:37Z</time>
      </trkpt>
      <trkpt lat="34.30644611527616" lon="109.03456016471682">
        <ele>392.829521343112</ele>
        <time>2022-05-05T12:39:44Z</time>
      </trkpt>
      <trkpt lat="34.306428650506" lon="109.034468803398">
        <ele>393.46562423650175</ele>
        <time>2022-05-05T12:39:46Z</time>
      </trkpt>
      <trkpt lat="34.30633366949477" lon="109.03427570562313">
        <ele>392.57830922398716</ele>
        <time>2022-05-05T12:39:51Z</time>
      </trkpt>
      <trkpt lat="34.30630592540304" lon="109.03416938818438">
        <ele>392.83488024026155</ele>
        <time>2022-05-05T12:39:54Z</time>
      </trkpt>
      <trkpt lat="34.30625100309492" lon="109.03408576457194">
        <ele>392.15183516498655</ele>
        <time>2022-05-05T12:39:57Z</time>
      </trkpt>
      <trkpt lat="34.30621045150682" lon="109.03388608750232">
        <ele>392.72421658877283</ele>
        <time>2022-05-05T12:40:05Z</time>
      </trkpt>
      <trkpt lat="34.30620976702013" lon="109.03367294012332">
        <ele>392.31216682028025</ele>
        <time>2022-05-05T12:40:12Z</time>
      </trkpt>
      <trkpt lat="34.30623723025575" lon="109.03324390619055">
        <ele>392.4940698221326</ele>
        <time>2022-05-05T12:40:22Z</time>
      </trkpt>
      <trkpt lat="34.306232002426626" lon="109.0331540608088">
        <ele>391.90778631996363</ele>
        <time>2022-05-05T12:40:24Z</time>
      </trkpt>
      <trkpt lat="34.30618776106728" lon="109.03296529931472">
        <ele>392.0094119301066</ele>
        <time>2022-05-05T12:40:28Z</time>
      </trkpt>
      <trkpt lat="34.30620447209194" lon="109.03273746603139">
        <ele>392.85531533602625</ele>
        <time>2022-05-05T12:40:32Z</time>
      </trkpt>
      <trkpt lat="34.3061712903918" lon="109.03243428190133">
        <ele>392.88435555435717</ele>
        <time>2022-05-05T12:40:38Z</time>
      </trkpt>
      <trkpt lat="34.30610472212864" lon="109.03227047049619">
        <ele>392.89655528217554</ele>
        <time>2022-05-05T12:40:42Z</time>
      </trkpt>
      <trkpt lat="34.306090376910376" lon="109.03216452747206">
        <ele>392.68276110012084</ele>
        <time>2022-05-05T12:40:44Z</time>
      </trkpt>
      <trkpt lat="34.30607741134242" lon="109.03206904382462">
        <ele>393.9301063846797</ele>
        <time>2022-05-05T12:40:46Z</time>
      </trkpt>
      <trkpt lat="34.30621227132434" lon="109.03186553257854">
        <ele>395.22296793200076</ele>
        <time>2022-05-05T12:40:52Z</time>
      </trkpt>
      <trkpt lat="34.30629905635742" lon="109.03181720449695">
        <ele>394.20328139234334</ele>
        <time>2022-05-05T12:40:54Z</time>
      </trkpt>
      <trkpt lat="34.30666545612095" lon="109.03141413344078">
        <ele>393.1758949169889</ele>
        <time>2022-05-05T12:41:04Z</time>
      </trkpt>
      <trkpt lat="34.306770412814004" lon="109.03123271664695">
        <ele>392.4056254234165</ele>
        <time>2022-05-05T12:41:08Z</time>
      </trkpt>
      <trkpt lat="34.30684029815144" lon="109.0311642302541">
        <ele>392.6042100256309</ele>
        <time>2022-05-05T12:41:10Z</time>
      </trkpt>
      <trkpt lat="34.306941899316364" lon="109.03116428801518">
        <ele>391.65331099927425</ele>
        <time>2022-05-05T12:41:12Z</time>
      </trkpt>
      <trkpt lat="34.30703212404632" lon="109.03113371152945">
        <ele>392.71545653324574</ele>
        <time>2022-05-05T12:41:14Z</time>
      </trkpt>
      <trkpt lat="34.307208003374946" lon="109.03103017317346">
        <ele>393.3907418427989</ele>
        <time>2022-05-05T12:41:18Z</time>
      </trkpt>
      <trkpt lat="34.30765581606856" lon="109.03089470706077">
        <ele>395.318210975267</ele>
        <time>2022-05-05T12:41:30Z</time>
      </trkpt>
      <trkpt lat="34.30802519996598" lon="109.03081912352712">
        <ele>395.7478194674477</ele>
        <time>2022-05-05T12:41:39Z</time>
      </trkpt>
      <trkpt lat="34.30813937751098" lon="109.0308108529182">
        <ele>395.12701789010316</ele>
        <time>2022-05-05T12:41:42Z</time>
      </trkpt>
      <trkpt lat="34.30822742686033" lon="109.03076687573677">
        <ele>396.2248507514596</ele>
        <time>2022-05-05T12:41:45Z</time>
      </trkpt>
      <trkpt lat="34.308674343201254" lon="109.03063701512141">
        <ele>394.6836899900809</ele>
        <time>2022-05-05T12:41:59Z</time>
      </trkpt>
      <trkpt lat="34.30884393725393" lon="109.03057441359513">
        <ele>395.5210384670645</ele>
        <time>2022-05-05T12:42:04Z</time>
      </trkpt>
      <trkpt lat="34.308994334253626" lon="109.03049100086277">
        <ele>394.28288466949016</ele>
        <time>2022-05-05T12:42:09Z</time>
      </trkpt>
      <trkpt lat="34.30921112091217" lon="109.03032337256019">
        <ele>394.89023628178984</ele>
        <time>2022-05-05T12:42:17Z</time>
      </trkpt>
      <trkpt lat="34.309294906076865" lon="109.03028179148717">
        <ele>393.3064574319869</ele>
        <time>2022-05-05T12:42:20Z</time>
      </trkpt>
      <trkpt lat="34.30946965450769" lon="109.03012235771041">
        <ele>394.0579905696213</ele>
        <time>2022-05-05T12:42:26Z</time>
      </trkpt>
      <trkpt lat="34.310343231338905" lon="109.02968142314856">
        <ele>391.8785510836169</ele>
        <time>2022-05-05T12:42:32Z</time>
      </trkpt>
      <trkpt lat="34.31011960936768" lon="109.02980803095167">
        <ele>392.49155410192907</ele>
        <time>2022-05-05T12:42:36Z</time>
      </trkpt>
      <trkpt lat="34.31048898289398" lon="109.02941454517112">
        <ele>391.8977950485423</ele>
        <time>2022-05-05T12:42:48Z</time>
      </trkpt>
      <trkpt lat="34.310560144762526" lon="109.02936398333715">
        <ele>391.44174477178603</ele>
        <time>2022-05-05T12:42:50Z</time>
      </trkpt>
      <trkpt lat="34.31060610851975" lon="109.02928470318076">
        <ele>391.51584797818214</ele>
        <time>2022-05-05T12:42:52Z</time>
      </trkpt>
      <trkpt lat="34.31050375663486" lon="109.02931293797779">
        <ele>391.59541844949126</ele>
        <time>2022-05-05T12:42:54Z</time>
      </trkpt>
      <trkpt lat="34.31076710103876" lon="109.02904620516016">
        <ele>390.32544169109315</ele>
        <time>2022-05-05T12:43:00Z</time>
      </trkpt>
      <trkpt lat="34.31098704459827" lon="109.02871605119391">
        <ele>389.9483992792666</ele>
        <time>2022-05-05T12:43:06Z</time>
      </trkpt>
      <trkpt lat="34.3110943811232" lon="109.02849490535965">
        <ele>390.9198844106868</ele>
        <time>2022-05-05T12:43:10Z</time>
      </trkpt>
      <trkpt lat="34.31120419808269" lon="109.02838225488934">
        <ele>391.42480137757957</ele>
        <time>2022-05-05T12:43:12Z</time>
      </trkpt>
      <trkpt lat="34.31127768828357" lon="109.02840671298861">
        <ele>390.2870037415996</ele>
        <time>2022-05-05T12:43:14Z</time>
      </trkpt>
      <trkpt lat="34.31137745889729" lon="109.02837534347779">
        <ele>390.1667501293123</ele>
        <time>2022-05-05T12:43:16Z</time>
      </trkpt>
      <trkpt lat="34.31154006005692" lon="109.02826233602">
        <ele>391.1707915533334</ele>
        <time>2022-05-05T12:43:28Z</time>
      </trkpt>
      <trkpt lat="34.31160945459081" lon="109.02818181679046">
        <ele>391.67561056185514</ele>
        <time>2022-05-05T12:43:36Z</time>
      </trkpt>
      <trkpt lat="34.3117579970288" lon="109.028066548916">
        <ele>391.90830133575946</ele>
        <time>2022-05-05T12:43:48Z</time>
      </trkpt>
      <trkpt lat="34.31185846786514" lon="109.02807773760652">
        <ele>391.7450666530058</ele>
        <time>2022-05-05T12:43:56Z</time>
      </trkpt>
    </trkseg>
  </trk>
</gpx>