<?xml version="1.0" encoding="UTF-8"?>
<gpx xmlns="http://www.topografix.com/GPX/1/1" xmlns:gpxtpx="http://www.garmin.com/xmlschemas/TrackPointExtension/v1" xmlns:xsi="http://www.w3.org/2001/XMLSchema-instance" xsi:schemaLocation="http://www.topografix.com/GPX/1/1 http://www.topografix.com/GPX/1/1/gpx.xsd" version="1.1" creator="gpx.py -- https://github.com/tkrajina/gpxpy">
  <trk>
    <name>gpx from keep</name>
    <type>Ride</type>
    <trkseg>
      <trkpt lat="34.30621358702751" lon="109.03713566391188">
        <ele>394.2523078918457</ele>
        <time>2022-03-07T12:42:28Z</time>
      </trkpt>
      <trkpt lat="34.306407469319616" lon="109.03715281991741">
        <ele>394.2840156555176</ele>
        <time>2022-03-07T12:42:35Z</time>
      </trkpt>
      <trkpt lat="34.306483352480065" lon="109.03717646539356">
        <ele>391.1210393217563</ele>
        <time>2022-03-07T12:42:47Z</time>
      </trkpt>
      <trkpt lat="34.30658992217357" lon="109.03713394642699">
        <ele>391.18657516244843</ele>
        <time>2022-03-07T12:42:49Z</time>
      </trkpt>
      <trkpt lat="34.30660307083924" lon="109.03703654281925">
        <ele>391.5933584868908</ele>
        <time>2022-03-07T12:42:52Z</time>
      </trkpt>
      <trkpt lat="34.30668219218134" lon="109.03697847123833">
        <ele>391.49947278015316</ele>
        <time>2022-03-07T12:42:56Z</time>
      </trkpt>
      <trkpt lat="34.30660824747065" lon="109.0369309738346">
        <ele>391.57003088016063</ele>
        <time>2022-03-07T12:43:02Z</time>
      </trkpt>
      <trkpt lat="34.30653918380236" lon="109.03696613536601">
        <ele>391.56294249370694</ele>
        <time>2022-03-07T12:43:06Z</time>
      </trkpt>
      <trkpt lat="34.30661907922843" lon="109.03696686658132">
        <ele>391.6976141342893</ele>
        <time>2022-03-07T12:43:12Z</time>
      </trkpt>
      <trkpt lat="34.30662742045159" lon="109.03687816294872">
        <ele>392.34001041948795</ele>
        <time>2022-03-07T12:43:24Z</time>
      </trkpt>
      <trkpt lat="34.306540215190445" lon="109.03658923780111">
        <ele>391.91721892077476</ele>
        <time>2022-03-07T12:43:46Z</time>
      </trkpt>
      <trkpt lat="34.3065225790176" lon="109.0364782570245">
        <ele>392.0348184052855</ele>
        <time>2022-03-07T12:43:54Z</time>
      </trkpt>
      <trkpt lat="34.30655101672255" lon="109.03639002636207">
        <ele>391.36188225913793</ele>
        <time>2022-03-07T12:44:02Z</time>
      </trkpt>
      <trkpt lat="34.30654540377042" lon="109.03629462838134">
        <ele>391.4851064514369</ele>
        <time>2022-03-07T12:44:12Z</time>
      </trkpt>
      <trkpt lat="34.30652694028167" lon="109.03628914006558">
        <ele>391.65711776632816</ele>
        <time>2022-03-07T12:44:18Z</time>
      </trkpt>
      <trkpt lat="34.306477433749876" lon="109.0361618523551">
        <ele>391.92065859027207</ele>
        <time>2022-03-07T12:45:21Z</time>
      </trkpt>
      <trkpt lat="34.30640655021238" lon="109.0359257859159">
        <ele>392.8901241067797</ele>
        <time>2022-03-07T12:45:30Z</time>
      </trkpt>
      <trkpt lat="34.306395202153766" lon="109.03583248284058">
        <ele>392.58487933781</ele>
        <time>2022-03-07T12:45:34Z</time>
      </trkpt>
      <trkpt lat="34.30645299469523" lon="109.03568403157858">
        <ele>393.5168070429936</ele>
        <time>2022-03-07T12:45:38Z</time>
      </trkpt>
      <trkpt lat="34.306450738864534" lon="109.0354215740531">
        <ele>392.5855910368264</ele>
        <time>2022-03-07T12:45:44Z</time>
      </trkpt>
      <trkpt lat="34.30642498064285" lon="109.03530274789398">
        <ele>392.96930652391165</ele>
        <time>2022-03-07T12:45:46Z</time>
      </trkpt>
      <trkpt lat="34.306438740733356" lon="109.03502359386731">
        <ele>392.45566037949175</ele>
        <time>2022-03-07T12:45:54Z</time>
      </trkpt>
      <trkpt lat="34.30648974721614" lon="109.03494813463277">
        <ele>392.65171944722533</ele>
        <time>2022-03-07T12:45:58Z</time>
      </trkpt>
      <trkpt lat="34.30650558991164" lon="109.03466785713844">
        <ele>392.99272481072694</ele>
        <time>2022-03-07T12:46:06Z</time>
      </trkpt>
      <trkpt lat="34.306483720979514" lon="109.0345150863223">
        <ele>393.1208194978535</ele>
        <time>2022-03-07T12:46:10Z</time>
      </trkpt>
      <trkpt lat="34.30649601143458" lon="109.03438312965771">
        <ele>393.2982438951731</ele>
        <time>2022-03-07T12:46:14Z</time>
      </trkpt>
      <trkpt lat="34.30645294530799" lon="109.03430976132411">
        <ele>392.9118106951937</ele>
        <time>2022-03-07T12:46:16Z</time>
      </trkpt>
      <trkpt lat="34.30636954716181" lon="109.03401281700023">
        <ele>392.6922899335623</ele>
        <time>2022-03-07T12:46:24Z</time>
      </trkpt>
      <trkpt lat="34.30626785323809" lon="109.03383342303597">
        <ele>393.00639771390706</ele>
        <time>2022-03-07T12:46:28Z</time>
      </trkpt>
      <trkpt lat="34.306216032900444" lon="109.03368799661756">
        <ele>392.4298948068172</ele>
        <time>2022-03-07T12:46:32Z</time>
      </trkpt>
      <trkpt lat="34.306216486677116" lon="109.03351734267841">
        <ele>392.39199313987046</ele>
        <time>2022-03-07T12:46:36Z</time>
      </trkpt>
      <trkpt lat="34.30625001649054" lon="109.03325642694954">
        <ele>392.62678088992834</ele>
        <time>2022-03-07T12:46:42Z</time>
      </trkpt>
      <trkpt lat="34.306319188349185" lon="109.03302009004463">
        <ele>393.50509754475206</ele>
        <time>2022-03-07T12:46:48Z</time>
      </trkpt>
      <trkpt lat="34.30633134260242" lon="109.03274205851393">
        <ele>393.42129529546946</ele>
        <time>2022-03-07T12:46:54Z</time>
      </trkpt>
      <trkpt lat="34.30626948174784" lon="109.03253062558566">
        <ele>394.2969171665609</ele>
        <time>2022-03-07T12:46:58Z</time>
      </trkpt>
      <trkpt lat="34.3062128583633" lon="109.03211008459623">
        <ele>393.7127782115713</ele>
        <time>2022-03-07T12:47:09Z</time>
      </trkpt>
      <trkpt lat="34.306185546969985" lon="109.03202744112984">
        <ele>393.88516754377633</ele>
        <time>2022-03-07T12:47:11Z</time>
      </trkpt>
      <trkpt lat="34.30623037380618" lon="109.03195008940365">
        <ele>393.81734324991703</ele>
        <time>2022-03-07T12:47:13Z</time>
      </trkpt>
      <trkpt lat="34.30641634918579" lon="109.03177188011189">
        <ele>394.2470087967813</ele>
        <time>2022-03-07T12:47:21Z</time>
      </trkpt>
      <trkpt lat="34.306814527018815" lon="109.0313651081453">
        <ele>392.61163267865777</ele>
        <time>2022-03-07T12:47:33Z</time>
      </trkpt>
      <trkpt lat="34.307152152245685" lon="109.03116687395764">
        <ele>392.4452620940283</ele>
        <time>2022-03-07T12:47:41Z</time>
      </trkpt>
      <trkpt lat="34.30758476416079" lon="109.03098344370211">
        <ele>393.7517070248723</ele>
        <time>2022-03-07T12:47:51Z</time>
      </trkpt>
      <trkpt lat="34.30788393977408" lon="109.03085077532262">
        <ele>394.8784592356533</ele>
        <time>2022-03-07T12:47:59Z</time>
      </trkpt>
      <trkpt lat="34.30824178551281" lon="109.03077423870678">
        <ele>395.0959076685831</ele>
        <time>2022-03-07T12:48:09Z</time>
      </trkpt>
      <trkpt lat="34.308311519674405" lon="109.03074572638106">
        <ele>396.18558091763407</ele>
        <time>2022-03-07T12:48:11Z</time>
      </trkpt>
      <trkpt lat="34.30871570569308" lon="109.03068223050529">
        <ele>394.90707679931074</ele>
        <time>2022-03-07T12:48:23Z</time>
      </trkpt>
      <trkpt lat="34.30895324873906" lon="109.0305471481003">
        <ele>394.78153679985553</ele>
        <time>2022-03-07T12:48:31Z</time>
      </trkpt>
      <trkpt lat="34.30907280205258" lon="109.03044174435557">
        <ele>394.7699675532058</ele>
        <time>2022-03-07T12:48:35Z</time>
      </trkpt>
      <trkpt lat="34.30921157343397" lon="109.03026824357399">
        <ele>394.6439822278917</ele>
        <time>2022-03-07T12:48:41Z</time>
      </trkpt>
      <trkpt lat="34.30965027314046" lon="109.02999789071119">
        <ele>395.13306604512036</ele>
        <time>2022-03-07T12:48:57Z</time>
      </trkpt>
      <trkpt lat="34.30996034731124" lon="109.02970831825272">
        <ele>394.42836613580585</ele>
        <time>2022-03-07T12:49:10Z</time>
      </trkpt>
      <trkpt lat="34.31003776307592" lon="109.02960199349863">
        <ele>393.9975649919361</ele>
        <time>2022-03-07T12:49:14Z</time>
      </trkpt>
      <trkpt lat="34.31010895204244" lon="109.02924184329993">
        <ele>392.25820683687925</ele>
        <time>2022-03-07T12:49:24Z</time>
      </trkpt>
      <trkpt lat="34.3101660306364" lon="109.02911579296062">
        <ele>391.5085562961176</ele>
        <time>2022-03-07T12:49:28Z</time>
      </trkpt>
      <trkpt lat="34.31019780650816" lon="109.02898558842888">
        <ele>390.7162843896076</ele>
        <time>2022-03-07T12:49:32Z</time>
      </trkpt>
      <trkpt lat="34.31027289519562" lon="109.02884810117334">
        <ele>389.96847262699157</ele>
        <time>2022-03-07T12:49:36Z</time>
      </trkpt>
      <trkpt lat="34.31031686020869" lon="109.02871321458537">
        <ele>389.115323105827</ele>
        <time>2022-03-07T12:49:40Z</time>
      </trkpt>
      <trkpt lat="34.310342997595605" lon="109.02857027422895">
        <ele>388.66330097895116</ele>
        <time>2022-03-07T12:49:44Z</time>
      </trkpt>
      <trkpt lat="34.31042112318162" lon="109.0284048108977">
        <ele>388.7158459816128</ele>
        <time>2022-03-07T12:49:48Z</time>
      </trkpt>
      <trkpt lat="34.3104726800804" lon="109.0283400865842">
        <ele>389.45105441007763</ele>
        <time>2022-03-07T12:49:50Z</time>
      </trkpt>
      <trkpt lat="34.31063558338004" lon="109.02804522850842">
        <ele>389.28733681328595</ele>
        <time>2022-03-07T12:49:56Z</time>
      </trkpt>
      <trkpt lat="34.310810198580135" lon="109.02781531571003">
        <ele>388.04715316277</ele>
        <time>2022-03-07T12:50:00Z</time>
      </trkpt>
      <trkpt lat="34.31085468380184" lon="109.02772841520132">
        <ele>388.8133818395436</ele>
        <time>2022-03-07T12:50:02Z</time>
      </trkpt>
      <trkpt lat="34.31086929582938" lon="109.02762647263853">
        <ele>388.3762895753607</ele>
        <time>2022-03-07T12:50:04Z</time>
      </trkpt>
      <trkpt lat="34.31094502138608" lon="109.02749624034409">
        <ele>388.78521352354437</ele>
        <time>2022-03-07T12:50:10Z</time>
      </trkpt>
      <trkpt lat="34.31103123575776" lon="109.02740124839589">
        <ele>388.11909810919315</ele>
        <time>2022-03-07T12:50:12Z</time>
      </trkpt>
      <trkpt lat="34.31117702871626" lon="109.02718555584036">
        <ele>388.92439467459917</ele>
        <time>2022-03-07T12:50:14Z</time>
      </trkpt>
      <trkpt lat="34.31141746814773" lon="109.02694599124281">
        <ele>390.28759983740747</ele>
        <time>2022-03-07T12:50:16Z</time>
      </trkpt>
      <trkpt lat="34.311821862038684" lon="109.02666857280187">
        <ele>390.22922429814935</ele>
        <time>2022-03-07T12:50:18Z</time>
      </trkpt>
      <trkpt lat="34.31203861740522" lon="109.02642032047633">
        <ele>390.17041409853846</ele>
        <time>2022-03-07T12:50:20Z</time>
      </trkpt>
      <trkpt lat="34.312303470614914" lon="109.02615254531051">
        <ele>391.97170826792717</ele>
        <time>2022-03-07T12:50:22Z</time>
      </trkpt>
      <trkpt lat="34.31266059652681" lon="109.02592398938656">
        <ele>391.6355019547045</ele>
        <time>2022-03-07T12:50:24Z</time>
      </trkpt>
      <trkpt lat="34.31305007686256" lon="109.02575248113082">
        <ele>393.19202253688127</ele>
        <time>2022-03-07T12:50:30Z</time>
      </trkpt>
      <trkpt lat="34.31327902490685" lon="109.02560256037474">
        <ele>393.24965354893357</ele>
        <time>2022-03-07T12:50:36Z</time>
      </trkpt>
      <trkpt lat="34.31355893365488" lon="109.0255633382207">
        <ele>392.5642114970833</ele>
        <time>2022-03-07T12:50:42Z</time>
      </trkpt>
      <trkpt lat="34.31392327303695" lon="109.0254546485159">
        <ele>392.3304286310449</ele>
        <time>2022-03-07T12:50:50Z</time>
      </trkpt>
      <trkpt lat="34.314378932778034" lon="109.02520378016187">
        <ele>391.7374897617847</ele>
        <time>2022-03-07T12:51:02Z</time>
      </trkpt>
      <trkpt lat="34.31480628862007" lon="109.02488018614808">
        <ele>390.4081376977265</ele>
        <time>2022-03-07T12:51:14Z</time>
      </trkpt>
      <trkpt lat="34.315196452061" lon="109.02460155506715">
        <ele>390.192072423175</ele>
        <time>2022-03-07T12:51:24Z</time>
      </trkpt>
      <trkpt lat="34.31526699665856" lon="109.02453676574453">
        <ele>391.1402205498889</ele>
        <time>2022-03-07T12:51:26Z</time>
      </trkpt>
      <trkpt lat="34.315678467592164" lon="109.02431023611018">
        <ele>390.3606211608276</ele>
        <time>2022-03-07T12:51:36Z</time>
      </trkpt>
      <trkpt lat="34.316065414919436" lon="109.0240994149493">
        <ele>390.7178645050153</ele>
        <time>2022-03-07T12:51:46Z</time>
      </trkpt>
      <trkpt lat="34.31612904505091" lon="109.02405045157272">
        <ele>391.1288291402161</ele>
        <time>2022-03-07T12:51:48Z</time>
      </trkpt>
      <trkpt lat="34.31609320401813" lon="109.0239573253672">
        <ele>391.40590327885</ele>
        <time>2022-03-07T12:51:52Z</time>
      </trkpt>
      <trkpt lat="34.31610904190864" lon="109.023767667766">
        <ele>389.7297610659152</ele>
        <time>2022-03-07T12:52:02Z</time>
      </trkpt>
      <trkpt lat="34.316124466882044" lon="109.02375134816046">
        <ele>389.36620243359357</ele>
        <time>2022-03-07T12:52:10Z</time>
      </trkpt>
      <trkpt lat="34.31627206150428" lon="109.0235675097124">
        <ele>390.5944619625807</ele>
        <time>2022-03-07T12:52:29Z</time>
      </trkpt>
      <trkpt lat="34.31626345566926" lon="109.02341492280277">
        <ele>389.2678893133998</ele>
        <time>2022-03-07T12:52:33Z</time>
      </trkpt>
      <trkpt lat="34.31612751041975" lon="109.02309120103409">
        <ele>388.33319814130664</ele>
        <time>2022-03-07T12:52:41Z</time>
      </trkpt>
      <trkpt lat="34.31606320961762" lon="109.02291552109645">
        <ele>387.9066335745156</ele>
        <time>2022-03-07T12:52:45Z</time>
      </trkpt>
      <trkpt lat="34.31584673816684" lon="109.02239991016464">
        <ele>388.5760433487594</ele>
        <time>2022-03-07T12:52:57Z</time>
      </trkpt>
      <trkpt lat="34.31585384194738" lon="109.02228914070618">
        <ele>389.3169857142493</ele>
        <time>2022-03-07T12:53:01Z</time>
      </trkpt>
      <trkpt lat="34.315963593796475" lon="109.0220912758601">
        <ele>391.0077597675845</ele>
        <time>2022-03-07T12:53:11Z</time>
      </trkpt>
      <trkpt lat="34.31593558563815" lon="109.02197690219896">
        <ele>390.86060249526054</ele>
        <time>2022-03-07T12:53:14Z</time>
      </trkpt>
      <trkpt lat="34.31590516344706" lon="109.02156225956762">
        <ele>391.9699686905369</ele>
        <time>2022-03-07T12:53:24Z</time>
      </trkpt>
      <trkpt lat="34.31586950369912" lon="109.02131932679335">
        <ele>393.69898164551705</ele>
        <time>2022-03-07T12:53:30Z</time>
      </trkpt>
      <trkpt lat="34.31587152834151" lon="109.02122292883566">
        <ele>394.02266345825046</ele>
        <time>2022-03-07T12:53:32Z</time>
      </trkpt>
      <trkpt lat="34.31585085991581" lon="109.0210710692114">
        <ele>394.3631575219333</ele>
        <time>2022-03-07T12:53:36Z</time>
      </trkpt>
      <trkpt lat="34.315863176888286" lon="109.02039060833528">
        <ele>395.3649197341874</ele>
        <time>2022-03-07T12:53:50Z</time>
      </trkpt>
      <trkpt lat="34.31587741959687" lon="109.02011906144483">
        <ele>397.1496357759461</ele>
        <time>2022-03-07T12:53:56Z</time>
      </trkpt>
      <trkpt lat="34.31590252062417" lon="109.01994029517009">
        <ele>396.75534190703183</ele>
        <time>2022-03-07T12:54:00Z</time>
      </trkpt>
      <trkpt lat="34.315878428719294" lon="109.01934992171985">
        <ele>400.67716045305133</ele>
        <time>2022-03-07T12:54:16Z</time>
      </trkpt>
      <trkpt lat="34.315900694681474" lon="109.01876546185785">
        <ele>401.47716619167477</ele>
        <time>2022-03-07T12:54:30Z</time>
      </trkpt>
      <trkpt lat="34.315923764559756" lon="109.01844691315534">
        <ele>402.02073263190687</ele>
        <time>2022-03-07T12:54:38Z</time>
      </trkpt>
      <trkpt lat="34.31592096110674" lon="109.01780657308295">
        <ele>403.9906389378011</ele>
        <time>2022-03-07T12:54:54Z</time>
      </trkpt>
      <trkpt lat="34.31584294756889" lon="109.01719255493087">
        <ele>405.1249239305034</ele>
        <time>2022-03-07T12:55:12Z</time>
      </trkpt>
      <trkpt lat="34.31580030614751" lon="109.01697012458384">
        <ele>405.92898361664265</ele>
        <time>2022-03-07T12:55:20Z</time>
      </trkpt>
      <trkpt lat="34.31580395684812" lon="109.0168391785102">
        <ele>406.1767004709691</ele>
        <time>2022-03-07T12:55:24Z</time>
      </trkpt>
      <trkpt lat="34.31575545266067" lon="109.01633117895287">
        <ele>408.00956411473453</ele>
        <time>2022-03-07T12:55:36Z</time>
      </trkpt>
      <trkpt lat="34.31576020657155" lon="109.01622641032172">
        <ele>407.9061156073585</ele>
        <time>2022-03-07T12:55:38Z</time>
      </trkpt>
      <trkpt lat="34.31571931068222" lon="109.01592386965585">
        <ele>407.90373337827623</ele>
        <time>2022-03-07T12:55:44Z</time>
      </trkpt>
      <trkpt lat="34.315759795823595" lon="109.01550030646325">
        <ele>407.75633364729583</ele>
        <time>2022-03-07T12:55:55Z</time>
      </trkpt>
      <trkpt lat="34.31574347010061" lon="109.01522875688704">
        <ele>408.9658528659493</ele>
        <time>2022-03-07T12:56:01Z</time>
      </trkpt>
      <trkpt lat="34.31567509569731" lon="109.01491641312194">
        <ele>407.93326999712735</ele>
        <time>2022-03-07T12:56:09Z</time>
      </trkpt>
      <trkpt lat="34.31566688764839" lon="109.01466203169313">
        <ele>408.4794640177861</ele>
        <time>2022-03-07T12:56:15Z</time>
      </trkpt>
      <trkpt lat="34.315703618025594" lon="109.01446238115066">
        <ele>409.24400941096246</ele>
        <time>2022-03-07T12:56:19Z</time>
      </trkpt>
      <trkpt lat="34.31570045868781" lon="109.01436237630834">
        <ele>409.6805058326572</ele>
        <time>2022-03-07T12:56:21Z</time>
      </trkpt>
      <trkpt lat="34.31571951442727" lon="109.01420207989203">
        <ele>409.3657559333369</ele>
        <time>2022-03-07T12:56:25Z</time>
      </trkpt>
      <trkpt lat="34.31569634715346" lon="109.01403709345333">
        <ele>408.65579066053033</ele>
        <time>2022-03-07T12:56:29Z</time>
      </trkpt>
      <trkpt lat="34.31571089833646" lon="109.01395156190955">
        <ele>408.46469313651323</ele>
        <time>2022-03-07T12:56:31Z</time>
      </trkpt>
      <trkpt lat="34.31569455807435" lon="109.01385961131557">
        <ele>408.4793157465756</ele>
        <time>2022-03-07T12:56:33Z</time>
      </trkpt>
      <trkpt lat="34.315695163728904" lon="109.0136797060438">
        <ele>407.96564057283103</ele>
        <time>2022-03-07T12:56:37Z</time>
      </trkpt>
      <trkpt lat="34.315663872048034" lon="109.01331541351877">
        <ele>408.9772603409365</ele>
        <time>2022-03-07T12:56:45Z</time>
      </trkpt>
      <trkpt lat="34.315703213536956" lon="109.0131247850913">
        <ele>408.88045995961875</ele>
        <time>2022-03-07T12:56:49Z</time>
      </trkpt>
      <trkpt lat="34.31566326301923" lon="109.0129891985559">
        <ele>408.6358381174505</ele>
        <time>2022-03-07T12:56:53Z</time>
      </trkpt>
      <trkpt lat="34.315648235788395" lon="109.01266123516181">
        <ele>407.9191446546465</ele>
        <time>2022-03-07T12:57:01Z</time>
      </trkpt>
      <trkpt lat="34.31556372157532" lon="109.01225111527405">
        <ele>408.20974736008793</ele>
        <time>2022-03-07T12:57:13Z</time>
      </trkpt>
      <trkpt lat="34.31556608447042" lon="109.0119507325543">
        <ele>408.44278308935463</ele>
        <time>2022-03-07T12:57:21Z</time>
      </trkpt>
      <trkpt lat="34.31562178121697" lon="109.0118418645136">
        <ele>409.1228487100452</ele>
        <time>2022-03-07T12:57:23Z</time>
      </trkpt>
      <trkpt lat="34.31584600615104" lon="109.01161579617425">
        <ele>409.3250265708193</ele>
        <time>2022-03-07T12:57:30Z</time>
      </trkpt>
      <trkpt lat="34.31591042105649" lon="109.01151991528165">
        <ele>410.2594172861427</ele>
        <time>2022-03-07T12:57:34Z</time>
      </trkpt>
      <trkpt lat="34.31637682168042" lon="109.01009454396481">
        <ele>409.9147435501218</ele>
        <time>2022-03-07T12:57:36Z</time>
      </trkpt>
      <trkpt lat="34.31646787541439" lon="109.0096834288877">
        <ele>409.58577400259674</ele>
        <time>2022-03-07T12:57:38Z</time>
      </trkpt>
      <trkpt lat="34.31659993136673" lon="109.00964226299743">
        <ele>409.3604305302724</ele>
        <time>2022-03-07T12:57:42Z</time>
      </trkpt>
      <trkpt lat="34.31711982083227" lon="109.00958563330113">
        <ele>408.40624720882624</ele>
        <time>2022-03-07T12:57:52Z</time>
      </trkpt>
      <trkpt lat="34.317464298007316" lon="109.00953971350496">
        <ele>409.3968210555613</ele>
        <time>2022-03-07T12:58:00Z</time>
      </trkpt>
      <trkpt lat="34.31757526633812" lon="109.00956680724687">
        <ele>409.5356587693095</ele>
        <time>2022-03-07T12:58:02Z</time>
      </trkpt>
      <trkpt lat="34.317878019568404" lon="109.00956337163181">
        <ele>409.52969222236425</ele>
        <time>2022-03-07T12:58:14Z</time>
      </trkpt>
      <trkpt lat="34.31836175695249" lon="109.00952807245707">
        <ele>411.0517794927582</ele>
        <time>2022-03-07T12:58:28Z</time>
      </trkpt>
      <trkpt lat="34.31852870911501" lon="109.0095314173836">
        <ele>410.69687743857503</ele>
        <time>2022-03-07T12:58:32Z</time>
      </trkpt>
      <trkpt lat="34.31870847545183" lon="109.00949401315539">
        <ele>410.3610311858356</ele>
        <time>2022-03-07T12:58:36Z</time>
      </trkpt>
      <trkpt lat="34.31916354336165" lon="109.00949574586778">
        <ele>407.1601783381775</ele>
        <time>2022-03-07T12:58:42Z</time>
      </trkpt>
      <trkpt lat="34.31932718498191" lon="109.00947471844509">
        <ele>408.3907283078879</ele>
        <time>2022-03-07T12:58:44Z</time>
      </trkpt>
      <trkpt lat="34.319528202944674" lon="109.00959160755907">
        <ele>407.6119133532047</ele>
        <time>2022-03-07T12:58:46Z</time>
      </trkpt>
      <trkpt lat="34.319750038175385" lon="109.00946171521817">
        <ele>407.2355573065579</ele>
        <time>2022-03-07T12:58:48Z</time>
      </trkpt>
      <trkpt lat="34.320205192872194" lon="109.00949612628611">
        <ele>405.72676172852516</ele>
        <time>2022-03-07T12:58:54Z</time>
      </trkpt>
      <trkpt lat="34.32043856022869" lon="109.00946607882256">
        <ele>403.8039642944932</ele>
        <time>2022-03-07T12:58:58Z</time>
      </trkpt>
      <trkpt lat="34.32094532972619" lon="109.00951201433348">
        <ele>402.88016920909286</ele>
        <time>2022-03-07T12:59:06Z</time>
      </trkpt>
      <trkpt lat="34.32148681923521" lon="109.00949098328738">
        <ele>401.8310251077637</ele>
        <time>2022-03-07T12:59:16Z</time>
      </trkpt>
      <trkpt lat="34.32160770347392" lon="109.00948631558492">
        <ele>401.9555480685085</ele>
        <time>2022-03-07T12:59:18Z</time>
      </trkpt>
      <trkpt lat="34.321734310520846" lon="109.00951142391239">
        <ele>401.3890559319407</ele>
        <time>2022-03-07T12:59:20Z</time>
      </trkpt>
      <trkpt lat="34.32197004625233" lon="109.00952029445733">
        <ele>401.00768253766</ele>
        <time>2022-03-07T12:59:24Z</time>
      </trkpt>
      <trkpt lat="34.32208812604497" lon="109.00949513653502">
        <ele>400.94217334035784</ele>
        <time>2022-03-07T12:59:26Z</time>
      </trkpt>
      <trkpt lat="34.32235507275726" lon="109.00953062889549">
        <ele>399.5958847133443</ele>
        <time>2022-03-07T12:59:30Z</time>
      </trkpt>
      <trkpt lat="34.32247835049142" lon="109.0095273506346">
        <ele>399.2051713615656</ele>
        <time>2022-03-07T12:59:32Z</time>
      </trkpt>
      <trkpt lat="34.32258540250455" lon="109.00949341360867">
        <ele>399.1426340416074</ele>
        <time>2022-03-07T12:59:34Z</time>
      </trkpt>
      <trkpt lat="34.322702540052035" lon="109.00949085846995">
        <ele>398.58491674624383</ele>
        <time>2022-03-07T12:59:36Z</time>
      </trkpt>
      <trkpt lat="34.322932462573206" lon="109.00943460431252">
        <ele>398.51308773923665</ele>
        <time>2022-03-07T12:59:40Z</time>
      </trkpt>
      <trkpt lat="34.32342925491981" lon="109.0093902967611">
        <ele>397.03613011632115</ele>
        <time>2022-03-07T12:59:48Z</time>
      </trkpt>
      <trkpt lat="34.323775566101034" lon="109.00936179071645">
        <ele>396.8479210762307</ele>
        <time>2022-03-07T12:59:54Z</time>
      </trkpt>
      <trkpt lat="34.32421789392828" lon="109.00923851636755">
        <ele>396.9787296690047</ele>
        <time>2022-03-07T13:00:04Z</time>
      </trkpt>
      <trkpt lat="34.32429799544198" lon="109.00918644438744">
        <ele>396.8275654222816</ele>
        <time>2022-03-07T13:00:06Z</time>
      </trkpt>
      <trkpt lat="34.3246642073591" lon="109.0090446980198">
        <ele>396.40614955779165</ele>
        <time>2022-03-07T13:00:14Z</time>
      </trkpt>
      <trkpt lat="34.32475350251404" lon="109.00898694416506">
        <ele>396.30258385371417</ele>
        <time>2022-03-07T13:00:16Z</time>
      </trkpt>
      <trkpt lat="34.32525458542563" lon="109.00878016387789">
        <ele>395.60903952177614</ele>
        <time>2022-03-07T13:00:26Z</time>
      </trkpt>
      <trkpt lat="34.325521695105245" lon="109.00864052055009">
        <ele>395.18639499507844</ele>
        <time>2022-03-07T13:00:32Z</time>
      </trkpt>
      <trkpt lat="34.32598196129092" lon="109.00838609902861">
        <ele>395.75377911981195</ele>
        <time>2022-03-07T13:00:42Z</time>
      </trkpt>
      <trkpt lat="34.32644693258942" lon="109.00810083295418">
        <ele>395.4558853879571</ele>
        <time>2022-03-07T13:00:52Z</time>
      </trkpt>
      <trkpt lat="34.32689819800546" lon="109.00779719469936">
        <ele>393.82436746545136</ele>
        <time>2022-03-07T13:01:02Z</time>
      </trkpt>
      <trkpt lat="34.32722015303617" lon="109.00755901634967">
        <ele>394.1448469078168</ele>
        <time>2022-03-07T13:01:10Z</time>
      </trkpt>
      <trkpt lat="34.32737427271469" lon="109.0074172071382">
        <ele>393.77988934423774</ele>
        <time>2022-03-07T13:01:14Z</time>
      </trkpt>
      <trkpt lat="34.327561967573196" lon="109.00732379869633">
        <ele>393.89634603913873</ele>
        <time>2022-03-07T13:01:18Z</time>
      </trkpt>
      <trkpt lat="34.3276247326796" lon="109.00725719271485">
        <ele>393.9474672488868</ele>
        <time>2022-03-07T13:01:20Z</time>
      </trkpt>
      <trkpt lat="34.32791400184525" lon="109.00713178569744">
        <ele>394.60779861174524</ele>
        <time>2022-03-07T13:01:26Z</time>
      </trkpt>
      <trkpt lat="34.32810401796359" lon="109.00700244969187">
        <ele>393.7611539727077</ele>
        <time>2022-03-07T13:01:32Z</time>
      </trkpt>
      <trkpt lat="34.32809845648574" lon="109.00701951240121">
        <ele>393.7774468138814</ele>
        <time>2022-03-07T13:01:40Z</time>
      </trkpt>
      <trkpt lat="34.328147124972496" lon="109.00687199111805">
        <ele>394.98102555889636</ele>
        <time>2022-03-07T13:01:49Z</time>
      </trkpt>
      <trkpt lat="34.3280690570307" lon="109.00644687571508">
        <ele>393.711053552106</ele>
        <time>2022-03-07T13:01:58Z</time>
      </trkpt>
      <trkpt lat="34.328032926094075" lon="109.00605284349322">
        <ele>394.76013829000294</ele>
        <time>2022-03-07T13:02:08Z</time>
      </trkpt>
      <trkpt lat="34.32793097880437" lon="109.00548060326845">
        <ele>394.40024839527905</ele>
        <time>2022-03-07T13:02:20Z</time>
      </trkpt>
      <trkpt lat="34.327920561514034" lon="109.00526598934115">
        <ele>394.7539249295369</ele>
        <time>2022-03-07T13:02:24Z</time>
      </trkpt>
      <trkpt lat="34.327812081324744" lon="109.00475128549421">
        <ele>394.29496111162007</ele>
        <time>2022-03-07T13:02:34Z</time>
      </trkpt>
      <trkpt lat="34.327778722453836" lon="109.00465148859014">
        <ele>394.46713731996715</ele>
        <time>2022-03-07T13:02:36Z</time>
      </trkpt>
      <trkpt lat="34.327766477108725" lon="109.00454781440644">
        <ele>394.60426162276417</ele>
        <time>2022-03-07T13:02:38Z</time>
      </trkpt>
      <trkpt lat="34.3278251133686" lon="109.00397064070093">
        <ele>395.246558079496</ele>
        <time>2022-03-07T13:02:48Z</time>
      </trkpt>
      <trkpt lat="34.327845269276665" lon="109.00385846115546">
        <ele>394.83014805056155</ele>
        <time>2022-03-07T13:02:50Z</time>
      </trkpt>
      <trkpt lat="34.327841908345384" lon="109.00339258118791">
        <ele>394.7157651912421</ele>
        <time>2022-03-07T13:02:58Z</time>
      </trkpt>
      <trkpt lat="34.32782442164287" lon="109.00328676564224">
        <ele>394.74866883829236</ele>
        <time>2022-03-07T13:03:00Z</time>
      </trkpt>
      <trkpt lat="34.3278169934989" lon="109.00285230134672">
        <ele>395.25866688229144</ele>
        <time>2022-03-07T13:03:06Z</time>
      </trkpt>
      <trkpt lat="34.32782941682405" lon="109.002253383155">
        <ele>395.67667743656784</ele>
        <time>2022-03-07T13:03:16Z</time>
      </trkpt>
      <trkpt lat="34.327856624181024" lon="109.00205840670334">
        <ele>395.6811562217772</ele>
        <time>2022-03-07T13:03:20Z</time>
      </trkpt>
      <trkpt lat="34.327851153993166" lon="109.00168198990518">
        <ele>396.47768544591963</ele>
        <time>2022-03-07T13:03:26Z</time>
      </trkpt>
      <trkpt lat="34.32781220385549" lon="109.00105854229149">
        <ele>396.0106724817306</ele>
        <time>2022-03-07T13:03:36Z</time>
      </trkpt>
      <trkpt lat="34.32782234764365" lon="109.00081106895962">
        <ele>396.5120815401897</ele>
        <time>2022-03-07T13:03:40Z</time>
      </trkpt>
      <trkpt lat="34.32786672306796" lon="109.00024638917516">
        <ele>395.6233765250072</ele>
        <time>2022-03-07T13:03:50Z</time>
      </trkpt>
      <trkpt lat="34.327885819514215" lon="109.0000256307117">
        <ele>395.4720393810421</ele>
        <time>2022-03-07T13:03:54Z</time>
      </trkpt>
      <trkpt lat="34.32794478242882" lon="108.99972637532603">
        <ele>396.5691304495558</ele>
        <time>2022-03-07T13:04:00Z</time>
      </trkpt>
      <trkpt lat="34.32796795771859" lon="108.99941963120665">
        <ele>396.5934546645731</ele>
        <time>2022-03-07T13:04:06Z</time>
      </trkpt>
      <trkpt lat="34.32794664927499" lon="108.99909388910183">
        <ele>395.4942110031843</ele>
        <time>2022-03-07T13:04:10Z</time>
      </trkpt>
      <trkpt lat="34.327849023933005" lon="108.99858183669387">
        <ele>393.97263444866985</ele>
        <time>2022-03-07T13:04:16Z</time>
      </trkpt>
      <trkpt lat="34.327783084870276" lon="108.9983907627372">
        <ele>394.24958834890276</ele>
        <time>2022-03-07T13:04:20Z</time>
      </trkpt>
      <trkpt lat="34.32781770574366" lon="108.99785531999478">
        <ele>394.77462100889534</ele>
        <time>2022-03-07T13:04:28Z</time>
      </trkpt>
      <trkpt lat="34.3278647798655" lon="108.99757963417223">
        <ele>394.23045779392123</ele>
        <time>2022-03-07T13:04:32Z</time>
      </trkpt>
      <trkpt lat="34.327863310928294" lon="108.99746385016962">
        <ele>394.7095557274297</ele>
        <time>2022-03-07T13:04:34Z</time>
      </trkpt>
      <trkpt lat="34.32791191980021" lon="108.99705257620522">
        <ele>395.27595067117363</ele>
        <time>2022-03-07T13:04:40Z</time>
      </trkpt>
      <trkpt lat="34.327918165079964" lon="108.9968318571205">
        <ele>395.6751874051988</ele>
        <time>2022-03-07T13:04:44Z</time>
      </trkpt>
      <trkpt lat="34.327893410002105" lon="108.99673974407362">
        <ele>395.5124291172251</ele>
        <time>2022-03-07T13:04:46Z</time>
      </trkpt>
      <trkpt lat="34.32793984872108" lon="108.99611650861736">
        <ele>394.76159314159304</ele>
        <time>2022-03-07T13:04:56Z</time>
      </trkpt>
      <trkpt lat="34.32796897100648" lon="108.99573653941889">
        <ele>394.7471157507971</ele>
        <time>2022-03-07T13:05:02Z</time>
      </trkpt>
      <trkpt lat="34.327926644038406" lon="108.99513314596038">
        <ele>394.8190003121272</ele>
        <time>2022-03-07T13:05:14Z</time>
      </trkpt>
      <trkpt lat="34.32795048859939" lon="108.99487634117817">
        <ele>394.7707393700257</ele>
        <time>2022-03-07T13:05:18Z</time>
      </trkpt>
      <trkpt lat="34.327963016543926" lon="108.99443304574132">
        <ele>394.9040424693376</ele>
        <time>2022-03-07T13:05:26Z</time>
      </trkpt>
      <trkpt lat="34.32798671648913" lon="108.99430372722288">
        <ele>395.02690882701427</ele>
        <time>2022-03-07T13:05:28Z</time>
      </trkpt>
      <trkpt lat="34.32796556434139" lon="108.99398414109797">
        <ele>394.62586673814803</ele>
        <time>2022-03-07T13:05:34Z</time>
      </trkpt>
      <trkpt lat="34.327974121413064" lon="108.99372898362446">
        <ele>394.1002970309928</ele>
        <time>2022-03-07T13:05:38Z</time>
      </trkpt>
      <trkpt lat="34.32792408696559" lon="108.99355107625887">
        <ele>395.0408954313025</ele>
        <time>2022-03-07T13:05:42Z</time>
      </trkpt>
      <trkpt lat="34.327923204621534" lon="108.99329317703356">
        <ele>393.7991029433906</ele>
        <time>2022-03-07T13:05:46Z</time>
      </trkpt>
      <trkpt lat="34.32789323480694" lon="108.99312500312725">
        <ele>394.8038276704028</ele>
        <time>2022-03-07T13:05:50Z</time>
      </trkpt>
      <trkpt lat="34.32788655959269" lon="108.99287416817906">
        <ele>395.07245503365993</ele>
        <time>2022-03-07T13:05:54Z</time>
      </trkpt>
      <trkpt lat="34.327867133208066" lon="108.99267516465002">
        <ele>394.9672637125477</ele>
        <time>2022-03-07T13:05:58Z</time>
      </trkpt>
      <trkpt lat="34.32793130317509" lon="108.9921305315689">
        <ele>392.7998390868306</ele>
        <time>2022-03-07T13:06:06Z</time>
      </trkpt>
      <trkpt lat="34.32801255585176" lon="108.99156421664001">
        <ele>392.3419970078394</ele>
        <time>2022-03-07T13:06:14Z</time>
      </trkpt>
      <trkpt lat="34.32803232678834" lon="108.99125495437387">
        <ele>392.1141732065007</ele>
        <time>2022-03-07T13:06:30Z</time>
      </trkpt>
      <trkpt lat="34.32804376872869" lon="108.99095803805348">
        <ele>392.0842235367745</ele>
        <time>2022-03-07T13:07:25Z</time>
      </trkpt>
      <trkpt lat="34.32807025132828" lon="108.99069396115226">
        <ele>391.93656377121806</ele>
        <time>2022-03-07T13:07:31Z</time>
      </trkpt>
      <trkpt lat="34.32804012008908" lon="108.99053864503759">
        <ele>391.57955597154796</ele>
        <time>2022-03-07T13:07:35Z</time>
      </trkpt>
      <trkpt lat="34.32799325163534" lon="108.99046386781349">
        <ele>392.115346532315</ele>
        <time>2022-03-07T13:07:37Z</time>
      </trkpt>
      <trkpt lat="34.32799006249964" lon="108.99019490774624">
        <ele>392.38310862798244</ele>
        <time>2022-03-07T13:07:45Z</time>
      </trkpt>
      <trkpt lat="34.3280047361842" lon="108.99002588295033">
        <ele>392.3122303150594</ele>
        <time>2022-03-07T13:07:49Z</time>
      </trkpt>
      <trkpt lat="34.32799437311691" lon="108.98987243058583">
        <ele>392.7856086976826</ele>
        <time>2022-03-07T13:07:53Z</time>
      </trkpt>
      <trkpt lat="34.327945363066135" lon="108.98977916297575">
        <ele>392.82841813378036</ele>
        <time>2022-03-07T13:07:56Z</time>
      </trkpt>
      <trkpt lat="34.327989571649056" lon="108.98955618006984">
        <ele>394.39265461917967</ele>
        <time>2022-03-07T13:08:04Z</time>
      </trkpt>
      <trkpt lat="34.32798208232576" lon="108.98943723533793">
        <ele>394.1610391391441</ele>
        <time>2022-03-07T13:08:08Z</time>
      </trkpt>
      <trkpt lat="34.32781066408364" lon="108.98915597028248">
        <ele>393.06728840526193</ele>
        <time>2022-03-07T13:08:16Z</time>
      </trkpt>
      <trkpt lat="34.32776929110237" lon="108.98901316637833">
        <ele>393.22989171463996</ele>
        <time>2022-03-07T13:08:20Z</time>
      </trkpt>
      <trkpt lat="34.3278550590794" lon="108.98877396556908">
        <ele>393.2136144042015</ele>
        <time>2022-03-07T13:08:26Z</time>
      </trkpt>
      <trkpt lat="34.32786872155813" lon="108.9885241042992">
        <ele>394.2200464801863</ele>
        <time>2022-03-07T13:08:32Z</time>
      </trkpt>
      <trkpt lat="34.32784118650007" lon="108.98842849722668">
        <ele>393.93128036521375</ele>
        <time>2022-03-07T13:08:34Z</time>
      </trkpt>
      <trkpt lat="34.32777431829136" lon="108.98833268255598">
        <ele>393.38342217635363</ele>
        <time>2022-03-07T13:08:36Z</time>
      </trkpt>
      <trkpt lat="34.32772448160691" lon="108.9881773516403">
        <ele>393.15421885997057</ele>
        <time>2022-03-07T13:08:40Z</time>
      </trkpt>
      <trkpt lat="34.32778934225601" lon="108.98791580332204">
        <ele>395.21540798433125</ele>
        <time>2022-03-07T13:08:46Z</time>
      </trkpt>
      <trkpt lat="34.32780459513188" lon="108.9877714389447">
        <ele>394.71170761063695</ele>
        <time>2022-03-07T13:08:50Z</time>
      </trkpt>
      <trkpt lat="34.3278383286774" lon="108.98763723214184">
        <ele>394.8871818203479</ele>
        <time>2022-03-07T13:08:54Z</time>
      </trkpt>
      <trkpt lat="34.32777669388478" lon="108.98750077354">
        <ele>395.50950961373746</ele>
        <time>2022-03-07T13:08:58Z</time>
      </trkpt>
      <trkpt lat="34.327752539596524" lon="108.987267474557">
        <ele>394.79443636350334</ele>
        <time>2022-03-07T13:09:06Z</time>
      </trkpt>
      <trkpt lat="34.327754979439234" lon="108.98698049700332">
        <ele>394.27548769582063</ele>
        <time>2022-03-07T13:09:14Z</time>
      </trkpt>
      <trkpt lat="34.32777434677497" lon="108.98686752440082">
        <ele>394.0077367061749</ele>
        <time>2022-03-07T13:09:16Z</time>
      </trkpt>
      <trkpt lat="34.327722510110235" lon="108.98670859871106">
        <ele>393.11944813560694</ele>
        <time>2022-03-07T13:09:20Z</time>
      </trkpt>
      <trkpt lat="34.32772216927222" lon="108.98655039999683">
        <ele>392.39975564554334</ele>
        <time>2022-03-07T13:09:32Z</time>
      </trkpt>
      <trkpt lat="34.32789447325974" lon="108.98583688662445">
        <ele>392.08101691212505</ele>
        <time>2022-03-07T13:09:55Z</time>
      </trkpt>
      <trkpt lat="34.32788153489837" lon="108.98522939174853">
        <ele>392.24281883612275</ele>
        <time>2022-03-07T13:10:04Z</time>
      </trkpt>
      <trkpt lat="34.32787831051494" lon="108.9850980596553">
        <ele>392.1444037249312</ele>
        <time>2022-03-07T13:10:06Z</time>
      </trkpt>
      <trkpt lat="34.32785335266146" lon="108.98494913939521">
        <ele>392.8119147149846</ele>
        <time>2022-03-07T13:10:10Z</time>
      </trkpt>
      <trkpt lat="34.32787724201388" lon="108.98436740223231">
        <ele>392.46902151498944</ele>
        <time>2022-03-07T13:10:16Z</time>
      </trkpt>
      <trkpt lat="34.32789801447116" lon="108.98417437298157">
        <ele>392.60231181327254</ele>
        <time>2022-03-07T13:10:18Z</time>
      </trkpt>
      <trkpt lat="34.32787692387477" lon="108.98398643010698">
        <ele>392.97421691194177</ele>
        <time>2022-03-07T13:10:20Z</time>
      </trkpt>
      <trkpt lat="34.32791134904012" lon="108.98375067843588">
        <ele>392.82647273503244</ele>
        <time>2022-03-07T13:10:22Z</time>
      </trkpt>
      <trkpt lat="34.327926075561486" lon="108.98320100025735">
        <ele>393.17209140677005</ele>
        <time>2022-03-07T13:10:28Z</time>
      </trkpt>
      <trkpt lat="34.32789421371968" lon="108.98263305586964">
        <ele>393.35433661658317</ele>
        <time>2022-03-07T13:10:36Z</time>
      </trkpt>
      <trkpt lat="34.32788521107701" lon="108.98223653725572">
        <ele>393.59808426350355</ele>
        <time>2022-03-07T13:10:42Z</time>
      </trkpt>
      <trkpt lat="34.32791129586256" lon="108.9819744116904">
        <ele>394.43944796547294</ele>
        <time>2022-03-07T13:10:46Z</time>
      </trkpt>
      <trkpt lat="34.32791119043073" lon="108.98182109469425">
        <ele>394.84622659441084</ele>
        <time>2022-03-07T13:10:48Z</time>
      </trkpt>
      <trkpt lat="34.327895273271515" lon="108.98172881858174">
        <ele>394.15866887383163</ele>
        <time>2022-03-07T13:10:50Z</time>
      </trkpt>
      <trkpt lat="34.32789723429264" lon="108.98159722024856">
        <ele>395.2289242343977</ele>
        <time>2022-03-07T13:10:52Z</time>
      </trkpt>
      <trkpt lat="34.327941871219856" lon="108.98134773739162">
        <ele>395.00357495620847</ele>
        <time>2022-03-07T13:11:00Z</time>
      </trkpt>
      <trkpt lat="34.328077508128736" lon="108.98118015827934">
        <ele>394.6704592630267</ele>
        <time>2022-03-07T13:11:08Z</time>
      </trkpt>
      <trkpt lat="34.32814983349391" lon="108.9810034592898">
        <ele>394.8172466447577</ele>
        <time>2022-03-07T13:11:17Z</time>
      </trkpt>
      <trkpt lat="34.32814525875514" lon="108.98089467776195">
        <ele>394.65312986820936</ele>
        <time>2022-03-07T13:11:27Z</time>
      </trkpt>
      <trkpt lat="34.328205598391484" lon="108.98082660112615">
        <ele>394.6330685475841</ele>
        <time>2022-03-07T13:11:35Z</time>
      </trkpt>
      <trkpt lat="34.32827741264215" lon="108.98078378640203">
        <ele>394.92301847506315</ele>
        <time>2022-03-07T13:11:43Z</time>
      </trkpt>
      <trkpt lat="34.32837344133259" lon="108.98077326230099">
        <ele>394.81407744809985</ele>
        <time>2022-03-07T13:12:01Z</time>
      </trkpt>
      <trkpt lat="34.328502023460594" lon="108.9807652698657">
        <ele>395.2248151162639</ele>
        <time>2022-03-07T13:12:13Z</time>
      </trkpt>
      <trkpt lat="34.32855836896944" lon="108.98069790183489">
        <ele>396.1646206462756</ele>
        <time>2022-03-07T13:12:18Z</time>
      </trkpt>
      <trkpt lat="34.328585150259585" lon="108.98048913514391">
        <ele>395.55286369938403</ele>
        <time>2022-03-07T13:12:32Z</time>
      </trkpt>
      <trkpt lat="34.3286492753037" lon="108.98029367812559">
        <ele>395.76277615502477</ele>
        <time>2022-03-07T13:12:50Z</time>
      </trkpt>
      <trkpt lat="34.32872927450285" lon="108.9803158046703">
        <ele>395.79370749183</ele>
        <time>2022-03-07T13:12:58Z</time>
      </trkpt>
      <trkpt lat="34.32883344207691" lon="108.98032599717655">
        <ele>396.0952315730974</ele>
        <time>2022-03-07T13:13:09Z</time>
      </trkpt>
      <trkpt lat="34.32894333451552" lon="108.98026081738995">
        <ele>395.87103738170117</ele>
        <time>2022-03-07T13:13:11Z</time>
      </trkpt>
      <trkpt lat="34.32873064513845" lon="108.98055474345675">
        <ele>398.6731929779053</ele>
        <time>2022-03-07T13:13:26Z</time>
      </trkpt>
      <trkpt lat="34.3286981210953" lon="108.9804494949063">
        <ele>397.9397087097168</ele>
        <time>2022-03-07T13:13:33Z</time>
      </trkpt>
      <trkpt lat="34.328225350791556" lon="108.98068018032046">
        <ele>396.73300552368164</ele>
        <time>2022-03-07T13:13:52Z</time>
      </trkpt>
      <trkpt lat="34.32822116842849" lon="108.98042389133788">
        <ele>396.8755340576172</ele>
        <time>2022-03-07T13:13:55Z</time>
      </trkpt>
      <trkpt lat="34.32830134433191" lon="108.9805789082821">
        <ele>397.48796463012695</ele>
        <time>2022-03-07T13:14:05Z</time>
      </trkpt>
      <trkpt lat="34.3285177703754" lon="108.98029630802107">
        <ele>397.7664604187012</ele>
        <time>2022-03-07T13:14:18Z</time>
      </trkpt>
      <trkpt lat="34.32836851820158" lon="108.98036009305974">
        <ele>401.0168266296387</ele>
        <time>2022-03-07T13:14:32Z</time>
      </trkpt>
      <trkpt lat="34.32816587256048" lon="108.98015446250514">
        <ele>401.501766204834</ele>
        <time>2022-03-07T13:14:39Z</time>
      </trkpt>
      <trkpt lat="34.32825760720827" lon="108.98023948961661">
        <ele>403.65576553344727</ele>
        <time>2022-03-07T13:14:46Z</time>
      </trkpt>
      <trkpt lat="34.32822116842849" lon="108.98042389133788">
        <ele>404.2367515563965</ele>
        <time>2022-03-07T13:14:51Z</time>
      </trkpt>
      <trkpt lat="34.32825550699078" lon="108.9802723023091">
        <ele>447.79406402260065</ele>
        <time>2022-03-07T13:15:28Z</time>
      </trkpt>
      <trkpt lat="34.32832190369446" lon="108.98025848752263">
        <ele>423.8879896700382</ele>
        <time>2022-03-07T13:17:57Z</time>
      </trkpt>
    </trkseg>
  </trk>
</gpx>