<?xml version="1.0" encoding="UTF-8"?>
<gpx xmlns="http://www.topografix.com/GPX/1/1" xmlns:gpxtpx="http://www.garmin.com/xmlschemas/TrackPointExtension/v1" xmlns:xsi="http://www.w3.org/2001/XMLSchema-instance" xsi:schemaLocation="http://www.topografix.com/GPX/1/1 http://www.topografix.com/GPX/1/1/gpx.xsd" version="1.1" creator="gpx.py -- https://github.com/tkrajina/gpxpy">
  <trk>
    <name>gpx from keep</name>
    <type>Run</type>
    <trkseg>
      <trkpt lat="34.29738563320468" lon="108.71044296611247">
        <ele>389.51045989990234</ele>
        <time>2026-09-16T11:24:15Z</time>
      </trkpt>
      <trkpt lat="34.297380375375425" lon="108.7105014372866">
        <ele>391.79695892333984</ele>
        <time>2026-09-16T11:24:20Z</time>
      </trkpt>
      <trkpt lat="34.29735375504506" lon="108.71044074335119">
        <ele>397.1050033569336</ele>
        <time>2026-09-16T11:24:23Z</time>
      </trkpt>
      <trkpt lat="34.297461260185955" lon="108.71037246959622">
        <ele>401.11891979537904</ele>
        <time>2026-09-16T11:24:35Z</time>
      </trkpt>
      <trkpt lat="34.29759307960356" lon="108.71018473773762">
        <ele>399.0494617111981</ele>
        <time>2026-09-16T11:24:43Z</time>
      </trkpt>
      <trkpt lat="34.297763338542275" lon="108.71023818909526">
        <ele>387.3953072251752</ele>
        <time>2026-09-16T11:24:47Z</time>
      </trkpt>
      <trkpt lat="34.29783022690336" lon="108.71021284800429">
        <ele>387.3029988100752</ele>
        <time>2026-09-16T11:24:51Z</time>
      </trkpt>
      <trkpt lat="34.29790423914734" lon="108.71022349729878">
        <ele>386.52007872238755</ele>
        <time>2026-09-16T11:24:55Z</time>
      </trkpt>
      <trkpt lat="34.29796420077479" lon="108.71021076446213">
        <ele>386.6073913788423</ele>
        <time>2026-09-16T11:24:59Z</time>
      </trkpt>
      <trkpt lat="34.29804547335314" lon="108.71034057606924">
        <ele>387.9171106694266</ele>
        <time>2026-09-16T11:25:11Z</time>
      </trkpt>
      <trkpt lat="34.29805712380945" lon="108.71041967001219">
        <ele>388.2798944497481</ele>
        <time>2026-09-16T11:25:15Z</time>
      </trkpt>
      <trkpt lat="34.2981045561816" lon="108.71047318967362">
        <ele>387.83136130683124</ele>
        <time>2026-09-16T11:25:18Z</time>
      </trkpt>
      <trkpt lat="34.2981154079524" lon="108.71052723367819">
        <ele>388.9446774413809</ele>
        <time>2026-09-16T11:25:21Z</time>
      </trkpt>
      <trkpt lat="34.29817743875137" lon="108.71058503007826">
        <ele>389.70093411393464</ele>
        <time>2026-09-16T11:25:27Z</time>
      </trkpt>
      <trkpt lat="34.29817617170941" lon="108.71091582672501">
        <ele>388.91681401617825</ele>
        <time>2026-09-16T11:25:42Z</time>
      </trkpt>
      <trkpt lat="34.29816903089115" lon="108.71111194362614">
        <ele>389.5091660702601</ele>
        <time>2026-09-16T11:25:51Z</time>
      </trkpt>
      <trkpt lat="34.29814905211028" lon="108.7111732483094">
        <ele>388.6871406743303</ele>
        <time>2026-09-16T11:25:54Z</time>
      </trkpt>
      <trkpt lat="34.298191921088076" lon="108.71140493205225">
        <ele>390.38107453938574</ele>
        <time>2026-09-16T11:26:09Z</time>
      </trkpt>
      <trkpt lat="34.29792757012887" lon="108.71151120623124">
        <ele>388.25590123794973</ele>
        <time>2026-09-16T11:26:25Z</time>
      </trkpt>
      <trkpt lat="34.29764656652975" lon="108.71163456478523">
        <ele>389.3623732654378</ele>
        <time>2026-09-16T11:26:43Z</time>
      </trkpt>
      <trkpt lat="34.29737633779935" lon="108.71173446620182">
        <ele>389.65576012432575</ele>
        <time>2026-09-16T11:27:01Z</time>
      </trkpt>
      <trkpt lat="34.297096636124486" lon="108.71184128783895">
        <ele>390.3244717037305</ele>
        <time>2026-09-16T11:27:19Z</time>
      </trkpt>
      <trkpt lat="34.29684398024682" lon="108.7119701127652">
        <ele>390.43002886883914</ele>
        <time>2026-09-16T11:27:37Z</time>
      </trkpt>
      <trkpt lat="34.29656777558097" lon="108.71207710492278">
        <ele>389.3851534239948</ele>
        <time>2026-09-16T11:27:55Z</time>
      </trkpt>
      <trkpt lat="34.29638793479796" lon="108.71215345164089">
        <ele>389.03703837282956</ele>
        <time>2026-09-16T11:28:07Z</time>
      </trkpt>
      <trkpt lat="34.296315022566205" lon="108.71210503132775">
        <ele>387.8174727000296</ele>
        <time>2026-09-16T11:28:13Z</time>
      </trkpt>
      <trkpt lat="34.296282677670256" lon="108.71206406070465">
        <ele>386.79414018336684</ele>
        <time>2026-09-16T11:28:16Z</time>
      </trkpt>
      <trkpt lat="34.29626079462606" lon="108.71195281399454">
        <ele>385.8399543110281</ele>
        <time>2026-09-16T11:28:22Z</time>
      </trkpt>
      <trkpt lat="34.296255884112725" lon="108.71171517892235">
        <ele>387.0427635256201</ele>
        <time>2026-09-16T11:28:35Z</time>
      </trkpt>
      <trkpt lat="34.29621605638863" lon="108.71137309676155">
        <ele>387.8732391567901</ele>
        <time>2026-09-16T11:28:53Z</time>
      </trkpt>
      <trkpt lat="34.29616334954249" lon="108.7111446413873">
        <ele>388.2371268030256</ele>
        <time>2026-09-16T11:29:05Z</time>
      </trkpt>
      <trkpt lat="34.296110226691006" lon="108.71079562133737">
        <ele>389.8810535352677</ele>
        <time>2026-09-16T11:29:23Z</time>
      </trkpt>
      <trkpt lat="34.296053349078456" lon="108.71040506865646">
        <ele>389.9687487166375</ele>
        <time>2026-09-16T11:29:44Z</time>
      </trkpt>
      <trkpt lat="34.296022752775784" lon="108.7101251585161">
        <ele>390.1920181354508</ele>
        <time>2026-09-16T11:29:59Z</time>
      </trkpt>
      <trkpt lat="34.295984322972295" lon="108.70998419336509">
        <ele>389.54678370058537</ele>
        <time>2026-09-16T11:30:08Z</time>
      </trkpt>
      <trkpt lat="34.29596146973031" lon="108.70960605350498">
        <ele>387.76382473949343</ele>
        <time>2026-09-16T11:30:26Z</time>
      </trkpt>
      <trkpt lat="34.295927576936634" lon="108.70933093035701">
        <ele>387.6692537292838</ele>
        <time>2026-09-16T11:30:40Z</time>
      </trkpt>
      <trkpt lat="34.295885481482266" lon="108.70918067916595">
        <ele>386.65982028935105</ele>
        <time>2026-09-16T11:30:48Z</time>
      </trkpt>
      <trkpt lat="34.295888729890216" lon="108.70900338944708">
        <ele>388.94223108515143</ele>
        <time>2026-09-16T11:30:57Z</time>
      </trkpt>
      <trkpt lat="34.29583050052747" lon="108.7086608744669">
        <ele>388.65381538309157</ele>
        <time>2026-09-16T11:31:15Z</time>
      </trkpt>
      <trkpt lat="34.295812080351844" lon="108.7083298763523">
        <ele>388.7854383457452</ele>
        <time>2026-09-16T11:31:33Z</time>
      </trkpt>
      <trkpt lat="34.295765658134314" lon="108.70797440296444">
        <ele>389.26075509749353</ele>
        <time>2026-09-16T11:31:57Z</time>
      </trkpt>
      <trkpt lat="34.29574848457142" lon="108.70778404799618">
        <ele>390.2318791402504</ele>
        <time>2026-09-16T11:32:06Z</time>
      </trkpt>
      <trkpt lat="34.295773012809015" lon="108.70766435839988">
        <ele>390.21829944103956</ele>
        <time>2026-09-16T11:32:12Z</time>
      </trkpt>
      <trkpt lat="34.29576657980455" lon="108.70744942993362">
        <ele>389.4199578994885</ele>
        <time>2026-09-16T11:32:24Z</time>
      </trkpt>
      <trkpt lat="34.29573001458987" lon="108.70729863327854">
        <ele>388.54468978662044</ele>
        <time>2026-09-16T11:32:33Z</time>
      </trkpt>
      <trkpt lat="34.29572423944219" lon="108.70710686712445">
        <ele>388.25558803230524</ele>
        <time>2026-09-16T11:32:43Z</time>
      </trkpt>
      <trkpt lat="34.2956836503664" lon="108.7068274329545">
        <ele>387.6470704851672</ele>
        <time>2026-09-16T11:33:01Z</time>
      </trkpt>
      <trkpt lat="34.29564941075148" lon="108.70646310276727">
        <ele>388.5979266734794</ele>
        <time>2026-09-16T11:33:19Z</time>
      </trkpt>
      <trkpt lat="34.2956321883934" lon="108.70639997696713">
        <ele>388.5279954234138</ele>
        <time>2026-09-16T11:33:22Z</time>
      </trkpt>
      <trkpt lat="34.29567092708102" lon="108.70621278970737">
        <ele>388.6922844480723</ele>
        <time>2026-09-16T11:33:40Z</time>
      </trkpt>
      <trkpt lat="34.29575386336922" lon="108.70610397797525">
        <ele>388.6256506610662</ele>
        <time>2026-09-16T11:34:01Z</time>
      </trkpt>
      <trkpt lat="34.29606630721741" lon="108.70605573272383">
        <ele>388.0098553709686</ele>
        <time>2026-09-16T11:34:19Z</time>
      </trkpt>
      <trkpt lat="34.29611313650259" lon="108.70603275311626">
        <ele>388.7457417063415</ele>
        <time>2026-09-16T11:34:22Z</time>
      </trkpt>
      <trkpt lat="34.29632105227137" lon="108.70601951332566">
        <ele>388.7770323269069</ele>
        <time>2026-09-16T11:34:34Z</time>
      </trkpt>
      <trkpt lat="34.296539557795256" lon="108.70595757304876">
        <ele>388.42600899748504</ele>
        <time>2026-09-16T11:34:50Z</time>
      </trkpt>
      <trkpt lat="34.2966042371182" lon="108.70595921916893">
        <ele>387.5963102756068</ele>
        <time>2026-09-16T11:34:56Z</time>
      </trkpt>
      <trkpt lat="34.29687259681156" lon="108.70589799547031">
        <ele>387.9521856736392</ele>
        <time>2026-09-16T11:35:17Z</time>
      </trkpt>
      <trkpt lat="34.297173476361415" lon="108.70585669211786">
        <ele>389.16009631659836</ele>
        <time>2026-09-16T11:35:35Z</time>
      </trkpt>
      <trkpt lat="34.29750995398926" lon="108.70579226742115">
        <ele>389.3306504730135</ele>
        <time>2026-09-16T11:35:56Z</time>
      </trkpt>
      <trkpt lat="34.29781223272178" lon="108.7057568043017">
        <ele>388.8249875474721</ele>
        <time>2026-09-16T11:36:14Z</time>
      </trkpt>
      <trkpt lat="34.29790263820283" lon="108.70570675983124">
        <ele>388.84608678892255</ele>
        <time>2026-09-16T11:36:20Z</time>
      </trkpt>
      <trkpt lat="34.29804307014038" lon="108.7057045546071">
        <ele>389.28633821196854</ele>
        <time>2026-09-16T11:36:29Z</time>
      </trkpt>
      <trkpt lat="34.29814565993679" lon="108.70566568580387">
        <ele>388.0095193106681</ele>
        <time>2026-09-16T11:36:35Z</time>
      </trkpt>
      <trkpt lat="34.298382400997106" lon="108.7056441447547">
        <ele>388.44459976255894</ele>
        <time>2026-09-16T11:36:50Z</time>
      </trkpt>
      <trkpt lat="34.29843983650402" lon="108.70561637915121">
        <ele>388.87115125823766</ele>
        <time>2026-09-16T11:36:54Z</time>
      </trkpt>
      <trkpt lat="34.298495064449625" lon="108.7056206107684">
        <ele>388.71313221007586</ele>
        <time>2026-09-16T11:36:57Z</time>
      </trkpt>
      <trkpt lat="34.29859003651663" lon="108.70559146354015">
        <ele>389.2546326778829</ele>
        <time>2026-09-16T11:37:03Z</time>
      </trkpt>
      <trkpt lat="34.298783791240275" lon="108.70555747944314">
        <ele>388.4600832592696</ele>
        <time>2026-09-16T11:37:15Z</time>
      </trkpt>
      <trkpt lat="34.29883335583503" lon="108.70556719566481">
        <ele>389.0010096738115</ele>
        <time>2026-09-16T11:37:18Z</time>
      </trkpt>
      <trkpt lat="34.29898203308847" lon="108.70554241871925">
        <ele>389.8162009678781</ele>
        <time>2026-09-16T11:37:27Z</time>
      </trkpt>
      <trkpt lat="34.29917324441187" lon="108.7054683012213">
        <ele>390.3986604567617</ele>
        <time>2026-09-16T11:37:45Z</time>
      </trkpt>
      <trkpt lat="34.299219071640074" lon="108.70546740841763">
        <ele>390.6217542262748</ele>
        <time>2026-09-16T11:37:48Z</time>
      </trkpt>
      <trkpt lat="34.29925567383344" lon="108.70550282391568">
        <ele>391.13272790890187</ele>
        <time>2026-09-16T11:37:51Z</time>
      </trkpt>
      <trkpt lat="34.29921677493793" lon="108.70555038847503">
        <ele>391.01029844768345</ele>
        <time>2026-09-16T11:37:54Z</time>
      </trkpt>
      <trkpt lat="34.298922236390915" lon="108.70562382505678">
        <ele>389.7687142426148</ele>
        <time>2026-09-16T11:38:12Z</time>
      </trkpt>
      <trkpt lat="34.29868528775814" lon="108.70569323019359">
        <ele>388.81037382688373</ele>
        <time>2026-09-16T11:38:30Z</time>
      </trkpt>
      <trkpt lat="34.298565549369556" lon="108.70569849455217">
        <ele>389.40558083262295</ele>
        <time>2026-09-16T11:38:39Z</time>
      </trkpt>
      <trkpt lat="34.29849801209349" lon="108.70572705204721">
        <ele>389.0785786155611</ele>
        <time>2026-09-16T11:38:45Z</time>
      </trkpt>
      <trkpt lat="34.29821923294711" lon="108.70576445298794">
        <ele>388.38542287424207</ele>
        <time>2026-09-16T11:39:09Z</time>
      </trkpt>
      <trkpt lat="34.29802299300267" lon="108.7057922241202">
        <ele>386.7834992976859</ele>
        <time>2026-09-16T11:39:22Z</time>
      </trkpt>
      <trkpt lat="34.297958055467795" lon="108.7058169298406">
        <ele>387.08985031489283</ele>
        <time>2026-09-16T11:39:28Z</time>
      </trkpt>
      <trkpt lat="34.29788312778088" lon="108.70581555371187">
        <ele>388.27315762639046</ele>
        <time>2026-09-16T11:39:34Z</time>
      </trkpt>
      <trkpt lat="34.2975852138105" lon="108.70587268403764">
        <ele>388.0128860604018</ele>
        <time>2026-09-16T11:39:58Z</time>
      </trkpt>
      <trkpt lat="34.29728628850325" lon="108.70592366970718">
        <ele>389.02886349428445</ele>
        <time>2026-09-16T11:40:16Z</time>
      </trkpt>
      <trkpt lat="34.29704194601676" lon="108.70595353958566">
        <ele>388.85855723079294</ele>
        <time>2026-09-16T11:40:31Z</time>
      </trkpt>
      <trkpt lat="34.296763285675205" lon="108.70601508458417">
        <ele>388.37389485910535</ele>
        <time>2026-09-16T11:40:49Z</time>
      </trkpt>
      <trkpt lat="34.2964446087147" lon="108.70608803582742">
        <ele>387.663114015013</ele>
        <time>2026-09-16T11:41:08Z</time>
      </trkpt>
      <trkpt lat="34.29612624432403" lon="108.7061485085175">
        <ele>389.06046611536294</ele>
        <time>2026-09-16T11:41:29Z</time>
      </trkpt>
      <trkpt lat="34.29586417873147" lon="108.7061763190594">
        <ele>390.0813733190298</ele>
        <time>2026-09-16T11:41:47Z</time>
      </trkpt>
      <trkpt lat="34.29581328935041" lon="108.70616386276997">
        <ele>389.69460716843605</ele>
        <time>2026-09-16T11:41:50Z</time>
      </trkpt>
      <trkpt lat="34.29572600554241" lon="108.7061767293542">
        <ele>390.53388860914856</ele>
        <time>2026-09-16T11:41:56Z</time>
      </trkpt>
      <trkpt lat="34.29576544049838" lon="108.7060962321658">
        <ele>389.64038626197726</ele>
        <time>2026-09-16T11:42:02Z</time>
      </trkpt>
      <trkpt lat="34.29607431298555" lon="108.70604629858124">
        <ele>388.83805274404585</ele>
        <time>2026-09-16T11:42:20Z</time>
      </trkpt>
      <trkpt lat="34.296374238329356" lon="108.70599561821213">
        <ele>389.2709650238976</ele>
        <time>2026-09-16T11:42:38Z</time>
      </trkpt>
      <trkpt lat="34.29656834060419" lon="108.70594507801361">
        <ele>388.77383964136243</ele>
        <time>2026-09-16T11:42:50Z</time>
      </trkpt>
      <trkpt lat="34.29671527642974" lon="108.70593761364609">
        <ele>388.382398349233</ele>
        <time>2026-09-16T11:42:59Z</time>
      </trkpt>
      <trkpt lat="34.296751293719986" lon="108.70589336148807">
        <ele>389.05177692044526</ele>
        <time>2026-09-16T11:43:02Z</time>
      </trkpt>
      <trkpt lat="34.296914115811354" lon="108.70589723145643">
        <ele>389.0740218181163</ele>
        <time>2026-09-16T11:43:12Z</time>
      </trkpt>
      <trkpt lat="34.297058563365944" lon="108.70585999444418">
        <ele>388.06560774706304</ele>
        <time>2026-09-16T11:43:24Z</time>
      </trkpt>
      <trkpt lat="34.29710921233777" lon="108.70587028319257">
        <ele>388.06754864007235</ele>
        <time>2026-09-16T11:43:27Z</time>
      </trkpt>
      <trkpt lat="34.297405116035904" lon="108.70581133540327">
        <ele>388.6836734432727</ele>
        <time>2026-09-16T11:43:45Z</time>
      </trkpt>
      <trkpt lat="34.29768199653314" lon="108.70576767927523">
        <ele>388.8468075506389</ele>
        <time>2026-09-16T11:44:03Z</time>
      </trkpt>
      <trkpt lat="34.29798009858362" lon="108.70571077767374">
        <ele>389.30422576423734</ele>
        <time>2026-09-16T11:44:21Z</time>
      </trkpt>
      <trkpt lat="34.29826063075989" lon="108.70565819554476">
        <ele>388.63410590030253</ele>
        <time>2026-09-16T11:44:39Z</time>
      </trkpt>
      <trkpt lat="34.29850871772654" lon="108.70559365246547">
        <ele>389.7167702950537</ele>
        <time>2026-09-16T11:45:00Z</time>
      </trkpt>
      <trkpt lat="34.29856406451778" lon="108.70559412294442">
        <ele>388.77011565491557</ele>
        <time>2026-09-16T11:45:06Z</time>
      </trkpt>
      <trkpt lat="34.29868090921485" lon="108.70557064124368">
        <ele>389.6303539602086</ele>
        <time>2026-09-16T11:45:31Z</time>
      </trkpt>
      <trkpt lat="34.29893514287589" lon="108.705528115457">
        <ele>389.5912339631468</ele>
        <time>2026-09-16T11:46:04Z</time>
      </trkpt>
      <trkpt lat="34.29902498761074" lon="108.70549646348566">
        <ele>390.6711967838928</ele>
        <time>2026-09-16T11:46:10Z</time>
      </trkpt>
      <trkpt lat="34.29908454362307" lon="108.7054993918583">
        <ele>390.6218556892127</ele>
        <time>2026-09-16T11:46:13Z</time>
      </trkpt>
      <trkpt lat="34.29918201807822" lon="108.70547023709027">
        <ele>390.50862467475235</ele>
        <time>2026-09-16T11:46:19Z</time>
      </trkpt>
      <trkpt lat="34.29923638699336" lon="108.70547263291849">
        <ele>389.47062576469034</ele>
        <time>2026-09-16T11:46:22Z</time>
      </trkpt>
      <trkpt lat="34.29920135079575" lon="108.70555104757975">
        <ele>389.75937565788627</ele>
        <time>2026-09-16T11:46:28Z</time>
      </trkpt>
      <trkpt lat="34.29903829065014" lon="108.70560189208553">
        <ele>390.4109463421628</ele>
        <time>2026-09-16T11:46:37Z</time>
      </trkpt>
      <trkpt lat="34.298899910953736" lon="108.70559079419748">
        <ele>389.0635703410953</ele>
        <time>2026-09-16T11:46:46Z</time>
      </trkpt>
      <trkpt lat="34.298637657807745" lon="108.70567890618537">
        <ele>388.99065910093486</ele>
        <time>2026-09-16T11:47:01Z</time>
      </trkpt>
      <trkpt lat="34.298329996745025" lon="108.70574031587694">
        <ele>387.8818238861859</ele>
        <time>2026-09-16T11:47:19Z</time>
      </trkpt>
      <trkpt lat="34.29801270745893" lon="108.70580416274461">
        <ele>388.1898834966123</ele>
        <time>2026-09-16T11:47:38Z</time>
      </trkpt>
      <trkpt lat="34.297739646903736" lon="108.7058420818388">
        <ele>388.42621378507465</ele>
        <time>2026-09-16T11:47:56Z</time>
      </trkpt>
      <trkpt lat="34.29766786334736" lon="108.705880723679">
        <ele>388.8102790126577</ele>
        <time>2026-09-16T11:48:02Z</time>
      </trkpt>
      <trkpt lat="34.297382956251695" lon="108.70589877177984">
        <ele>386.94492878206074</ele>
        <time>2026-09-16T11:48:20Z</time>
      </trkpt>
      <trkpt lat="34.297069311014404" lon="108.70593926842359">
        <ele>388.34610193781555</ele>
        <time>2026-09-16T11:48:38Z</time>
      </trkpt>
      <trkpt lat="34.29686009790061" lon="108.70601213981041">
        <ele>387.3175856191665</ele>
        <time>2026-09-16T11:48:50Z</time>
      </trkpt>
      <trkpt lat="34.29674413276519" lon="108.70600435169636">
        <ele>387.67703169211745</ele>
        <time>2026-09-16T11:48:56Z</time>
      </trkpt>
      <trkpt lat="34.29669936744562" lon="108.70603189264581">
        <ele>388.6305722547695</ele>
        <time>2026-09-16T11:48:59Z</time>
      </trkpt>
      <trkpt lat="34.29664577219089" lon="108.70602931020083">
        <ele>387.466519667767</ele>
        <time>2026-09-16T11:49:02Z</time>
      </trkpt>
      <trkpt lat="34.29641400011834" lon="108.70609390626747">
        <ele>388.5825437735766</ele>
        <time>2026-09-16T11:49:14Z</time>
      </trkpt>
      <trkpt lat="34.296315989185956" lon="108.70609774134614">
        <ele>388.3624023012817</ele>
        <time>2026-09-16T11:49:20Z</time>
      </trkpt>
      <trkpt lat="34.29626666022254" lon="108.70611892233656">
        <ele>388.8771560424939</ele>
        <time>2026-09-16T11:49:26Z</time>
      </trkpt>
      <trkpt lat="34.2959621288485" lon="108.70616812113477">
        <ele>387.8981372639537</ele>
        <time>2026-09-16T11:49:54Z</time>
      </trkpt>
      <trkpt lat="34.295759823761344" lon="108.70618551176476">
        <ele>389.1854217806831</ele>
        <time>2026-09-16T11:50:06Z</time>
      </trkpt>
      <trkpt lat="34.29570888125737" lon="108.70612521740009">
        <ele>386.614299479872</ele>
        <time>2026-09-16T11:50:12Z</time>
      </trkpt>
      <trkpt lat="34.29575798773123" lon="108.70608556292888">
        <ele>386.37025824561715</ele>
        <time>2026-09-16T11:50:15Z</time>
      </trkpt>
      <trkpt lat="34.2958134953248" lon="108.70610882039789">
        <ele>386.8482027268037</ele>
        <time>2026-09-16T11:50:18Z</time>
      </trkpt>
      <trkpt lat="34.29608026374961" lon="108.70604807203206">
        <ele>388.1412904849276</ele>
        <time>2026-09-16T11:50:33Z</time>
      </trkpt>
      <trkpt lat="34.296177809527094" lon="108.70601614234195">
        <ele>388.67747776582837</ele>
        <time>2026-09-16T11:50:39Z</time>
      </trkpt>
      <trkpt lat="34.29628125534332" lon="108.70600681624006">
        <ele>389.9671846078709</ele>
        <time>2026-09-16T11:50:45Z</time>
      </trkpt>
      <trkpt lat="34.29657471707662" lon="108.70595068916562">
        <ele>387.73136695846915</ele>
        <time>2026-09-16T11:51:03Z</time>
      </trkpt>
      <trkpt lat="34.296885909980446" lon="108.70591518939844">
        <ele>387.8344258358702</ele>
        <time>2026-09-16T11:51:21Z</time>
      </trkpt>
      <trkpt lat="34.29721851963511" lon="108.7058298444043">
        <ele>389.9574641743675</ele>
        <time>2026-09-16T11:51:45Z</time>
      </trkpt>
      <trkpt lat="34.29727369657438" lon="108.70584136659745">
        <ele>388.5970958676189</ele>
        <time>2026-09-16T11:51:49Z</time>
      </trkpt>
      <trkpt lat="34.29750500536065" lon="108.70578498524496">
        <ele>388.9430847745389</ele>
        <time>2026-09-16T11:52:04Z</time>
      </trkpt>
      <trkpt lat="34.29755204102391" lon="108.70579062804335">
        <ele>388.71374681126326</ele>
        <time>2026-09-16T11:52:07Z</time>
      </trkpt>
      <trkpt lat="34.29763392862877" lon="108.7057610198948">
        <ele>389.8106787018478</ele>
        <time>2026-09-16T11:52:13Z</time>
      </trkpt>
      <trkpt lat="34.29777149049093" lon="108.70575024093367">
        <ele>388.3334307493642</ele>
        <time>2026-09-16T11:52:22Z</time>
      </trkpt>
      <trkpt lat="34.297822744893054" lon="108.70572472946361">
        <ele>387.6792437946424</ele>
        <time>2026-09-16T11:52:25Z</time>
      </trkpt>
      <trkpt lat="34.29797532471608" lon="108.70572347295928">
        <ele>388.5282697957009</ele>
        <time>2026-09-16T11:52:34Z</time>
      </trkpt>
      <trkpt lat="34.29825935648214" lon="108.70565429781925">
        <ele>388.4509378289804</ele>
        <time>2026-09-16T11:52:52Z</time>
      </trkpt>
      <trkpt lat="34.29843829707861" lon="108.70563483168871">
        <ele>389.29325064085424</ele>
        <time>2026-09-16T11:53:04Z</time>
      </trkpt>
      <trkpt lat="34.29871333160161" lon="108.70557753119068">
        <ele>388.97285026777536</ele>
        <time>2026-09-16T11:53:28Z</time>
      </trkpt>
      <trkpt lat="34.298894762170285" lon="108.70552191808984">
        <ele>389.3505391459912</ele>
        <time>2026-09-16T11:53:45Z</time>
      </trkpt>
      <trkpt lat="34.29894291402532" lon="108.70552254221543">
        <ele>388.20143763907254</ele>
        <time>2026-09-16T11:53:49Z</time>
      </trkpt>
      <trkpt lat="34.299227271891" lon="108.70545986741313">
        <ele>390.4192132400349</ele>
        <time>2026-09-16T11:54:11Z</time>
      </trkpt>
      <trkpt lat="34.299255971738745" lon="108.70550203051377">
        <ele>390.5505660083145</ele>
        <time>2026-09-16T11:54:14Z</time>
      </trkpt>
      <trkpt lat="34.29911555545171" lon="108.70558473676061">
        <ele>389.99863092042506</ele>
        <time>2026-09-16T11:54:23Z</time>
      </trkpt>
      <trkpt lat="34.29891423290462" lon="108.705610062908">
        <ele>388.5193575117737</ele>
        <time>2026-09-16T11:54:35Z</time>
      </trkpt>
      <trkpt lat="34.298841851642095" lon="108.70559827140468">
        <ele>388.43580890540034</ele>
        <time>2026-09-16T11:54:41Z</time>
      </trkpt>
      <trkpt lat="34.29878795215356" lon="108.70565328872249">
        <ele>388.41885696630925</ele>
        <time>2026-09-16T11:54:44Z</time>
      </trkpt>
      <trkpt lat="34.29872591543811" lon="108.70568455062383">
        <ele>388.13527987059206</ele>
        <time>2026-09-16T11:54:50Z</time>
      </trkpt>
      <trkpt lat="34.29853206776759" lon="108.70570146630858">
        <ele>389.6475912332535</ele>
        <time>2026-09-16T11:55:08Z</time>
      </trkpt>
      <trkpt lat="34.298295153134966" lon="108.70570139581355">
        <ele>386.6932246889919</ele>
        <time>2026-09-16T11:55:23Z</time>
      </trkpt>
      <trkpt lat="34.2982123920854" lon="108.70574972133701">
        <ele>387.5260882182047</ele>
        <time>2026-09-16T11:55:29Z</time>
      </trkpt>
      <trkpt lat="34.297899789395146" lon="108.70580050034364">
        <ele>387.85093796253204</ele>
        <time>2026-09-16T11:55:48Z</time>
      </trkpt>
      <trkpt lat="34.29766422546625" lon="108.70586040570204">
        <ele>388.22955668345094</ele>
        <time>2026-09-16T11:56:03Z</time>
      </trkpt>
      <trkpt lat="34.297568602194794" lon="108.70584521780717">
        <ele>387.4903870783746</ele>
        <time>2026-09-16T11:56:09Z</time>
      </trkpt>
      <trkpt lat="34.29728708929389" lon="108.7059173698786">
        <ele>388.47552542295307</ele>
        <time>2026-09-16T11:56:27Z</time>
      </trkpt>
      <trkpt lat="34.29700934400628" lon="108.7059539867107">
        <ele>388.16154596209526</ele>
        <time>2026-09-16T11:56:45Z</time>
      </trkpt>
      <trkpt lat="34.29690126012333" lon="108.70597036574263">
        <ele>387.6553747057915</ele>
        <time>2026-09-16T11:56:51Z</time>
      </trkpt>
      <trkpt lat="34.2968182158683" lon="108.70601349340669">
        <ele>387.5119740469381</ele>
        <time>2026-09-16T11:56:57Z</time>
      </trkpt>
      <trkpt lat="34.2967486298064" lon="108.70598335250303">
        <ele>387.9507980067283</ele>
        <time>2026-09-16T11:57:00Z</time>
      </trkpt>
      <trkpt lat="34.29664815558275" lon="108.7060248969923">
        <ele>388.2529471348971</ele>
        <time>2026-09-16T11:57:06Z</time>
      </trkpt>
      <trkpt lat="34.296495788272274" lon="108.70602832593553">
        <ele>387.1038157111034</ele>
        <time>2026-09-16T11:57:15Z</time>
      </trkpt>
      <trkpt lat="34.29629666004475" lon="108.70610009915043">
        <ele>388.5987672684714</ele>
        <time>2026-09-16T11:57:30Z</time>
      </trkpt>
      <trkpt lat="34.29608662452226" lon="108.70613491287843">
        <ele>388.73537937086076</ele>
        <time>2026-09-16T11:57:48Z</time>
      </trkpt>
      <trkpt lat="34.29587074983172" lon="108.70620023191671">
        <ele>387.04230755288154</ele>
        <time>2026-09-16T11:58:03Z</time>
      </trkpt>
      <trkpt lat="34.29579782725769" lon="108.70620399604634">
        <ele>387.5823297733441</ele>
        <time>2026-09-16T11:58:07Z</time>
      </trkpt>
      <trkpt lat="34.29572966509224" lon="108.70618091395419">
        <ele>388.469142456539</ele>
        <time>2026-09-16T11:58:13Z</time>
      </trkpt>
      <trkpt lat="34.29573032539378" lon="108.70611672484986">
        <ele>389.2970572039485</ele>
        <time>2026-09-16T11:58:16Z</time>
      </trkpt>
      <trkpt lat="34.296035181967916" lon="108.70605802911616">
        <ele>388.81211968138814</ele>
        <time>2026-09-16T11:58:34Z</time>
      </trkpt>
      <trkpt lat="34.29613060553507" lon="108.70605422458117">
        <ele>388.62691573798656</ele>
        <time>2026-09-16T11:58:40Z</time>
      </trkpt>
      <trkpt lat="34.29617261580118" lon="108.70602555548832">
        <ele>388.36810234282166</ele>
        <time>2026-09-16T11:58:43Z</time>
      </trkpt>
      <trkpt lat="34.29644778477572" lon="108.70597210601129">
        <ele>387.8349449476227</ele>
        <time>2026-09-16T11:59:01Z</time>
      </trkpt>
      <trkpt lat="34.29672752779457" lon="108.70592461134508">
        <ele>388.45666078850627</ele>
        <time>2026-09-16T11:59:19Z</time>
      </trkpt>
      <trkpt lat="34.297056046065016" lon="108.70585271720864">
        <ele>388.76709779165685</ele>
        <time>2026-09-16T11:59:40Z</time>
      </trkpt>
      <trkpt lat="34.29720421071721" lon="108.70585570045407">
        <ele>388.73012884985656</ele>
        <time>2026-09-16T11:59:49Z</time>
      </trkpt>
      <trkpt lat="34.29725292106434" lon="108.70583343172011">
        <ele>388.8371778028086</ele>
        <time>2026-09-16T11:59:52Z</time>
      </trkpt>
      <trkpt lat="34.2973651598305" lon="108.70582619343291">
        <ele>388.3930234089494</ele>
        <time>2026-09-16T11:59:59Z</time>
      </trkpt>
      <trkpt lat="34.29741291879187" lon="108.70580052190289">
        <ele>388.79602173529565</ele>
        <time>2026-09-16T12:00:02Z</time>
      </trkpt>
      <trkpt lat="34.29761186517054" lon="108.70575500481519">
        <ele>389.87582974508405</ele>
        <time>2026-09-16T12:00:16Z</time>
      </trkpt>
      <trkpt lat="34.29767316241883" lon="108.70576381645319">
        <ele>389.04385645408183</ele>
        <time>2026-09-16T12:00:19Z</time>
      </trkpt>
      <trkpt lat="34.297772316284146" lon="108.7057478441496">
        <ele>388.92210882529616</ele>
        <time>2026-09-16T12:00:25Z</time>
      </trkpt>
      <trkpt lat="34.2978366365073" lon="108.7057107321787">
        <ele>388.48416941519827</ele>
        <time>2026-09-16T12:00:31Z</time>
      </trkpt>
      <trkpt lat="34.298180955696076" lon="108.70567517099501">
        <ele>388.46952581219375</ele>
        <time>2026-09-16T12:01:01Z</time>
      </trkpt>
      <trkpt lat="34.29830827995103" lon="108.70562764440199">
        <ele>387.9490851480514</ele>
        <time>2026-09-16T12:01:13Z</time>
      </trkpt>
      <trkpt lat="34.29859829112225" lon="108.70558497266937">
        <ele>389.95822747051716</ele>
        <time>2026-09-16T12:01:34Z</time>
      </trkpt>
      <trkpt lat="34.29866585914562" lon="108.7055690620882">
        <ele>389.62156783789396</ele>
        <time>2026-09-16T12:01:40Z</time>
      </trkpt>
      <trkpt lat="34.29873136108657" lon="108.70557522907633">
        <ele>389.3649797765538</ele>
        <time>2026-09-16T12:01:46Z</time>
      </trkpt>
      <trkpt lat="34.298922189809595" lon="108.70551726882957">
        <ele>389.4360230732709</ele>
        <time>2026-09-16T12:02:01Z</time>
      </trkpt>
      <trkpt lat="34.298975568265575" lon="108.70551940946405">
        <ele>388.78142223414034</ele>
        <time>2026-09-16T12:02:05Z</time>
      </trkpt>
      <trkpt lat="34.29916520274551" lon="108.7054630118327">
        <ele>389.9988047964871</ele>
        <time>2026-09-16T12:02:20Z</time>
      </trkpt>
      <trkpt lat="34.299239118220484" lon="108.70548139950782">
        <ele>389.7430381644517</ele>
        <time>2026-09-16T12:02:26Z</time>
      </trkpt>
      <trkpt lat="34.29932239949143" lon="108.7056261055364">
        <ele>390.62672441266477</ele>
        <time>2026-09-16T12:02:38Z</time>
      </trkpt>
      <trkpt lat="34.299347598438324" lon="108.70586424311318">
        <ele>390.0079196020961</ele>
        <time>2026-09-16T12:02:56Z</time>
      </trkpt>
      <trkpt lat="34.29937587338861" lon="108.7059330094724">
        <ele>390.75671467836946</ele>
        <time>2026-09-16T12:03:02Z</time>
      </trkpt>
      <trkpt lat="34.29941838843366" lon="108.7063291653341">
        <ele>391.26805595867336</ele>
        <time>2026-09-16T12:03:44Z</time>
      </trkpt>
      <trkpt lat="34.299477672132674" lon="108.70667370612031">
        <ele>392.50128555763513</ele>
        <time>2026-09-16T12:04:08Z</time>
      </trkpt>
      <trkpt lat="34.299519776204654" lon="108.70698397006234">
        <ele>390.7108629066497</ele>
        <time>2026-09-16T12:04:30Z</time>
      </trkpt>
      <trkpt lat="34.299502944023544" lon="108.70706341460976">
        <ele>390.28693801537156</ele>
        <time>2026-09-16T12:04:36Z</time>
      </trkpt>
      <trkpt lat="34.29951408536308" lon="108.70714371307221">
        <ele>389.8564981603995</ele>
        <time>2026-09-16T12:04:42Z</time>
      </trkpt>
      <trkpt lat="34.2996272724559" lon="108.70725402481186">
        <ele>390.29078904539347</ele>
        <time>2026-09-16T12:04:57Z</time>
      </trkpt>
      <trkpt lat="34.29966789640866" lon="108.70761597747024">
        <ele>391.56019911170006</ele>
        <time>2026-09-16T12:05:21Z</time>
      </trkpt>
      <trkpt lat="34.2997276146378" lon="108.70799672533768">
        <ele>392.17242424190044</ele>
        <time>2026-09-16T12:05:45Z</time>
      </trkpt>
      <trkpt lat="34.299780556668175" lon="108.70835577809542">
        <ele>393.05652537569404</ele>
        <time>2026-09-16T12:06:09Z</time>
      </trkpt>
      <trkpt lat="34.29979991629324" lon="108.70845141618382">
        <ele>392.0912333484739</ele>
        <time>2026-09-16T12:06:15Z</time>
      </trkpt>
      <trkpt lat="34.29980005826221" lon="108.70861274765895">
        <ele>391.1210160832852</ele>
        <time>2026-09-16T12:06:25Z</time>
      </trkpt>
      <trkpt lat="34.29982598783705" lon="108.70870291370598">
        <ele>391.4041969869286</ele>
        <time>2026-09-16T12:06:31Z</time>
      </trkpt>
      <trkpt lat="34.2998449252827" lon="108.7088840751244">
        <ele>391.51200219336897</ele>
        <time>2026-09-16T12:06:43Z</time>
      </trkpt>
      <trkpt lat="34.29986717359918" lon="108.70893508760633">
        <ele>392.47144030593336</ele>
        <time>2026-09-16T12:06:46Z</time>
      </trkpt>
      <trkpt lat="34.29990263474894" lon="108.70929518153433">
        <ele>391.48803146835417</ele>
        <time>2026-09-16T12:07:10Z</time>
      </trkpt>
      <trkpt lat="34.29993328498264" lon="108.70947726233825">
        <ele>391.6019954280928</ele>
        <time>2026-09-16T12:07:22Z</time>
      </trkpt>
      <trkpt lat="34.2999194089525" lon="108.70956144160968">
        <ele>391.33741713501513</ele>
        <time>2026-09-16T12:07:28Z</time>
      </trkpt>
      <trkpt lat="34.29975704990452" lon="108.70965043025278">
        <ele>389.86519779544324</ele>
        <time>2026-09-16T12:07:40Z</time>
      </trkpt>
      <trkpt lat="34.29960880757367" lon="108.70968552910708">
        <ele>390.3925872063264</ele>
        <time>2026-09-16T12:07:52Z</time>
      </trkpt>
      <trkpt lat="34.2994826258899" lon="108.70966105191124">
        <ele>390.09993333835155</ele>
        <time>2026-09-16T12:08:01Z</time>
      </trkpt>
      <trkpt lat="34.29933812145809" lon="108.70969106126448">
        <ele>390.8445334006101</ele>
        <time>2026-09-16T12:08:13Z</time>
      </trkpt>
      <trkpt lat="34.299288276984406" lon="108.70964573744777">
        <ele>392.5511671388522</ele>
        <time>2026-09-16T12:08:23Z</time>
      </trkpt>
      <trkpt lat="34.298953672738016" lon="108.70979090601926">
        <ele>391.1159356459975</ele>
        <time>2026-09-16T12:08:47Z</time>
      </trkpt>
      <trkpt lat="34.29888122754656" lon="108.70977206977226">
        <ele>391.6268160426989</ele>
        <time>2026-09-16T12:08:53Z</time>
      </trkpt>
      <trkpt lat="34.29883754373658" lon="108.70972335224293">
        <ele>392.05860226321965</ele>
        <time>2026-09-16T12:08:59Z</time>
      </trkpt>
      <trkpt lat="34.298817285670744" lon="108.70965637337537">
        <ele>392.20107271242887</ele>
        <time>2026-09-16T12:09:05Z</time>
      </trkpt>
      <trkpt lat="34.29876562427813" lon="108.7096001043679">
        <ele>392.09619945753366</ele>
        <time>2026-09-16T12:09:11Z</time>
      </trkpt>
      <trkpt lat="34.29850111364597" lon="108.70968442255355">
        <ele>392.69504935108125</ele>
        <time>2026-09-16T12:09:29Z</time>
      </trkpt>
      <trkpt lat="34.298435376774236" lon="108.70967877932026">
        <ele>392.4744713427499</ele>
        <time>2026-09-16T12:09:35Z</time>
      </trkpt>
      <trkpt lat="34.29809504587209" lon="108.70974140868817">
        <ele>388.291316059418</ele>
        <time>2026-09-16T12:10:02Z</time>
      </trkpt>
      <trkpt lat="34.29797285563198" lon="108.7097759145037">
        <ele>389.32624100800604</ele>
        <time>2026-09-16T12:10:11Z</time>
      </trkpt>
      <trkpt lat="34.29794855318307" lon="108.7098418198094">
        <ele>389.6459939070046</ele>
        <time>2026-09-16T12:10:17Z</time>
      </trkpt>
      <trkpt lat="34.29800503012321" lon="108.71013490683313">
        <ele>389.8349030222744</ele>
        <time>2026-09-16T12:10:38Z</time>
      </trkpt>
      <trkpt lat="34.29797570824697" lon="108.710193218687">
        <ele>389.01927641406655</ele>
        <time>2026-09-16T12:10:44Z</time>
      </trkpt>
      <trkpt lat="34.29785617739405" lon="108.71021867828338">
        <ele>388.7079128837213</ele>
        <time>2026-09-16T12:10:53Z</time>
      </trkpt>
      <trkpt lat="34.297779904722844" lon="108.71025339957812">
        <ele>387.71136029902846</ele>
        <time>2026-09-16T12:10:59Z</time>
      </trkpt>
      <trkpt lat="34.29774006233904" lon="108.71031413474567">
        <ele>388.9734281580895</ele>
        <time>2026-09-16T12:11:08Z</time>
      </trkpt>
      <trkpt lat="34.29777452285761" lon="108.71040555841783">
        <ele>388.58834214974195</ele>
        <time>2026-09-16T12:11:14Z</time>
      </trkpt>
      <trkpt lat="34.29772856360901" lon="108.71044674355201">
        <ele>387.2199904099107</ele>
        <time>2026-09-16T12:11:20Z</time>
      </trkpt>
      <trkpt lat="34.297827316358934" lon="108.71055289301584">
        <ele>387.4783331025392</ele>
        <time>2026-09-16T12:11:29Z</time>
      </trkpt>
      <trkpt lat="34.29784001761021" lon="108.71060778476694">
        <ele>387.7448748238385</ele>
        <time>2026-09-16T12:11:35Z</time>
      </trkpt>
      <trkpt lat="34.29780804802928" lon="108.71067875708604">
        <ele>388.22842047922313</ele>
        <time>2026-09-16T12:11:41Z</time>
      </trkpt>
      <trkpt lat="34.29776804973981" lon="108.71064999847653">
        <ele>387.9235578281805</ele>
        <time>2026-09-16T12:11:53Z</time>
      </trkpt>
      <trkpt lat="34.29785401446205" lon="108.71064990262478">
        <ele>401.09987641870975</ele>
        <time>2026-09-16T12:11:56Z</time>
      </trkpt>
      <trkpt lat="34.29785401446205" lon="108.71064990262478">
        <ele>401.09987641870975</ele>
        <time>2026-09-16T12:11:59Z</time>
      </trkpt>
    </trkseg>
  </trk>
</gpx>