<?xml version="1.0" encoding="UTF-8"?>
<gpx xmlns="http://www.topografix.com/GPX/1/1" xmlns:gpxtpx="http://www.garmin.com/xmlschemas/TrackPointExtension/v1" xmlns:xsi="http://www.w3.org/2001/XMLSchema-instance" xsi:schemaLocation="http://www.topografix.com/GPX/1/1 http://www.topografix.com/GPX/1/1/gpx.xsd" version="1.1" creator="gpx.py -- https://github.com/tkrajina/gpxpy">
  <trk>
    <name>gpx from keep</name>
    <type>Run</type>
    <trkseg>
      <trkpt lat="34.32862970101135" lon="108.98094803394352">
        <ele>402.42041015625</ele>
        <time>2026-08-14T23:29:22Z</time>
      </trkpt>
      <trkpt lat="34.32866885895681" lon="108.9810263246891">
        <ele>402.375549422577</ele>
        <time>2026-08-14T23:29:26Z</time>
      </trkpt>
      <trkpt lat="34.328697813793354" lon="108.98121076122162">
        <ele>408.25610375776887</ele>
        <time>2026-08-14T23:29:35Z</time>
      </trkpt>
      <trkpt lat="34.32867486546581" lon="108.9813023916327">
        <ele>405.6060793623328</ele>
        <time>2026-08-14T23:29:39Z</time>
      </trkpt>
      <trkpt lat="34.328602797112545" lon="108.98125827436144">
        <ele>394.88091502245516</ele>
        <time>2026-08-14T23:29:46Z</time>
      </trkpt>
      <trkpt lat="34.328604700772594" lon="108.98100860798887">
        <ele>394.5836919071153</ele>
        <time>2026-08-14T23:30:00Z</time>
      </trkpt>
      <trkpt lat="34.32856047645725" lon="108.98089640674233">
        <ele>395.3479869449511</ele>
        <time>2026-08-14T23:30:04Z</time>
      </trkpt>
      <trkpt lat="34.328513617040976" lon="108.98084879384271">
        <ele>395.17053287569433</ele>
        <time>2026-08-14T23:30:07Z</time>
      </trkpt>
      <trkpt lat="34.32830682438643" lon="108.98084109623301">
        <ele>394.4773611901328</ele>
        <time>2026-08-14T23:30:25Z</time>
      </trkpt>
      <trkpt lat="34.328179856493506" lon="108.98076585186995">
        <ele>393.8970593120903</ele>
        <time>2026-08-14T23:30:32Z</time>
      </trkpt>
      <trkpt lat="34.32809656133192" lon="108.98076998627276">
        <ele>394.1233749128878</ele>
        <time>2026-08-14T23:30:36Z</time>
      </trkpt>
      <trkpt lat="34.32806650531292" lon="108.98068553634903">
        <ele>394.5722254263237</ele>
        <time>2026-08-14T23:30:40Z</time>
      </trkpt>
      <trkpt lat="34.328071821297996" lon="108.98034198585073">
        <ele>394.7228125780821</ele>
        <time>2026-08-14T23:30:54Z</time>
      </trkpt>
      <trkpt lat="34.328103545095466" lon="108.9800030660998">
        <ele>395.59716786351055</ele>
        <time>2026-08-14T23:31:08Z</time>
      </trkpt>
      <trkpt lat="34.32809861643196" lon="108.97984670246207">
        <ele>395.6080338284373</ele>
        <time>2026-08-14T23:31:15Z</time>
      </trkpt>
      <trkpt lat="34.328131557129964" lon="108.97969855752797">
        <ele>396.06818689219654</ele>
        <time>2026-08-14T23:31:25Z</time>
      </trkpt>
      <trkpt lat="34.32822429601136" lon="108.97957774909445">
        <ele>395.7594342632219</ele>
        <time>2026-08-14T23:31:37Z</time>
      </trkpt>
      <trkpt lat="34.32821015505355" lon="108.97935677712633">
        <ele>395.73367487918586</ele>
        <time>2026-08-14T23:31:52Z</time>
      </trkpt>
      <trkpt lat="34.328185779718105" lon="108.97923281154304">
        <ele>395.95084822177887</ele>
        <time>2026-08-14T23:31:55Z</time>
      </trkpt>
      <trkpt lat="34.32818767177006" lon="108.97917150200253">
        <ele>395.1577858617529</ele>
        <time>2026-08-14T23:31:58Z</time>
      </trkpt>
      <trkpt lat="34.328133843171756" lon="108.97904390235546">
        <ele>396.24621032737195</ele>
        <time>2026-08-14T23:32:04Z</time>
      </trkpt>
      <trkpt lat="34.32812439566432" lon="108.9789029585344">
        <ele>395.39270925708115</ele>
        <time>2026-08-14T23:32:10Z</time>
      </trkpt>
      <trkpt lat="34.328140534820804" lon="108.97883443129521">
        <ele>395.6544643342495</ele>
        <time>2026-08-14T23:32:13Z</time>
      </trkpt>
      <trkpt lat="34.32812593381986" lon="108.97876006894018">
        <ele>394.8047088570893</ele>
        <time>2026-08-14T23:32:16Z</time>
      </trkpt>
      <trkpt lat="34.32813657225863" lon="108.97843015681563">
        <ele>394.9865401936695</ele>
        <time>2026-08-14T23:32:31Z</time>
      </trkpt>
      <trkpt lat="34.3281412395589" lon="108.97825883835424">
        <ele>395.9527823161334</ele>
        <time>2026-08-14T23:32:40Z</time>
      </trkpt>
      <trkpt lat="34.32809784151034" lon="108.97806660189613">
        <ele>395.28611661307514</ele>
        <time>2026-08-14T23:32:52Z</time>
      </trkpt>
      <trkpt lat="34.32810774369105" lon="108.97796156029317">
        <ele>395.44081258028746</ele>
        <time>2026-08-14T23:32:58Z</time>
      </trkpt>
      <trkpt lat="34.32808728585085" lon="108.97788390541271">
        <ele>395.695913230069</ele>
        <time>2026-08-14T23:33:01Z</time>
      </trkpt>
      <trkpt lat="34.32809041012043" lon="108.97769154410675">
        <ele>396.1144756274298</ele>
        <time>2026-08-14T23:33:10Z</time>
      </trkpt>
      <trkpt lat="34.328064609931104" lon="108.97754163335888">
        <ele>396.75556955020875</ele>
        <time>2026-08-14T23:33:19Z</time>
      </trkpt>
      <trkpt lat="34.32809474244751" lon="108.97737964670645">
        <ele>395.79265008401126</ele>
        <time>2026-08-14T23:33:28Z</time>
      </trkpt>
      <trkpt lat="34.32809585644345" lon="108.9770929817403">
        <ele>395.03840724751353</ele>
        <time>2026-08-14T23:33:40Z</time>
      </trkpt>
      <trkpt lat="34.328069953268724" lon="108.97699772782053">
        <ele>395.11035805381835</ele>
        <time>2026-08-14T23:33:44Z</time>
      </trkpt>
      <trkpt lat="34.328091815439066" lon="108.97690770121304">
        <ele>395.0899052359164</ele>
        <time>2026-08-14T23:33:48Z</time>
      </trkpt>
      <trkpt lat="34.3280862082728" lon="108.97654795741798">
        <ele>395.96543645393103</ele>
        <time>2026-08-14T23:34:10Z</time>
      </trkpt>
      <trkpt lat="34.327986115660956" lon="108.97651049469131">
        <ele>396.0328405611217</ele>
        <time>2026-08-14T23:34:16Z</time>
      </trkpt>
      <trkpt lat="34.32792075292169" lon="108.97650858929549">
        <ele>395.8453177521005</ele>
        <time>2026-08-14T23:34:19Z</time>
      </trkpt>
      <trkpt lat="34.32785559099166" lon="108.97647997128226">
        <ele>395.4869320867583</ele>
        <time>2026-08-14T23:34:22Z</time>
      </trkpt>
      <trkpt lat="34.32781489563055" lon="108.97643260098823">
        <ele>395.13052306417376</ele>
        <time>2026-08-14T23:34:25Z</time>
      </trkpt>
      <trkpt lat="34.327797795931374" lon="108.9763404063524">
        <ele>396.31917701661587</ele>
        <time>2026-08-14T23:34:31Z</time>
      </trkpt>
      <trkpt lat="34.32780504701676" lon="108.9762593683796">
        <ele>396.49879566486925</ele>
        <time>2026-08-14T23:34:37Z</time>
      </trkpt>
      <trkpt lat="34.32779805155268" lon="108.976078470529">
        <ele>395.6796503169462</ele>
        <time>2026-08-14T23:34:49Z</time>
      </trkpt>
      <trkpt lat="34.327750818031376" lon="108.97604845147774">
        <ele>395.92821405176073</ele>
        <time>2026-08-14T23:34:55Z</time>
      </trkpt>
      <trkpt lat="34.32750290196153" lon="108.97603583906604">
        <ele>396.3772767968476</ele>
        <time>2026-08-14T23:35:10Z</time>
      </trkpt>
      <trkpt lat="34.32723526402461" lon="108.97589934750222">
        <ele>396.53113892674446</ele>
        <time>2026-08-14T23:35:28Z</time>
      </trkpt>
      <trkpt lat="34.327140245532476" lon="108.97585703960442">
        <ele>396.1164730414748</ele>
        <time>2026-08-14T23:35:34Z</time>
      </trkpt>
      <trkpt lat="34.32682626517992" lon="108.97581900543548">
        <ele>395.3294110102579</ele>
        <time>2026-08-14T23:35:53Z</time>
      </trkpt>
      <trkpt lat="34.326550278217546" lon="108.97579999929067">
        <ele>396.26950259692967</ele>
        <time>2026-08-14T23:36:08Z</time>
      </trkpt>
      <trkpt lat="34.32626521613656" lon="108.97578760573099">
        <ele>396.3374575553462</ele>
        <time>2026-08-14T23:36:23Z</time>
      </trkpt>
      <trkpt lat="34.325957913479115" lon="108.97574868744121">
        <ele>396.77219000365585</ele>
        <time>2026-08-14T23:36:41Z</time>
      </trkpt>
      <trkpt lat="34.325684471292846" lon="108.97574425282528">
        <ele>397.09669293276966</ele>
        <time>2026-08-14T23:36:56Z</time>
      </trkpt>
      <trkpt lat="34.32549967226992" lon="108.97576121935856">
        <ele>397.21024046465755</ele>
        <time>2026-08-14T23:37:11Z</time>
      </trkpt>
      <trkpt lat="34.32525891018879" lon="108.97572799261049">
        <ele>397.19663822092116</ele>
        <time>2026-08-14T23:37:26Z</time>
      </trkpt>
      <trkpt lat="34.325212244390364" lon="108.97569162971554">
        <ele>397.01399004273117</ele>
        <time>2026-08-14T23:37:29Z</time>
      </trkpt>
      <trkpt lat="34.32520691362213" lon="108.97554633138455">
        <ele>396.77875660173595</ele>
        <time>2026-08-14T23:37:35Z</time>
      </trkpt>
      <trkpt lat="34.325169411235336" lon="108.97550037664855">
        <ele>396.34392638131976</ele>
        <time>2026-08-14T23:37:38Z</time>
      </trkpt>
      <trkpt lat="34.32496520501821" lon="108.97554246021136">
        <ele>396.324388618581</ele>
        <time>2026-08-14T23:37:49Z</time>
      </trkpt>
      <trkpt lat="34.32467253090898" lon="108.97545675147651">
        <ele>396.31806232687086</ele>
        <time>2026-08-14T23:38:06Z</time>
      </trkpt>
      <trkpt lat="34.32445166606374" lon="108.97551992747194">
        <ele>396.52186209429055</ele>
        <time>2026-08-14T23:38:18Z</time>
      </trkpt>
      <trkpt lat="34.32434799291049" lon="108.97558980599236">
        <ele>396.42838598042727</ele>
        <time>2026-08-14T23:38:24Z</time>
      </trkpt>
      <trkpt lat="34.32405205501248" lon="108.97553963348673">
        <ele>395.925041699782</ele>
        <time>2026-08-14T23:38:39Z</time>
      </trkpt>
      <trkpt lat="34.32377402239761" lon="108.97552047360274">
        <ele>396.08071179222316</ele>
        <time>2026-08-14T23:38:54Z</time>
      </trkpt>
      <trkpt lat="34.323633547316916" lon="108.97548263981027">
        <ele>397.48630664590746</ele>
        <time>2026-08-14T23:39:06Z</time>
      </trkpt>
      <trkpt lat="34.323548732479466" lon="108.97552126046799">
        <ele>397.217945442535</ele>
        <time>2026-08-14T23:39:12Z</time>
      </trkpt>
      <trkpt lat="34.32344606283034" lon="108.97549778153586">
        <ele>396.7640658142045</ele>
        <time>2026-08-14T23:39:18Z</time>
      </trkpt>
      <trkpt lat="34.32317644569954" lon="108.97550298310098">
        <ele>396.15070997271687</ele>
        <time>2026-08-14T23:39:33Z</time>
      </trkpt>
      <trkpt lat="34.32287399060836" lon="108.97545608239636">
        <ele>395.21887248102576</ele>
        <time>2026-08-14T23:39:49Z</time>
      </trkpt>
      <trkpt lat="34.32258460255013" lon="108.97544626652866">
        <ele>394.93084114883095</ele>
        <time>2026-08-14T23:40:04Z</time>
      </trkpt>
      <trkpt lat="34.322281782738415" lon="108.97543134176371">
        <ele>394.016103066504</ele>
        <time>2026-08-14T23:40:19Z</time>
      </trkpt>
      <trkpt lat="34.32207327099532" lon="108.97527274775314">
        <ele>394.6830684579909</ele>
        <time>2026-08-14T23:40:31Z</time>
      </trkpt>
      <trkpt lat="34.32177030546147" lon="108.97523643276831">
        <ele>395.0282019972801</ele>
        <time>2026-08-14T23:40:46Z</time>
      </trkpt>
      <trkpt lat="34.32148102780756" lon="108.97521696579949">
        <ele>394.25568942539394</ele>
        <time>2026-08-14T23:41:01Z</time>
      </trkpt>
      <trkpt lat="34.3213692690851" lon="108.97521652015274">
        <ele>395.0220466610044</ele>
        <time>2026-08-14T23:41:07Z</time>
      </trkpt>
      <trkpt lat="34.321146899113806" lon="108.97546001636526">
        <ele>393.5089678289369</ele>
        <time>2026-08-14T23:41:22Z</time>
      </trkpt>
      <trkpt lat="34.3208363226364" lon="108.97546007807247">
        <ele>395.67073411121964</ele>
        <time>2026-08-14T23:41:43Z</time>
      </trkpt>
      <trkpt lat="34.32074183583465" lon="108.97547076591766">
        <ele>394.7471890319139</ele>
        <time>2026-08-14T23:41:52Z</time>
      </trkpt>
      <trkpt lat="34.3206035241141" lon="108.97544023929474">
        <ele>394.7464398872107</ele>
        <time>2026-08-14T23:42:00Z</time>
      </trkpt>
      <trkpt lat="34.32052671223298" lon="108.97545512994992">
        <ele>393.5447724452242</ele>
        <time>2026-08-14T23:42:04Z</time>
      </trkpt>
      <trkpt lat="34.32028825640246" lon="108.97539639943982">
        <ele>394.3387678898871</ele>
        <time>2026-08-14T23:42:17Z</time>
      </trkpt>
      <trkpt lat="34.320078365500464" lon="108.97541297372601">
        <ele>394.7833880940452</ele>
        <time>2026-08-14T23:42:29Z</time>
      </trkpt>
      <trkpt lat="34.320035499228" lon="108.97543384468162">
        <ele>393.84082004241645</ele>
        <time>2026-08-14T23:42:32Z</time>
      </trkpt>
      <trkpt lat="34.31972463170758" lon="108.97541359217742">
        <ele>394.3894830942154</ele>
        <time>2026-08-14T23:42:50Z</time>
      </trkpt>
      <trkpt lat="34.31942819699187" lon="108.97539981356279">
        <ele>396.45037763472646</ele>
        <time>2026-08-14T23:43:14Z</time>
      </trkpt>
      <trkpt lat="34.31934133003572" lon="108.9754051087296">
        <ele>396.8100160565227</ele>
        <time>2026-08-14T23:43:20Z</time>
      </trkpt>
      <trkpt lat="34.31926562354831" lon="108.97537483203742">
        <ele>396.49176454916596</ele>
        <time>2026-08-14T23:43:26Z</time>
      </trkpt>
      <trkpt lat="34.31921663315836" lon="108.97528730428449">
        <ele>395.93696082476526</ele>
        <time>2026-08-14T23:43:32Z</time>
      </trkpt>
      <trkpt lat="34.31915008179178" lon="108.97523628350335">
        <ele>394.0373934553936</ele>
        <time>2026-08-14T23:43:38Z</time>
      </trkpt>
      <trkpt lat="34.31905069845192" lon="108.97519482254205">
        <ele>395.9398664291948</ele>
        <time>2026-08-14T23:43:44Z</time>
      </trkpt>
      <trkpt lat="34.31891100805204" lon="108.97520666936083">
        <ele>397.99405419360846</ele>
        <time>2026-08-14T23:43:53Z</time>
      </trkpt>
      <trkpt lat="34.31885118660507" lon="108.97524132176258">
        <ele>397.38127248361707</ele>
        <time>2026-08-14T23:43:56Z</time>
      </trkpt>
      <trkpt lat="34.318676317368556" lon="108.97518938552525">
        <ele>398.69497274886817</ele>
        <time>2026-08-14T23:44:07Z</time>
      </trkpt>
      <trkpt lat="34.31839521921495" lon="108.97517294465126">
        <ele>397.40539645496756</ele>
        <time>2026-08-14T23:44:27Z</time>
      </trkpt>
      <trkpt lat="34.31833780086161" lon="108.97518302008237">
        <ele>397.17760208807886</ele>
        <time>2026-08-14T23:44:33Z</time>
      </trkpt>
      <trkpt lat="34.31801315415595" lon="108.97515910978429">
        <ele>396.36081698164344</ele>
        <time>2026-08-14T23:45:00Z</time>
      </trkpt>
      <trkpt lat="34.31787433335651" lon="108.97514038242238">
        <ele>397.28138708975166</ele>
        <time>2026-08-14T23:45:12Z</time>
      </trkpt>
      <trkpt lat="34.31778945490514" lon="108.97519619736">
        <ele>397.7009949758649</ele>
        <time>2026-08-14T23:45:18Z</time>
      </trkpt>
      <trkpt lat="34.31758020683732" lon="108.97544322762528">
        <ele>396.0634032357484</ele>
        <time>2026-08-14T23:45:33Z</time>
      </trkpt>
      <trkpt lat="34.31750574399942" lon="108.97553777358702">
        <ele>396.10149679426104</ele>
        <time>2026-08-14T23:45:42Z</time>
      </trkpt>
      <trkpt lat="34.317397372125285" lon="108.97558693524456">
        <ele>396.9147379724309</ele>
        <time>2026-08-14T23:45:51Z</time>
      </trkpt>
      <trkpt lat="34.31708260092442" lon="108.9755625528385">
        <ele>397.51799747068435</ele>
        <time>2026-08-14T23:46:13Z</time>
      </trkpt>
      <trkpt lat="34.31677807509165" lon="108.97552067269866">
        <ele>396.9795986460522</ele>
        <time>2026-08-14T23:46:29Z</time>
      </trkpt>
      <trkpt lat="34.316614825323036" lon="108.97526514388109">
        <ele>397.7369654374197</ele>
        <time>2026-08-14T23:46:44Z</time>
      </trkpt>
      <trkpt lat="34.31649819799012" lon="108.97515034490534">
        <ele>398.7939274869859</ele>
        <time>2026-08-14T23:46:56Z</time>
      </trkpt>
      <trkpt lat="34.3162248115496" lon="108.97513207960088">
        <ele>397.44756743032485</ele>
        <time>2026-08-14T23:47:11Z</time>
      </trkpt>
      <trkpt lat="34.31595180543038" lon="108.9751131166856">
        <ele>398.9179828213528</ele>
        <time>2026-08-14T23:47:26Z</time>
      </trkpt>
      <trkpt lat="34.31569178917617" lon="108.9750941522693">
        <ele>398.91708401590586</ele>
        <time>2026-08-14T23:47:41Z</time>
      </trkpt>
      <trkpt lat="34.31544420047818" lon="108.97508840489947">
        <ele>399.1140657570213</ele>
        <time>2026-08-14T23:47:59Z</time>
      </trkpt>
      <trkpt lat="34.31538934746302" lon="108.975071496993">
        <ele>399.42012255918235</ele>
        <time>2026-08-14T23:48:05Z</time>
      </trkpt>
      <trkpt lat="34.31531006864014" lon="108.97509879842598">
        <ele>399.0509030520916</ele>
        <time>2026-08-14T23:48:11Z</time>
      </trkpt>
      <trkpt lat="34.31505005731724" lon="108.97508123785943">
        <ele>400.92417967226356</ele>
        <time>2026-08-14T23:48:30Z</time>
      </trkpt>
      <trkpt lat="34.314910917468424" lon="108.97503863585264">
        <ele>400.61376175191253</ele>
        <time>2026-08-14T23:48:42Z</time>
      </trkpt>
      <trkpt lat="34.3146713275081" lon="108.9750183142927">
        <ele>401.4890701919794</ele>
        <time>2026-08-14T23:49:00Z</time>
      </trkpt>
      <trkpt lat="34.31462761632153" lon="108.97498787282392">
        <ele>400.1237201280892</ele>
        <time>2026-08-14T23:49:03Z</time>
      </trkpt>
      <trkpt lat="34.31447335322071" lon="108.97500063191062">
        <ele>401.1462469222024</ele>
        <time>2026-08-14T23:49:12Z</time>
      </trkpt>
      <trkpt lat="34.31439365185737" lon="108.97495837468749">
        <ele>401.0496353711933</ele>
        <time>2026-08-14T23:49:18Z</time>
      </trkpt>
      <trkpt lat="34.31433683014092" lon="108.97499400052412">
        <ele>400.8445554440841</ele>
        <time>2026-08-14T23:49:24Z</time>
      </trkpt>
      <trkpt lat="34.314177241871334" lon="108.97500692931477">
        <ele>401.6121404534206</ele>
        <time>2026-08-14T23:49:33Z</time>
      </trkpt>
      <trkpt lat="34.31391895523736" lon="108.97498881745236">
        <ele>402.54183809645474</ele>
        <time>2026-08-14T23:49:48Z</time>
      </trkpt>
      <trkpt lat="34.31389374287861" lon="108.97505942987121">
        <ele>401.6984756048769</ele>
        <time>2026-08-14T23:49:51Z</time>
      </trkpt>
      <trkpt lat="34.313797419090676" lon="108.97514210063706">
        <ele>401.9069747151807</ele>
        <time>2026-08-14T23:50:00Z</time>
      </trkpt>
      <trkpt lat="34.31365516892089" lon="108.97505012884339">
        <ele>400.7978467317298</ele>
        <time>2026-08-14T23:50:12Z</time>
      </trkpt>
      <trkpt lat="34.31356705658705" lon="108.9750683587137">
        <ele>400.4545641532168</ele>
        <time>2026-08-14T23:50:19Z</time>
      </trkpt>
      <trkpt lat="34.31339395348524" lon="108.9750405688478">
        <ele>400.99261923413724</ele>
        <time>2026-08-14T23:50:33Z</time>
      </trkpt>
      <trkpt lat="34.31329304699471" lon="108.97494047307741">
        <ele>401.15324581973255</ele>
        <time>2026-08-14T23:50:42Z</time>
      </trkpt>
      <trkpt lat="34.31324399506555" lon="108.97491934102729">
        <ele>401.32179391756654</ele>
        <time>2026-08-14T23:50:45Z</time>
      </trkpt>
      <trkpt lat="34.31297050016958" lon="108.97490013712147">
        <ele>402.0265967287123</ele>
        <time>2026-08-14T23:51:00Z</time>
      </trkpt>
      <trkpt lat="34.312887705180835" lon="108.97491824016593">
        <ele>402.4627878945321</ele>
        <time>2026-08-14T23:51:06Z</time>
      </trkpt>
      <trkpt lat="34.31257849925804" lon="108.97487846009385">
        <ele>401.39364665094763</ele>
        <time>2026-08-14T23:51:30Z</time>
      </trkpt>
      <trkpt lat="34.312422544464035" lon="108.97487981778075">
        <ele>400.99423580709845</ele>
        <time>2026-08-14T23:51:42Z</time>
      </trkpt>
      <trkpt lat="34.312350322657714" lon="108.9748596972203">
        <ele>401.3843557788059</ele>
        <time>2026-08-14T23:51:48Z</time>
      </trkpt>
      <trkpt lat="34.31220547765316" lon="108.97488074868448">
        <ele>402.3948461879045</ele>
        <time>2026-08-14T23:52:13Z</time>
      </trkpt>
      <trkpt lat="34.31218866746853" lon="108.97504869580328">
        <ele>401.69733686279505</ele>
        <time>2026-08-14T23:52:30Z</time>
      </trkpt>
      <trkpt lat="34.31221079878017" lon="108.97515082627885">
        <ele>401.6912343176082</ele>
        <time>2026-08-14T23:52:34Z</time>
      </trkpt>
      <trkpt lat="34.312329542338986" lon="108.97522029848578">
        <ele>401.9150383332744</ele>
        <time>2026-08-14T23:52:40Z</time>
      </trkpt>
      <trkpt lat="34.312394291070625" lon="108.97523030554551">
        <ele>401.0879058511928</ele>
        <time>2026-08-14T23:52:43Z</time>
      </trkpt>
      <trkpt lat="34.3124548076437" lon="108.97521825136778">
        <ele>401.28968437574804</ele>
        <time>2026-08-14T23:52:46Z</time>
      </trkpt>
      <trkpt lat="34.31260819541354" lon="108.97510346865258">
        <ele>401.33666776586324</ele>
        <time>2026-08-14T23:52:55Z</time>
      </trkpt>
      <trkpt lat="34.312729529510015" lon="108.9751073282944">
        <ele>402.22397947404534</ele>
        <time>2026-08-14T23:53:01Z</time>
      </trkpt>
      <trkpt lat="34.312967989005486" lon="108.9752196594612">
        <ele>403.14887848775834</ele>
        <time>2026-08-14T23:53:13Z</time>
      </trkpt>
      <trkpt lat="34.313034837161396" lon="108.97520785964582">
        <ele>402.7612347751856</ele>
        <time>2026-08-14T23:53:16Z</time>
      </trkpt>
      <trkpt lat="34.31307556554459" lon="108.97518067371925">
        <ele>401.7101312279701</ele>
        <time>2026-08-14T23:53:19Z</time>
      </trkpt>
      <trkpt lat="34.3131297849501" lon="108.97523562558291">
        <ele>400.6318307509646</ele>
        <time>2026-08-14T23:53:25Z</time>
      </trkpt>
      <trkpt lat="34.313180616467115" lon="108.97524351431628">
        <ele>402.44029815029353</ele>
        <time>2026-08-14T23:53:28Z</time>
      </trkpt>
      <trkpt lat="34.313227021504865" lon="108.97527719894472">
        <ele>400.46036893315613</ele>
        <time>2026-08-14T23:53:31Z</time>
      </trkpt>
      <trkpt lat="34.31328083794062" lon="108.97528830761006">
        <ele>400.237509066239</ele>
        <time>2026-08-14T23:53:34Z</time>
      </trkpt>
      <trkpt lat="34.313489058341716" lon="108.97522865722472">
        <ele>399.4149086782709</ele>
        <time>2026-08-14T23:53:46Z</time>
      </trkpt>
      <trkpt lat="34.31354800165285" lon="108.97522922141144">
        <ele>399.5788539480418</ele>
        <time>2026-08-14T23:53:49Z</time>
      </trkpt>
      <trkpt lat="34.31359703372953" lon="108.97520231883622">
        <ele>401.08939290232956</ele>
        <time>2026-08-14T23:53:55Z</time>
      </trkpt>
      <trkpt lat="34.31362724630826" lon="108.9750621621849">
        <ele>400.83838009648025</ele>
        <time>2026-08-14T23:54:04Z</time>
      </trkpt>
      <trkpt lat="34.313672210456616" lon="108.97504076667394">
        <ele>400.61495560593903</ele>
        <time>2026-08-14T23:54:07Z</time>
      </trkpt>
      <trkpt lat="34.313689312800584" lon="108.97498187795968">
        <ele>400.0445732213557</ele>
        <time>2026-08-14T23:54:13Z</time>
      </trkpt>
      <trkpt lat="34.31373587075202" lon="108.97495876039325">
        <ele>400.03069145977497</ele>
        <time>2026-08-14T23:54:16Z</time>
      </trkpt>
      <trkpt lat="34.31385817290528" lon="108.97499097175371">
        <ele>400.2731478093192</ele>
        <time>2026-08-14T23:54:22Z</time>
      </trkpt>
      <trkpt lat="34.31413331008457" lon="108.97500905908724">
        <ele>400.63950419891626</ele>
        <time>2026-08-14T23:54:35Z</time>
      </trkpt>
      <trkpt lat="34.31426745950142" lon="108.97500570982422">
        <ele>402.1482798103243</ele>
        <time>2026-08-14T23:54:41Z</time>
      </trkpt>
      <trkpt lat="34.31433409208797" lon="108.97502533617175">
        <ele>400.14798773638904</ele>
        <time>2026-08-14T23:54:44Z</time>
      </trkpt>
      <trkpt lat="34.314391113200365" lon="108.9750173980954">
        <ele>400.98995679151267</ele>
        <time>2026-08-14T23:54:47Z</time>
      </trkpt>
      <trkpt lat="34.31472240050995" lon="108.97505731540483">
        <ele>399.41308287903666</ele>
        <time>2026-08-14T23:55:08Z</time>
      </trkpt>
      <trkpt lat="34.31488059517374" lon="108.97504179450142">
        <ele>398.49522634781897</ele>
        <time>2026-08-14T23:55:17Z</time>
      </trkpt>
      <trkpt lat="34.315018216053765" lon="108.97507911740462">
        <ele>399.0782615840435</ele>
        <time>2026-08-14T23:55:23Z</time>
      </trkpt>
      <trkpt lat="34.31532070026699" lon="108.97508742865284">
        <ele>399.3473461577669</ele>
        <time>2026-08-14T23:55:44Z</time>
      </trkpt>
      <trkpt lat="34.31563194496396" lon="108.97510260396825">
        <ele>399.1685213111341</ele>
        <time>2026-08-14T23:56:02Z</time>
      </trkpt>
      <trkpt lat="34.31593571970737" lon="108.97512717912255">
        <ele>399.10208703856915</ele>
        <time>2026-08-14T23:56:17Z</time>
      </trkpt>
      <trkpt lat="34.31623299971243" lon="108.97514375271531">
        <ele>397.92704361025244</ele>
        <time>2026-08-14T23:56:32Z</time>
      </trkpt>
      <trkpt lat="34.316515693138484" lon="108.97517329678686">
        <ele>397.8474894063547</ele>
        <time>2026-08-14T23:56:47Z</time>
      </trkpt>
      <trkpt lat="34.316570271844384" lon="108.97520601650811">
        <ele>397.7805593945086</ele>
        <time>2026-08-14T23:56:50Z</time>
      </trkpt>
      <trkpt lat="34.316739141735745" lon="108.97546703497864">
        <ele>396.3398299636319</ele>
        <time>2026-08-14T23:57:02Z</time>
      </trkpt>
      <trkpt lat="34.316783824738216" lon="108.97550616922925">
        <ele>396.47073075640947</ele>
        <time>2026-08-14T23:57:05Z</time>
      </trkpt>
      <trkpt lat="34.317029670935696" lon="108.97555604288118">
        <ele>396.2980411807075</ele>
        <time>2026-08-14T23:57:17Z</time>
      </trkpt>
      <trkpt lat="34.31734647291562" lon="108.9755659911901">
        <ele>397.4540150696412</ele>
        <time>2026-08-14T23:57:32Z</time>
      </trkpt>
      <trkpt lat="34.317414171828226" lon="108.9755663897518">
        <ele>397.2806232608855</ele>
        <time>2026-08-14T23:57:35Z</time>
      </trkpt>
      <trkpt lat="34.317492895310046" lon="108.9755912039237">
        <ele>397.0490968031809</ele>
        <time>2026-08-14T23:57:38Z</time>
      </trkpt>
      <trkpt lat="34.31754740534622" lon="108.97556188713602">
        <ele>396.86672403663397</ele>
        <time>2026-08-14T23:57:41Z</time>
      </trkpt>
      <trkpt lat="34.317575617055226" lon="108.97548554221414">
        <ele>397.23499089479446</ele>
        <time>2026-08-14T23:57:44Z</time>
      </trkpt>
      <trkpt lat="34.317709210083585" lon="108.97530477277058">
        <ele>396.2883383138105</ele>
        <time>2026-08-14T23:57:53Z</time>
      </trkpt>
      <trkpt lat="34.317778278599526" lon="108.97528424831629">
        <ele>396.65139739681035</ele>
        <time>2026-08-14T23:57:56Z</time>
      </trkpt>
      <trkpt lat="34.31781734269556" lon="108.97523839104969">
        <ele>396.1800553128123</ele>
        <time>2026-08-14T23:57:59Z</time>
      </trkpt>
      <trkpt lat="34.31783762629802" lon="108.97516220514088">
        <ele>396.44984311331064</ele>
        <time>2026-08-14T23:58:02Z</time>
      </trkpt>
      <trkpt lat="34.318036470211894" lon="108.97515035468591">
        <ele>397.0977265536785</ele>
        <time>2026-08-14T23:58:11Z</time>
      </trkpt>
      <trkpt lat="34.318314191243374" lon="108.97517256287472">
        <ele>399.7710633361712</ele>
        <time>2026-08-14T23:58:26Z</time>
      </trkpt>
      <trkpt lat="34.318592967856766" lon="108.9751768703372">
        <ele>399.7977763535455</ele>
        <time>2026-08-14T23:58:41Z</time>
      </trkpt>
      <trkpt lat="34.31875616722152" lon="108.97519228238318">
        <ele>399.0529735535383</ele>
        <time>2026-08-14T23:58:49Z</time>
      </trkpt>
      <trkpt lat="34.3188310895824" lon="108.97522180735258">
        <ele>397.99027656205</ele>
        <time>2026-08-14T23:58:53Z</time>
      </trkpt>
      <trkpt lat="34.31916941660962" lon="108.97521487189186">
        <ele>394.71767568588257</ele>
        <time>2026-08-14T23:59:09Z</time>
      </trkpt>
      <trkpt lat="34.319297593280915" lon="108.97536340840146">
        <ele>396.30902347527444</ele>
        <time>2026-08-14T23:59:15Z</time>
      </trkpt>
      <trkpt lat="34.3193558421815" lon="108.9753898445729">
        <ele>395.50567386858165</ele>
        <time>2026-08-14T23:59:18Z</time>
      </trkpt>
      <trkpt lat="34.31965607981454" lon="108.97542228483638">
        <ele>394.6650931853801</ele>
        <time>2026-08-14T23:59:33Z</time>
      </trkpt>
      <trkpt lat="34.31996925038342" lon="108.97543261085288">
        <ele>393.77671353146434</ele>
        <time>2026-08-14T23:59:48Z</time>
      </trkpt>
      <trkpt lat="34.320256791195405" lon="108.97541805965902">
        <ele>394.62820939626545</ele>
        <time>2026-08-15T00:00:03Z</time>
      </trkpt>
      <trkpt lat="34.320544150685436" lon="108.97543970530793">
        <ele>393.7753695975989</ele>
        <time>2026-08-15T00:00:18Z</time>
      </trkpt>
      <trkpt lat="34.3206201319781" lon="108.97542859030169">
        <ele>395.1810305742547</ele>
        <time>2026-08-15T00:00:24Z</time>
      </trkpt>
      <trkpt lat="34.32091955952377" lon="108.97546440423012">
        <ele>395.54525392036885</ele>
        <time>2026-08-15T00:00:45Z</time>
      </trkpt>
      <trkpt lat="34.321134414350176" lon="108.97548585965875">
        <ele>394.7771650161594</ele>
        <time>2026-08-15T00:00:57Z</time>
      </trkpt>
      <trkpt lat="34.32120822158207" lon="108.9755321627958">
        <ele>394.398727491498</ele>
        <time>2026-08-15T00:01:01Z</time>
      </trkpt>
      <trkpt lat="34.321286071304385" lon="108.97564494601451">
        <ele>394.31882407609373</ele>
        <time>2026-08-15T00:01:07Z</time>
      </trkpt>
      <trkpt lat="34.32133445758582" lon="108.97568589367644">
        <ele>394.6770111275837</ele>
        <time>2026-08-15T00:01:10Z</time>
      </trkpt>
      <trkpt lat="34.32139355627216" lon="108.97570540347185">
        <ele>395.0976900830865</ele>
        <time>2026-08-15T00:01:13Z</time>
      </trkpt>
      <trkpt lat="34.32156987339319" lon="108.975708128895">
        <ele>394.25914965569973</ele>
        <time>2026-08-15T00:01:22Z</time>
      </trkpt>
      <trkpt lat="34.321864884832436" lon="108.97573677031876">
        <ele>393.994571226649</ele>
        <time>2026-08-15T00:01:37Z</time>
      </trkpt>
      <trkpt lat="34.321922842660804" lon="108.97574073498326">
        <ele>393.769607886672</ele>
        <time>2026-08-15T00:01:40Z</time>
      </trkpt>
      <trkpt lat="34.322189411880665" lon="108.97578587298004">
        <ele>394.6799693806097</ele>
        <time>2026-08-15T00:01:55Z</time>
      </trkpt>
      <trkpt lat="34.32224840425671" lon="108.97577483560876">
        <ele>394.47251893021166</ele>
        <time>2026-08-15T00:01:58Z</time>
      </trkpt>
      <trkpt lat="34.322569039017175" lon="108.97579707245264">
        <ele>394.3980389041826</ele>
        <time>2026-08-15T00:02:16Z</time>
      </trkpt>
      <trkpt lat="34.322841691117134" lon="108.97581355012457">
        <ele>394.44239027425647</ele>
        <time>2026-08-15T00:02:31Z</time>
      </trkpt>
      <trkpt lat="34.3228941140523" lon="108.97581378248402">
        <ele>394.8494051601738</ele>
        <time>2026-08-15T00:02:34Z</time>
      </trkpt>
      <trkpt lat="34.323032113249994" lon="108.9755975710991">
        <ele>396.07194981444627</ele>
        <time>2026-08-15T00:02:46Z</time>
      </trkpt>
      <trkpt lat="34.32308284233258" lon="108.97548470895933">
        <ele>395.69968394748867</ele>
        <time>2026-08-15T00:02:52Z</time>
      </trkpt>
      <trkpt lat="34.323363432253345" lon="108.97551089549268">
        <ele>396.62135857343674</ele>
        <time>2026-08-15T00:03:06Z</time>
      </trkpt>
      <trkpt lat="34.323481857450886" lon="108.97548847857466">
        <ele>395.64061257150024</ele>
        <time>2026-08-15T00:03:18Z</time>
      </trkpt>
      <trkpt lat="34.32370646973785" lon="108.97549581910715">
        <ele>395.9755074419081</ele>
        <time>2026-08-15T00:03:33Z</time>
      </trkpt>
      <trkpt lat="34.323764689717805" lon="108.97552685515055">
        <ele>396.85424814838916</ele>
        <time>2026-08-15T00:03:36Z</time>
      </trkpt>
      <trkpt lat="34.32404375455884" lon="108.975538500926">
        <ele>395.9614839013666</ele>
        <time>2026-08-15T00:03:51Z</time>
      </trkpt>
      <trkpt lat="34.324315505629194" lon="108.9755718280309">
        <ele>396.91588785033673</ele>
        <time>2026-08-15T00:04:06Z</time>
      </trkpt>
      <trkpt lat="34.324359502516764" lon="108.97561993658178">
        <ele>396.6416348274797</ele>
        <time>2026-08-15T00:04:09Z</time>
      </trkpt>
      <trkpt lat="34.324515170786775" lon="108.97591595637854">
        <ele>396.3417181093246</ele>
        <time>2026-08-15T00:04:24Z</time>
      </trkpt>
      <trkpt lat="34.32455121831064" lon="108.97596330700237">
        <ele>396.04218441434205</ele>
        <time>2026-08-15T00:04:27Z</time>
      </trkpt>
      <trkpt lat="34.32471506168158" lon="108.97600200523902">
        <ele>396.36766020860523</ele>
        <time>2026-08-15T00:04:36Z</time>
      </trkpt>
      <trkpt lat="34.32493606533501" lon="108.97600559375553">
        <ele>397.16392294317484</ele>
        <time>2026-08-15T00:04:54Z</time>
      </trkpt>
      <trkpt lat="34.32505250003119" lon="108.9759616646365">
        <ele>397.14203640818596</ele>
        <time>2026-08-15T00:05:01Z</time>
      </trkpt>
      <trkpt lat="34.325240158442575" lon="108.97574211542064">
        <ele>396.41885586921126</ele>
        <time>2026-08-15T00:05:15Z</time>
      </trkpt>
      <trkpt lat="34.32536404924163" lon="108.97572467060716">
        <ele>396.6893275026232</ele>
        <time>2026-08-15T00:05:24Z</time>
      </trkpt>
      <trkpt lat="34.32546861264588" lon="108.97573427866246">
        <ele>396.5679529123008</ele>
        <time>2026-08-15T00:05:30Z</time>
      </trkpt>
      <trkpt lat="34.32553916851478" lon="108.97577456541852">
        <ele>396.49283134005964</ele>
        <time>2026-08-15T00:05:36Z</time>
      </trkpt>
      <trkpt lat="34.32581573914203" lon="108.97576416971408">
        <ele>397.14658637996763</ele>
        <time>2026-08-15T00:05:57Z</time>
      </trkpt>
      <trkpt lat="34.325922682039774" lon="108.97575832332451">
        <ele>397.60162232257426</ele>
        <time>2026-08-15T00:06:03Z</time>
      </trkpt>
      <trkpt lat="34.32604165846608" lon="108.97578097030197">
        <ele>396.9770926851779</ele>
        <time>2026-08-15T00:06:12Z</time>
      </trkpt>
      <trkpt lat="34.32636075802072" lon="108.97578358605008">
        <ele>397.19341878127307</ele>
        <time>2026-08-15T00:06:27Z</time>
      </trkpt>
      <trkpt lat="34.326636975510716" lon="108.97578439319508">
        <ele>397.29303759895265</ele>
        <time>2026-08-15T00:06:48Z</time>
      </trkpt>
      <trkpt lat="34.32697135084193" lon="108.97582934511952">
        <ele>396.7053399849683</ele>
        <time>2026-08-15T00:07:13Z</time>
      </trkpt>
      <trkpt lat="34.32728972547171" lon="108.97588528180385">
        <ele>397.10821379255503</ele>
        <time>2026-08-15T00:07:36Z</time>
      </trkpt>
      <trkpt lat="34.327342304344484" lon="108.97590122441846">
        <ele>396.4080509683117</ele>
        <time>2026-08-15T00:07:39Z</time>
      </trkpt>
      <trkpt lat="34.327422352059585" lon="108.97589006175862">
        <ele>396.20743085443974</ele>
        <time>2026-08-15T00:07:42Z</time>
      </trkpt>
      <trkpt lat="34.32761690137667" lon="108.97591499040517">
        <ele>398.8334675608203</ele>
        <time>2026-08-15T00:07:51Z</time>
      </trkpt>
      <trkpt lat="34.32769833266521" lon="108.9759493352067">
        <ele>398.944155828096</ele>
        <time>2026-08-15T00:07:54Z</time>
      </trkpt>
      <trkpt lat="34.32798438128155" lon="108.9759780029081">
        <ele>397.32323321234435</ele>
        <time>2026-08-15T00:08:09Z</time>
      </trkpt>
      <trkpt lat="34.32804629254463" lon="108.97597738831615">
        <ele>397.9051624275744</ele>
        <time>2026-08-15T00:08:12Z</time>
      </trkpt>
      <trkpt lat="34.3280939871434" lon="108.97595045361092">
        <ele>397.68062426522374</ele>
        <time>2026-08-15T00:08:15Z</time>
      </trkpt>
      <trkpt lat="34.32822150025457" lon="108.97594525788162">
        <ele>397.25911138020456</ele>
        <time>2026-08-15T00:08:21Z</time>
      </trkpt>
      <trkpt lat="34.328320736125136" lon="108.97596427902296">
        <ele>395.7193950554356</ele>
        <time>2026-08-15T00:08:27Z</time>
      </trkpt>
      <trkpt lat="34.32837549656363" lon="108.9759546061808">
        <ele>396.5227365074679</ele>
        <time>2026-08-15T00:08:30Z</time>
      </trkpt>
      <trkpt lat="34.32842604606129" lon="108.97590746280218">
        <ele>395.3587523950264</ele>
        <time>2026-08-15T00:08:33Z</time>
      </trkpt>
      <trkpt lat="34.32851386082005" lon="108.97597391067588">
        <ele>394.75197433307767</ele>
        <time>2026-08-15T00:08:36Z</time>
      </trkpt>
      <trkpt lat="34.32853508254647" lon="108.97610882850856">
        <ele>394.5478826845065</ele>
        <time>2026-08-15T00:08:39Z</time>
      </trkpt>
      <trkpt lat="34.32866592894914" lon="108.97615510102125">
        <ele>395.1577748795971</ele>
        <time>2026-08-15T00:08:45Z</time>
      </trkpt>
      <trkpt lat="34.32874314727104" lon="108.97629928437357">
        <ele>395.3298123553395</ele>
        <time>2026-08-15T00:08:51Z</time>
      </trkpt>
      <trkpt lat="34.32880733212599" lon="108.9763514926359">
        <ele>395.56719982251525</ele>
        <time>2026-08-15T00:08:57Z</time>
      </trkpt>
      <trkpt lat="34.3290857193192" lon="108.97637014352665">
        <ele>395.0070522753522</ele>
        <time>2026-08-15T00:09:13Z</time>
      </trkpt>
      <trkpt lat="34.329204938786845" lon="108.97636692815145">
        <ele>395.85843751579523</ele>
        <time>2026-08-15T00:09:19Z</time>
      </trkpt>
      <trkpt lat="34.32936455424519" lon="108.97639027740776">
        <ele>394.6577300010249</ele>
        <time>2026-08-15T00:09:26Z</time>
      </trkpt>
      <trkpt lat="34.32968783014828" lon="108.97638639195716">
        <ele>394.4751359978691</ele>
        <time>2026-08-15T00:09:47Z</time>
      </trkpt>
      <trkpt lat="34.3297481522257" lon="108.97637928298802">
        <ele>394.30094861611724</ele>
        <time>2026-08-15T00:09:50Z</time>
      </trkpt>
      <trkpt lat="34.32980734741107" lon="108.97633882049962">
        <ele>394.6774123515934</ele>
        <time>2026-08-15T00:09:53Z</time>
      </trkpt>
      <trkpt lat="34.32996352504397" lon="108.97612082523263">
        <ele>393.4064505631104</ele>
        <time>2026-08-15T00:10:05Z</time>
      </trkpt>
      <trkpt lat="34.329982783706406" lon="108.97606731761597">
        <ele>394.5143597247079</ele>
        <time>2026-08-15T00:10:08Z</time>
      </trkpt>
      <trkpt lat="34.330261958369015" lon="108.97606172399183">
        <ele>395.6749116079882</ele>
        <time>2026-08-15T00:10:29Z</time>
      </trkpt>
      <trkpt lat="34.33030898712314" lon="108.97606613847078">
        <ele>395.3581144968048</ele>
        <time>2026-08-15T00:10:32Z</time>
      </trkpt>
      <trkpt lat="34.33029976239127" lon="108.97590989287613">
        <ele>395.5134472409263</ele>
        <time>2026-08-15T00:10:41Z</time>
      </trkpt>
      <trkpt lat="34.33025324922383" lon="108.975906961033">
        <ele>395.45023553352803</ele>
        <time>2026-08-15T00:10:44Z</time>
      </trkpt>
      <trkpt lat="34.33022313113427" lon="108.97583036901797">
        <ele>394.83950549922884</ele>
        <time>2026-08-15T00:10:50Z</time>
      </trkpt>
      <trkpt lat="34.33021915233606" lon="108.97591278823194">
        <ele>395.17927470151335</ele>
        <time>2026-08-15T00:10:59Z</time>
      </trkpt>
      <trkpt lat="34.33024755354176" lon="108.97596927975333">
        <ele>395.1831224458292</ele>
        <time>2026-08-15T00:11:05Z</time>
      </trkpt>
      <trkpt lat="34.330294103881485" lon="108.97594240090818">
        <ele>395.23840059526265</ele>
        <time>2026-08-15T00:14:04Z</time>
      </trkpt>
      <trkpt lat="34.33034187982753" lon="108.97600425490478">
        <ele>394.43533343821764</ele>
        <time>2026-08-15T00:14:10Z</time>
      </trkpt>
      <trkpt lat="34.330370603530504" lon="108.97608012364462">
        <ele>394.08245890121907</ele>
        <time>2026-08-15T00:14:16Z</time>
      </trkpt>
      <trkpt lat="34.330674145631264" lon="108.97611604261596">
        <ele>393.8227177094668</ele>
        <time>2026-08-15T00:14:40Z</time>
      </trkpt>
      <trkpt lat="34.33070089367897" lon="108.97618725151735">
        <ele>394.7298159953207</ele>
        <time>2026-08-15T00:14:46Z</time>
      </trkpt>
      <trkpt lat="34.33070263203285" lon="108.97650419146801">
        <ele>394.44360812101513</ele>
        <time>2026-08-15T00:14:58Z</time>
      </trkpt>
      <trkpt lat="34.3306778072405" lon="108.97665635043937">
        <ele>393.6541398903355</ele>
        <time>2026-08-15T00:15:04Z</time>
      </trkpt>
      <trkpt lat="34.33070620293957" lon="108.97681440865458">
        <ele>394.33367907535285</ele>
        <time>2026-08-15T00:15:13Z</time>
      </trkpt>
      <trkpt lat="34.33070032135751" lon="108.9768876170633">
        <ele>394.66067473590374</ele>
        <time>2026-08-15T00:15:19Z</time>
      </trkpt>
      <trkpt lat="34.330714338572314" lon="108.97694092428907">
        <ele>395.4301408426836</ele>
        <time>2026-08-15T00:15:22Z</time>
      </trkpt>
      <trkpt lat="34.33066550940676" lon="108.97710654116948">
        <ele>394.5215522320941</ele>
        <time>2026-08-15T00:15:32Z</time>
      </trkpt>
      <trkpt lat="34.33068126456975" lon="108.97721269497197">
        <ele>395.30968799907714</ele>
        <time>2026-08-15T00:15:38Z</time>
      </trkpt>
      <trkpt lat="34.33065633495412" lon="108.97729437175744">
        <ele>395.46406168397516</ele>
        <time>2026-08-15T00:15:44Z</time>
      </trkpt>
      <trkpt lat="34.33065696322716" lon="108.97740011201232">
        <ele>394.82346264924854</ele>
        <time>2026-08-15T00:15:50Z</time>
      </trkpt>
      <trkpt lat="34.330628905732915" lon="108.97755526551569">
        <ele>394.82654418610036</ele>
        <time>2026-08-15T00:15:59Z</time>
      </trkpt>
      <trkpt lat="34.33064445826644" lon="108.97760717498579">
        <ele>394.99127112608403</ele>
        <time>2026-08-15T00:16:02Z</time>
      </trkpt>
      <trkpt lat="34.33062303215896" lon="108.97769854731567">
        <ele>393.7457139203325</ele>
        <time>2026-08-15T00:16:08Z</time>
      </trkpt>
      <trkpt lat="34.33066980716616" lon="108.9779931875072">
        <ele>394.67285534739494</ele>
        <time>2026-08-15T00:16:26Z</time>
      </trkpt>
      <trkpt lat="34.33065165121405" lon="108.97814745637514">
        <ele>393.98760858457536</ele>
        <time>2026-08-15T00:16:35Z</time>
      </trkpt>
      <trkpt lat="34.33061605473562" lon="108.97819337752324">
        <ele>394.69341180101037</ele>
        <time>2026-08-15T00:16:38Z</time>
      </trkpt>
      <trkpt lat="34.330565451769154" lon="108.97820413086919">
        <ele>392.8429061276838</ele>
        <time>2026-08-15T00:16:41Z</time>
      </trkpt>
      <trkpt lat="34.33051177234724" lon="108.97824322208369">
        <ele>393.3512284317985</ele>
        <time>2026-08-15T00:16:44Z</time>
      </trkpt>
      <trkpt lat="34.33050897585877" lon="108.97841181926852">
        <ele>394.0873679379001</ele>
        <time>2026-08-15T00:16:53Z</time>
      </trkpt>
      <trkpt lat="34.33056432604689" lon="108.97873336722921">
        <ele>396.4074293151498</ele>
        <time>2026-08-15T00:17:11Z</time>
      </trkpt>
      <trkpt lat="34.330553025590916" lon="108.97893769312415">
        <ele>394.94308177754283</ele>
        <time>2026-08-15T00:17:23Z</time>
      </trkpt>
      <trkpt lat="34.330514905779665" lon="108.97900651979091">
        <ele>395.0211426606402</ele>
        <time>2026-08-15T00:17:29Z</time>
      </trkpt>
      <trkpt lat="34.3303224679163" lon="108.97905854448234">
        <ele>394.62497127149254</ele>
        <time>2026-08-15T00:17:42Z</time>
      </trkpt>
      <trkpt lat="34.330113862438196" lon="108.97903432451075">
        <ele>395.4592932416126</ele>
        <time>2026-08-15T00:17:57Z</time>
      </trkpt>
      <trkpt lat="34.33006405915962" lon="108.97907186421622">
        <ele>396.1450105756521</ele>
        <time>2026-08-15T00:19:12Z</time>
      </trkpt>
      <trkpt lat="34.32999495287202" lon="108.97919649699293">
        <ele>395.4982140958309</ele>
        <time>2026-08-15T00:19:21Z</time>
      </trkpt>
      <trkpt lat="34.3299262541739" lon="108.97925466375244">
        <ele>395.2193173132837</ele>
        <time>2026-08-15T00:19:27Z</time>
      </trkpt>
      <trkpt lat="34.329843857256094" lon="108.97955942207429">
        <ele>394.9684662045911</ele>
        <time>2026-08-15T00:19:39Z</time>
      </trkpt>
      <trkpt lat="34.32983783301137" lon="108.97989912428343">
        <ele>395.7756017111242</ele>
        <time>2026-08-15T00:19:58Z</time>
      </trkpt>
      <trkpt lat="34.32982570182851" lon="108.98009431536133">
        <ele>395.2087714280933</ele>
        <time>2026-08-15T00:20:13Z</time>
      </trkpt>
      <trkpt lat="34.32979060091" lon="108.98018512725035">
        <ele>396.3166651111096</ele>
        <time>2026-08-15T00:20:19Z</time>
      </trkpt>
      <trkpt lat="34.32972064961912" lon="108.98024762125527">
        <ele>395.90596128161997</ele>
        <time>2026-08-15T00:20:25Z</time>
      </trkpt>
      <trkpt lat="34.329468379198154" lon="108.98031988435031">
        <ele>395.8669841401279</ele>
        <time>2026-08-15T00:20:43Z</time>
      </trkpt>
      <trkpt lat="34.32921745823291" lon="108.98035131219866">
        <ele>395.36349375452846</ele>
        <time>2026-08-15T00:21:01Z</time>
      </trkpt>
      <trkpt lat="34.32917706057723" lon="108.98037762803482">
        <ele>395.8504904974252</ele>
        <time>2026-08-15T00:21:04Z</time>
      </trkpt>
      <trkpt lat="34.32912409995903" lon="108.98045251708027">
        <ele>395.9140157336369</ele>
        <time>2026-08-15T00:21:10Z</time>
      </trkpt>
      <trkpt lat="34.329089472667654" lon="108.9805366228644">
        <ele>395.94811609294266</ele>
        <time>2026-08-15T00:21:16Z</time>
      </trkpt>
      <trkpt lat="34.329018952261954" lon="108.9805976571721">
        <ele>395.82872804719955</ele>
        <time>2026-08-15T00:21:22Z</time>
      </trkpt>
      <trkpt lat="34.32868423878545" lon="108.98062637965089">
        <ele>395.1994776260108</ele>
        <time>2026-08-15T00:21:46Z</time>
      </trkpt>
      <trkpt lat="34.328621230308244" lon="108.98062649611491">
        <ele>395.6440208312124</ele>
        <time>2026-08-15T00:21:50Z</time>
      </trkpt>
      <trkpt lat="34.328578695664596" lon="108.98053772731603">
        <ele>395.84399323537946</ele>
        <time>2026-08-15T00:21:56Z</time>
      </trkpt>
      <trkpt lat="34.32858565093556" lon="108.98036364084261">
        <ele>396.01422537490726</ele>
        <time>2026-08-15T00:22:05Z</time>
      </trkpt>
      <trkpt lat="34.328497616297284" lon="108.98020464470206">
        <ele>395.73724061623216</ele>
        <time>2026-08-15T00:22:14Z</time>
      </trkpt>
      <trkpt lat="34.32865287997468" lon="108.98038842976672">
        <ele>397.0021972814575</ele>
        <time>2026-08-15T00:22:23Z</time>
      </trkpt>
      <trkpt lat="34.328658755561754" lon="108.9804578397291">
        <ele>396.90161149576306</ele>
        <time>2026-08-15T00:22:26Z</time>
      </trkpt>
      <trkpt lat="34.32839263772456" lon="108.98019100572282">
        <ele>408.5121382119941</ele>
        <time>2026-08-15T00:22:42Z</time>
      </trkpt>
      <trkpt lat="34.32839263772456" lon="108.98019100572282">
        <ele>408.5121382119941</ele>
        <time>2026-08-15T00:22:44Z</time>
      </trkpt>
    </trkseg>
  </trk>
</gpx>