<?xml version="1.0" encoding="UTF-8"?>
<gpx xmlns="http://www.topografix.com/GPX/1/1" xmlns:gpxtpx="http://www.garmin.com/xmlschemas/TrackPointExtension/v1" xmlns:xsi="http://www.w3.org/2001/XMLSchema-instance" xsi:schemaLocation="http://www.topografix.com/GPX/1/1 http://www.topografix.com/GPX/1/1/gpx.xsd" version="1.1" creator="gpx.py -- https://github.com/tkrajina/gpxpy">
  <trk>
    <name>gpx from keep</name>
    <type>Ride</type>
    <trkseg>
      <trkpt lat="34.32896677681956" lon="108.98052849960364">
        <ele>395.9133158573838</ele>
        <time>2022-03-02T23:33:20Z</time>
      </trkpt>
      <trkpt lat="34.329012199103936" lon="108.98072183724123">
        <ele>395.76865952708107</ele>
        <time>2022-03-02T23:33:26Z</time>
      </trkpt>
      <trkpt lat="34.32894340476842" lon="108.98082240941415">
        <ele>395.91784225124866</ele>
        <time>2022-03-02T23:33:32Z</time>
      </trkpt>
      <trkpt lat="34.3288571246242" lon="108.98083319585294">
        <ele>395.98395601660013</ele>
        <time>2022-03-02T23:33:34Z</time>
      </trkpt>
      <trkpt lat="34.328712135722625" lon="108.98080252564131">
        <ele>395.6769550219178</ele>
        <time>2022-03-02T23:33:38Z</time>
      </trkpt>
      <trkpt lat="34.32861334607804" lon="108.98086109211685">
        <ele>395.79601560533047</ele>
        <time>2022-03-02T23:33:42Z</time>
      </trkpt>
      <trkpt lat="34.32846367195929" lon="108.98085862838747">
        <ele>395.2287941556424</ele>
        <time>2022-03-02T23:33:48Z</time>
      </trkpt>
      <trkpt lat="34.32831281885179" lon="108.98089640986646">
        <ele>394.83688453026116</ele>
        <time>2022-03-02T23:33:56Z</time>
      </trkpt>
      <trkpt lat="34.32822293780639" lon="108.98088029495966">
        <ele>393.8890508925542</ele>
        <time>2022-03-02T23:34:02Z</time>
      </trkpt>
      <trkpt lat="34.32814866129667" lon="108.98090649954167">
        <ele>395.2873192485422</ele>
        <time>2022-03-02T23:34:08Z</time>
      </trkpt>
      <trkpt lat="34.32820277679907" lon="108.98120934707643">
        <ele>395.10819711815566</ele>
        <time>2022-03-02T23:34:38Z</time>
      </trkpt>
      <trkpt lat="34.32820056626649" lon="108.98135329157572">
        <ele>394.8740856703371</ele>
        <time>2022-03-02T23:34:59Z</time>
      </trkpt>
      <trkpt lat="34.32827823743957" lon="108.98167908634213">
        <ele>394.5716139608994</ele>
        <time>2022-03-02T23:35:11Z</time>
      </trkpt>
      <trkpt lat="34.32821479245895" lon="108.98183276832691">
        <ele>394.2744228756055</ele>
        <time>2022-03-02T23:35:15Z</time>
      </trkpt>
      <trkpt lat="34.328155545678" lon="108.98255732268342">
        <ele>393.7092799730599</ele>
        <time>2022-03-02T23:35:28Z</time>
      </trkpt>
      <trkpt lat="34.328145494246606" lon="108.98290320901958">
        <ele>393.10702914372087</ele>
        <time>2022-03-02T23:35:34Z</time>
      </trkpt>
      <trkpt lat="34.328168142446145" lon="108.98300968558705">
        <ele>393.45047327969223</ele>
        <time>2022-03-02T23:35:36Z</time>
      </trkpt>
      <trkpt lat="34.3281555412603" lon="108.98312098744319">
        <ele>393.0385973090306</ele>
        <time>2022-03-02T23:35:38Z</time>
      </trkpt>
      <trkpt lat="34.32817370166385" lon="108.9834314684711">
        <ele>392.6895190970972</ele>
        <time>2022-03-02T23:35:44Z</time>
      </trkpt>
      <trkpt lat="34.3282384644909" lon="108.98360407071813">
        <ele>393.0109633691609</ele>
        <time>2022-03-02T23:35:48Z</time>
      </trkpt>
      <trkpt lat="34.32830159524482" lon="108.98370487435221">
        <ele>393.29591093957424</ele>
        <time>2022-03-02T23:35:50Z</time>
      </trkpt>
      <trkpt lat="34.3283601080669" lon="108.98394357573062">
        <ele>393.55549179017544</ele>
        <time>2022-03-02T23:35:54Z</time>
      </trkpt>
      <trkpt lat="34.32835003878199" lon="108.98410046541122">
        <ele>393.5273538008332</ele>
        <time>2022-03-02T23:35:56Z</time>
      </trkpt>
      <trkpt lat="34.32832507637891" lon="108.98421309727695">
        <ele>393.33534646127373</ele>
        <time>2022-03-02T23:35:58Z</time>
      </trkpt>
      <trkpt lat="34.328250772973504" lon="108.98434311086011">
        <ele>393.29303024336696</ele>
        <time>2022-03-02T23:36:00Z</time>
      </trkpt>
      <trkpt lat="34.328111171718525" lon="108.98437077900884">
        <ele>392.45942643936723</ele>
        <time>2022-03-02T23:36:02Z</time>
      </trkpt>
      <trkpt lat="34.328032913281476" lon="108.98436244601972">
        <ele>393.01935922633857</ele>
        <time>2022-03-02T23:36:04Z</time>
      </trkpt>
      <trkpt lat="34.327982091320095" lon="108.98443150590501">
        <ele>392.33762882091105</ele>
        <time>2022-03-02T23:36:06Z</time>
      </trkpt>
      <trkpt lat="34.32795822187417" lon="108.98453252753264">
        <ele>392.2519373418763</ele>
        <time>2022-03-02T23:36:08Z</time>
      </trkpt>
      <trkpt lat="34.327947238259625" lon="108.98478113547698">
        <ele>391.9912351546809</ele>
        <time>2022-03-02T23:36:12Z</time>
      </trkpt>
      <trkpt lat="34.32791400109105" lon="108.98490878491333">
        <ele>392.3717579394579</ele>
        <time>2022-03-02T23:36:14Z</time>
      </trkpt>
      <trkpt lat="34.32790413772126" lon="108.98505050403756">
        <ele>391.83491026144475</ele>
        <time>2022-03-02T23:36:16Z</time>
      </trkpt>
      <trkpt lat="34.32797453091087" lon="108.98560425461064">
        <ele>392.2205125838518</ele>
        <time>2022-03-02T23:36:24Z</time>
      </trkpt>
      <trkpt lat="34.327958685304836" lon="108.98608509297878">
        <ele>391.6348811155185</ele>
        <time>2022-03-02T23:36:32Z</time>
      </trkpt>
      <trkpt lat="34.327971762842076" lon="108.98630595449701">
        <ele>391.46391296293586</ele>
        <time>2022-03-02T23:36:36Z</time>
      </trkpt>
      <trkpt lat="34.32794330819351" lon="108.98687060158386">
        <ele>392.665762078017</ele>
        <time>2022-03-02T23:36:46Z</time>
      </trkpt>
      <trkpt lat="34.327966493803984" lon="108.98744671767722">
        <ele>394.1978613929823</ele>
        <time>2022-03-02T23:36:56Z</time>
      </trkpt>
      <trkpt lat="34.32794532569807" lon="108.98808519217158">
        <ele>394.1877209963277</ele>
        <time>2022-03-02T23:37:06Z</time>
      </trkpt>
      <trkpt lat="34.32792837001694" lon="108.98835807070125">
        <ele>393.22225607186556</ele>
        <time>2022-03-02T23:37:10Z</time>
      </trkpt>
      <trkpt lat="34.32795066569324" lon="108.98869742001169">
        <ele>392.96914491802454</ele>
        <time>2022-03-02T23:37:16Z</time>
      </trkpt>
      <trkpt lat="34.32791340540303" lon="108.98928047696653">
        <ele>392.09494258929044</ele>
        <time>2022-03-02T23:37:26Z</time>
      </trkpt>
      <trkpt lat="34.32790867673342" lon="108.98961811183217">
        <ele>391.9211679166183</ele>
        <time>2022-03-02T23:37:32Z</time>
      </trkpt>
      <trkpt lat="34.327881854246" lon="108.98995063284345">
        <ele>391.5975961042568</ele>
        <time>2022-03-02T23:37:38Z</time>
      </trkpt>
      <trkpt lat="34.327900584608365" lon="108.9901511397727">
        <ele>391.89959821105003</ele>
        <time>2022-03-02T23:37:42Z</time>
      </trkpt>
      <trkpt lat="34.32788191216782" lon="108.99027412157143">
        <ele>392.0172214526683</ele>
        <time>2022-03-02T23:37:44Z</time>
      </trkpt>
      <trkpt lat="34.327877980669044" lon="108.99061557348578">
        <ele>392.1525892401114</ele>
        <time>2022-03-02T23:37:50Z</time>
      </trkpt>
      <trkpt lat="34.32792133904757" lon="108.9907197724046">
        <ele>392.4695400139317</ele>
        <time>2022-03-02T23:37:54Z</time>
      </trkpt>
      <trkpt lat="34.327884303044065" lon="108.99121837578568">
        <ele>391.11160244513303</ele>
        <time>2022-03-02T23:37:58Z</time>
      </trkpt>
      <trkpt lat="34.32784435822139" lon="108.9913723957905">
        <ele>392.0121645424515</ele>
        <time>2022-03-02T23:38:00Z</time>
      </trkpt>
      <trkpt lat="34.327902491278934" lon="108.9919263957881">
        <ele>392.89111034665257</ele>
        <time>2022-03-02T23:38:10Z</time>
      </trkpt>
      <trkpt lat="34.328016796370406" lon="108.99242660315454">
        <ele>392.4803051156923</ele>
        <time>2022-03-02T23:38:20Z</time>
      </trkpt>
      <trkpt lat="34.327983466036216" lon="108.99296647820593">
        <ele>394.48885949887335</ele>
        <time>2022-03-02T23:38:30Z</time>
      </trkpt>
      <trkpt lat="34.32798880056252" lon="108.99351485453049">
        <ele>395.20390973892063</ele>
        <time>2022-03-02T23:38:40Z</time>
      </trkpt>
      <trkpt lat="34.32803683049005" lon="108.99405602421726">
        <ele>396.7161858668551</ele>
        <time>2022-03-02T23:38:50Z</time>
      </trkpt>
      <trkpt lat="34.32811707517435" lon="108.99459158624106">
        <ele>395.18391313031316</ele>
        <time>2022-03-02T23:39:00Z</time>
      </trkpt>
      <trkpt lat="34.32811427783596" lon="108.99470411600373">
        <ele>395.36793050915</ele>
        <time>2022-03-02T23:39:02Z</time>
      </trkpt>
      <trkpt lat="34.328174568118214" lon="108.99516070997402">
        <ele>394.948204068467</ele>
        <time>2022-03-02T23:39:12Z</time>
      </trkpt>
      <trkpt lat="34.328132530481696" lon="108.9956985842632">
        <ele>395.08741470240057</ele>
        <time>2022-03-02T23:39:20Z</time>
      </trkpt>
      <trkpt lat="34.328160536397334" lon="108.99601265386524">
        <ele>394.56750995852053</ele>
        <time>2022-03-02T23:39:26Z</time>
      </trkpt>
      <trkpt lat="34.32815538865673" lon="108.99611866411756">
        <ele>395.4082889230922</ele>
        <time>2022-03-02T23:39:28Z</time>
      </trkpt>
      <trkpt lat="34.32813242456375" lon="108.9962046196828">
        <ele>396.0023630782962</ele>
        <time>2022-03-02T23:39:30Z</time>
      </trkpt>
      <trkpt lat="34.328131048808785" lon="108.99642398308198">
        <ele>394.4013884495944</ele>
        <time>2022-03-02T23:39:34Z</time>
      </trkpt>
      <trkpt lat="34.328015812701004" lon="108.99686366896836">
        <ele>395.1940157385543</ele>
        <time>2022-03-02T23:39:40Z</time>
      </trkpt>
      <trkpt lat="34.32795257681983" lon="108.99739750179992">
        <ele>394.7842997824773</ele>
        <time>2022-03-02T23:39:48Z</time>
      </trkpt>
      <trkpt lat="34.327960318482205" lon="108.99802799808931">
        <ele>394.2786457212642</ele>
        <time>2022-03-02T23:39:58Z</time>
      </trkpt>
      <trkpt lat="34.327912020880156" lon="108.99857087137346">
        <ele>394.44779717270285</ele>
        <time>2022-03-02T23:40:06Z</time>
      </trkpt>
      <trkpt lat="34.32791083571468" lon="108.9986848238651">
        <ele>394.27531766239554</ele>
        <time>2022-03-02T23:40:08Z</time>
      </trkpt>
      <trkpt lat="34.32789112559848" lon="108.99880220607598">
        <ele>393.8873751144856</ele>
        <time>2022-03-02T23:40:10Z</time>
      </trkpt>
      <trkpt lat="34.32790903173021" lon="108.9988979963053">
        <ele>394.0390680069104</ele>
        <time>2022-03-02T23:40:12Z</time>
      </trkpt>
      <trkpt lat="34.32790036389538" lon="108.99901982844506">
        <ele>394.042613375932</ele>
        <time>2022-03-02T23:40:14Z</time>
      </trkpt>
      <trkpt lat="34.32794083470945" lon="108.99930752436718">
        <ele>394.007316166535</ele>
        <time>2022-03-02T23:40:20Z</time>
      </trkpt>
      <trkpt lat="34.327921658748394" lon="108.9994257661798">
        <ele>393.8386714309454</ele>
        <time>2022-03-02T23:40:22Z</time>
      </trkpt>
      <trkpt lat="34.32793094016328" lon="108.99964307413725">
        <ele>394.2719886759296</ele>
        <time>2022-03-02T23:40:26Z</time>
      </trkpt>
      <trkpt lat="34.32791472729314" lon="108.99977383662615">
        <ele>393.7286923266947</ele>
        <time>2022-03-02T23:40:28Z</time>
      </trkpt>
      <trkpt lat="34.32790842799486" lon="108.99997297922958">
        <ele>393.6912271101028</ele>
        <time>2022-03-02T23:40:32Z</time>
      </trkpt>
      <trkpt lat="34.32788452066125" lon="109.00010958444177">
        <ele>393.5221766689792</ele>
        <time>2022-03-02T23:40:34Z</time>
      </trkpt>
      <trkpt lat="34.327874737049335" lon="109.00047082490337">
        <ele>393.7358581358567</ele>
        <time>2022-03-02T23:40:40Z</time>
      </trkpt>
      <trkpt lat="34.32789052564838" lon="109.00083094773231">
        <ele>394.7531463894993</ele>
        <time>2022-03-02T23:40:46Z</time>
      </trkpt>
      <trkpt lat="34.32787654812453" lon="109.00096107771274">
        <ele>394.5186933334917</ele>
        <time>2022-03-02T23:40:48Z</time>
      </trkpt>
      <trkpt lat="34.32790135968022" lon="109.00130263064197">
        <ele>394.42178072873503</ele>
        <time>2022-03-02T23:40:54Z</time>
      </trkpt>
      <trkpt lat="34.327870751705994" lon="109.00165192040443">
        <ele>393.6041702963412</ele>
        <time>2022-03-02T23:41:00Z</time>
      </trkpt>
      <trkpt lat="34.32788851368049" lon="109.00188258316544">
        <ele>394.45329093001783</ele>
        <time>2022-03-02T23:41:04Z</time>
      </trkpt>
      <trkpt lat="34.32787416371547" lon="109.00211677228465">
        <ele>394.3052379116416</ele>
        <time>2022-03-02T23:41:08Z</time>
      </trkpt>
      <trkpt lat="34.32790699481722" lon="109.00233174630273">
        <ele>394.82336361613125</ele>
        <time>2022-03-02T23:41:12Z</time>
      </trkpt>
      <trkpt lat="34.327894166635474" lon="109.0028886008086">
        <ele>395.89416100177914</ele>
        <time>2022-03-02T23:41:22Z</time>
      </trkpt>
      <trkpt lat="34.327870124386806" lon="109.0032174791587">
        <ele>395.073410211131</ele>
        <time>2022-03-02T23:41:28Z</time>
      </trkpt>
      <trkpt lat="34.327898883753356" lon="109.00370479643102">
        <ele>395.15771126095206</ele>
        <time>2022-03-02T23:41:38Z</time>
      </trkpt>
      <trkpt lat="34.32788432541119" lon="109.00381649646698">
        <ele>394.07386402692646</ele>
        <time>2022-03-02T23:41:40Z</time>
      </trkpt>
      <trkpt lat="34.327910508576466" lon="109.00414975768754">
        <ele>394.7454269044101</ele>
        <time>2022-03-02T23:41:46Z</time>
      </trkpt>
      <trkpt lat="34.32787701025445" lon="109.00476011805283">
        <ele>394.52819521538913</ele>
        <time>2022-03-02T23:41:58Z</time>
      </trkpt>
      <trkpt lat="34.32789197043011" lon="109.00536892410763">
        <ele>394.30220574885607</ele>
        <time>2022-03-02T23:42:10Z</time>
      </trkpt>
      <trkpt lat="34.32790451518042" lon="109.00565248937056">
        <ele>394.5519788078964</ele>
        <time>2022-03-02T23:42:18Z</time>
      </trkpt>
      <trkpt lat="34.3278873006256" lon="109.00581663270803">
        <ele>394.1444415245205</ele>
        <time>2022-03-02T23:42:22Z</time>
      </trkpt>
      <trkpt lat="34.32792047216339" lon="109.00596581943209">
        <ele>394.67300441209227</ele>
        <time>2022-03-02T23:42:26Z</time>
      </trkpt>
      <trkpt lat="34.32791898333003" lon="109.00630334782153">
        <ele>394.60954558476806</ele>
        <time>2022-03-02T23:42:34Z</time>
      </trkpt>
      <trkpt lat="34.327899412383736" lon="109.00643802643023">
        <ele>393.8062128731981</ele>
        <time>2022-03-02T23:42:38Z</time>
      </trkpt>
      <trkpt lat="34.327936929533266" lon="109.00654697577296">
        <ele>394.3809333620593</ele>
        <time>2022-03-02T23:42:42Z</time>
      </trkpt>
      <trkpt lat="34.32791669989581" lon="109.00659832298211">
        <ele>393.682989154011</ele>
        <time>2022-03-02T23:42:52Z</time>
      </trkpt>
      <trkpt lat="34.32787066993302" lon="109.0068793670316">
        <ele>393.9699377352372</ele>
        <time>2022-03-02T23:43:03Z</time>
      </trkpt>
      <trkpt lat="34.32783777188868" lon="109.0071927387478">
        <ele>393.93608359154314</ele>
        <time>2022-03-02T23:43:09Z</time>
      </trkpt>
      <trkpt lat="34.32784292047951" lon="109.007293858509">
        <ele>393.664478671737</ele>
        <time>2022-03-02T23:43:11Z</time>
      </trkpt>
      <trkpt lat="34.32787610991658" lon="109.00739462253102">
        <ele>394.3101283237338</ele>
        <time>2022-03-02T23:43:13Z</time>
      </trkpt>
      <trkpt lat="34.327838041330004" lon="109.00763832212657">
        <ele>393.54873597435653</ele>
        <time>2022-03-02T23:43:17Z</time>
      </trkpt>
      <trkpt lat="34.327862257711516" lon="109.00800249046993">
        <ele>393.2799941506237</ele>
        <time>2022-03-02T23:43:23Z</time>
      </trkpt>
      <trkpt lat="34.32785464947421" lon="109.00827436851533">
        <ele>393.0044502392411</ele>
        <time>2022-03-02T23:43:27Z</time>
      </trkpt>
      <trkpt lat="34.3279059823748" lon="109.00880919185956">
        <ele>392.55180148314685</ele>
        <time>2022-03-02T23:43:35Z</time>
      </trkpt>
      <trkpt lat="34.32790457739503" lon="109.00936155495518">
        <ele>390.85829443577677</ele>
        <time>2022-03-02T23:43:43Z</time>
      </trkpt>
      <trkpt lat="34.327894771575224" lon="109.00996181796339">
        <ele>387.00932922866195</ele>
        <time>2022-03-02T23:43:52Z</time>
      </trkpt>
      <trkpt lat="34.3278853993549" lon="109.01032441796374">
        <ele>386.3065531188622</ele>
        <time>2022-03-02T23:43:58Z</time>
      </trkpt>
      <trkpt lat="34.32789597531296" lon="109.01044532938234">
        <ele>386.34407179336995</ele>
        <time>2022-03-02T23:44:00Z</time>
      </trkpt>
      <trkpt lat="34.32783335138064" lon="109.011034772158">
        <ele>385.55087216570973</ele>
        <time>2022-03-02T23:44:10Z</time>
      </trkpt>
      <trkpt lat="34.32785360462915" lon="109.01114704336479">
        <ele>386.17448005173355</ele>
        <time>2022-03-02T23:44:12Z</time>
      </trkpt>
      <trkpt lat="34.327873574820096" lon="109.01156980558048">
        <ele>387.2846967484802</ele>
        <time>2022-03-02T23:44:20Z</time>
      </trkpt>
      <trkpt lat="34.32786216050032" lon="109.01216378538084">
        <ele>387.09771915338933</ele>
        <time>2022-03-02T23:44:30Z</time>
      </trkpt>
      <trkpt lat="34.32782975028206" lon="109.01273469547526">
        <ele>388.4026916511357</ele>
        <time>2022-03-02T23:44:40Z</time>
      </trkpt>
      <trkpt lat="34.327858874011305" lon="109.01332178638116">
        <ele>389.83798901923</ele>
        <time>2022-03-02T23:44:50Z</time>
      </trkpt>
      <trkpt lat="34.32788227878012" lon="109.01363785557818">
        <ele>390.4376202309504</ele>
        <time>2022-03-02T23:44:56Z</time>
      </trkpt>
      <trkpt lat="34.32793148845402" lon="109.0138805913879">
        <ele>390.208739313297</ele>
        <time>2022-03-02T23:45:00Z</time>
      </trkpt>
      <trkpt lat="34.327921464956816" lon="109.01419749312058">
        <ele>389.0721384184435</ele>
        <time>2022-03-02T23:45:06Z</time>
      </trkpt>
      <trkpt lat="34.327966408023656" lon="109.01448821744557">
        <ele>388.80634198430926</ele>
        <time>2022-03-02T23:45:12Z</time>
      </trkpt>
      <trkpt lat="34.32796207122608" lon="109.01473222583444">
        <ele>388.0918919481337</ele>
        <time>2022-03-02T23:45:16Z</time>
      </trkpt>
      <trkpt lat="34.32796748346753" lon="109.01527519549317">
        <ele>387.5641022110358</ele>
        <time>2022-03-02T23:45:24Z</time>
      </trkpt>
      <trkpt lat="34.3279552811924" lon="109.01541432525141">
        <ele>387.8629144411534</ele>
        <time>2022-03-02T23:45:26Z</time>
      </trkpt>
      <trkpt lat="34.328033283248736" lon="109.01569831090136">
        <ele>389.2229673238471</ele>
        <time>2022-03-02T23:45:32Z</time>
      </trkpt>
      <trkpt lat="34.32804572588879" lon="109.01579614617152">
        <ele>388.72498854994774</ele>
        <time>2022-03-02T23:45:34Z</time>
      </trkpt>
      <trkpt lat="34.32799308409518" lon="109.0159860319577">
        <ele>388.944462524727</ele>
        <time>2022-03-02T23:45:38Z</time>
      </trkpt>
      <trkpt lat="34.32793891466362" lon="109.01634658122207">
        <ele>387.5800794297829</ele>
        <time>2022-03-02T23:45:44Z</time>
      </trkpt>
      <trkpt lat="34.327935706900476" lon="109.01644941587413">
        <ele>387.8091226685792</ele>
        <time>2022-03-02T23:45:46Z</time>
      </trkpt>
      <trkpt lat="34.32779220901155" lon="109.01702737061647">
        <ele>388.77249207906425</ele>
        <time>2022-03-02T23:45:56Z</time>
      </trkpt>
      <trkpt lat="34.327700003982194" lon="109.01726140357657">
        <ele>388.2606169031933</ele>
        <time>2022-03-02T23:46:00Z</time>
      </trkpt>
      <trkpt lat="34.32761240635015" lon="109.01782341017275">
        <ele>389.04197959881276</ele>
        <time>2022-03-02T23:46:10Z</time>
      </trkpt>
      <trkpt lat="34.32760729789551" lon="109.01793281113062">
        <ele>389.20403273776174</ele>
        <time>2022-03-02T23:46:12Z</time>
      </trkpt>
      <trkpt lat="34.32765684123744" lon="109.01822338431403">
        <ele>388.9887305274606</ele>
        <time>2022-03-02T23:46:18Z</time>
      </trkpt>
      <trkpt lat="34.32764822404107" lon="109.01834781047872">
        <ele>389.3308491781354</ele>
        <time>2022-03-02T23:46:20Z</time>
      </trkpt>
      <trkpt lat="34.327620144212915" lon="109.01846335091443">
        <ele>389.03946951869875</ele>
        <time>2022-03-02T23:46:22Z</time>
      </trkpt>
      <trkpt lat="34.32752620509564" lon="109.01864945592382">
        <ele>388.53220468200743</ele>
        <time>2022-03-02T23:46:26Z</time>
      </trkpt>
      <trkpt lat="34.327248989232785" lon="109.01909474941489">
        <ele>389.4596997583285</ele>
        <time>2022-03-02T23:46:36Z</time>
      </trkpt>
      <trkpt lat="34.32697389809387" lon="109.01954993295493">
        <ele>389.07312549836934</ele>
        <time>2022-03-02T23:46:46Z</time>
      </trkpt>
      <trkpt lat="34.326653142579616" lon="109.01999485054594">
        <ele>388.5035740174353</ele>
        <time>2022-03-02T23:46:56Z</time>
      </trkpt>
      <trkpt lat="34.32645564593815" lon="109.02025758142523">
        <ele>388.49864065647125</ele>
        <time>2022-03-02T23:47:02Z</time>
      </trkpt>
      <trkpt lat="34.326081543975164" lon="109.02064426751963">
        <ele>388.0373726906255</ele>
        <time>2022-03-02T23:47:12Z</time>
      </trkpt>
      <trkpt lat="34.32570565937201" lon="109.02097420903885">
        <ele>388.5439490042627</ele>
        <time>2022-03-02T23:47:22Z</time>
      </trkpt>
      <trkpt lat="34.32538186694671" lon="109.02120466119148">
        <ele>388.55634474009275</ele>
        <time>2022-03-02T23:47:30Z</time>
      </trkpt>
      <trkpt lat="34.324937723282844" lon="109.02141359732343">
        <ele>387.8383950442076</ele>
        <time>2022-03-02T23:47:40Z</time>
      </trkpt>
      <trkpt lat="34.324750361981955" lon="109.02150135910638">
        <ele>388.5972690228373</ele>
        <time>2022-03-02T23:47:44Z</time>
      </trkpt>
      <trkpt lat="34.32464642876725" lon="109.02152184931985">
        <ele>388.5184993771836</ele>
        <time>2022-03-02T23:47:46Z</time>
      </trkpt>
      <trkpt lat="34.32438544178412" lon="109.02163028706786">
        <ele>389.0971981352195</ele>
        <time>2022-03-02T23:47:52Z</time>
      </trkpt>
      <trkpt lat="34.32393288197014" lon="109.02171751384533">
        <ele>388.28272532019764</ele>
        <time>2022-03-02T23:48:02Z</time>
      </trkpt>
      <trkpt lat="34.3237425487414" lon="109.02174975927372">
        <ele>389.30362048745155</ele>
        <time>2022-03-02T23:48:06Z</time>
      </trkpt>
      <trkpt lat="34.32346362120315" lon="109.02176070048633">
        <ele>389.9470455208793</ele>
        <time>2022-03-02T23:48:12Z</time>
      </trkpt>
      <trkpt lat="34.323381936374204" lon="109.02177918371024">
        <ele>389.7795635620132</ele>
        <time>2022-03-02T23:48:14Z</time>
      </trkpt>
      <trkpt lat="34.323287530030996" lon="109.0217728654564">
        <ele>390.4006256563589</ele>
        <time>2022-03-02T23:48:16Z</time>
      </trkpt>
      <trkpt lat="34.32320412212389" lon="109.02179888655726">
        <ele>390.1725586503744</ele>
        <time>2022-03-02T23:48:18Z</time>
      </trkpt>
      <trkpt lat="34.323008330101985" lon="109.0217905543142">
        <ele>390.1775441393256</ele>
        <time>2022-03-02T23:48:22Z</time>
      </trkpt>
      <trkpt lat="34.322921635849134" lon="109.02181242341916">
        <ele>390.59350105933845</ele>
        <time>2022-03-02T23:48:24Z</time>
      </trkpt>
      <trkpt lat="34.322451900149645" lon="109.02177742308307">
        <ele>389.9452075297013</ele>
        <time>2022-03-02T23:48:34Z</time>
      </trkpt>
      <trkpt lat="34.32226772616322" lon="109.02176897725202">
        <ele>389.23021767567843</ele>
        <time>2022-03-02T23:48:38Z</time>
      </trkpt>
      <trkpt lat="34.32179490041073" lon="109.02171414620523">
        <ele>389.5536477640271</ele>
        <time>2022-03-02T23:48:48Z</time>
      </trkpt>
      <trkpt lat="34.321331595198764" lon="109.02164853312505">
        <ele>390.1380398478359</ele>
        <time>2022-03-02T23:48:58Z</time>
      </trkpt>
      <trkpt lat="34.320873514404155" lon="109.02158019192431">
        <ele>390.63220559060574</ele>
        <time>2022-03-02T23:49:08Z</time>
      </trkpt>
      <trkpt lat="34.320401935826794" lon="109.02151664112415">
        <ele>389.9179854048416</ele>
        <time>2022-03-02T23:49:18Z</time>
      </trkpt>
      <trkpt lat="34.31993040484637" lon="109.0214525268066">
        <ele>389.8315241653472</ele>
        <time>2022-03-02T23:49:28Z</time>
      </trkpt>
      <trkpt lat="34.31983051739601" lon="109.02143247953543">
        <ele>389.764506759122</ele>
        <time>2022-03-02T23:49:30Z</time>
      </trkpt>
      <trkpt lat="34.31973790458841" lon="109.02144710528827">
        <ele>390.2131762430072</ele>
        <time>2022-03-02T23:49:32Z</time>
      </trkpt>
      <trkpt lat="34.319651558508866" lon="109.02141481017921">
        <ele>389.97544971387833</ele>
        <time>2022-03-02T23:49:34Z</time>
      </trkpt>
      <trkpt lat="34.319164393883895" lon="109.02141279033351">
        <ele>390.9855948500335</ele>
        <time>2022-03-02T23:49:44Z</time>
      </trkpt>
      <trkpt lat="34.31868872034367" lon="109.02143719321832">
        <ele>390.0763763040304</ele>
        <time>2022-03-02T23:49:54Z</time>
      </trkpt>
      <trkpt lat="34.318298032280474" lon="109.02147201776012">
        <ele>390.3550817668438</ele>
        <time>2022-03-02T23:50:02Z</time>
      </trkpt>
      <trkpt lat="34.318106474237474" lon="109.0215166427231">
        <ele>391.0036641191691</ele>
        <time>2022-03-02T23:50:06Z</time>
      </trkpt>
      <trkpt lat="34.317913920405104" lon="109.02153071048133">
        <ele>390.5552920177579</ele>
        <time>2022-03-02T23:50:10Z</time>
      </trkpt>
      <trkpt lat="34.317728471679054" lon="109.02157368197408">
        <ele>391.23464557901025</ele>
        <time>2022-03-02T23:50:14Z</time>
      </trkpt>
      <trkpt lat="34.31762746667967" lon="109.02157250992295">
        <ele>390.48428404238075</ele>
        <time>2022-03-02T23:50:16Z</time>
      </trkpt>
      <trkpt lat="34.31754253301715" lon="109.02160070438964">
        <ele>390.6210069786757</ele>
        <time>2022-03-02T23:50:18Z</time>
      </trkpt>
      <trkpt lat="34.317056150304595" lon="109.02164989832505">
        <ele>391.11751607991755</ele>
        <time>2022-03-02T23:50:28Z</time>
      </trkpt>
      <trkpt lat="34.31696344126067" lon="109.02166819373754">
        <ele>391.24605571851134</ele>
        <time>2022-03-02T23:50:30Z</time>
      </trkpt>
      <trkpt lat="34.31677401305946" lon="109.02167376196854">
        <ele>391.13274689391255</ele>
        <time>2022-03-02T23:50:34Z</time>
      </trkpt>
      <trkpt lat="34.31629023989838" lon="109.02180274804094">
        <ele>391.3734310315922</ele>
        <time>2022-03-02T23:50:44Z</time>
      </trkpt>
      <trkpt lat="34.31586296301825" lon="109.02202697833249">
        <ele>391.60037870239466</ele>
        <time>2022-03-02T23:50:54Z</time>
      </trkpt>
      <trkpt lat="34.31550792064671" lon="109.02229836274785">
        <ele>392.1684428481385</ele>
        <time>2022-03-02T23:51:04Z</time>
      </trkpt>
      <trkpt lat="34.31559657958968" lon="109.02240879167148">
        <ele>391.3932660436258</ele>
        <time>2022-03-02T23:51:12Z</time>
      </trkpt>
      <trkpt lat="34.31567182451491" lon="109.02244761552483">
        <ele>391.6337087629363</ele>
        <time>2022-03-02T23:51:14Z</time>
      </trkpt>
      <trkpt lat="34.31577715144736" lon="109.02264416613659">
        <ele>391.67221907060593</ele>
        <time>2022-03-02T23:51:18Z</time>
      </trkpt>
      <trkpt lat="34.31601822622241" lon="109.023218992973">
        <ele>388.79125589039177</ele>
        <time>2022-03-02T23:51:28Z</time>
      </trkpt>
      <trkpt lat="34.316177430900495" lon="109.0236640043993">
        <ele>388.6595121854916</ele>
        <time>2022-03-02T23:51:38Z</time>
      </trkpt>
      <trkpt lat="34.31614740087977" lon="109.02375223561982">
        <ele>389.82578684110194</ele>
        <time>2022-03-02T23:51:44Z</time>
      </trkpt>
      <trkpt lat="34.31595721537809" lon="109.02391172650015">
        <ele>390.014392032288</ele>
        <time>2022-03-02T23:51:50Z</time>
      </trkpt>
      <trkpt lat="34.31570100149466" lon="109.02403705284834">
        <ele>390.0909393802285</ele>
        <time>2022-03-02T23:51:56Z</time>
      </trkpt>
      <trkpt lat="34.31546478849183" lon="109.02419815618471">
        <ele>390.6316348416731</ele>
        <time>2022-03-02T23:52:02Z</time>
      </trkpt>
      <trkpt lat="34.31540420387377" lon="109.02425751452306">
        <ele>390.5689783478156</ele>
        <time>2022-03-02T23:52:04Z</time>
      </trkpt>
      <trkpt lat="34.31523922031526" lon="109.02433582410367">
        <ele>390.98041895218194</ele>
        <time>2022-03-02T23:52:08Z</time>
      </trkpt>
      <trkpt lat="34.315094662119016" lon="109.02447491822795">
        <ele>390.62675859220326</ele>
        <time>2022-03-02T23:52:12Z</time>
      </trkpt>
      <trkpt lat="34.314933652354824" lon="109.02458288945824">
        <ele>390.9911164306104</ele>
        <time>2022-03-02T23:52:16Z</time>
      </trkpt>
      <trkpt lat="34.31484928407258" lon="109.02466135304863">
        <ele>391.22730453591794</ele>
        <time>2022-03-02T23:52:18Z</time>
      </trkpt>
      <trkpt lat="34.314659333863865" lon="109.02474911231646">
        <ele>390.8147856174037</ele>
        <time>2022-03-02T23:52:22Z</time>
      </trkpt>
      <trkpt lat="34.314245136488246" lon="109.02506327505849">
        <ele>390.7502373633906</ele>
        <time>2022-03-02T23:52:32Z</time>
      </trkpt>
      <trkpt lat="34.31407465299683" lon="109.02516583488362">
        <ele>391.1012923764065</ele>
        <time>2022-03-02T23:52:36Z</time>
      </trkpt>
      <trkpt lat="34.313864618481624" lon="109.02525477108718">
        <ele>390.3464177493006</ele>
        <time>2022-03-02T23:52:40Z</time>
      </trkpt>
      <trkpt lat="34.313777354802674" lon="109.0253115780323">
        <ele>390.7559815328568</ele>
        <time>2022-03-02T23:52:42Z</time>
      </trkpt>
      <trkpt lat="34.313464886695016" lon="109.02542949024463">
        <ele>391.1185613255948</ele>
        <time>2022-03-02T23:52:48Z</time>
      </trkpt>
      <trkpt lat="34.313385665377794" lon="109.0254882542202">
        <ele>391.7236314760521</ele>
        <time>2022-03-02T23:52:50Z</time>
      </trkpt>
      <trkpt lat="34.3131094171648" lon="109.02563699464305">
        <ele>392.3001330271363</ele>
        <time>2022-03-02T23:52:56Z</time>
      </trkpt>
      <trkpt lat="34.31297493759988" lon="109.02576425884043">
        <ele>393.154430359602</ele>
        <time>2022-03-02T23:53:00Z</time>
      </trkpt>
      <trkpt lat="34.312712240335095" lon="109.02592730049778">
        <ele>392.9981907699257</ele>
        <time>2022-03-02T23:53:06Z</time>
      </trkpt>
      <trkpt lat="34.312555208328384" lon="109.02622232406087">
        <ele>392.9473596708849</ele>
        <time>2022-03-02T23:53:16Z</time>
      </trkpt>
      <trkpt lat="34.31222645910615" lon="109.02635033675045">
        <ele>392.5007811039686</ele>
        <time>2022-03-02T23:53:20Z</time>
      </trkpt>
      <trkpt lat="34.31222510203134" lon="109.02648880015091">
        <ele>392.3744593290612</ele>
        <time>2022-03-02T23:53:22Z</time>
      </trkpt>
      <trkpt lat="34.31197817566231" lon="109.02659755839463">
        <ele>393.1587483910844</ele>
        <time>2022-03-02T23:53:26Z</time>
      </trkpt>
      <trkpt lat="34.31191566608688" lon="109.02670446473188">
        <ele>392.8675271002576</ele>
        <time>2022-03-02T23:53:28Z</time>
      </trkpt>
      <trkpt lat="34.31184243936996" lon="109.02677364974694">
        <ele>393.14668353740126</ele>
        <time>2022-03-02T23:53:30Z</time>
      </trkpt>
      <trkpt lat="34.31160180343908" lon="109.02713547817659">
        <ele>393.9754610871896</ele>
        <time>2022-03-02T23:53:39Z</time>
      </trkpt>
      <trkpt lat="34.3114394376474" lon="109.0272973498439">
        <ele>392.97114806994796</ele>
        <time>2022-03-02T23:53:43Z</time>
      </trkpt>
      <trkpt lat="34.311337899881366" lon="109.02760002419728">
        <ele>392.57508348394185</ele>
        <time>2022-03-02T23:53:49Z</time>
      </trkpt>
      <trkpt lat="34.311310858772465" lon="109.02793156517009">
        <ele>392.02496304921806</ele>
        <time>2022-03-02T23:53:55Z</time>
      </trkpt>
      <trkpt lat="34.31131487915892" lon="109.0281379783447">
        <ele>392.2269904324785</ele>
        <time>2022-03-02T23:53:59Z</time>
      </trkpt>
      <trkpt lat="34.31129290552049" lon="109.02823848781878">
        <ele>392.1993620367721</ele>
        <time>2022-03-02T23:54:01Z</time>
      </trkpt>
      <trkpt lat="34.311271152799186" lon="109.0285357422328">
        <ele>392.94210642110556</ele>
        <time>2022-03-02T23:54:07Z</time>
      </trkpt>
      <trkpt lat="34.31113972133172" lon="109.02885773919522">
        <ele>391.99459569435567</ele>
        <time>2022-03-02T23:54:13Z</time>
      </trkpt>
      <trkpt lat="34.31100349220792" lon="109.02902389590737">
        <ele>391.3649718435481</ele>
        <time>2022-03-02T23:54:17Z</time>
      </trkpt>
      <trkpt lat="34.31087741987894" lon="109.02922771887462">
        <ele>391.8623195523396</ele>
        <time>2022-03-02T23:54:22Z</time>
      </trkpt>
      <trkpt lat="34.31051643719252" lon="109.02957807043533">
        <ele>392.51595990918577</ele>
        <time>2022-03-02T23:54:32Z</time>
      </trkpt>
      <trkpt lat="34.31033541737156" lon="109.02962677952327">
        <ele>392.4833326721564</ele>
        <time>2022-03-02T23:54:36Z</time>
      </trkpt>
      <trkpt lat="34.31014008418405" lon="109.02961765303499">
        <ele>391.91640501935035</ele>
        <time>2022-03-02T23:54:40Z</time>
      </trkpt>
      <trkpt lat="34.309706763910015" lon="109.0295001066884">
        <ele>392.6927119921893</ele>
        <time>2022-03-02T23:54:46Z</time>
      </trkpt>
      <trkpt lat="34.309467753060986" lon="109.02935028561299">
        <ele>392.0998607724905</ele>
        <time>2022-03-02T23:54:50Z</time>
      </trkpt>
      <trkpt lat="34.30911154386187" lon="109.0289998102706">
        <ele>392.18316885083914</ele>
        <time>2022-03-02T23:54:58Z</time>
      </trkpt>
      <trkpt lat="34.30903625508714" lon="109.02894154733421">
        <ele>392.2518326602876</ele>
        <time>2022-03-02T23:55:00Z</time>
      </trkpt>
      <trkpt lat="34.30885955833497" lon="109.0288717070833">
        <ele>392.8199213594198</ele>
        <time>2022-03-02T23:55:04Z</time>
      </trkpt>
      <trkpt lat="34.30877117882792" lon="109.02886368378282">
        <ele>393.7077313894406</ele>
        <time>2022-03-02T23:55:06Z</time>
      </trkpt>
      <trkpt lat="34.308334247031695" lon="109.02897181018571">
        <ele>392.77611150592566</ele>
        <time>2022-03-02T23:55:16Z</time>
      </trkpt>
      <trkpt lat="34.308135529367185" lon="109.02919521209931">
        <ele>393.336179189384</ele>
        <time>2022-03-02T23:55:22Z</time>
      </trkpt>
      <trkpt lat="34.307948566553954" lon="109.02943760414514">
        <ele>393.04936506971717</ele>
        <time>2022-03-02T23:55:28Z</time>
      </trkpt>
      <trkpt lat="34.30792176088186" lon="109.02952016519212">
        <ele>393.7460985267535</ele>
        <time>2022-03-02T23:55:30Z</time>
      </trkpt>
      <trkpt lat="34.3078534906851" lon="109.02960827862306">
        <ele>393.5719704302028</ele>
        <time>2022-03-02T23:55:32Z</time>
      </trkpt>
      <trkpt lat="34.30770738186559" lon="109.02989607616081">
        <ele>393.758979415521</ele>
        <time>2022-03-02T23:55:38Z</time>
      </trkpt>
      <trkpt lat="34.307635376012534" lon="109.029969027691">
        <ele>393.8138153273612</ele>
        <time>2022-03-02T23:55:40Z</time>
      </trkpt>
      <trkpt lat="34.30717854050118" lon="109.03027276814603">
        <ele>393.8331347387284</ele>
        <time>2022-03-02T23:55:50Z</time>
      </trkpt>
      <trkpt lat="34.30689952030806" lon="109.03046296104705">
        <ele>392.67184488568455</ele>
        <time>2022-03-02T23:55:56Z</time>
      </trkpt>
      <trkpt lat="34.306817180281335" lon="109.03053931967911">
        <ele>391.0739971809089</ele>
        <time>2022-03-02T23:55:58Z</time>
      </trkpt>
      <trkpt lat="34.306705159516575" lon="109.03055790709452">
        <ele>390.8927553361282</ele>
        <time>2022-03-02T23:56:00Z</time>
      </trkpt>
      <trkpt lat="34.30655128486284" lon="109.03066313491499">
        <ele>391.59341870900244</ele>
        <time>2022-03-02T23:56:04Z</time>
      </trkpt>
      <trkpt lat="34.30634316001098" lon="109.03071633358688">
        <ele>392.18396941851825</ele>
        <time>2022-03-02T23:56:10Z</time>
      </trkpt>
      <trkpt lat="34.30624445516721" lon="109.03077035719372">
        <ele>391.12703088112175</ele>
        <time>2022-03-02T23:56:24Z</time>
      </trkpt>
      <trkpt lat="34.306180315491765" lon="109.0309722718345">
        <ele>391.25734708923846</ele>
        <time>2022-03-02T23:56:49Z</time>
      </trkpt>
      <trkpt lat="34.30628304082195" lon="109.031194181476">
        <ele>390.5841969260946</ele>
        <time>2022-03-02T23:56:55Z</time>
      </trkpt>
      <trkpt lat="34.306322980539846" lon="109.03174528988428">
        <ele>390.8075145119801</ele>
        <time>2022-03-02T23:57:05Z</time>
      </trkpt>
      <trkpt lat="34.30634800722517" lon="109.03210621166883">
        <ele>391.6227372577414</ele>
        <time>2022-03-02T23:57:11Z</time>
      </trkpt>
      <trkpt lat="34.30632657904305" lon="109.03236553347692">
        <ele>392.22167113330215</ele>
        <time>2022-03-02T23:57:15Z</time>
      </trkpt>
      <trkpt lat="34.306369360936124" lon="109.0327105576627">
        <ele>392.64980473183095</ele>
        <time>2022-03-02T23:57:21Z</time>
      </trkpt>
      <trkpt lat="34.306361440299696" lon="109.0328505390896">
        <ele>392.06436853297055</ele>
        <time>2022-03-02T23:57:23Z</time>
      </trkpt>
      <trkpt lat="34.30644064887365" lon="109.03345531998698">
        <ele>392.52624028455466</ele>
        <time>2022-03-02T23:57:33Z</time>
      </trkpt>
      <trkpt lat="34.30647483695946" lon="109.03406452743536">
        <ele>392.2555098403245</ele>
        <time>2022-03-02T23:57:43Z</time>
      </trkpt>
      <trkpt lat="34.30651786232515" lon="109.03430620647656">
        <ele>391.7630362473428</ele>
        <time>2022-03-02T23:57:47Z</time>
      </trkpt>
      <trkpt lat="34.306521799150076" lon="109.03454216327164">
        <ele>392.2515627667308</ele>
        <time>2022-03-02T23:57:51Z</time>
      </trkpt>
      <trkpt lat="34.3065448253366" lon="109.03467791920963">
        <ele>392.1333771152422</ele>
        <time>2022-03-02T23:57:53Z</time>
      </trkpt>
      <trkpt lat="34.30658600618124" lon="109.03529489851425">
        <ele>393.27160374540836</ele>
        <time>2022-03-02T23:58:03Z</time>
      </trkpt>
      <trkpt lat="34.306601941564786" lon="109.03541096799877">
        <ele>392.93731856532395</ele>
        <time>2022-03-02T23:58:05Z</time>
      </trkpt>
      <trkpt lat="34.306599181567904" lon="109.03555188668946">
        <ele>392.7687501395121</ele>
        <time>2022-03-02T23:58:07Z</time>
      </trkpt>
      <trkpt lat="34.30661435694913" lon="109.03580056278497">
        <ele>392.80003608576953</ele>
        <time>2022-03-02T23:58:11Z</time>
      </trkpt>
      <trkpt lat="34.306552414267" lon="109.03598410943923">
        <ele>391.37039005290717</ele>
        <time>2022-03-02T23:58:27Z</time>
      </trkpt>
      <trkpt lat="34.306582704219885" lon="109.03630541886082">
        <ele>391.56222395785153</ele>
        <time>2022-03-02T23:58:46Z</time>
      </trkpt>
      <trkpt lat="34.306569097481265" lon="109.03639306068868">
        <ele>391.6436765436083</ele>
        <time>2022-03-02T23:58:52Z</time>
      </trkpt>
      <trkpt lat="34.306586618002584" lon="109.03650849223885">
        <ele>391.9250831156969</ele>
        <time>2022-03-02T23:59:00Z</time>
      </trkpt>
      <trkpt lat="34.30656304691629" lon="109.03661677111464">
        <ele>391.80608934070915</ele>
        <time>2022-03-02T23:59:08Z</time>
      </trkpt>
      <trkpt lat="34.30652618013256" lon="109.03669177851911">
        <ele>391.9476689705625</ele>
        <time>2022-03-02T23:59:14Z</time>
      </trkpt>
      <trkpt lat="34.306555053240594" lon="109.03679455231588">
        <ele>391.8356015756726</ele>
        <time>2022-03-02T23:59:20Z</time>
      </trkpt>
      <trkpt lat="34.30654128556323" lon="109.03692875694013">
        <ele>391.81802652962506</ele>
        <time>2022-03-02T23:59:28Z</time>
      </trkpt>
      <trkpt lat="34.30648268899727" lon="109.0370077603381">
        <ele>391.77666623238474</ele>
        <time>2022-03-02T23:59:38Z</time>
      </trkpt>
      <trkpt lat="34.30641602194923" lon="109.03705062249435">
        <ele>391.5815118420869</ele>
        <time>2022-03-02T23:59:48Z</time>
      </trkpt>
    </trkseg>
  </trk>
</gpx>