<?xml version="1.0" encoding="UTF-8"?>
<gpx xmlns="http://www.topografix.com/GPX/1/1" xmlns:gpxtpx="http://www.garmin.com/xmlschemas/TrackPointExtension/v1" xmlns:xsi="http://www.w3.org/2001/XMLSchema-instance" xsi:schemaLocation="http://www.topografix.com/GPX/1/1 http://www.topografix.com/GPX/1/1/gpx.xsd" version="1.1" creator="gpx.py -- https://github.com/tkrajina/gpxpy">
  <trk>
    <name>gpx from keep</name>
    <type>Run</type>
    <trkseg>
      <trkpt lat="34.29757736785367" lon="108.71024830746494">
        <ele>392.97963758561303</ele>
        <time>2026-09-03T23:04:15Z</time>
      </trkpt>
      <trkpt lat="34.2976215528977" lon="108.71036569662189">
        <ele>393.1808155408886</ele>
        <time>2026-09-03T23:04:21Z</time>
      </trkpt>
      <trkpt lat="34.297738812105514" lon="108.71047733217112">
        <ele>392.242964398652</ele>
        <time>2026-09-03T23:05:03Z</time>
      </trkpt>
      <trkpt lat="34.29765703434407" lon="108.71051352701738">
        <ele>388.1026840209961</ele>
        <time>2026-09-03T23:05:06Z</time>
      </trkpt>
      <trkpt lat="34.297789444428076" lon="108.71029079165933">
        <ele>387.0062484741211</ele>
        <time>2026-09-03T23:05:12Z</time>
      </trkpt>
      <trkpt lat="34.29780094427682" lon="108.7102222786454">
        <ele>388.8020248413086</ele>
        <time>2026-09-03T23:05:15Z</time>
      </trkpt>
      <trkpt lat="34.297847390204545" lon="108.71018897486302">
        <ele>389.0018542725593</ele>
        <time>2026-09-03T23:05:18Z</time>
      </trkpt>
      <trkpt lat="34.29796337542495" lon="108.7101629252267">
        <ele>389.7072986578569</ele>
        <time>2026-09-03T23:05:24Z</time>
      </trkpt>
      <trkpt lat="34.298011110150945" lon="108.71017300064898">
        <ele>390.1794055663049</ele>
        <time>2026-09-03T23:05:27Z</time>
      </trkpt>
      <trkpt lat="34.29803620149235" lon="108.71038228695727">
        <ele>387.8118806434795</ele>
        <time>2026-09-03T23:05:36Z</time>
      </trkpt>
      <trkpt lat="34.2980273192736" lon="108.71049608320251">
        <ele>388.89803197048604</ele>
        <time>2026-09-03T23:05:42Z</time>
      </trkpt>
      <trkpt lat="34.29805627337027" lon="108.71055673910453">
        <ele>389.02723841462284</ele>
        <time>2026-09-03T23:05:45Z</time>
      </trkpt>
      <trkpt lat="34.298046762100654" lon="108.71079907802088">
        <ele>389.12487805541605</ele>
        <time>2026-09-03T23:05:57Z</time>
      </trkpt>
      <trkpt lat="34.29805983486275" lon="108.71086559315043">
        <ele>389.47299938555807</ele>
        <time>2026-09-03T23:06:00Z</time>
      </trkpt>
      <trkpt lat="34.29811466700269" lon="108.71092505072808">
        <ele>388.85366368852556</ele>
        <time>2026-09-03T23:06:03Z</time>
      </trkpt>
      <trkpt lat="34.298140036308595" lon="108.71107030372688">
        <ele>390.095653350465</ele>
        <time>2026-09-03T23:06:09Z</time>
      </trkpt>
      <trkpt lat="34.298135631877834" lon="108.71112920493509">
        <ele>389.2145660305396</ele>
        <time>2026-09-03T23:06:12Z</time>
      </trkpt>
      <trkpt lat="34.298172177538774" lon="108.7112605647124">
        <ele>390.1709817862138</ele>
        <time>2026-09-03T23:06:18Z</time>
      </trkpt>
      <trkpt lat="34.29815907914606" lon="108.71138741659266">
        <ele>390.42748948093504</ele>
        <time>2026-09-03T23:06:24Z</time>
      </trkpt>
      <trkpt lat="34.29789447602895" lon="108.7114763680409">
        <ele>389.0448684254661</ele>
        <time>2026-09-03T23:06:39Z</time>
      </trkpt>
      <trkpt lat="34.29763662173141" lon="108.71159545091177">
        <ele>389.0867617186159</ele>
        <time>2026-09-03T23:06:54Z</time>
      </trkpt>
      <trkpt lat="34.29742844070107" lon="108.71166274660838">
        <ele>389.44710308033973</ele>
        <time>2026-09-03T23:07:06Z</time>
      </trkpt>
      <trkpt lat="34.297113222777526" lon="108.71177630268667">
        <ele>389.1764105204493</ele>
        <time>2026-09-03T23:07:24Z</time>
      </trkpt>
      <trkpt lat="34.29681069477396" lon="108.7119065293351">
        <ele>389.98531757202</ele>
        <time>2026-09-03T23:07:42Z</time>
      </trkpt>
      <trkpt lat="34.29652737343858" lon="108.71205612812973">
        <ele>388.58620904479176</ele>
        <time>2026-09-03T23:08:00Z</time>
      </trkpt>
      <trkpt lat="34.2964227298698" lon="108.71208608557224">
        <ele>389.16323481686413</ele>
        <time>2026-09-03T23:08:06Z</time>
      </trkpt>
      <trkpt lat="34.29637312199149" lon="108.71207887541044">
        <ele>388.9341812459752</ele>
        <time>2026-09-03T23:08:09Z</time>
      </trkpt>
      <trkpt lat="34.29633424797069" lon="108.71203514445197">
        <ele>388.8992259101942</ele>
        <time>2026-09-03T23:08:12Z</time>
      </trkpt>
      <trkpt lat="34.29630336065729" lon="108.71192769557577">
        <ele>387.9443733571097</ele>
        <time>2026-09-03T23:08:18Z</time>
      </trkpt>
      <trkpt lat="34.296261382307755" lon="108.71157474108075">
        <ele>389.5827220613137</ele>
        <time>2026-09-03T23:08:36Z</time>
      </trkpt>
      <trkpt lat="34.29622315243128" lon="108.71122006226413">
        <ele>389.8146841963753</ele>
        <time>2026-09-03T23:08:54Z</time>
      </trkpt>
      <trkpt lat="34.29615173590435" lon="108.71082380019745">
        <ele>390.6940774265677</ele>
        <time>2026-09-03T23:09:15Z</time>
      </trkpt>
      <trkpt lat="34.29610071030645" lon="108.7104626877758">
        <ele>391.29378919582814</ele>
        <time>2026-09-03T23:09:34Z</time>
      </trkpt>
      <trkpt lat="34.29606496108676" lon="108.710135408583">
        <ele>390.63859096728265</ele>
        <time>2026-09-03T23:09:51Z</time>
      </trkpt>
      <trkpt lat="34.29599929638636" lon="108.70977468157375">
        <ele>390.0366668049246</ele>
        <time>2026-09-03T23:10:09Z</time>
      </trkpt>
      <trkpt lat="34.295955604597104" lon="108.70941749494693">
        <ele>390.8695634845644</ele>
        <time>2026-09-03T23:10:27Z</time>
      </trkpt>
      <trkpt lat="34.29595730974508" lon="108.70935871441236">
        <ele>391.1764883380383</ele>
        <time>2026-09-03T23:10:30Z</time>
      </trkpt>
      <trkpt lat="34.29591526035481" lon="108.7092064391694">
        <ele>390.8353493241593</ele>
        <time>2026-09-03T23:10:39Z</time>
      </trkpt>
      <trkpt lat="34.29591850434887" lon="108.70912151133584">
        <ele>390.40155067294836</ele>
        <time>2026-09-03T23:10:45Z</time>
      </trkpt>
      <trkpt lat="34.295881510648314" lon="108.70879629156137">
        <ele>391.21456578280777</ele>
        <time>2026-09-03T23:11:03Z</time>
      </trkpt>
      <trkpt lat="34.295866245884966" lon="108.70854142065303">
        <ele>390.58179100230336</ele>
        <time>2026-09-03T23:11:15Z</time>
      </trkpt>
      <trkpt lat="34.29582913405524" lon="108.70820148046687">
        <ele>391.08778550382704</ele>
        <time>2026-09-03T23:11:32Z</time>
      </trkpt>
      <trkpt lat="34.29584230796895" lon="108.7081150365553">
        <ele>391.8047022642568</ele>
        <time>2026-09-03T23:11:36Z</time>
      </trkpt>
      <trkpt lat="34.29576778333748" lon="108.7077406739498">
        <ele>390.8785572517663</ele>
        <time>2026-09-03T23:12:00Z</time>
      </trkpt>
      <trkpt lat="34.29578943981955" lon="108.70763551805216">
        <ele>390.5813633054495</ele>
        <time>2026-09-03T23:12:06Z</time>
      </trkpt>
      <trkpt lat="34.295770532751156" lon="108.70733431400097">
        <ele>391.14481056667864</ele>
        <time>2026-09-03T23:12:21Z</time>
      </trkpt>
      <trkpt lat="34.2957555472245" lon="108.70727824669015">
        <ele>389.6876856936142</ele>
        <time>2026-09-03T23:12:24Z</time>
      </trkpt>
      <trkpt lat="34.295756876839704" lon="108.70720336923394">
        <ele>391.3469186509028</ele>
        <time>2026-09-03T23:12:27Z</time>
      </trkpt>
      <trkpt lat="34.295739403190844" lon="108.7071416074575">
        <ele>390.26561846677214</ele>
        <time>2026-09-03T23:12:30Z</time>
      </trkpt>
      <trkpt lat="34.29575362943157" lon="108.70700484088549">
        <ele>391.0046666730195</ele>
        <time>2026-09-03T23:12:36Z</time>
      </trkpt>
      <trkpt lat="34.2956921691061" lon="108.70665557606681">
        <ele>391.4149936893955</ele>
        <time>2026-09-03T23:12:57Z</time>
      </trkpt>
      <trkpt lat="34.29567278242892" lon="108.70640768942722">
        <ele>390.00302540604025</ele>
        <time>2026-09-03T23:13:09Z</time>
      </trkpt>
      <trkpt lat="34.29573598612295" lon="108.70621792398589">
        <ele>391.3745484482497</ele>
        <time>2026-09-03T23:13:18Z</time>
      </trkpt>
      <trkpt lat="34.295744215597445" lon="108.70615338361618">
        <ele>391.5204231906682</ele>
        <time>2026-09-03T23:13:21Z</time>
      </trkpt>
      <trkpt lat="34.295892783777276" lon="108.7060714705143">
        <ele>389.22208967152983</ele>
        <time>2026-09-03T23:13:30Z</time>
      </trkpt>
      <trkpt lat="34.296166126447844" lon="108.7060108939886">
        <ele>393.03018677048385</ele>
        <time>2026-09-03T23:13:46Z</time>
      </trkpt>
      <trkpt lat="34.29644652129276" lon="108.70596820700217">
        <ele>390.2615648023784</ele>
        <time>2026-09-03T23:14:02Z</time>
      </trkpt>
      <trkpt lat="34.29665436010504" lon="108.70591434565053">
        <ele>389.03300722129643</ele>
        <time>2026-09-03T23:14:14Z</time>
      </trkpt>
      <trkpt lat="34.29693126434502" lon="108.70590310984325">
        <ele>388.2577350754291</ele>
        <time>2026-09-03T23:14:29Z</time>
      </trkpt>
      <trkpt lat="34.29721166453235" lon="108.70583025366304">
        <ele>390.14847801905125</ele>
        <time>2026-09-03T23:14:50Z</time>
      </trkpt>
      <trkpt lat="34.29734134235338" lon="108.70578840536378">
        <ele>389.7002685405314</ele>
        <time>2026-09-03T23:14:59Z</time>
      </trkpt>
      <trkpt lat="34.29743515208382" lon="108.70580690072545">
        <ele>388.98482409957796</ele>
        <time>2026-09-03T23:15:05Z</time>
      </trkpt>
      <trkpt lat="34.29774527491249" lon="108.70574170064617">
        <ele>389.07755819987506</ele>
        <time>2026-09-03T23:15:23Z</time>
      </trkpt>
      <trkpt lat="34.29795210527723" lon="108.70572445178405">
        <ele>388.9772489964962</ele>
        <time>2026-09-03T23:15:35Z</time>
      </trkpt>
      <trkpt lat="34.297999993721476" lon="108.70570574944345">
        <ele>387.703745639883</ele>
        <time>2026-09-03T23:15:38Z</time>
      </trkpt>
      <trkpt lat="34.29807543238526" lon="108.70570530877525">
        <ele>387.8270829040557</ele>
        <time>2026-09-03T23:15:42Z</time>
      </trkpt>
      <trkpt lat="34.29823582271145" lon="108.70566274813399">
        <ele>388.987196479924</ele>
        <time>2026-09-03T23:15:50Z</time>
      </trkpt>
      <trkpt lat="34.29845715652267" lon="108.7055917552439">
        <ele>389.4314856873825</ele>
        <time>2026-09-03T23:16:08Z</time>
      </trkpt>
      <trkpt lat="34.29875477411314" lon="108.70554457211605">
        <ele>387.18465802259743</ele>
        <time>2026-09-03T23:16:26Z</time>
      </trkpt>
      <trkpt lat="34.299075554217104" lon="108.7054926695734">
        <ele>390.3085556877777</ele>
        <time>2026-09-03T23:16:44Z</time>
      </trkpt>
      <trkpt lat="34.29919281446196" lon="108.705458547453">
        <ele>389.80423191189766</ele>
        <time>2026-09-03T23:16:53Z</time>
      </trkpt>
      <trkpt lat="34.29926559916" lon="108.7054588303229">
        <ele>390.2640269808471</ele>
        <time>2026-09-03T23:16:59Z</time>
      </trkpt>
      <trkpt lat="34.299218902724846" lon="108.70552919413969">
        <ele>389.38683928828686</ele>
        <time>2026-09-03T23:17:02Z</time>
      </trkpt>
      <trkpt lat="34.299012641032675" lon="108.70560213338418">
        <ele>389.3289919216186</ele>
        <time>2026-09-03T23:17:14Z</time>
      </trkpt>
      <trkpt lat="34.29869287714877" lon="108.70565599482512">
        <ele>390.80163798108697</ele>
        <time>2026-09-03T23:17:32Z</time>
      </trkpt>
      <trkpt lat="34.298411629381995" lon="108.70569580468563">
        <ele>390.371943263337</ele>
        <time>2026-09-03T23:17:48Z</time>
      </trkpt>
      <trkpt lat="34.29814346584102" lon="108.7057418553519">
        <ele>389.19525210373104</ele>
        <time>2026-09-03T23:18:03Z</time>
      </trkpt>
      <trkpt lat="34.29786353375926" lon="108.70582195102328">
        <ele>389.47039576712996</ele>
        <time>2026-09-03T23:18:24Z</time>
      </trkpt>
      <trkpt lat="34.29773738977313" lon="108.70584004072967">
        <ele>389.8607960883528</ele>
        <time>2026-09-03T23:18:33Z</time>
      </trkpt>
      <trkpt lat="34.29763475955801" lon="108.70583475658202">
        <ele>390.0911664394662</ele>
        <time>2026-09-03T23:18:39Z</time>
      </trkpt>
      <trkpt lat="34.29732097545368" lon="108.70589860475786">
        <ele>389.04728298448026</ele>
        <time>2026-09-03T23:18:57Z</time>
      </trkpt>
      <trkpt lat="34.297013708092614" lon="108.70594846454857">
        <ele>389.0782473580912</ele>
        <time>2026-09-03T23:19:15Z</time>
      </trkpt>
      <trkpt lat="34.29689580717116" lon="108.70596157384772">
        <ele>389.191118421033</ele>
        <time>2026-09-03T23:19:21Z</time>
      </trkpt>
      <trkpt lat="34.29658939163819" lon="108.70603367071668">
        <ele>389.3064055740833</ele>
        <time>2026-09-03T23:19:39Z</time>
      </trkpt>
      <trkpt lat="34.29629695745158" lon="108.70609464892132">
        <ele>389.51780681684613</ele>
        <time>2026-09-03T23:20:00Z</time>
      </trkpt>
      <trkpt lat="34.29599783571444" lon="108.70614201133134">
        <ele>390.5585913192481</ele>
        <time>2026-09-03T23:20:23Z</time>
      </trkpt>
      <trkpt lat="34.295951492591705" lon="108.70613262004922">
        <ele>389.93662989418954</ele>
        <time>2026-09-03T23:20:26Z</time>
      </trkpt>
      <trkpt lat="34.29584190278937" lon="108.70616809372554">
        <ele>390.8533132793382</ele>
        <time>2026-09-03T23:20:32Z</time>
      </trkpt>
      <trkpt lat="34.295786065968414" lon="108.7061258563744">
        <ele>389.77553115040064</ele>
        <time>2026-09-03T23:20:38Z</time>
      </trkpt>
      <trkpt lat="34.29585407968869" lon="108.70607651612956">
        <ele>390.20046507101506</ele>
        <time>2026-09-03T23:20:44Z</time>
      </trkpt>
      <trkpt lat="34.29613468319038" lon="108.70602067404289">
        <ele>389.5653644911945</ele>
        <time>2026-09-03T23:20:59Z</time>
      </trkpt>
      <trkpt lat="34.296369843834505" lon="108.70598724488023">
        <ele>389.8683746252209</ele>
        <time>2026-09-03T23:21:11Z</time>
      </trkpt>
      <trkpt lat="34.29668632568646" lon="108.70591514796783">
        <ele>389.55850209109485</ele>
        <time>2026-09-03T23:21:29Z</time>
      </trkpt>
      <trkpt lat="34.296800545307704" lon="108.70591268796291">
        <ele>388.07486197538674</ele>
        <time>2026-09-03T23:21:35Z</time>
      </trkpt>
      <trkpt lat="34.29685748064171" lon="108.70589173293538">
        <ele>388.1526258122176</ele>
        <time>2026-09-03T23:21:38Z</time>
      </trkpt>
      <trkpt lat="34.296912423321764" lon="108.7058945871979">
        <ele>388.2913437290117</ele>
        <time>2026-09-03T23:21:41Z</time>
      </trkpt>
      <trkpt lat="34.29696756335447" lon="108.70586550325933">
        <ele>389.5488343341276</ele>
        <time>2026-09-03T23:21:44Z</time>
      </trkpt>
      <trkpt lat="34.29713145131469" lon="108.70587791734823">
        <ele>387.9580160463229</ele>
        <time>2026-09-03T23:21:53Z</time>
      </trkpt>
      <trkpt lat="34.297195373131785" lon="108.70584748345343">
        <ele>388.91699462383986</ele>
        <time>2026-09-03T23:21:56Z</time>
      </trkpt>
      <trkpt lat="34.29726289694437" lon="108.70584078678465">
        <ele>389.3638307582587</ele>
        <time>2026-09-03T23:22:00Z</time>
      </trkpt>
      <trkpt lat="34.29733414900966" lon="108.70579794723649">
        <ele>391.8082125829533</ele>
        <time>2026-09-03T23:22:04Z</time>
      </trkpt>
      <trkpt lat="34.2975299797723" lon="108.70578683819375">
        <ele>388.1798047022894</ele>
        <time>2026-09-03T23:22:15Z</time>
      </trkpt>
      <trkpt lat="34.29758652606797" lon="108.70574509553728">
        <ele>388.0516261123121</ele>
        <time>2026-09-03T23:22:21Z</time>
      </trkpt>
      <trkpt lat="34.29763697636889" lon="108.70574888823036">
        <ele>388.6956727579236</ele>
        <time>2026-09-03T23:22:27Z</time>
      </trkpt>
      <trkpt lat="34.297908256084334" lon="108.70568181242095">
        <ele>390.2753408662975</ele>
        <time>2026-09-03T23:22:48Z</time>
      </trkpt>
      <trkpt lat="34.2981309074132" lon="108.7056676495467">
        <ele>388.1329683661461</ele>
        <time>2026-09-03T23:23:03Z</time>
      </trkpt>
      <trkpt lat="34.29847983007968" lon="108.70560423945713">
        <ele>389.5789976026863</ele>
        <time>2026-09-03T23:23:24Z</time>
      </trkpt>
      <trkpt lat="34.29875794997311" lon="108.70554653763499">
        <ele>389.54994365479797</ele>
        <time>2026-09-03T23:23:48Z</time>
      </trkpt>
      <trkpt lat="34.29905181679141" lon="108.70548013571127">
        <ele>391.0488773128018</ele>
        <time>2026-09-03T23:24:08Z</time>
      </trkpt>
      <trkpt lat="34.29910320785317" lon="108.70549031577106">
        <ele>390.49684413708746</ele>
        <time>2026-09-03T23:24:12Z</time>
      </trkpt>
      <trkpt lat="34.299164252846765" lon="108.70544754506581">
        <ele>390.55779359396547</ele>
        <time>2026-09-03T23:24:19Z</time>
      </trkpt>
      <trkpt lat="34.299210477797764" lon="108.70543799539767">
        <ele>391.1297657750547</ele>
        <time>2026-09-03T23:24:22Z</time>
      </trkpt>
      <trkpt lat="34.29925871884982" lon="108.70546240125437">
        <ele>391.6412731213495</ele>
        <time>2026-09-03T23:24:25Z</time>
      </trkpt>
      <trkpt lat="34.29934593097332" lon="108.70566215322489">
        <ele>391.2010062932968</ele>
        <time>2026-09-03T23:24:37Z</time>
      </trkpt>
      <trkpt lat="34.29938248619117" lon="108.70601022082397">
        <ele>390.89158090762794</ele>
        <time>2026-09-03T23:24:58Z</time>
      </trkpt>
      <trkpt lat="34.2994522671732" lon="108.70635193134444">
        <ele>391.731516267173</ele>
        <time>2026-09-03T23:25:19Z</time>
      </trkpt>
      <trkpt lat="34.2994562021957" lon="108.70656898154395">
        <ele>391.3545158440247</ele>
        <time>2026-09-03T23:25:31Z</time>
      </trkpt>
      <trkpt lat="34.29951601266542" lon="108.70684539553042">
        <ele>391.96469105873257</ele>
        <time>2026-09-03T23:25:46Z</time>
      </trkpt>
      <trkpt lat="34.29951299263106" lon="108.70690299867097">
        <ele>392.18797781597823</ele>
        <time>2026-09-03T23:25:52Z</time>
      </trkpt>
      <trkpt lat="34.299537296595204" lon="108.70702476203216">
        <ele>391.1748126670718</ele>
        <time>2026-09-03T23:26:02Z</time>
      </trkpt>
      <trkpt lat="34.299523793132884" lon="108.70708009657663">
        <ele>390.2319319033995</ele>
        <time>2026-09-03T23:26:05Z</time>
      </trkpt>
      <trkpt lat="34.299530362088205" lon="108.70730654412831">
        <ele>391.50664270855486</ele>
        <time>2026-09-03T23:26:16Z</time>
      </trkpt>
      <trkpt lat="34.299499624115086" lon="108.70766850645187">
        <ele>390.9975926950574</ele>
        <time>2026-09-03T23:26:36Z</time>
      </trkpt>
      <trkpt lat="34.29950313010379" lon="108.70777407914836">
        <ele>390.7239956157282</ele>
        <time>2026-09-03T23:26:42Z</time>
      </trkpt>
      <trkpt lat="34.29953659675901" lon="108.70788659893186">
        <ele>391.2289327112958</ele>
        <time>2026-09-03T23:26:48Z</time>
      </trkpt>
      <trkpt lat="34.29954036707545" lon="108.7079497724882">
        <ele>390.6614430528134</ele>
        <time>2026-09-03T23:26:51Z</time>
      </trkpt>
      <trkpt lat="34.29960890975025" lon="108.70808290941017">
        <ele>392.2228502994403</ele>
        <time>2026-09-03T23:27:00Z</time>
      </trkpt>
      <trkpt lat="34.29961420991914" lon="108.70825849423932">
        <ele>391.2759909350425</ele>
        <time>2026-09-03T23:27:12Z</time>
      </trkpt>
      <trkpt lat="34.29960232648592" lon="108.70833433855026">
        <ele>391.45530845969915</ele>
        <time>2026-09-03T23:27:18Z</time>
      </trkpt>
      <trkpt lat="34.29954137313516" lon="108.70835984296052">
        <ele>390.9301945492625</ele>
        <time>2026-09-03T23:27:27Z</time>
      </trkpt>
      <trkpt lat="34.29950697421862" lon="108.70840406694705">
        <ele>391.6861792206764</ele>
        <time>2026-09-03T23:27:33Z</time>
      </trkpt>
      <trkpt lat="34.299559681125025" lon="108.70844777584351">
        <ele>391.73625467158854</ele>
        <time>2026-09-03T23:27:39Z</time>
      </trkpt>
      <trkpt lat="34.29960476353059" lon="108.70844175024614">
        <ele>391.38248252216727</ele>
        <time>2026-09-03T23:27:42Z</time>
      </trkpt>
      <trkpt lat="34.29967244118672" lon="108.70854464073926">
        <ele>391.8967525716871</ele>
        <time>2026-09-03T23:27:51Z</time>
      </trkpt>
      <trkpt lat="34.29966275349905" lon="108.70872541479535">
        <ele>390.85716895759106</ele>
        <time>2026-09-03T23:28:01Z</time>
      </trkpt>
      <trkpt lat="34.299676032254936" lon="108.70878462932083">
        <ele>390.37346239667386</ele>
        <time>2026-09-03T23:28:04Z</time>
      </trkpt>
      <trkpt lat="34.29966884549362" lon="108.7088455008618">
        <ele>391.2375070732087</ele>
        <time>2026-09-03T23:28:07Z</time>
      </trkpt>
      <trkpt lat="34.29970376525008" lon="108.7090407288333">
        <ele>391.1908257799223</ele>
        <time>2026-09-03T23:28:17Z</time>
      </trkpt>
      <trkpt lat="34.29970051291127" lon="108.70909659241437">
        <ele>391.06406156066805</ele>
        <time>2026-09-03T23:28:20Z</time>
      </trkpt>
      <trkpt lat="34.299718973435844" lon="108.7092173241269">
        <ele>391.82226520124823</ele>
        <time>2026-09-03T23:28:26Z</time>
      </trkpt>
      <trkpt lat="34.29976686312019" lon="108.70936817880272">
        <ele>392.22792698070407</ele>
        <time>2026-09-03T23:28:35Z</time>
      </trkpt>
      <trkpt lat="34.29975497173286" lon="108.70946089564043">
        <ele>391.1978050675243</ele>
        <time>2026-09-03T23:28:41Z</time>
      </trkpt>
      <trkpt lat="34.29979508340367" lon="108.70950945527892">
        <ele>391.3697780100629</ele>
        <time>2026-09-03T23:28:47Z</time>
      </trkpt>
      <trkpt lat="34.299808079692795" lon="108.70956342952199">
        <ele>391.22334339655936</ele>
        <time>2026-09-03T23:28:50Z</time>
      </trkpt>
      <trkpt lat="34.29978813250913" lon="108.7097090815853">
        <ele>390.805531559512</ele>
        <time>2026-09-03T23:28:56Z</time>
      </trkpt>
      <trkpt lat="34.29983386188618" lon="108.70977653531814">
        <ele>388.8889609016478</ele>
        <time>2026-09-03T23:28:59Z</time>
      </trkpt>
      <trkpt lat="34.29990724926665" lon="108.70999268924959">
        <ele>392.0844498462975</ele>
        <time>2026-09-03T23:29:08Z</time>
      </trkpt>
      <trkpt lat="34.299932045578736" lon="108.71013533572334">
        <ele>392.16601465828717</ele>
        <time>2026-09-03T23:29:14Z</time>
      </trkpt>
      <trkpt lat="34.29986608171387" lon="108.71026183918566">
        <ele>388.0317381210625</ele>
        <time>2026-09-03T23:29:20Z</time>
      </trkpt>
      <trkpt lat="34.299693112225604" lon="108.71048654955369">
        <ele>391.08465751446784</ele>
        <time>2026-09-03T23:29:38Z</time>
      </trkpt>
      <trkpt lat="34.2996370480868" lon="108.71052456382121">
        <ele>392.83592157345265</ele>
        <time>2026-09-03T23:29:44Z</time>
      </trkpt>
      <trkpt lat="34.299571519726946" lon="108.71051859643747">
        <ele>393.5010663997382</ele>
        <time>2026-09-03T23:29:50Z</time>
      </trkpt>
      <trkpt lat="34.299529423275345" lon="108.71054642269576">
        <ele>393.1013240609318</ele>
        <time>2026-09-03T23:29:53Z</time>
      </trkpt>
      <trkpt lat="34.29947337958699" lon="108.71063389819511">
        <ele>392.81874538585544</ele>
        <time>2026-09-03T23:29:59Z</time>
      </trkpt>
      <trkpt lat="34.29949526518486" lon="108.71075614556017">
        <ele>391.9248691117391</ele>
        <time>2026-09-03T23:30:05Z</time>
      </trkpt>
      <trkpt lat="34.29945365474797" lon="108.71081890623266">
        <ele>391.5510405693203</ele>
        <time>2026-09-03T23:30:11Z</time>
      </trkpt>
      <trkpt lat="34.299162355145356" lon="108.71095980856234">
        <ele>390.66853848379105</ele>
        <time>2026-09-03T23:31:38Z</time>
      </trkpt>
      <trkpt lat="34.298924323043856" lon="108.71105969998172">
        <ele>389.67777778115124</ele>
        <time>2026-09-03T23:31:56Z</time>
      </trkpt>
      <trkpt lat="34.2986090963435" lon="108.71118659020435">
        <ele>390.0058042658493</ele>
        <time>2026-09-03T23:32:20Z</time>
      </trkpt>
      <trkpt lat="34.298324271040194" lon="108.71129418368902">
        <ele>388.9046989940107</ele>
        <time>2026-09-03T23:32:43Z</time>
      </trkpt>
      <trkpt lat="34.29825101988639" lon="108.71133740647969">
        <ele>389.91285689361393</ele>
        <time>2026-09-03T23:32:49Z</time>
      </trkpt>
      <trkpt lat="34.298208626293174" lon="108.71130950372239">
        <ele>390.1180361835286</ele>
        <time>2026-09-03T23:32:52Z</time>
      </trkpt>
      <trkpt lat="34.29818156878108" lon="108.71126604854814">
        <ele>390.21708806045353</ele>
        <time>2026-09-03T23:32:55Z</time>
      </trkpt>
      <trkpt lat="34.29815070364744" lon="108.71106642185765">
        <ele>390.4030198697001</ele>
        <time>2026-09-03T23:33:07Z</time>
      </trkpt>
      <trkpt lat="34.298076618444455" lon="108.7107983188427">
        <ele>389.62754902243614</ele>
        <time>2026-09-03T23:33:25Z</time>
      </trkpt>
      <trkpt lat="34.29805329106662" lon="108.71055113850973">
        <ele>389.30233030207455</ele>
        <time>2026-09-03T23:33:40Z</time>
      </trkpt>
      <trkpt lat="34.298063807232374" lon="108.71046448136036">
        <ele>389.36081060767174</ele>
        <time>2026-09-03T23:33:46Z</time>
      </trkpt>
      <trkpt lat="34.29804875433484" lon="108.71041284359033">
        <ele>388.99998934566975</ele>
        <time>2026-09-03T23:33:49Z</time>
      </trkpt>
      <trkpt lat="34.29807416550307" lon="108.71035687257705">
        <ele>389.9124303245917</ele>
        <time>2026-09-03T23:33:52Z</time>
      </trkpt>
      <trkpt lat="34.298061578212334" lon="108.71027021708919">
        <ele>389.44366825930774</ele>
        <time>2026-09-03T23:33:58Z</time>
      </trkpt>
      <trkpt lat="34.29801535295335" lon="108.71018516685255">
        <ele>389.78727499209344</ele>
        <time>2026-09-03T23:34:04Z</time>
      </trkpt>
      <trkpt lat="34.29775647696998" lon="108.71024383668528">
        <ele>387.55514049343765</ele>
        <time>2026-09-03T23:34:19Z</time>
      </trkpt>
      <trkpt lat="34.297799989691406" lon="108.71047029955939">
        <ele>388.0728758145124</ele>
        <time>2026-09-03T23:34:35Z</time>
      </trkpt>
      <trkpt lat="34.297795214847355" lon="108.71054859957206">
        <ele>387.43231720663607</ele>
        <time>2026-09-03T23:34:45Z</time>
      </trkpt>
      <trkpt lat="34.297795214847355" lon="108.71054859957206">
        <ele>387.43231720663607</ele>
        <time>2026-09-03T23:34:52Z</time>
      </trkpt>
    </trkseg>
  </trk>
</gpx>