<?xml version="1.0" encoding="UTF-8"?>
<gpx xmlns="http://www.topografix.com/GPX/1/1" xmlns:gpxtpx="http://www.garmin.com/xmlschemas/TrackPointExtension/v1" xmlns:xsi="http://www.w3.org/2001/XMLSchema-instance" xsi:schemaLocation="http://www.topografix.com/GPX/1/1 http://www.topografix.com/GPX/1/1/gpx.xsd" version="1.1" creator="gpx.py -- https://github.com/tkrajina/gpxpy">
  <trk>
    <name>gpx from keep</name>
    <type>Ride</type>
    <trkseg>
      <trkpt lat="34.30641858852454" lon="109.03705708996114">
        <ele>399.9007263183594</ele>
        <time>2022-03-11T09:51:18Z</time>
      </trkpt>
      <trkpt lat="34.306531039122106" lon="109.03701253463818">
        <ele>399.899169921875</ele>
        <time>2022-03-11T09:51:19Z</time>
      </trkpt>
      <trkpt lat="34.30621285875727" lon="109.0369563733178">
        <ele>390.8694920083508</ele>
        <time>2022-03-11T09:51:22Z</time>
      </trkpt>
      <trkpt lat="34.30632114466489" lon="109.0369227396882">
        <ele>391.07218307442963</ele>
        <time>2022-03-11T09:51:24Z</time>
      </trkpt>
      <trkpt lat="34.30638798439365" lon="109.03699649295928">
        <ele>391.02207716275007</ele>
        <time>2022-03-11T09:51:26Z</time>
      </trkpt>
      <trkpt lat="34.306466220705616" lon="109.03697944011833">
        <ele>391.4599683964625</ele>
        <time>2022-03-11T09:51:33Z</time>
      </trkpt>
      <trkpt lat="34.30655372821724" lon="109.0371094801835">
        <ele>391.48774502053857</ele>
        <time>2022-03-11T09:51:39Z</time>
      </trkpt>
      <trkpt lat="34.30663675643235" lon="109.03705967392787">
        <ele>391.502756530419</ele>
        <time>2022-03-11T09:51:43Z</time>
      </trkpt>
      <trkpt lat="34.3066585772156" lon="109.03695206318025">
        <ele>391.8656677128747</ele>
        <time>2022-03-11T09:51:49Z</time>
      </trkpt>
      <trkpt lat="34.30664271070025" lon="109.03683660168731">
        <ele>392.0572370328009</ele>
        <time>2022-03-11T09:51:55Z</time>
      </trkpt>
      <trkpt lat="34.30652471395663" lon="109.03668105053406">
        <ele>391.6764112897217</ele>
        <time>2022-03-11T09:52:07Z</time>
      </trkpt>
      <trkpt lat="34.306438866805294" lon="109.03649363136417">
        <ele>391.8948938027024</ele>
        <time>2022-03-11T09:52:17Z</time>
      </trkpt>
      <trkpt lat="34.3064640148091" lon="109.03641099539506">
        <ele>392.0132441017777</ele>
        <time>2022-03-11T09:52:29Z</time>
      </trkpt>
      <trkpt lat="34.306481006020896" lon="109.03640922758665">
        <ele>391.5969714904204</ele>
        <time>2022-03-11T09:52:31Z</time>
      </trkpt>
      <trkpt lat="34.30657154085587" lon="109.03624627558382">
        <ele>393.1055245343596</ele>
        <time>2022-03-11T09:53:16Z</time>
      </trkpt>
      <trkpt lat="34.30652415853918" lon="109.03609931371977">
        <ele>393.5569161903113</ele>
        <time>2022-03-11T09:53:20Z</time>
      </trkpt>
      <trkpt lat="34.306527073246784" lon="109.03586539886966">
        <ele>394.69526104815304</ele>
        <time>2022-03-11T09:53:26Z</time>
      </trkpt>
      <trkpt lat="34.30644081287565" lon="109.03548700071185">
        <ele>392.4171957615763</ele>
        <time>2022-03-11T09:53:36Z</time>
      </trkpt>
      <trkpt lat="34.30640821537318" lon="109.03540161290898">
        <ele>392.5239874208346</ele>
        <time>2022-03-11T09:53:40Z</time>
      </trkpt>
      <trkpt lat="34.306445445438264" lon="109.0351598251326">
        <ele>392.3205303121358</ele>
        <time>2022-03-11T09:53:45Z</time>
      </trkpt>
      <trkpt lat="34.30643595499857" lon="109.035068605011">
        <ele>392.63494679611176</ele>
        <time>2022-03-11T09:53:47Z</time>
      </trkpt>
      <trkpt lat="34.30643370067577" lon="109.03469883976614">
        <ele>392.49581523705274</ele>
        <time>2022-03-11T09:53:55Z</time>
      </trkpt>
      <trkpt lat="34.3064050700154" lon="109.03446727047834">
        <ele>392.6741111446172</ele>
        <time>2022-03-11T09:54:00Z</time>
      </trkpt>
      <trkpt lat="34.30634423079987" lon="109.0342628184257">
        <ele>392.9726055068895</ele>
        <time>2022-03-11T09:54:06Z</time>
      </trkpt>
      <trkpt lat="34.306291595840065" lon="109.03419044999941">
        <ele>392.26375791430473</ele>
        <time>2022-03-11T09:54:08Z</time>
      </trkpt>
      <trkpt lat="34.30619605454148" lon="109.03400510134999">
        <ele>392.41397249046713</ele>
        <time>2022-03-11T09:54:14Z</time>
      </trkpt>
      <trkpt lat="34.30613694418983" lon="109.03376377800559">
        <ele>392.1724336342886</ele>
        <time>2022-03-11T09:54:21Z</time>
      </trkpt>
      <trkpt lat="34.306125203615636" lon="109.03365972631326">
        <ele>391.91435002256185</ele>
        <time>2022-03-11T09:54:25Z</time>
      </trkpt>
      <trkpt lat="34.30615559243742" lon="109.03357712648983">
        <ele>392.0007137116045</ele>
        <time>2022-03-11T09:54:27Z</time>
      </trkpt>
      <trkpt lat="34.306221471481976" lon="109.03350129035967">
        <ele>391.96384316682816</ele>
        <time>2022-03-11T09:54:31Z</time>
      </trkpt>
      <trkpt lat="34.30622024393463" lon="109.03307301891886">
        <ele>392.498999921605</ele>
        <time>2022-03-11T09:54:41Z</time>
      </trkpt>
      <trkpt lat="34.306200981048804" lon="109.03297385726329">
        <ele>392.98381206486374</ele>
        <time>2022-03-11T09:54:43Z</time>
      </trkpt>
      <trkpt lat="34.30628698722419" lon="109.03267704060502">
        <ele>393.41431902348995</ele>
        <time>2022-03-11T09:54:51Z</time>
      </trkpt>
      <trkpt lat="34.30628817399557" lon="109.0325841553667">
        <ele>393.2357185492292</ele>
        <time>2022-03-11T09:54:53Z</time>
      </trkpt>
      <trkpt lat="34.30636309468524" lon="109.03221047326494">
        <ele>392.6347994636744</ele>
        <time>2022-03-11T09:54:59Z</time>
      </trkpt>
      <trkpt lat="34.30639842084838" lon="109.03191710707482">
        <ele>393.6758397882804</ele>
        <time>2022-03-11T09:55:04Z</time>
      </trkpt>
      <trkpt lat="34.30634244455194" lon="109.03155846819377">
        <ele>392.26450236327946</ele>
        <time>2022-03-11T09:55:10Z</time>
      </trkpt>
      <trkpt lat="34.30638476890866" lon="109.0314359314388">
        <ele>391.93773595336825</ele>
        <time>2022-03-11T09:55:12Z</time>
      </trkpt>
      <trkpt lat="34.306433076064" lon="109.03136126242245">
        <ele>391.2489640749991</ele>
        <time>2022-03-11T09:55:14Z</time>
      </trkpt>
      <trkpt lat="34.306512046814355" lon="109.03129138520714">
        <ele>391.84209590777755</ele>
        <time>2022-03-11T09:55:16Z</time>
      </trkpt>
      <trkpt lat="34.306843342477066" lon="109.03116689463242">
        <ele>391.8701307279989</ele>
        <time>2022-03-11T09:55:23Z</time>
      </trkpt>
      <trkpt lat="34.30710008439564" lon="109.03102640848759">
        <ele>391.74534503929317</ele>
        <time>2022-03-11T09:55:28Z</time>
      </trkpt>
      <trkpt lat="34.307524858528495" lon="109.03091256041986">
        <ele>392.8540885290131</ele>
        <time>2022-03-11T09:55:37Z</time>
      </trkpt>
      <trkpt lat="34.30797418403306" lon="109.03082841786977">
        <ele>394.40955330245197</ele>
        <time>2022-03-11T09:55:47Z</time>
      </trkpt>
      <trkpt lat="34.30842798208479" lon="109.03076329779182">
        <ele>394.6581812631339</ele>
        <time>2022-03-11T09:55:57Z</time>
      </trkpt>
      <trkpt lat="34.30888418204092" lon="109.03068299499893">
        <ele>394.2000212799758</ele>
        <time>2022-03-11T09:56:07Z</time>
      </trkpt>
      <trkpt lat="34.309247815882564" lon="109.03055376514759">
        <ele>393.4389951713383</ele>
        <time>2022-03-11T09:56:15Z</time>
      </trkpt>
      <trkpt lat="34.309694821038015" lon="109.03028079006312">
        <ele>393.12979287840426</ele>
        <time>2022-03-11T09:56:25Z</time>
      </trkpt>
      <trkpt lat="34.3100288011995" lon="109.03002178537389">
        <ele>392.6528657274321</ele>
        <time>2022-03-11T09:56:33Z</time>
      </trkpt>
      <trkpt lat="34.31043165555987" lon="109.02963104586478">
        <ele>392.8577724965289</ele>
        <time>2022-03-11T09:56:44Z</time>
      </trkpt>
      <trkpt lat="34.3108417045103" lon="109.02925082152524">
        <ele>391.29274807684124</ele>
        <time>2022-03-11T09:56:54Z</time>
      </trkpt>
      <trkpt lat="34.31107151998599" lon="109.02903867993649">
        <ele>389.9835150158033</ele>
        <time>2022-03-11T09:57:00Z</time>
      </trkpt>
      <trkpt lat="34.31111135818951" lon="109.02895656846016">
        <ele>391.04015440214425</ele>
        <time>2022-03-11T09:57:04Z</time>
      </trkpt>
      <trkpt lat="34.311367621363615" lon="109.02850362654131">
        <ele>392.16444200929254</ele>
        <time>2022-03-11T09:57:14Z</time>
      </trkpt>
      <trkpt lat="34.311411759677824" lon="109.02840194927535">
        <ele>392.75310759060085</ele>
        <time>2022-03-11T09:57:16Z</time>
      </trkpt>
      <trkpt lat="34.31147763257637" lon="109.02808505779561">
        <ele>393.0099558830261</ele>
        <time>2022-03-11T09:57:22Z</time>
      </trkpt>
      <trkpt lat="34.31148941638982" lon="109.02786179439757">
        <ele>392.94120958354324</ele>
        <time>2022-03-11T09:57:26Z</time>
      </trkpt>
      <trkpt lat="34.311478059282784" lon="109.0277489668224">
        <ele>392.8922049952671</ele>
        <time>2022-03-11T09:57:28Z</time>
      </trkpt>
      <trkpt lat="34.31152053423795" lon="109.0274026376824">
        <ele>392.87152676284313</ele>
        <time>2022-03-11T09:57:34Z</time>
      </trkpt>
      <trkpt lat="34.311590988199576" lon="109.02716358803983">
        <ele>392.30014310311526</ele>
        <time>2022-03-11T09:57:38Z</time>
      </trkpt>
      <trkpt lat="34.31178212882322" lon="109.0267897990459">
        <ele>392.116716645658</ele>
        <time>2022-03-11T09:57:45Z</time>
      </trkpt>
      <trkpt lat="34.31185505287244" lon="109.02668723960404">
        <ele>392.70564311370254</ele>
        <time>2022-03-11T09:57:47Z</time>
      </trkpt>
      <trkpt lat="34.312113448049" lon="109.02646783902415">
        <ele>392.6172551261261</ele>
        <time>2022-03-11T09:57:53Z</time>
      </trkpt>
      <trkpt lat="34.312181468857084" lon="109.0263882903844">
        <ele>392.56646669562906</ele>
        <time>2022-03-11T09:57:55Z</time>
      </trkpt>
      <trkpt lat="34.312279341791076" lon="109.02633171213574">
        <ele>394.3135704016313</ele>
        <time>2022-03-11T09:57:57Z</time>
      </trkpt>
      <trkpt lat="34.312309765943475" lon="109.02623903975245">
        <ele>393.9807951208204</ele>
        <time>2022-03-11T09:57:59Z</time>
      </trkpt>
      <trkpt lat="34.31245813311988" lon="109.02609040457988">
        <ele>393.3663154253736</ele>
        <time>2022-03-11T09:58:03Z</time>
      </trkpt>
      <trkpt lat="34.31269192652506" lon="109.02602068607648">
        <ele>392.7933778744191</ele>
        <time>2022-03-11T09:58:07Z</time>
      </trkpt>
      <trkpt lat="34.31279193181789" lon="109.02596298521989">
        <ele>392.4719826541841</ele>
        <time>2022-03-11T09:58:09Z</time>
      </trkpt>
      <trkpt lat="34.31285500866784" lon="109.02588449732932">
        <ele>393.5064962627366</ele>
        <time>2022-03-11T09:58:11Z</time>
      </trkpt>
      <trkpt lat="34.31293529636653" lon="109.0258190389578">
        <ele>393.46171153336763</ele>
        <time>2022-03-11T09:58:13Z</time>
      </trkpt>
      <trkpt lat="34.31339027423109" lon="109.02562062429715">
        <ele>392.31268522143364</ele>
        <time>2022-03-11T09:58:23Z</time>
      </trkpt>
      <trkpt lat="34.3136959858226" lon="109.0255143759027">
        <ele>392.1068893466145</ele>
        <time>2022-03-11T09:58:29Z</time>
      </trkpt>
      <trkpt lat="34.31407349718307" lon="109.02533912286965">
        <ele>391.67032096814364</ele>
        <time>2022-03-11T09:58:37Z</time>
      </trkpt>
      <trkpt lat="34.31451313728812" lon="109.0250725811096">
        <ele>391.80345007777214</ele>
        <time>2022-03-11T09:58:47Z</time>
      </trkpt>
      <trkpt lat="34.31459714040209" lon="109.02503482868404">
        <ele>392.45118160452694</ele>
        <time>2022-03-11T09:58:49Z</time>
      </trkpt>
      <trkpt lat="34.31504518892782" lon="109.02471927428495">
        <ele>390.4347816891968</ele>
        <time>2022-03-11T09:58:59Z</time>
      </trkpt>
      <trkpt lat="34.31551365167417" lon="109.02440903491342">
        <ele>390.1843185303733</ele>
        <time>2022-03-11T09:59:09Z</time>
      </trkpt>
      <trkpt lat="34.31580876867519" lon="109.02422058115152">
        <ele>390.79423556663096</ele>
        <time>2022-03-11T09:59:15Z</time>
      </trkpt>
      <trkpt lat="34.31610922373957" lon="109.02408643810222">
        <ele>391.1361697129905</ele>
        <time>2022-03-11T09:59:21Z</time>
      </trkpt>
      <trkpt lat="34.3161857579625" lon="109.02402295567099">
        <ele>390.9155583465472</ele>
        <time>2022-03-11T09:59:23Z</time>
      </trkpt>
      <trkpt lat="34.31615640843376" lon="109.02385915173582">
        <ele>391.57206124439836</ele>
        <time>2022-03-11T09:59:27Z</time>
      </trkpt>
      <trkpt lat="34.31611097172985" lon="109.02375452930647">
        <ele>390.52851372770965</ele>
        <time>2022-03-11T09:59:31Z</time>
      </trkpt>
      <trkpt lat="34.31615946197985" lon="109.02371927331501">
        <ele>389.62861123122275</ele>
        <time>2022-03-11T09:59:41Z</time>
      </trkpt>
      <trkpt lat="34.316307735734036" lon="109.02360302687639">
        <ele>389.608580426313</ele>
        <time>2022-03-11T10:00:18Z</time>
      </trkpt>
      <trkpt lat="34.31628334813826" lon="109.02344041450282">
        <ele>388.9116838676855</ele>
        <time>2022-03-11T10:00:22Z</time>
      </trkpt>
      <trkpt lat="34.31612072297633" lon="109.02301950331774">
        <ele>388.75365516357124</ele>
        <time>2022-03-11T10:00:32Z</time>
      </trkpt>
      <trkpt lat="34.3160573203069" lon="109.02294958953135">
        <ele>388.52455204632133</ele>
        <time>2022-03-11T10:00:34Z</time>
      </trkpt>
      <trkpt lat="34.3158615379218" lon="109.02250806601505">
        <ele>388.6456187432632</ele>
        <time>2022-03-11T10:00:44Z</time>
      </trkpt>
      <trkpt lat="34.315821626639995" lon="109.0223712555722">
        <ele>389.4454483874142</ele>
        <time>2022-03-11T10:00:48Z</time>
      </trkpt>
      <trkpt lat="34.31587622723383" lon="109.02216723296608">
        <ele>390.2598996087909</ele>
        <time>2022-03-11T10:01:02Z</time>
      </trkpt>
      <trkpt lat="34.31592251921639" lon="109.02206634316249">
        <ele>391.5517328279093</ele>
        <time>2022-03-11T10:01:06Z</time>
      </trkpt>
      <trkpt lat="34.31590239332811" lon="109.0219754146022">
        <ele>391.5622357027605</ele>
        <time>2022-03-11T10:01:08Z</time>
      </trkpt>
      <trkpt lat="34.31589372717885" lon="109.02153158369144">
        <ele>393.06114786025137</ele>
        <time>2022-03-11T10:01:18Z</time>
      </trkpt>
      <trkpt lat="34.3158798001939" lon="109.02143607018174">
        <ele>393.66704683564603</ele>
        <time>2022-03-11T10:01:20Z</time>
      </trkpt>
      <trkpt lat="34.3158981493596" lon="109.02133167801304">
        <ele>394.1147673195228</ele>
        <time>2022-03-11T10:01:22Z</time>
      </trkpt>
      <trkpt lat="34.31588066071675" lon="109.02124536753786">
        <ele>393.76053854916245</ele>
        <time>2022-03-11T10:01:24Z</time>
      </trkpt>
      <trkpt lat="34.31587142805714" lon="109.020685398542">
        <ele>396.27787838038057</ele>
        <time>2022-03-11T10:01:36Z</time>
      </trkpt>
      <trkpt lat="34.315857334344976" lon="109.02048778785648">
        <ele>397.08742735534906</ele>
        <time>2022-03-11T10:01:40Z</time>
      </trkpt>
      <trkpt lat="34.315868746923925" lon="109.02019430507936">
        <ele>398.30755917169154</ele>
        <time>2022-03-11T10:01:46Z</time>
      </trkpt>
      <trkpt lat="34.31585646344392" lon="109.0199904548333">
        <ele>398.4211941510439</ele>
        <time>2022-03-11T10:01:50Z</time>
      </trkpt>
      <trkpt lat="34.31586269668175" lon="109.01956629982178">
        <ele>399.24258753377944</ele>
        <time>2022-03-11T10:01:59Z</time>
      </trkpt>
      <trkpt lat="34.31584741489838" lon="109.01938377061181">
        <ele>399.88648983091116</ele>
        <time>2022-03-11T10:02:03Z</time>
      </trkpt>
      <trkpt lat="34.31586046997714" lon="109.01927937116284">
        <ele>400.39808938559145</ele>
        <time>2022-03-11T10:02:05Z</time>
      </trkpt>
      <trkpt lat="34.31582032042635" lon="109.0189443714493">
        <ele>402.1482833987102</ele>
        <time>2022-03-11T10:02:13Z</time>
      </trkpt>
      <trkpt lat="34.315861486147156" lon="109.01834755245076">
        <ele>402.5210060812533</ele>
        <time>2022-03-11T10:02:27Z</time>
      </trkpt>
      <trkpt lat="34.31587157526169" lon="109.0180880381084">
        <ele>403.04240031633526</ele>
        <time>2022-03-11T10:02:33Z</time>
      </trkpt>
      <trkpt lat="34.3158371468801" lon="109.01761976418486">
        <ele>402.9719200367108</ele>
        <time>2022-03-11T10:02:43Z</time>
      </trkpt>
      <trkpt lat="34.315776467440095" lon="109.0172166804993">
        <ele>404.7386542148888</ele>
        <time>2022-03-11T10:02:51Z</time>
      </trkpt>
      <trkpt lat="34.31578914451334" lon="109.01664307987411">
        <ele>406.8022454660386</ele>
        <time>2022-03-11T10:03:03Z</time>
      </trkpt>
      <trkpt lat="34.3157755523981" lon="109.01619034306601">
        <ele>406.77581358794123</ele>
        <time>2022-03-11T10:03:11Z</time>
      </trkpt>
      <trkpt lat="34.31578766235921" lon="109.01608565218707">
        <ele>406.8096779836342</ele>
        <time>2022-03-11T10:03:13Z</time>
      </trkpt>
      <trkpt lat="34.315766830164094" lon="109.01577719125385">
        <ele>406.96341631934047</ele>
        <time>2022-03-11T10:03:19Z</time>
      </trkpt>
      <trkpt lat="34.31582727551211" lon="109.01519051961499">
        <ele>406.7306183716282</ele>
        <time>2022-03-11T10:03:29Z</time>
      </trkpt>
      <trkpt lat="34.31586740210918" lon="109.01461155769911">
        <ele>408.9015245307237</ele>
        <time>2022-03-11T10:03:39Z</time>
      </trkpt>
      <trkpt lat="34.3158419161118" lon="109.01449366522465">
        <ele>408.52060751989484</ele>
        <time>2022-03-11T10:03:41Z</time>
      </trkpt>
      <trkpt lat="34.3158379303554" lon="109.01415992468607">
        <ele>408.1570973685011</ele>
        <time>2022-03-11T10:03:47Z</time>
      </trkpt>
      <trkpt lat="34.315808372962906" lon="109.01383476887479">
        <ele>408.2129182899371</ele>
        <time>2022-03-11T10:03:53Z</time>
      </trkpt>
      <trkpt lat="34.315816280001" lon="109.01374740170915">
        <ele>408.5058043701574</ele>
        <time>2022-03-11T10:03:55Z</time>
      </trkpt>
      <trkpt lat="34.315803257809804" lon="109.01361482111109">
        <ele>408.17059080675244</ele>
        <time>2022-03-11T10:03:57Z</time>
      </trkpt>
      <trkpt lat="34.31580250284291" lon="109.01305292500082">
        <ele>408.95462740119547</ele>
        <time>2022-03-11T10:04:07Z</time>
      </trkpt>
      <trkpt lat="34.31582832644342" lon="109.01292281617454">
        <ele>409.0268997652456</ele>
        <time>2022-03-11T10:04:09Z</time>
      </trkpt>
      <trkpt lat="34.315854212426494" lon="109.01266506571328">
        <ele>409.229232179001</ele>
        <time>2022-03-11T10:04:13Z</time>
      </trkpt>
      <trkpt lat="34.31587064078623" lon="109.01209462446421">
        <ele>408.5237254332751</ele>
        <time>2022-03-11T10:04:21Z</time>
      </trkpt>
      <trkpt lat="34.31587290630145" lon="109.01156447339852">
        <ele>408.77452413737774</ele>
        <time>2022-03-11T10:04:29Z</time>
      </trkpt>
      <trkpt lat="34.315849082279435" lon="109.01112063356348">
        <ele>408.6639448609203</ele>
        <time>2022-03-11T10:04:35Z</time>
      </trkpt>
      <trkpt lat="34.315868625403276" lon="109.01071252032143">
        <ele>407.98975500371307</ele>
        <time>2022-03-11T10:04:41Z</time>
      </trkpt>
      <trkpt lat="34.31584425552332" lon="109.01019896351897">
        <ele>408.1164867654443</ele>
        <time>2022-03-11T10:04:49Z</time>
      </trkpt>
      <trkpt lat="34.315869212705195" lon="109.00993348881543">
        <ele>408.61326931696385</ele>
        <time>2022-03-11T10:04:53Z</time>
      </trkpt>
      <trkpt lat="34.31592871657851" lon="109.00981253217581">
        <ele>408.26129133440554</ele>
        <time>2022-03-11T10:04:55Z</time>
      </trkpt>
      <trkpt lat="34.31603262652747" lon="109.00977967100019">
        <ele>407.5469691976905</ele>
        <time>2022-03-11T10:04:57Z</time>
      </trkpt>
      <trkpt lat="34.316144201095135" lon="109.00978313948485">
        <ele>408.7219131998718</ele>
        <time>2022-03-11T10:04:59Z</time>
      </trkpt>
      <trkpt lat="34.31635623283302" lon="109.00973848399539">
        <ele>408.77920717094094</ele>
        <time>2022-03-11T10:05:03Z</time>
      </trkpt>
      <trkpt lat="34.31668426707588" lon="109.00972014419054">
        <ele>408.3802375085652</ele>
        <time>2022-03-11T10:05:09Z</time>
      </trkpt>
      <trkpt lat="34.31718029811732" lon="109.00964358271362">
        <ele>409.8652717024088</ele>
        <time>2022-03-11T10:05:19Z</time>
      </trkpt>
      <trkpt lat="34.31762683506215" lon="109.0096212816195">
        <ele>410.14027939364314</ele>
        <time>2022-03-11T10:05:29Z</time>
      </trkpt>
      <trkpt lat="34.317833561166374" lon="109.00962441235673">
        <ele>410.98074320796877</ele>
        <time>2022-03-11T10:05:33Z</time>
      </trkpt>
      <trkpt lat="34.31793356918273" lon="109.00960935678135">
        <ele>410.2604501154274</ele>
        <time>2022-03-11T10:05:35Z</time>
      </trkpt>
      <trkpt lat="34.318135544758974" lon="109.00963012343479">
        <ele>410.0493174660951</ele>
        <time>2022-03-11T10:05:39Z</time>
      </trkpt>
      <trkpt lat="34.318558039592695" lon="109.00954451121459">
        <ele>408.6842020275071</ele>
        <time>2022-03-11T10:05:47Z</time>
      </trkpt>
      <trkpt lat="34.31890512548635" lon="109.00954700313567">
        <ele>407.81530118267983</ele>
        <time>2022-03-11T10:05:53Z</time>
      </trkpt>
      <trkpt lat="34.319410687440175" lon="109.00959408642468">
        <ele>407.76006566453725</ele>
        <time>2022-03-11T10:06:01Z</time>
      </trkpt>
      <trkpt lat="34.31964843796587" lon="109.00960183031255">
        <ele>406.9429856231436</ele>
        <time>2022-03-11T10:06:05Z</time>
      </trkpt>
      <trkpt lat="34.32009304851827" lon="109.00957471795702">
        <ele>406.74582462385297</ele>
        <time>2022-03-11T10:06:13Z</time>
      </trkpt>
      <trkpt lat="34.32019896953353" lon="109.00957134544379">
        <ele>407.06362232379615</ele>
        <time>2022-03-11T10:06:15Z</time>
      </trkpt>
      <trkpt lat="34.32031465511009" lon="109.0095909671906">
        <ele>406.59111149795353</ele>
        <time>2022-03-11T10:06:17Z</time>
      </trkpt>
      <trkpt lat="34.32057364693607" lon="109.00954146697656">
        <ele>404.3663324760273</ele>
        <time>2022-03-11T10:06:21Z</time>
      </trkpt>
      <trkpt lat="34.32110217248367" lon="109.00959206386878">
        <ele>404.11376277823</ele>
        <time>2022-03-11T10:06:29Z</time>
      </trkpt>
      <trkpt lat="34.3215076819539" lon="109.00960407979949">
        <ele>402.16538210585713</ele>
        <time>2022-03-11T10:06:35Z</time>
      </trkpt>
      <trkpt lat="34.32191246405281" lon="109.00959437720991">
        <ele>401.13238130137324</ele>
        <time>2022-03-11T10:06:41Z</time>
      </trkpt>
      <trkpt lat="34.32244346485641" lon="109.00959501194035">
        <ele>398.99425703380257</ele>
        <time>2022-03-11T10:06:49Z</time>
      </trkpt>
      <trkpt lat="34.32257111054965" lon="109.00958887472021">
        <ele>399.2588227391243</ele>
        <time>2022-03-11T10:06:51Z</time>
      </trkpt>
      <trkpt lat="34.32268303442666" lon="109.00956011092998">
        <ele>399.0491239540279</ele>
        <time>2022-03-11T10:06:53Z</time>
      </trkpt>
      <trkpt lat="34.322800247350045" lon="109.00956111620036">
        <ele>400.02049275580794</ele>
        <time>2022-03-11T10:06:55Z</time>
      </trkpt>
      <trkpt lat="34.323282652296434" lon="109.00946756068453">
        <ele>398.2731271041557</ele>
        <time>2022-03-11T10:07:03Z</time>
      </trkpt>
      <trkpt lat="34.32377378092468" lon="109.00934420795623">
        <ele>396.3969900747761</ele>
        <time>2022-03-11T10:07:11Z</time>
      </trkpt>
      <trkpt lat="34.32389133152695" lon="109.0093255085895">
        <ele>396.30907353106886</ele>
        <time>2022-03-11T10:07:13Z</time>
      </trkpt>
      <trkpt lat="34.32424109034762" lon="109.0091906118478">
        <ele>396.1165476869792</ele>
        <time>2022-03-11T10:07:19Z</time>
      </trkpt>
      <trkpt lat="34.32436580398194" lon="109.00918000604591">
        <ele>396.34486792236567</ele>
        <time>2022-03-11T10:07:21Z</time>
      </trkpt>
      <trkpt lat="34.32477151186876" lon="109.00899273113811">
        <ele>394.2344368128106</ele>
        <time>2022-03-11T10:07:29Z</time>
      </trkpt>
      <trkpt lat="34.32500028793999" lon="109.00891449085913">
        <ele>394.6347411572933</ele>
        <time>2022-03-11T10:07:33Z</time>
      </trkpt>
      <trkpt lat="34.32544637819604" lon="109.00870921185124">
        <ele>394.18999272212386</ele>
        <time>2022-03-11T10:07:41Z</time>
      </trkpt>
      <trkpt lat="34.32577124706264" lon="109.00854841891403">
        <ele>393.64572251867503</ele>
        <time>2022-03-11T10:07:47Z</time>
      </trkpt>
      <trkpt lat="34.32616263298727" lon="109.00830008350286">
        <ele>393.9375182185322</ele>
        <time>2022-03-11T10:07:55Z</time>
      </trkpt>
      <trkpt lat="34.32635293566186" lon="109.00814913349654">
        <ele>394.33241248317063</ele>
        <time>2022-03-11T10:07:59Z</time>
      </trkpt>
      <trkpt lat="34.32674119547113" lon="109.00790524965247">
        <ele>393.6295938612893</ele>
        <time>2022-03-11T10:08:07Z</time>
      </trkpt>
      <trkpt lat="34.32693387200102" lon="109.00779298911243">
        <ele>393.75278939306736</ele>
        <time>2022-03-11T10:08:11Z</time>
      </trkpt>
      <trkpt lat="34.32739068633798" lon="109.00745299288272">
        <ele>393.13541342690587</ele>
        <time>2022-03-11T10:08:21Z</time>
      </trkpt>
      <trkpt lat="34.327743443444874" lon="109.00720153657315">
        <ele>393.4291483396664</ele>
        <time>2022-03-11T10:08:29Z</time>
      </trkpt>
      <trkpt lat="34.32793478979951" lon="109.00709780097874">
        <ele>393.35632206033915</ele>
        <time>2022-03-11T10:08:33Z</time>
      </trkpt>
      <trkpt lat="34.327998986949254" lon="109.0070216645305">
        <ele>393.5991974296048</ele>
        <time>2022-03-11T10:08:35Z</time>
      </trkpt>
      <trkpt lat="34.32802927916886" lon="109.00642604530086">
        <ele>393.36412054207176</ele>
        <time>2022-03-11T10:08:45Z</time>
      </trkpt>
      <trkpt lat="34.32803532340201" lon="109.00589551459188">
        <ele>392.73272135667503</ele>
        <time>2022-03-11T10:08:53Z</time>
      </trkpt>
      <trkpt lat="34.327968941359934" lon="109.00538692423135">
        <ele>393.3956551356241</ele>
        <time>2022-03-11T10:09:01Z</time>
      </trkpt>
      <trkpt lat="34.327886340874585" lon="109.00500261800178">
        <ele>393.42736551258713</ele>
        <time>2022-03-11T10:09:07Z</time>
      </trkpt>
      <trkpt lat="34.327889367899196" lon="109.00488814420027">
        <ele>392.9344695452601</ele>
        <time>2022-03-11T10:09:09Z</time>
      </trkpt>
      <trkpt lat="34.327838106476634" lon="109.0046480795181">
        <ele>391.864283811301</ele>
        <time>2022-03-11T10:09:13Z</time>
      </trkpt>
      <trkpt lat="34.32783009916524" lon="109.00435549108101">
        <ele>393.4210901511833</ele>
        <time>2022-03-11T10:09:17Z</time>
      </trkpt>
      <trkpt lat="34.327885833665384" lon="109.00382296315638">
        <ele>392.82443011552095</ele>
        <time>2022-03-11T10:09:25Z</time>
      </trkpt>
      <trkpt lat="34.32787306943583" lon="109.00334038150464">
        <ele>392.85831872932613</ele>
        <time>2022-03-11T10:09:33Z</time>
      </trkpt>
      <trkpt lat="34.327858237274675" lon="109.0032132713568">
        <ele>392.68379178643227</ele>
        <time>2022-03-11T10:09:35Z</time>
      </trkpt>
      <trkpt lat="34.327870117964466" lon="109.00307173759556">
        <ele>392.58199579641223</ele>
        <time>2022-03-11T10:09:37Z</time>
      </trkpt>
      <trkpt lat="34.32784755414613" lon="109.00265280625183">
        <ele>392.68429269548506</ele>
        <time>2022-03-11T10:09:43Z</time>
      </trkpt>
      <trkpt lat="34.32780576130973" lon="109.00240106254554">
        <ele>392.335049293004</ele>
        <time>2022-03-11T10:09:47Z</time>
      </trkpt>
      <trkpt lat="34.327817067143094" lon="109.00228144134857">
        <ele>392.9672453571111</ele>
        <time>2022-03-11T10:09:49Z</time>
      </trkpt>
      <trkpt lat="34.32781106979025" lon="109.001644496686">
        <ele>392.9300760468468</ele>
        <time>2022-03-11T10:09:59Z</time>
      </trkpt>
      <trkpt lat="34.32781141969764" lon="109.00139548798423">
        <ele>393.009047370404</ele>
        <time>2022-03-11T10:10:03Z</time>
      </trkpt>
      <trkpt lat="34.32778321423653" lon="109.00128418275038">
        <ele>392.318664339371</ele>
        <time>2022-03-11T10:10:05Z</time>
      </trkpt>
      <trkpt lat="34.32777932809277" lon="109.0009374732041">
        <ele>393.47129469178617</ele>
        <time>2022-03-11T10:10:11Z</time>
      </trkpt>
      <trkpt lat="34.32774835165885" lon="109.00083620775143">
        <ele>393.80254142545164</ele>
        <time>2022-03-11T10:10:13Z</time>
      </trkpt>
      <trkpt lat="34.32771399610508" lon="109.00034193436291">
        <ele>392.32816996984184</ele>
        <time>2022-03-11T10:10:21Z</time>
      </trkpt>
      <trkpt lat="34.32769158509756" lon="109.0002199053233">
        <ele>392.90627383999527</ele>
        <time>2022-03-11T10:10:23Z</time>
      </trkpt>
      <trkpt lat="34.32770972649042" lon="108.99997229200532">
        <ele>391.3993171053007</ele>
        <time>2022-03-11T10:10:27Z</time>
      </trkpt>
      <trkpt lat="34.327689741326175" lon="108.99963442534138">
        <ele>391.6779135465622</ele>
        <time>2022-03-11T10:10:33Z</time>
      </trkpt>
      <trkpt lat="34.32770461040335" lon="108.99949343212141">
        <ele>391.5725870942697</ele>
        <time>2022-03-11T10:10:35Z</time>
      </trkpt>
      <trkpt lat="34.32768312726771" lon="108.99910911633349">
        <ele>390.7221906995401</ele>
        <time>2022-03-11T10:10:41Z</time>
      </trkpt>
      <trkpt lat="34.32764699932897" lon="108.99902661973024">
        <ele>390.8115632645786</ele>
        <time>2022-03-11T10:10:43Z</time>
      </trkpt>
      <trkpt lat="34.32760495746604" lon="108.99875230729117">
        <ele>391.1242827465758</ele>
        <time>2022-03-11T10:10:47Z</time>
      </trkpt>
      <trkpt lat="34.327565999605284" lon="108.99863284762114">
        <ele>391.3825841229409</ele>
        <time>2022-03-11T10:10:49Z</time>
      </trkpt>
      <trkpt lat="34.327543886873585" lon="108.99834097251914">
        <ele>391.9578845947981</ele>
        <time>2022-03-11T10:10:53Z</time>
      </trkpt>
      <trkpt lat="34.32758547571969" lon="108.99791174580459">
        <ele>393.38850778061897</ele>
        <time>2022-03-11T10:10:59Z</time>
      </trkpt>
      <trkpt lat="34.32757852409211" lon="108.99777920850663">
        <ele>393.9500698717311</ele>
        <time>2022-03-11T10:11:01Z</time>
      </trkpt>
      <trkpt lat="34.32761946340529" lon="108.9976184477539">
        <ele>394.3622109340504</ele>
        <time>2022-03-11T10:11:03Z</time>
      </trkpt>
      <trkpt lat="34.32763749710398" lon="108.99733858845211">
        <ele>393.7497171955183</ele>
        <time>2022-03-11T10:11:07Z</time>
      </trkpt>
      <trkpt lat="34.327698766140266" lon="108.99693757246831">
        <ele>393.66527598537505</ele>
        <time>2022-03-11T10:11:13Z</time>
      </trkpt>
      <trkpt lat="34.327722474713774" lon="108.99658254154726">
        <ele>393.3145724022761</ele>
        <time>2022-03-11T10:11:19Z</time>
      </trkpt>
      <trkpt lat="34.32785943137124" lon="108.99625638694084">
        <ele>394.9378276858479</ele>
        <time>2022-03-11T10:11:23Z</time>
      </trkpt>
      <trkpt lat="34.32793689920872" lon="108.99563586458021">
        <ele>394.27312550041825</ele>
        <time>2022-03-11T10:11:33Z</time>
      </trkpt>
      <trkpt lat="34.327945737110205" lon="108.99503328546226">
        <ele>394.019367640838</ele>
        <time>2022-03-11T10:11:43Z</time>
      </trkpt>
      <trkpt lat="34.327937925302244" lon="108.99441396094907">
        <ele>392.86252118553966</ele>
        <time>2022-03-11T10:11:53Z</time>
      </trkpt>
      <trkpt lat="34.32792481291398" lon="108.99378465849658">
        <ele>394.1170493476093</ele>
        <time>2022-03-11T10:12:03Z</time>
      </trkpt>
      <trkpt lat="34.32791673470137" lon="108.9932566200237">
        <ele>393.6292627956718</ele>
        <time>2022-03-11T10:12:11Z</time>
      </trkpt>
      <trkpt lat="34.3279189736404" lon="108.99292036835304">
        <ele>394.0592534709722</ele>
        <time>2022-03-11T10:12:17Z</time>
      </trkpt>
      <trkpt lat="34.32793560026469" lon="108.99277312681085">
        <ele>393.3301514806226</ele>
        <time>2022-03-11T10:12:19Z</time>
      </trkpt>
      <trkpt lat="34.327924465083534" lon="108.99257039136087">
        <ele>394.8309974623844</ele>
        <time>2022-03-11T10:12:23Z</time>
      </trkpt>
      <trkpt lat="34.327949973667856" lon="108.99240992222984">
        <ele>393.4905495652929</ele>
        <time>2022-03-11T10:12:25Z</time>
      </trkpt>
      <trkpt lat="34.32799209996529" lon="108.99230742655463">
        <ele>393.4520022775978</ele>
        <time>2022-03-11T10:12:27Z</time>
      </trkpt>
      <trkpt lat="34.32793993805532" lon="108.99217211868903">
        <ele>392.57325252424926</ele>
        <time>2022-03-11T10:12:29Z</time>
      </trkpt>
      <trkpt lat="34.327938447220795" lon="108.99190641477699">
        <ele>392.3936656434089</ele>
        <time>2022-03-11T10:12:33Z</time>
      </trkpt>
      <trkpt lat="34.32792399439857" lon="108.99178108766452">
        <ele>392.5620256708935</ele>
        <time>2022-03-11T10:12:35Z</time>
      </trkpt>
      <trkpt lat="34.32797841885511" lon="108.99125092536312">
        <ele>392.3784383367747</ele>
        <time>2022-03-11T10:12:43Z</time>
      </trkpt>
      <trkpt lat="34.32799583483558" lon="108.9911253110432">
        <ele>392.4386783875525</ele>
        <time>2022-03-11T10:12:45Z</time>
      </trkpt>
      <trkpt lat="34.327983719220775" lon="108.9910197955902">
        <ele>391.88070059381425</ele>
        <time>2022-03-11T10:12:47Z</time>
      </trkpt>
      <trkpt lat="34.32795637857058" lon="108.99093163266788">
        <ele>392.02602988667786</ele>
        <time>2022-03-11T10:12:49Z</time>
      </trkpt>
      <trkpt lat="34.32795827156708" lon="108.99083391218346">
        <ele>391.9375051930547</ele>
        <time>2022-03-11T10:12:51Z</time>
      </trkpt>
      <trkpt lat="34.32799891862199" lon="108.99054879468147">
        <ele>391.94409805256873</ele>
        <time>2022-03-11T10:12:55Z</time>
      </trkpt>
      <trkpt lat="34.32798547116603" lon="108.99001711190851">
        <ele>392.3988127736375</ele>
        <time>2022-03-11T10:13:03Z</time>
      </trkpt>
      <trkpt lat="34.32799494578868" lon="108.98975909678965">
        <ele>391.7795625021681</ele>
        <time>2022-03-11T10:13:07Z</time>
      </trkpt>
      <trkpt lat="34.32797026921771" lon="108.98963113903807">
        <ele>391.1790212225169</ele>
        <time>2022-03-11T10:13:09Z</time>
      </trkpt>
      <trkpt lat="34.32796908513211" lon="108.98913091377483">
        <ele>390.7526729684323</ele>
        <time>2022-03-11T10:13:17Z</time>
      </trkpt>
      <trkpt lat="34.327866044506926" lon="108.98873966126386">
        <ele>390.1427711993456</ele>
        <time>2022-03-11T10:13:23Z</time>
      </trkpt>
      <trkpt lat="34.32785692085095" lon="108.98860690241878">
        <ele>391.2247233595699</ele>
        <time>2022-03-11T10:13:25Z</time>
      </trkpt>
      <trkpt lat="34.32786594794584" lon="108.98833458054713">
        <ele>391.02059569209814</ele>
        <time>2022-03-11T10:13:29Z</time>
      </trkpt>
      <trkpt lat="34.327874325018264" lon="108.98794418041759">
        <ele>392.20826068148017</ele>
        <time>2022-03-11T10:13:35Z</time>
      </trkpt>
      <trkpt lat="34.327855925913404" lon="108.98737065331737">
        <ele>394.2358977124095</ele>
        <time>2022-03-11T10:13:45Z</time>
      </trkpt>
      <trkpt lat="34.32784484538695" lon="108.98712378376229">
        <ele>393.127697031945</ele>
        <time>2022-03-11T10:13:49Z</time>
      </trkpt>
      <trkpt lat="34.32785961420986" lon="108.98688429188005">
        <ele>393.4661424802616</ele>
        <time>2022-03-11T10:13:53Z</time>
      </trkpt>
      <trkpt lat="34.327825438325554" lon="108.98661891490077">
        <ele>392.93519972637296</ele>
        <time>2022-03-11T10:13:57Z</time>
      </trkpt>
      <trkpt lat="34.327801366789316" lon="108.98619090431697">
        <ele>392.26934145204723</ele>
        <time>2022-03-11T10:14:03Z</time>
      </trkpt>
      <trkpt lat="34.32781354815549" lon="108.98593023181931">
        <ele>391.2946909600869</ele>
        <time>2022-03-11T10:14:07Z</time>
      </trkpt>
      <trkpt lat="34.32785214791745" lon="108.98581095068226">
        <ele>391.5868048192933</ele>
        <time>2022-03-11T10:14:09Z</time>
      </trkpt>
      <trkpt lat="34.32786862498806" lon="108.98568262482667">
        <ele>391.9086160529405</ele>
        <time>2022-03-11T10:14:11Z</time>
      </trkpt>
      <trkpt lat="34.327847938134724" lon="108.98555477906883">
        <ele>391.118043826893</ele>
        <time>2022-03-11T10:14:13Z</time>
      </trkpt>
      <trkpt lat="34.32792752267125" lon="108.98503293834973">
        <ele>391.0817970940843</ele>
        <time>2022-03-11T10:14:21Z</time>
      </trkpt>
      <trkpt lat="34.32799374620068" lon="108.98435161086553">
        <ele>392.39010691456497</ele>
        <time>2022-03-11T10:14:33Z</time>
      </trkpt>
      <trkpt lat="34.32802760789732" lon="108.98377077066311">
        <ele>391.6014404511079</ele>
        <time>2022-03-11T10:14:43Z</time>
      </trkpt>
      <trkpt lat="34.32803934647913" lon="108.98334258631081">
        <ele>392.6914480533451</ele>
        <time>2022-03-11T10:14:51Z</time>
      </trkpt>
      <trkpt lat="34.32802770542454" lon="108.98324311773843">
        <ele>393.3718739701435</ele>
        <time>2022-03-11T10:14:53Z</time>
      </trkpt>
      <trkpt lat="34.32801674368107" lon="108.98269787311182">
        <ele>394.2396165523678</ele>
        <time>2022-03-11T10:15:03Z</time>
      </trkpt>
      <trkpt lat="34.32801945941999" lon="108.9825760119118">
        <ele>393.6754864118993</ele>
        <time>2022-03-11T10:15:05Z</time>
      </trkpt>
      <trkpt lat="34.328002465117116" lon="108.98247536532082">
        <ele>394.67285016644746</ele>
        <time>2022-03-11T10:15:07Z</time>
      </trkpt>
      <trkpt lat="34.328016398689314" lon="108.982359242562">
        <ele>394.64864876586944</ele>
        <time>2022-03-11T10:15:09Z</time>
      </trkpt>
      <trkpt lat="34.32801122784603" lon="108.98222652664253">
        <ele>393.9920610114932</ele>
        <time>2022-03-11T10:15:11Z</time>
      </trkpt>
      <trkpt lat="34.32798942158584" lon="108.98211948826385">
        <ele>394.0715191215277</ele>
        <time>2022-03-11T10:15:13Z</time>
      </trkpt>
      <trkpt lat="34.328014704621125" lon="108.98201468052181">
        <ele>394.50366984680295</ele>
        <time>2022-03-11T10:15:15Z</time>
      </trkpt>
      <trkpt lat="34.327967282399506" lon="108.9819289879804">
        <ele>394.1934500159696</ele>
        <time>2022-03-11T10:15:17Z</time>
      </trkpt>
      <trkpt lat="34.327964508601234" lon="108.9816567228705">
        <ele>394.1799296932295</ele>
        <time>2022-03-11T10:15:29Z</time>
      </trkpt>
      <trkpt lat="34.32798194629267" lon="108.98157154333678">
        <ele>394.37103986088187</ele>
        <time>2022-03-11T10:15:31Z</time>
      </trkpt>
      <trkpt lat="34.32796671616503" lon="108.98148058116597">
        <ele>394.9504987653345</ele>
        <time>2022-03-11T10:15:33Z</time>
      </trkpt>
      <trkpt lat="34.32802211603894" lon="108.98134333524433">
        <ele>394.94059007707983</ele>
        <time>2022-03-11T10:15:37Z</time>
      </trkpt>
      <trkpt lat="34.32797875114943" lon="108.98124026065128">
        <ele>395.84727479703724</ele>
        <time>2022-03-11T10:15:43Z</time>
      </trkpt>
      <trkpt lat="34.32804339370439" lon="108.98117467721596">
        <ele>394.7431235052645</ele>
        <time>2022-03-11T10:15:49Z</time>
      </trkpt>
      <trkpt lat="34.32812391473606" lon="108.98114337279321">
        <ele>394.60241150762886</ele>
        <time>2022-03-11T10:15:57Z</time>
      </trkpt>
      <trkpt lat="34.328143652463176" lon="108.98105438471518">
        <ele>394.6793019454926</ele>
        <time>2022-03-11T10:16:05Z</time>
      </trkpt>
      <trkpt lat="34.3281315249922" lon="108.98095115822635">
        <ele>395.30658619850874</ele>
        <time>2022-03-11T10:16:11Z</time>
      </trkpt>
      <trkpt lat="34.328206096474126" lon="108.9807731374943">
        <ele>395.5162789579481</ele>
        <time>2022-03-11T10:16:29Z</time>
      </trkpt>
      <trkpt lat="34.32828008659165" lon="108.98076481951797">
        <ele>395.3254513591528</ele>
        <time>2022-03-11T10:16:41Z</time>
      </trkpt>
      <trkpt lat="34.328517224282166" lon="108.98081873471783">
        <ele>395.8752223039046</ele>
        <time>2022-03-11T10:16:59Z</time>
      </trkpt>
      <trkpt lat="34.328565397053595" lon="108.98091540244877">
        <ele>395.4363444177434</ele>
        <time>2022-03-11T10:17:07Z</time>
      </trkpt>
      <trkpt lat="34.328576778140004" lon="108.98105053499087">
        <ele>395.1324975732714</ele>
        <time>2022-03-11T10:17:27Z</time>
      </trkpt>
      <trkpt lat="34.328703504725645" lon="108.98092996468496">
        <ele>395.19284259621054</ele>
        <time>2022-03-11T10:18:16Z</time>
      </trkpt>
      <trkpt lat="34.32868067451578" lon="108.98082133705921">
        <ele>395.00425050314516</ele>
        <time>2022-03-11T10:18:22Z</time>
      </trkpt>
      <trkpt lat="34.32863766576913" lon="108.9807442650128">
        <ele>395.1073369793594</ele>
        <time>2022-03-11T10:18:28Z</time>
      </trkpt>
      <trkpt lat="34.328637305710494" lon="108.98065175233148">
        <ele>395.23977653309703</ele>
        <time>2022-03-11T10:18:34Z</time>
      </trkpt>
      <trkpt lat="34.3285816520089" lon="108.98046693842274">
        <ele>395.50044827349484</ele>
        <time>2022-03-11T10:18:47Z</time>
      </trkpt>
      <trkpt lat="34.3285773847757" lon="108.980375741063">
        <ele>395.5038820784539</ele>
        <time>2022-03-11T10:18:53Z</time>
      </trkpt>
      <trkpt lat="34.328597702106805" lon="108.98034048639988">
        <ele>395.8195230923593</ele>
        <time>2022-03-11T10:19:02Z</time>
      </trkpt>
    </trkseg>
  </trk>
</gpx>