<?xml version="1.0" encoding="UTF-8"?>
<gpx xmlns="http://www.topografix.com/GPX/1/1" xmlns:gpxtpx="http://www.garmin.com/xmlschemas/TrackPointExtension/v1" xmlns:xsi="http://www.w3.org/2001/XMLSchema-instance" xsi:schemaLocation="http://www.topografix.com/GPX/1/1 http://www.topografix.com/GPX/1/1/gpx.xsd" version="1.1" creator="gpx.py -- https://github.com/tkrajina/gpxpy">
  <trk>
    <name>gpx from keep</name>
    <type>Ride</type>
    <trkseg>
      <trkpt lat="34.306772672889885" lon="109.03721558064316">
        <ele>392.68732974212617</ele>
        <time>2022-03-25T10:38:08Z</time>
      </trkpt>
      <trkpt lat="34.30670209938104" lon="109.03711685449859">
        <ele>392.31689942255616</ele>
        <time>2022-03-25T10:38:14Z</time>
      </trkpt>
      <trkpt lat="34.30664209978444" lon="109.03706313432532">
        <ele>392.2717655710876</ele>
        <time>2022-03-25T10:38:25Z</time>
      </trkpt>
      <trkpt lat="34.30662157313388" lon="109.03709687605448">
        <ele>392.06849378719926</ele>
        <time>2022-03-25T10:38:32Z</time>
      </trkpt>
      <trkpt lat="34.30662744955465" lon="109.03693585253">
        <ele>392.43661724217236</ele>
        <time>2022-03-25T10:38:51Z</time>
      </trkpt>
      <trkpt lat="34.306569275360616" lon="109.03658596765248">
        <ele>391.8717063963413</ele>
        <time>2022-03-25T10:39:19Z</time>
      </trkpt>
      <trkpt lat="34.3065188652578" lon="109.03651103805919">
        <ele>391.7431927341968</ele>
        <time>2022-03-25T10:39:34Z</time>
      </trkpt>
      <trkpt lat="34.30653109865837" lon="109.03648562388553">
        <ele>391.45029646065086</ele>
        <time>2022-03-25T10:39:44Z</time>
      </trkpt>
      <trkpt lat="34.30660261626638" lon="109.03624789596849">
        <ele>392.23544190078974</ele>
        <time>2022-03-25T10:40:28Z</time>
      </trkpt>
      <trkpt lat="34.3065366198951" lon="109.03600416342341">
        <ele>391.791552384384</ele>
        <time>2022-03-25T10:40:34Z</time>
      </trkpt>
      <trkpt lat="34.30647118200147" lon="109.03585465630843">
        <ele>391.3355318913236</ele>
        <time>2022-03-25T10:40:38Z</time>
      </trkpt>
      <trkpt lat="34.30650499722134" lon="109.03568684885771">
        <ele>391.5599385909736</ele>
        <time>2022-03-25T10:40:42Z</time>
      </trkpt>
      <trkpt lat="34.30650826838661" lon="109.03559989937557">
        <ele>392.80271297041327</ele>
        <time>2022-03-25T10:40:44Z</time>
      </trkpt>
      <trkpt lat="34.306451914877755" lon="109.03533309367708">
        <ele>391.77163724042475</ele>
        <time>2022-03-25T10:40:50Z</time>
      </trkpt>
      <trkpt lat="34.306444144845194" lon="109.03511880118897">
        <ele>391.98238252382725</ele>
        <time>2022-03-25T10:40:54Z</time>
      </trkpt>
      <trkpt lat="34.30641137097609" lon="109.0349291935874">
        <ele>389.8582003340125</ele>
        <time>2022-03-25T10:40:58Z</time>
      </trkpt>
      <trkpt lat="34.30643099240544" lon="109.03459725534896">
        <ele>392.64911546651274</ele>
        <time>2022-03-25T10:41:05Z</time>
      </trkpt>
      <trkpt lat="34.306395658037275" lon="109.03409760543349">
        <ele>392.67018900997937</ele>
        <time>2022-03-25T10:41:15Z</time>
      </trkpt>
      <trkpt lat="34.30634342699896" lon="109.0338109719198">
        <ele>391.7638227818534</ele>
        <time>2022-03-25T10:41:21Z</time>
      </trkpt>
      <trkpt lat="34.30625411996927" lon="109.03353398230063">
        <ele>390.36982667725533</ele>
        <time>2022-03-25T10:41:27Z</time>
      </trkpt>
      <trkpt lat="34.30627131242585" lon="109.03314339058024">
        <ele>392.9677781909704</ele>
        <time>2022-03-25T10:41:35Z</time>
      </trkpt>
      <trkpt lat="34.3063062204698" lon="109.03262315127073">
        <ele>392.9253295203671</ele>
        <time>2022-03-25T10:41:45Z</time>
      </trkpt>
      <trkpt lat="34.30628410900795" lon="109.0323173829469">
        <ele>392.5661437790841</ele>
        <time>2022-03-25T10:41:51Z</time>
      </trkpt>
      <trkpt lat="34.30622143876879" lon="109.0319205806054">
        <ele>393.1166361561045</ele>
        <time>2022-03-25T10:41:59Z</time>
      </trkpt>
      <trkpt lat="34.30615972757306" lon="109.03172706219632">
        <ele>394.0294563835487</ele>
        <time>2022-03-25T10:42:03Z</time>
      </trkpt>
      <trkpt lat="34.30608226013176" lon="109.03155602719524">
        <ele>393.1725955940783</ele>
        <time>2022-03-25T10:42:07Z</time>
      </trkpt>
      <trkpt lat="34.306067919386145" lon="109.03123682380466">
        <ele>392.034725362435</ele>
        <time>2022-03-25T10:42:13Z</time>
      </trkpt>
      <trkpt lat="34.306186173430405" lon="109.0311274410371">
        <ele>392.53366228565574</ele>
        <time>2022-03-25T10:42:15Z</time>
      </trkpt>
      <trkpt lat="34.30662922379217" lon="109.0309764738609">
        <ele>392.06800675205886</ele>
        <time>2022-03-25T10:42:23Z</time>
      </trkpt>
      <trkpt lat="34.30709309246173" lon="109.03089196935264">
        <ele>391.5515650138259</ele>
        <time>2022-03-25T10:42:33Z</time>
      </trkpt>
      <trkpt lat="34.30718384477402" lon="109.03088332608601">
        <ele>391.9859502222389</ele>
        <time>2022-03-25T10:42:35Z</time>
      </trkpt>
      <trkpt lat="34.30725919817822" lon="109.03085575818264">
        <ele>392.2281260145828</ele>
        <time>2022-03-25T10:42:37Z</time>
      </trkpt>
      <trkpt lat="34.30754142168998" lon="109.03084603896953">
        <ele>391.9542468674481</ele>
        <time>2022-03-25T10:42:43Z</time>
      </trkpt>
      <trkpt lat="34.307629080462014" lon="109.03081963129304">
        <ele>392.63699383754283</ele>
        <time>2022-03-25T10:42:45Z</time>
      </trkpt>
      <trkpt lat="34.30770998103224" lon="109.0308200295787">
        <ele>393.54657544381917</ele>
        <time>2022-03-25T10:42:47Z</time>
      </trkpt>
      <trkpt lat="34.30779218836892" lon="109.03079490399199">
        <ele>393.50192340649664</ele>
        <time>2022-03-25T10:42:49Z</time>
      </trkpt>
      <trkpt lat="34.30788661109713" lon="109.03080209935706">
        <ele>394.42294456623495</ele>
        <time>2022-03-25T10:42:51Z</time>
      </trkpt>
      <trkpt lat="34.3082337085502" lon="109.03077020387173">
        <ele>394.50472587440163</ele>
        <time>2022-03-25T10:42:59Z</time>
      </trkpt>
      <trkpt lat="34.30832269872917" lon="109.03078013099812">
        <ele>394.55438238196075</ele>
        <time>2022-03-25T10:43:01Z</time>
      </trkpt>
      <trkpt lat="34.308493156825776" lon="109.03074472762192">
        <ele>394.437637636438</ele>
        <time>2022-03-25T10:43:05Z</time>
      </trkpt>
      <trkpt lat="34.30892296023616" lon="109.03066909454485">
        <ele>393.584454735741</ele>
        <time>2022-03-25T10:43:15Z</time>
      </trkpt>
      <trkpt lat="34.309351063408556" lon="109.0304964143087">
        <ele>393.3823923598975</ele>
        <time>2022-03-25T10:43:25Z</time>
      </trkpt>
      <trkpt lat="34.30976374608042" lon="109.03021101431773">
        <ele>392.3625377975404</ele>
        <time>2022-03-25T10:43:35Z</time>
      </trkpt>
      <trkpt lat="34.31015626551516" lon="109.02987801993943">
        <ele>393.37494082469493</ele>
        <time>2022-03-25T10:43:45Z</time>
      </trkpt>
      <trkpt lat="34.31029694828119" lon="109.02973350036797">
        <ele>393.35181217826903</ele>
        <time>2022-03-25T10:43:49Z</time>
      </trkpt>
      <trkpt lat="34.31067235438052" lon="109.0293726376719">
        <ele>391.86455389484763</ele>
        <time>2022-03-25T10:43:59Z</time>
      </trkpt>
      <trkpt lat="34.310920255918084" lon="109.02916071574022">
        <ele>391.62266736198217</ele>
        <time>2022-03-25T10:44:05Z</time>
      </trkpt>
      <trkpt lat="34.31113605658118" lon="109.02892760271781">
        <ele>390.9816364329308</ele>
        <time>2022-03-25T10:44:11Z</time>
      </trkpt>
      <trkpt lat="34.3112337923741" lon="109.02874300991995">
        <ele>391.6336340755224</ele>
        <time>2022-03-25T10:44:15Z</time>
      </trkpt>
      <trkpt lat="34.3112429671748" lon="109.02865680723009">
        <ele>391.40504923835397</ele>
        <time>2022-03-25T10:44:17Z</time>
      </trkpt>
      <trkpt lat="34.31131095660451" lon="109.02852833068145">
        <ele>391.89523226674646</ele>
        <time>2022-03-25T10:44:21Z</time>
      </trkpt>
      <trkpt lat="34.31138848963296" lon="109.0282162363343">
        <ele>391.9473331058398</ele>
        <time>2022-03-25T10:44:27Z</time>
      </trkpt>
      <trkpt lat="34.31139430799021" lon="109.02766986120821">
        <ele>392.94907214306295</ele>
        <time>2022-03-25T10:44:37Z</time>
      </trkpt>
      <trkpt lat="34.31143252522591" lon="109.02743544938383">
        <ele>392.67380671482533</ele>
        <time>2022-03-25T10:44:41Z</time>
      </trkpt>
      <trkpt lat="34.31152927887811" lon="109.02720543778332">
        <ele>391.7253581099212</ele>
        <time>2022-03-25T10:44:45Z</time>
      </trkpt>
      <trkpt lat="34.31155388214062" lon="109.02708959662269">
        <ele>391.8802457898855</ele>
        <time>2022-03-25T10:44:47Z</time>
      </trkpt>
      <trkpt lat="34.31164760823408" lon="109.0268857420067">
        <ele>391.64952212013304</ele>
        <time>2022-03-25T10:44:51Z</time>
      </trkpt>
      <trkpt lat="34.31187201857396" lon="109.02661176507026">
        <ele>391.5404088962823</ele>
        <time>2022-03-25T10:44:57Z</time>
      </trkpt>
      <trkpt lat="34.31227276716635" lon="109.02629041598205">
        <ele>392.8210859308019</ele>
        <time>2022-03-25T10:45:07Z</time>
      </trkpt>
      <trkpt lat="34.31234452696481" lon="109.02619816256414">
        <ele>393.5298638548702</ele>
        <time>2022-03-25T10:45:11Z</time>
      </trkpt>
      <trkpt lat="34.312472071946125" lon="109.02616600417">
        <ele>392.9617050914094</ele>
        <time>2022-03-25T10:45:13Z</time>
      </trkpt>
      <trkpt lat="34.31271273371808" lon="109.02600472024858">
        <ele>392.6298022372648</ele>
        <time>2022-03-25T10:45:19Z</time>
      </trkpt>
      <trkpt lat="34.31281195916724" lon="109.02587076676419">
        <ele>393.65023984760046</ele>
        <time>2022-03-25T10:45:23Z</time>
      </trkpt>
      <trkpt lat="34.31295655674462" lon="109.02574277981904">
        <ele>393.68353386223316</ele>
        <time>2022-03-25T10:45:29Z</time>
      </trkpt>
      <trkpt lat="34.313159250691236" lon="109.02572149329755">
        <ele>392.84140139538795</ele>
        <time>2022-03-25T10:45:39Z</time>
      </trkpt>
      <trkpt lat="34.31323193226857" lon="109.02574765696068">
        <ele>391.8220346076414</ele>
        <time>2022-03-25T10:45:45Z</time>
      </trkpt>
      <trkpt lat="34.313564712967974" lon="109.02558433182666">
        <ele>392.4074648981914</ele>
        <time>2022-03-25T10:45:55Z</time>
      </trkpt>
      <trkpt lat="34.31381468810679" lon="109.02548414799989">
        <ele>392.000519240275</ele>
        <time>2022-03-25T10:46:01Z</time>
      </trkpt>
      <trkpt lat="34.31399452651467" lon="109.02543722799538">
        <ele>391.8890555612743</ele>
        <time>2022-03-25T10:46:05Z</time>
      </trkpt>
      <trkpt lat="34.31437763943011" lon="109.02519464070701">
        <ele>391.288969299756</ele>
        <time>2022-03-25T10:46:15Z</time>
      </trkpt>
      <trkpt lat="34.31476423388782" lon="109.02492865401277">
        <ele>389.81965257041156</ele>
        <time>2022-03-25T10:46:25Z</time>
      </trkpt>
      <trkpt lat="34.31516970152739" lon="109.02465058161751">
        <ele>389.94279992952943</ele>
        <time>2022-03-25T10:46:35Z</time>
      </trkpt>
      <trkpt lat="34.31558509687981" lon="109.0243934113047">
        <ele>389.38304794114083</ele>
        <time>2022-03-25T10:46:45Z</time>
      </trkpt>
      <trkpt lat="34.31585400036282" lon="109.02424799464059">
        <ele>389.29230031371117</ele>
        <time>2022-03-25T10:46:51Z</time>
      </trkpt>
      <trkpt lat="34.31593716432532" lon="109.02418536881196">
        <ele>389.7700100457296</ele>
        <time>2022-03-25T10:46:53Z</time>
      </trkpt>
      <trkpt lat="34.31611278890369" lon="109.02410972668538">
        <ele>389.8001007921994</ele>
        <time>2022-03-25T10:46:57Z</time>
      </trkpt>
      <trkpt lat="34.31625322508885" lon="109.02401374423822">
        <ele>390.246249275282</ele>
        <time>2022-03-25T10:47:01Z</time>
      </trkpt>
      <trkpt lat="34.31634408333186" lon="109.0239053193907">
        <ele>389.94065437465906</ele>
        <time>2022-03-25T10:47:05Z</time>
      </trkpt>
      <trkpt lat="34.316387115395784" lon="109.02377062847361">
        <ele>390.5208069086075</ele>
        <time>2022-03-25T10:47:09Z</time>
      </trkpt>
      <trkpt lat="34.31617520059899" lon="109.02331120679399">
        <ele>389.1714812377468</ele>
        <time>2022-03-25T10:47:21Z</time>
      </trkpt>
      <trkpt lat="34.31594604598552" lon="109.02275233596899">
        <ele>388.2309645470232</ele>
        <time>2022-03-25T10:47:33Z</time>
      </trkpt>
      <trkpt lat="34.31583009054757" lon="109.02247871756302">
        <ele>388.82070185337216</ele>
        <time>2022-03-25T10:47:39Z</time>
      </trkpt>
      <trkpt lat="34.31579742729269" lon="109.02228214796781">
        <ele>389.5647601354867</ele>
        <time>2022-03-25T10:47:43Z</time>
      </trkpt>
      <trkpt lat="34.31579686689725" lon="109.02219162103236">
        <ele>389.5578380888328</ele>
        <time>2022-03-25T10:47:45Z</time>
      </trkpt>
      <trkpt lat="34.315906741091375" lon="109.02169081646738">
        <ele>391.68783300183713</ele>
        <time>2022-03-25T10:47:55Z</time>
      </trkpt>
      <trkpt lat="34.31590530135467" lon="109.02109423519512">
        <ele>393.9813853139058</ele>
        <time>2022-03-25T10:48:07Z</time>
      </trkpt>
      <trkpt lat="34.31590131842871" lon="109.02056915329491">
        <ele>394.8884299946949</ele>
        <time>2022-03-25T10:48:17Z</time>
      </trkpt>
      <trkpt lat="34.31589884889404" lon="109.02017470184593">
        <ele>395.7512364573777</ele>
        <time>2022-03-25T10:48:25Z</time>
      </trkpt>
      <trkpt lat="34.31587361226488" lon="109.0199787535155">
        <ele>397.5471327546984</ele>
        <time>2022-03-25T10:48:29Z</time>
      </trkpt>
      <trkpt lat="34.31589388572327" lon="109.01989480383413">
        <ele>397.2500517340377</ele>
        <time>2022-03-25T10:48:31Z</time>
      </trkpt>
      <trkpt lat="34.31588326712288" lon="109.01955804429971">
        <ele>399.14333347883075</ele>
        <time>2022-03-25T10:48:39Z</time>
      </trkpt>
      <trkpt lat="34.315892620417166" lon="109.01940943455901">
        <ele>399.8276851195842</ele>
        <time>2022-03-25T10:48:43Z</time>
      </trkpt>
      <trkpt lat="34.31587399622943" lon="109.01905775965547">
        <ele>400.8016196908429</ele>
        <time>2022-03-25T10:48:51Z</time>
      </trkpt>
      <trkpt lat="34.315900256715594" lon="109.01847886815588">
        <ele>402.572656750679</ele>
        <time>2022-03-25T10:49:05Z</time>
      </trkpt>
      <trkpt lat="34.31588694617726" lon="109.01816983323602">
        <ele>403.12165059614927</ele>
        <time>2022-03-25T10:49:13Z</time>
      </trkpt>
      <trkpt lat="34.31589866618232" lon="109.01769593922789">
        <ele>404.6565898973495</ele>
        <time>2022-03-25T10:49:25Z</time>
      </trkpt>
      <trkpt lat="34.31585321786806" lon="109.01714937358257">
        <ele>405.74561414308846</ele>
        <time>2022-03-25T10:49:39Z</time>
      </trkpt>
      <trkpt lat="34.31582151145839" lon="109.01692859626449">
        <ele>406.20585544314235</ele>
        <time>2022-03-25T10:49:47Z</time>
      </trkpt>
      <trkpt lat="34.315813094490146" lon="109.01669981322408">
        <ele>406.6646970594302</ele>
        <time>2022-03-25T10:49:55Z</time>
      </trkpt>
      <trkpt lat="34.315833836443566" lon="109.01642551756237">
        <ele>408.08762916270643</ele>
        <time>2022-03-25T10:50:03Z</time>
      </trkpt>
      <trkpt lat="34.31580725475942" lon="109.01627236629504">
        <ele>408.11294207908213</ele>
        <time>2022-03-25T10:50:07Z</time>
      </trkpt>
      <trkpt lat="34.315838974235" lon="109.01608263878543">
        <ele>407.73981620091945</ele>
        <time>2022-03-25T10:50:11Z</time>
      </trkpt>
      <trkpt lat="34.31580784960287" lon="109.01572558491144">
        <ele>408.57867885101587</ele>
        <time>2022-03-25T10:50:21Z</time>
      </trkpt>
      <trkpt lat="34.31582044314043" lon="109.01525040849413">
        <ele>408.2940956270322</ele>
        <time>2022-03-25T10:50:33Z</time>
      </trkpt>
      <trkpt lat="34.31578236554172" lon="109.01510520248036">
        <ele>408.67299761623144</ele>
        <time>2022-03-25T10:50:37Z</time>
      </trkpt>
      <trkpt lat="34.315772573120306" lon="109.01494823195934">
        <ele>409.0885406136513</ele>
        <time>2022-03-25T10:50:41Z</time>
      </trkpt>
      <trkpt lat="34.31579361475418" lon="109.01438048362314">
        <ele>409.5617875959724</ele>
        <time>2022-03-25T10:50:57Z</time>
      </trkpt>
      <trkpt lat="34.31578531404516" lon="109.01411138912054">
        <ele>408.9521447001025</ele>
        <time>2022-03-25T10:51:05Z</time>
      </trkpt>
      <trkpt lat="34.31572465503685" lon="109.0138467931008">
        <ele>409.08072595950216</ele>
        <time>2022-03-25T10:51:13Z</time>
      </trkpt>
      <trkpt lat="34.315736453335376" lon="109.01370162185343">
        <ele>408.61507264059037</ele>
        <time>2022-03-25T10:51:17Z</time>
      </trkpt>
      <trkpt lat="34.31571264330076" lon="109.01342886495956">
        <ele>408.51125000510365</ele>
        <time>2022-03-25T10:51:25Z</time>
      </trkpt>
      <trkpt lat="34.315735870297125" lon="109.01322271049587">
        <ele>408.49584769643843</ele>
        <time>2022-03-25T10:51:31Z</time>
      </trkpt>
      <trkpt lat="34.31573171815047" lon="109.01308774439725">
        <ele>408.8000066457316</ele>
        <time>2022-03-25T10:51:35Z</time>
      </trkpt>
      <trkpt lat="34.31578873573369" lon="109.01293506166971">
        <ele>408.90536424610764</ele>
        <time>2022-03-25T10:51:39Z</time>
      </trkpt>
      <trkpt lat="34.31580903683565" lon="109.01280572981729">
        <ele>409.65592097025365</ele>
        <time>2022-03-25T10:51:43Z</time>
      </trkpt>
      <trkpt lat="34.315849229175576" lon="109.01273073351308">
        <ele>408.844165825285</ele>
        <time>2022-03-25T10:51:45Z</time>
      </trkpt>
      <trkpt lat="34.315911269659026" lon="109.01246229925654">
        <ele>409.3095436915755</ele>
        <time>2022-03-25T10:51:53Z</time>
      </trkpt>
      <trkpt lat="34.31595604544748" lon="109.01238562071377">
        <ele>409.46462494693696</ele>
        <time>2022-03-25T10:51:55Z</time>
      </trkpt>
      <trkpt lat="34.31603744068948" lon="109.01231257794626">
        <ele>409.4011878641322</ele>
        <time>2022-03-25T10:51:57Z</time>
      </trkpt>
      <trkpt lat="34.316215901008235" lon="109.01224879686383">
        <ele>410.3171683959663</ele>
        <time>2022-03-25T10:52:01Z</time>
      </trkpt>
      <trkpt lat="34.316307416544674" lon="109.01217265393126">
        <ele>410.63205537293106</ele>
        <time>2022-03-25T10:52:05Z</time>
      </trkpt>
      <trkpt lat="34.31634099910577" lon="109.01208353342895">
        <ele>411.3392487792298</ele>
        <time>2022-03-25T10:52:09Z</time>
      </trkpt>
      <trkpt lat="34.31651059638266" lon="109.01185809604647">
        <ele>412.10400956775993</ele>
        <time>2022-03-25T10:52:17Z</time>
      </trkpt>
      <trkpt lat="34.31679124441777" lon="109.01139654584567">
        <ele>412.43612565100193</ele>
        <time>2022-03-25T10:52:33Z</time>
      </trkpt>
      <trkpt lat="34.316942788621034" lon="109.01123733041072">
        <ele>412.35708490759134</ele>
        <time>2022-03-25T10:52:41Z</time>
      </trkpt>
      <trkpt lat="34.31722751551017" lon="109.01104596062626">
        <ele>411.6104655712843</ele>
        <time>2022-03-25T10:52:53Z</time>
      </trkpt>
      <trkpt lat="34.31753913813705" lon="109.01096461166999">
        <ele>411.4786780886352</ele>
        <time>2022-03-25T10:53:05Z</time>
      </trkpt>
      <trkpt lat="34.31763350400267" lon="109.01086611838426">
        <ele>411.99204726703465</ele>
        <time>2022-03-25T10:53:09Z</time>
      </trkpt>
      <trkpt lat="34.31767698037761" lon="109.01077649355985">
        <ele>412.67308478988707</ele>
        <time>2022-03-25T10:53:11Z</time>
      </trkpt>
      <trkpt lat="34.317946489879226" lon="109.01064792241975">
        <ele>412.0292147314176</ele>
        <time>2022-03-25T10:53:19Z</time>
      </trkpt>
      <trkpt lat="34.31843421396053" lon="109.01060552166444">
        <ele>410.561382830143</ele>
        <time>2022-03-25T10:53:27Z</time>
      </trkpt>
      <trkpt lat="34.318553324327496" lon="109.01054127428621">
        <ele>410.63629868160933</ele>
        <time>2022-03-25T10:53:29Z</time>
      </trkpt>
      <trkpt lat="34.319269352556404" lon="109.00930447889729">
        <ele>409.8561234502122</ele>
        <time>2022-03-25T10:53:31Z</time>
      </trkpt>
      <trkpt lat="34.31942468588938" lon="109.00927749071832">
        <ele>408.64051364921033</ele>
        <time>2022-03-25T10:53:33Z</time>
      </trkpt>
      <trkpt lat="34.31958693469287" lon="109.00921849583561">
        <ele>407.6649735746905</ele>
        <time>2022-03-25T10:53:35Z</time>
      </trkpt>
      <trkpt lat="34.319964268224204" lon="109.00919683418125">
        <ele>406.5286931982264</ele>
        <time>2022-03-25T10:53:39Z</time>
      </trkpt>
      <trkpt lat="34.320678494052196" lon="109.00931562783325">
        <ele>404.54176252055913</ele>
        <time>2022-03-25T10:53:45Z</time>
      </trkpt>
      <trkpt lat="34.32101604164953" lon="109.00940325189785">
        <ele>403.8244858169928</ele>
        <time>2022-03-25T10:53:47Z</time>
      </trkpt>
      <trkpt lat="34.32129241087907" lon="109.00959610502831">
        <ele>402.7862532166764</ele>
        <time>2022-03-25T10:53:49Z</time>
      </trkpt>
      <trkpt lat="34.321642485058355" lon="109.00959583416099">
        <ele>401.84601771924645</ele>
        <time>2022-03-25T10:53:53Z</time>
      </trkpt>
      <trkpt lat="34.321783278860515" lon="109.00955876304448">
        <ele>401.2456735558808</ele>
        <time>2022-03-25T10:53:55Z</time>
      </trkpt>
      <trkpt lat="34.32224729851491" lon="109.00955416894128">
        <ele>399.9399012643844</ele>
        <time>2022-03-25T10:54:03Z</time>
      </trkpt>
      <trkpt lat="34.32274480611102" lon="109.00949675628542">
        <ele>398.3106259861961</ele>
        <time>2022-03-25T10:54:11Z</time>
      </trkpt>
      <trkpt lat="34.32286179358582" lon="109.0094923750049">
        <ele>398.2993004331365</ele>
        <time>2022-03-25T10:54:13Z</time>
      </trkpt>
      <trkpt lat="34.32322707978231" lon="109.00941651105583">
        <ele>397.4844361534342</ele>
        <time>2022-03-25T10:54:19Z</time>
      </trkpt>
      <trkpt lat="34.32373008187553" lon="109.00935334296125">
        <ele>396.4062347738072</ele>
        <time>2022-03-25T10:54:27Z</time>
      </trkpt>
      <trkpt lat="34.32424314860361" lon="109.00923460432136">
        <ele>395.8753886781633</ele>
        <time>2022-03-25T10:54:37Z</time>
      </trkpt>
      <trkpt lat="34.32466133818908" lon="109.00906704497712">
        <ele>395.6153127364814</ele>
        <time>2022-03-25T10:54:47Z</time>
      </trkpt>
      <trkpt lat="34.32512407078187" lon="109.00888346573667">
        <ele>395.5990898264572</ele>
        <time>2022-03-25T10:54:57Z</time>
      </trkpt>
      <trkpt lat="34.325562450607244" lon="109.00866992545535">
        <ele>394.9758650753647</ele>
        <time>2022-03-25T10:55:07Z</time>
      </trkpt>
      <trkpt lat="34.32599187758831" lon="109.00842742735767">
        <ele>395.14202552475035</ele>
        <time>2022-03-25T10:55:17Z</time>
      </trkpt>
      <trkpt lat="34.326402616285726" lon="109.00816075486343">
        <ele>394.835925757885</ele>
        <time>2022-03-25T10:55:27Z</time>
      </trkpt>
      <trkpt lat="34.32682206926104" lon="109.00788840229923">
        <ele>394.32236887328327</ele>
        <time>2022-03-25T10:55:37Z</time>
      </trkpt>
      <trkpt lat="34.32689958828275" lon="109.00782022601169">
        <ele>394.21395027730614</ele>
        <time>2022-03-25T10:55:39Z</time>
      </trkpt>
      <trkpt lat="34.327295792297704" lon="109.00755879079435">
        <ele>393.54308056645095</ele>
        <time>2022-03-25T10:55:49Z</time>
      </trkpt>
      <trkpt lat="34.32745900728451" lon="109.00744199238262">
        <ele>393.61648104619235</ele>
        <time>2022-03-25T10:55:53Z</time>
      </trkpt>
      <trkpt lat="34.327595134851805" lon="109.00729727735416">
        <ele>394.34986819233745</ele>
        <time>2022-03-25T10:55:57Z</time>
      </trkpt>
      <trkpt lat="34.32786852189763" lon="109.007171995484">
        <ele>393.6111574145034</ele>
        <time>2022-03-25T10:56:03Z</time>
      </trkpt>
      <trkpt lat="34.327977211659565" lon="109.00706972934299">
        <ele>393.7553829001263</ele>
        <time>2022-03-25T10:56:07Z</time>
      </trkpt>
      <trkpt lat="34.32803337146276" lon="109.00699384387832">
        <ele>393.7140669617802</ele>
        <time>2022-03-25T10:56:11Z</time>
      </trkpt>
      <trkpt lat="34.328047626493806" lon="109.00703858956874">
        <ele>393.5525123151019</ele>
        <time>2022-03-25T10:56:21Z</time>
      </trkpt>
      <trkpt lat="34.328127447569315" lon="109.00691860970836">
        <ele>393.54934973828495</ele>
        <time>2022-03-25T10:56:36Z</time>
      </trkpt>
      <trkpt lat="34.328138441556874" lon="109.00682305079589">
        <ele>393.496528188698</ele>
        <time>2022-03-25T10:56:38Z</time>
      </trkpt>
      <trkpt lat="34.32811898561567" lon="109.00673665222989">
        <ele>394.06440643034875</ele>
        <time>2022-03-25T10:56:40Z</time>
      </trkpt>
      <trkpt lat="34.32804908087318" lon="109.00657852785213">
        <ele>393.9152249582112</ele>
        <time>2022-03-25T10:56:44Z</time>
      </trkpt>
      <trkpt lat="34.32804130098685" lon="109.0063830613436">
        <ele>394.3523396374658</ele>
        <time>2022-03-25T10:56:48Z</time>
      </trkpt>
      <trkpt lat="34.327996342005946" lon="109.00622083954065">
        <ele>395.2148115662858</ele>
        <time>2022-03-25T10:56:53Z</time>
      </trkpt>
      <trkpt lat="34.32797408558737" lon="109.0059800042199">
        <ele>395.4439435787499</ele>
        <time>2022-03-25T10:56:59Z</time>
      </trkpt>
      <trkpt lat="34.3279522701856" lon="109.00589492162538">
        <ele>395.62207705900073</ele>
        <time>2022-03-25T10:57:01Z</time>
      </trkpt>
      <trkpt lat="34.32776329366333" lon="109.00545932833444">
        <ele>396.9808980124071</ele>
        <time>2022-03-25T10:57:11Z</time>
      </trkpt>
      <trkpt lat="34.32775409322958" lon="109.00525072405887">
        <ele>395.9950160179287</ele>
        <time>2022-03-25T10:57:15Z</time>
      </trkpt>
      <trkpt lat="34.327781355215556" lon="109.00501253345773">
        <ele>395.11541642062366</ele>
        <time>2022-03-25T10:57:19Z</time>
      </trkpt>
      <trkpt lat="34.32776513828419" lon="109.00477489308182">
        <ele>394.9707949627191</ele>
        <time>2022-03-25T10:57:23Z</time>
      </trkpt>
      <trkpt lat="34.32778324610816" lon="109.00446652186567">
        <ele>396.32417139876634</ele>
        <time>2022-03-25T10:57:29Z</time>
      </trkpt>
      <trkpt lat="34.32783637526112" lon="109.0041195156169">
        <ele>396.90217478666455</ele>
        <time>2022-03-25T10:57:35Z</time>
      </trkpt>
      <trkpt lat="34.32783824635423" lon="109.00364205467605">
        <ele>395.4956716429442</ele>
        <time>2022-03-25T10:57:43Z</time>
      </trkpt>
      <trkpt lat="34.327800556920316" lon="109.00327348037686">
        <ele>395.8395560476929</ele>
        <time>2022-03-25T10:57:49Z</time>
      </trkpt>
      <trkpt lat="34.32771483863269" lon="109.00269296632369">
        <ele>395.04133714176714</ele>
        <time>2022-03-25T10:57:59Z</time>
      </trkpt>
      <trkpt lat="34.32775840418231" lon="109.00210878013391">
        <ele>395.24664451833814</ele>
        <time>2022-03-25T10:58:09Z</time>
      </trkpt>
      <trkpt lat="34.327747511550875" lon="109.00180500467803">
        <ele>396.05849510151893</ele>
        <time>2022-03-25T10:58:15Z</time>
      </trkpt>
      <trkpt lat="34.32765874298522" lon="109.00146927133764">
        <ele>395.517486365512</ele>
        <time>2022-03-25T10:58:21Z</time>
      </trkpt>
      <trkpt lat="34.32766564587901" lon="109.0009661605125">
        <ele>395.03280114009976</ele>
        <time>2022-03-25T10:58:29Z</time>
      </trkpt>
      <trkpt lat="34.32771880940697" lon="109.00076734411292">
        <ele>396.5762302633375</ele>
        <time>2022-03-25T10:58:33Z</time>
      </trkpt>
      <trkpt lat="34.32778257067145" lon="109.00018300627231">
        <ele>396.45545822847635</ele>
        <time>2022-03-25T10:58:43Z</time>
      </trkpt>
      <trkpt lat="34.32784961195289" lon="108.99966208570888">
        <ele>395.2224471848458</ele>
        <time>2022-03-25T10:58:53Z</time>
      </trkpt>
      <trkpt lat="34.32783132762225" lon="108.99928423312652">
        <ele>394.01811106689274</ele>
        <time>2022-03-25T10:58:59Z</time>
      </trkpt>
      <trkpt lat="34.32776873388617" lon="108.99876090084413">
        <ele>393.480182540603</ele>
        <time>2022-03-25T10:59:07Z</time>
      </trkpt>
      <trkpt lat="34.32775213110372" lon="108.99863789608104">
        <ele>393.0636517815292</ele>
        <time>2022-03-25T10:59:09Z</time>
      </trkpt>
      <trkpt lat="34.327785910857315" lon="108.99848509922711">
        <ele>394.23910490982234</ele>
        <time>2022-03-25T10:59:11Z</time>
      </trkpt>
      <trkpt lat="34.3277894795585" lon="108.99822252684315">
        <ele>394.873789425008</ele>
        <time>2022-03-25T10:59:15Z</time>
      </trkpt>
      <trkpt lat="34.32787377211657" lon="108.9978149285732">
        <ele>394.72919864486903</ele>
        <time>2022-03-25T10:59:21Z</time>
      </trkpt>
      <trkpt lat="34.327895745813464" lon="108.99770871152839">
        <ele>394.80397251062095</ele>
        <time>2022-03-25T10:59:23Z</time>
      </trkpt>
      <trkpt lat="34.327912117657874" lon="108.99708047649526">
        <ele>394.98074527457356</ele>
        <time>2022-03-25T10:59:33Z</time>
      </trkpt>
      <trkpt lat="34.327898658666236" lon="108.99685618646537">
        <ele>394.9514079988003</ele>
        <time>2022-03-25T10:59:37Z</time>
      </trkpt>
      <trkpt lat="34.32791761873801" lon="108.99637580211338">
        <ele>395.1312220012769</ele>
        <time>2022-03-25T10:59:45Z</time>
      </trkpt>
      <trkpt lat="34.327903242885725" lon="108.99615723999386">
        <ele>395.0319059761241</ele>
        <time>2022-03-25T10:59:49Z</time>
      </trkpt>
      <trkpt lat="34.327919538024226" lon="108.99593147727532">
        <ele>394.8172593098134</ele>
        <time>2022-03-25T10:59:53Z</time>
      </trkpt>
      <trkpt lat="34.327952987331024" lon="108.99579152074075">
        <ele>394.2206257674843</ele>
        <time>2022-03-25T10:59:55Z</time>
      </trkpt>
      <trkpt lat="34.327969406672295" lon="108.9952569023271">
        <ele>394.53245717752725</ele>
        <time>2022-03-25T11:00:05Z</time>
      </trkpt>
      <trkpt lat="34.327944982593124" lon="108.99495436768092">
        <ele>394.55836764909327</ele>
        <time>2022-03-25T11:00:11Z</time>
      </trkpt>
      <trkpt lat="34.32796537952893" lon="108.99468615648085">
        <ele>394.04122407734394</ele>
        <time>2022-03-25T11:00:15Z</time>
      </trkpt>
      <trkpt lat="34.32794625524522" lon="108.99446544722561">
        <ele>394.3628019290045</ele>
        <time>2022-03-25T11:00:19Z</time>
      </trkpt>
      <trkpt lat="34.327956401860334" lon="108.99388647329485">
        <ele>394.003607429564</ele>
        <time>2022-03-25T11:00:29Z</time>
      </trkpt>
      <trkpt lat="34.32794519126934" lon="108.99343015365577">
        <ele>394.3350101541728</ele>
        <time>2022-03-25T11:00:37Z</time>
      </trkpt>
      <trkpt lat="34.327924767525595" lon="108.99334447098612">
        <ele>396.2281383126974</ele>
        <time>2022-03-25T11:00:39Z</time>
      </trkpt>
      <trkpt lat="34.32790207894732" lon="108.99310852116842">
        <ele>395.65112696029246</ele>
        <time>2022-03-25T11:00:43Z</time>
      </trkpt>
      <trkpt lat="34.327913634575474" lon="108.99299825310395">
        <ele>394.6683247135952</ele>
        <time>2022-03-25T11:00:45Z</time>
      </trkpt>
      <trkpt lat="34.32787682145107" lon="108.99268453320848">
        <ele>395.9867464955896</ele>
        <time>2022-03-25T11:00:51Z</time>
      </trkpt>
      <trkpt lat="34.327929605470516" lon="108.99203546021397">
        <ele>394.1692628050223</ele>
        <time>2022-03-25T11:01:01Z</time>
      </trkpt>
      <trkpt lat="34.32798818511072" lon="108.9915049219671">
        <ele>392.7167215794325</ele>
        <time>2022-03-25T11:01:09Z</time>
      </trkpt>
      <trkpt lat="34.327995204737995" lon="108.99139724401496">
        <ele>393.0298914741725</ele>
        <time>2022-03-25T11:01:11Z</time>
      </trkpt>
      <trkpt lat="34.32798568202661" lon="108.9911586163799">
        <ele>393.65585896372795</ele>
        <time>2022-03-25T11:01:15Z</time>
      </trkpt>
      <trkpt lat="34.327997416407854" lon="108.99083159493841">
        <ele>392.18367252498865</ele>
        <time>2022-03-25T11:01:21Z</time>
      </trkpt>
      <trkpt lat="34.32797133351744" lon="108.99070124896474">
        <ele>391.9835761189461</ele>
        <time>2022-03-25T11:01:23Z</time>
      </trkpt>
      <trkpt lat="34.32796502371193" lon="108.9905723959715">
        <ele>391.46959700621665</ele>
        <time>2022-03-25T11:01:25Z</time>
      </trkpt>
      <trkpt lat="34.327991765962494" lon="108.99048735363404">
        <ele>392.1536758504808</ele>
        <time>2022-03-25T11:01:27Z</time>
      </trkpt>
      <trkpt lat="34.32799817916964" lon="108.99032330402504">
        <ele>392.1679698359221</ele>
        <time>2022-03-25T11:01:31Z</time>
      </trkpt>
      <trkpt lat="34.32794209837683" lon="108.98979666907738">
        <ele>392.0001684576273</ele>
        <time>2022-03-25T11:01:41Z</time>
      </trkpt>
      <trkpt lat="34.32788862607376" lon="108.98967886727472">
        <ele>392.54642296303064</ele>
        <time>2022-03-25T11:01:45Z</time>
      </trkpt>
      <trkpt lat="34.32796279923689" lon="108.98951368958784">
        <ele>394.0948150902635</ele>
        <time>2022-03-25T11:01:49Z</time>
      </trkpt>
      <trkpt lat="34.327892775651264" lon="108.98939302437773">
        <ele>395.2161342985928</ele>
        <time>2022-03-25T11:01:53Z</time>
      </trkpt>
      <trkpt lat="34.32793857115989" lon="108.9893040795712">
        <ele>395.3394653964788</ele>
        <time>2022-03-25T11:01:55Z</time>
      </trkpt>
      <trkpt lat="34.327918308054606" lon="108.98922040032829">
        <ele>396.15166971459985</ele>
        <time>2022-03-25T11:01:57Z</time>
      </trkpt>
      <trkpt lat="34.32776249141883" lon="108.98893965219516">
        <ele>394.49651003070176</ele>
        <time>2022-03-25T11:02:01Z</time>
      </trkpt>
      <trkpt lat="34.327707668102136" lon="108.988791077947">
        <ele>394.2669055229053</ele>
        <time>2022-03-25T11:02:03Z</time>
      </trkpt>
      <trkpt lat="34.327692396495586" lon="108.98867225893001">
        <ele>394.3909175908193</ele>
        <time>2022-03-25T11:02:05Z</time>
      </trkpt>
      <trkpt lat="34.32772520202456" lon="108.98856866053231">
        <ele>394.0267463233322</ele>
        <time>2022-03-25T11:02:07Z</time>
      </trkpt>
      <trkpt lat="34.327799561661024" lon="108.98810310203052">
        <ele>394.64732359629124</ele>
        <time>2022-03-25T11:02:15Z</time>
      </trkpt>
      <trkpt lat="34.32780753982995" lon="108.98774897677967">
        <ele>394.9465054832399</ele>
        <time>2022-03-25T11:02:21Z</time>
      </trkpt>
      <trkpt lat="34.32776893261288" lon="108.98763870361343">
        <ele>395.2359541049227</ele>
        <time>2022-03-25T11:02:23Z</time>
      </trkpt>
      <trkpt lat="34.32773727692498" lon="108.98739040360545">
        <ele>395.26723913662136</ele>
        <time>2022-03-25T11:02:27Z</time>
      </trkpt>
      <trkpt lat="34.32779220476507" lon="108.98715791448103">
        <ele>395.24660866800696</ele>
        <time>2022-03-25T11:02:31Z</time>
      </trkpt>
      <trkpt lat="34.32780134610109" lon="108.98705248484345">
        <ele>395.7745514502749</ele>
        <time>2022-03-25T11:02:33Z</time>
      </trkpt>
      <trkpt lat="34.32786943619054" lon="108.98678775629128">
        <ele>395.12652141507715</ele>
        <time>2022-03-25T11:02:37Z</time>
      </trkpt>
      <trkpt lat="34.32788021680521" lon="108.98641427816874">
        <ele>393.68817167170346</ele>
        <time>2022-03-25T11:02:43Z</time>
      </trkpt>
      <trkpt lat="34.32783681722" lon="108.98604858859491">
        <ele>393.39828907418996</ele>
        <time>2022-03-25T11:02:49Z</time>
      </trkpt>
      <trkpt lat="34.32785376942019" lon="108.98590414029631">
        <ele>392.29917304683477</ele>
        <time>2022-03-25T11:02:51Z</time>
      </trkpt>
      <trkpt lat="34.32800790378532" lon="108.98535763041457">
        <ele>392.1793984277174</ele>
        <time>2022-03-25T11:02:59Z</time>
      </trkpt>
      <trkpt lat="34.32800455056588" lon="108.98502412260447">
        <ele>392.4439098061994</ele>
        <time>2022-03-25T11:03:05Z</time>
      </trkpt>
      <trkpt lat="34.32803353916756" lon="108.98480316216072">
        <ele>391.7505289707333</ele>
        <time>2022-03-25T11:03:09Z</time>
      </trkpt>
      <trkpt lat="34.328018547245364" lon="108.98453078879956">
        <ele>391.81438096705824</ele>
        <time>2022-03-25T11:03:17Z</time>
      </trkpt>
      <trkpt lat="34.32808959945809" lon="108.98443555147142">
        <ele>391.8220602925867</ele>
        <time>2022-03-25T11:03:21Z</time>
      </trkpt>
      <trkpt lat="34.32815206669984" lon="108.98439832815752">
        <ele>391.607922879979</ele>
        <time>2022-03-25T11:03:31Z</time>
      </trkpt>
      <trkpt lat="34.3281803733348" lon="108.98419630755834">
        <ele>392.46059410180897</ele>
        <time>2022-03-25T11:04:16Z</time>
      </trkpt>
      <trkpt lat="34.32808092103542" lon="108.98388100226362">
        <ele>391.9758998109028</ele>
        <time>2022-03-25T11:04:24Z</time>
      </trkpt>
      <trkpt lat="34.328055829964086" lon="108.98359593716866">
        <ele>393.4069532575086</ele>
        <time>2022-03-25T11:04:32Z</time>
      </trkpt>
      <trkpt lat="34.328029369075885" lon="108.98351309741498">
        <ele>394.1191534921527</ele>
        <time>2022-03-25T11:04:36Z</time>
      </trkpt>
      <trkpt lat="34.3280072248067" lon="108.9830263359663">
        <ele>394.38544239196926</ele>
        <time>2022-03-25T11:04:54Z</time>
      </trkpt>
      <trkpt lat="34.328029284610544" lon="108.98261323040269">
        <ele>393.80677191819996</ele>
        <time>2022-03-25T11:05:04Z</time>
      </trkpt>
      <trkpt lat="34.328017186092566" lon="108.98234873210266">
        <ele>394.28683784231544</ele>
        <time>2022-03-25T11:05:10Z</time>
      </trkpt>
      <trkpt lat="34.32801509714079" lon="108.98209008652789">
        <ele>393.6035106051713</ele>
        <time>2022-03-25T11:05:17Z</time>
      </trkpt>
      <trkpt lat="34.32797996562493" lon="108.98180645248343">
        <ele>394.5997882205993</ele>
        <time>2022-03-25T11:05:23Z</time>
      </trkpt>
      <trkpt lat="34.32801687894854" lon="108.98130454891134">
        <ele>395.1576425442472</ele>
        <time>2022-03-25T11:05:35Z</time>
      </trkpt>
      <trkpt lat="34.32813145013831" lon="108.98114019113356">
        <ele>394.43219166621566</ele>
        <time>2022-03-25T11:05:41Z</time>
      </trkpt>
      <trkpt lat="34.328142266977366" lon="108.98094078135553">
        <ele>395.1494659613818</ele>
        <time>2022-03-25T11:05:55Z</time>
      </trkpt>
      <trkpt lat="34.3281284373858" lon="108.98085563487085">
        <ele>395.29884314350784</ele>
        <time>2022-03-25T11:06:01Z</time>
      </trkpt>
      <trkpt lat="34.32816918776953" lon="108.98078122256783">
        <ele>395.2155079925433</ele>
        <time>2022-03-25T11:06:07Z</time>
      </trkpt>
      <trkpt lat="34.32824650312685" lon="108.98075285518685">
        <ele>395.33010395616293</ele>
        <time>2022-03-25T11:06:15Z</time>
      </trkpt>
      <trkpt lat="34.32833785425741" lon="108.9808007946746">
        <ele>395.0570307094604</ele>
        <time>2022-03-25T11:06:29Z</time>
      </trkpt>
      <trkpt lat="34.32836942624287" lon="108.98077202636854">
        <ele>395.62027007713914</ele>
        <time>2022-03-25T11:06:45Z</time>
      </trkpt>
      <trkpt lat="34.328457479770115" lon="108.98077196036033">
        <ele>395.44375316239893</ele>
        <time>2022-03-25T11:06:50Z</time>
      </trkpt>
    </trkseg>
  </trk>
</gpx>