<?xml version="1.0" encoding="UTF-8"?>
<gpx xmlns="http://www.topografix.com/GPX/1/1" xmlns:gpxtpx="http://www.garmin.com/xmlschemas/TrackPointExtension/v1" xmlns:xsi="http://www.w3.org/2001/XMLSchema-instance" xsi:schemaLocation="http://www.topografix.com/GPX/1/1 http://www.topografix.com/GPX/1/1/gpx.xsd" version="1.1" creator="gpx.py -- https://github.com/tkrajina/gpxpy">
  <trk>
    <name>gpx from keep</name>
    <type>Run</type>
    <trkseg>
      <trkpt lat="34.328074486466775" lon="108.97793336877302">
        <ele>396.0790791362524</ele>
        <time>2026-09-19T00:25:35Z</time>
      </trkpt>
      <trkpt lat="34.32809736900756" lon="108.97784054026715">
        <ele>395.6045342227444</ele>
        <time>2026-09-19T00:25:39Z</time>
      </trkpt>
      <trkpt lat="34.32807885507919" lon="108.97777642391355">
        <ele>395.3385380608961</ele>
        <time>2026-09-19T00:25:43Z</time>
      </trkpt>
      <trkpt lat="34.32810193102222" lon="108.97768491244229">
        <ele>395.2360296342522</ele>
        <time>2026-09-19T00:25:49Z</time>
      </trkpt>
      <trkpt lat="34.328104649451895" lon="108.97736133473462">
        <ele>394.8924498828128</ele>
        <time>2026-09-19T00:26:13Z</time>
      </trkpt>
      <trkpt lat="34.328156442755585" lon="108.97718396825888">
        <ele>395.2579368967563</ele>
        <time>2026-09-19T00:26:22Z</time>
      </trkpt>
      <trkpt lat="34.328161755100815" lon="108.97685793888076">
        <ele>396.2314850082621</ele>
        <time>2026-09-19T00:26:43Z</time>
      </trkpt>
      <trkpt lat="34.328153337268894" lon="108.97666409034066">
        <ele>395.84676477778703</ele>
        <time>2026-09-19T00:26:52Z</time>
      </trkpt>
      <trkpt lat="34.32816097966047" lon="108.97653919977111">
        <ele>396.092829474248</ele>
        <time>2026-09-19T00:26:58Z</time>
      </trkpt>
      <trkpt lat="34.32810911731983" lon="108.97644279459978">
        <ele>396.9996539512649</ele>
        <time>2026-09-19T00:27:04Z</time>
      </trkpt>
      <trkpt lat="34.328147931109626" lon="108.97606638845986">
        <ele>396.5698202010244</ele>
        <time>2026-09-19T00:27:26Z</time>
      </trkpt>
      <trkpt lat="34.32819080752703" lon="108.97604761352848">
        <ele>396.2149033481255</ele>
        <time>2026-09-19T00:27:32Z</time>
      </trkpt>
      <trkpt lat="34.3284204893791" lon="108.9760981982306">
        <ele>396.66948845796287</ele>
        <time>2026-09-19T00:27:44Z</time>
      </trkpt>
      <trkpt lat="34.32854430301452" lon="108.97610540375625">
        <ele>396.99119868222624</ele>
        <time>2026-09-19T00:27:50Z</time>
      </trkpt>
      <trkpt lat="34.328673242667236" lon="108.97616584764803">
        <ele>395.86411875113845</ele>
        <time>2026-09-19T00:27:56Z</time>
      </trkpt>
      <trkpt lat="34.328774204448685" lon="108.9762928252514">
        <ele>396.1835425263271</ele>
        <time>2026-09-19T00:28:05Z</time>
      </trkpt>
      <trkpt lat="34.328801830020204" lon="108.976354547264">
        <ele>396.33604924567044</ele>
        <time>2026-09-19T00:28:08Z</time>
      </trkpt>
      <trkpt lat="34.32897704225167" lon="108.97638569098709">
        <ele>395.5056555727497</ele>
        <time>2026-09-19T00:28:17Z</time>
      </trkpt>
      <trkpt lat="34.329034031865355" lon="108.97641373267392">
        <ele>395.95958539284766</ele>
        <time>2026-09-19T00:28:20Z</time>
      </trkpt>
      <trkpt lat="34.329074820186435" lon="108.97638414626694">
        <ele>396.1380188204348</ele>
        <time>2026-09-19T00:28:23Z</time>
      </trkpt>
      <trkpt lat="34.329370412938246" lon="108.97638674215173">
        <ele>396.879936510697</ele>
        <time>2026-09-19T00:28:38Z</time>
      </trkpt>
      <trkpt lat="34.329648246428434" lon="108.97641634937027">
        <ele>395.06678382400423</ele>
        <time>2026-09-19T00:28:53Z</time>
      </trkpt>
      <trkpt lat="34.32976987832699" lon="108.9764115758399">
        <ele>395.3475653398782</ele>
        <time>2026-09-19T00:28:59Z</time>
      </trkpt>
      <trkpt lat="34.329913897148245" lon="108.97626108484549">
        <ele>394.6000972725451</ele>
        <time>2026-09-19T00:29:08Z</time>
      </trkpt>
      <trkpt lat="34.329974336239914" lon="108.97613779257442">
        <ele>395.1358313942328</ele>
        <time>2026-09-19T00:29:14Z</time>
      </trkpt>
      <trkpt lat="34.330036531443156" lon="108.97609275738823">
        <ele>394.72991730831563</ele>
        <time>2026-09-19T00:29:18Z</time>
      </trkpt>
      <trkpt lat="34.330272102448994" lon="108.97607775601088">
        <ele>395.3886525752023</ele>
        <time>2026-09-19T00:29:30Z</time>
      </trkpt>
      <trkpt lat="34.330597731827346" lon="108.97611270661442">
        <ele>394.67230594251305</ele>
        <time>2026-09-19T00:29:47Z</time>
      </trkpt>
      <trkpt lat="34.33092496349693" lon="108.97614925299398">
        <ele>394.89644737169147</ele>
        <time>2026-09-19T00:30:08Z</time>
      </trkpt>
      <trkpt lat="34.331176568409816" lon="108.97612614054167">
        <ele>394.1701494073495</ele>
        <time>2026-09-19T00:30:23Z</time>
      </trkpt>
      <trkpt lat="34.331452306987856" lon="108.97615020978374">
        <ele>394.3601003391668</ele>
        <time>2026-09-19T00:30:44Z</time>
      </trkpt>
      <trkpt lat="34.33162682772902" lon="108.97616642791156">
        <ele>393.53452867269516</ele>
        <time>2026-09-19T00:30:53Z</time>
      </trkpt>
      <trkpt lat="34.331732272926224" lon="108.97614707838274">
        <ele>393.29269553814083</ele>
        <time>2026-09-19T00:30:59Z</time>
      </trkpt>
      <trkpt lat="34.33187584392757" lon="108.97594061560781">
        <ele>393.56943298876286</ele>
        <time>2026-09-19T00:31:11Z</time>
      </trkpt>
      <trkpt lat="34.331935029662844" lon="108.97591483855221">
        <ele>393.1769450567663</ele>
        <time>2026-09-19T00:31:14Z</time>
      </trkpt>
      <trkpt lat="34.33227650491069" lon="108.97594544156328">
        <ele>393.71253281645477</ele>
        <time>2026-09-19T00:31:32Z</time>
      </trkpt>
      <trkpt lat="34.33258249890945" lon="108.97595483921309">
        <ele>393.80904784146696</ele>
        <time>2026-09-19T00:31:48Z</time>
      </trkpt>
      <trkpt lat="34.33263997308135" lon="108.97599629041254">
        <ele>395.6021798970178</ele>
        <time>2026-09-19T00:31:51Z</time>
      </trkpt>
      <trkpt lat="34.332719553153254" lon="108.97610395710834">
        <ele>395.25741729233414</ele>
        <time>2026-09-19T00:31:57Z</time>
      </trkpt>
      <trkpt lat="34.33277515882658" lon="108.97613655381313">
        <ele>395.77476955298334</ele>
        <time>2026-09-19T00:32:00Z</time>
      </trkpt>
      <trkpt lat="34.333076236616165" lon="108.97615660382898">
        <ele>393.7470159586519</ele>
        <time>2026-09-19T00:32:15Z</time>
      </trkpt>
      <trkpt lat="34.33335247679491" lon="108.97618301470733">
        <ele>393.19534656684846</ele>
        <time>2026-09-19T00:32:33Z</time>
      </trkpt>
      <trkpt lat="34.33353054590622" lon="108.97617202058309">
        <ele>393.2406127890572</ele>
        <time>2026-09-19T00:32:45Z</time>
      </trkpt>
      <trkpt lat="34.333827606603755" lon="108.97620928871949">
        <ele>392.73268886469305</ele>
        <time>2026-09-19T00:33:00Z</time>
      </trkpt>
      <trkpt lat="34.334131539075315" lon="108.97624776230656">
        <ele>392.35249367170036</ele>
        <time>2026-09-19T00:33:15Z</time>
      </trkpt>
      <trkpt lat="34.334448397341085" lon="108.97626714872132">
        <ele>392.3828704729676</ele>
        <time>2026-09-19T00:33:31Z</time>
      </trkpt>
      <trkpt lat="34.33459688776368" lon="108.97627658014173">
        <ele>392.3412404553965</ele>
        <time>2026-09-19T00:33:39Z</time>
      </trkpt>
      <trkpt lat="34.33465982909003" lon="108.97632532264969">
        <ele>392.0834334604442</ele>
        <time>2026-09-19T00:33:43Z</time>
      </trkpt>
      <trkpt lat="34.33475039934725" lon="108.97646894418058">
        <ele>391.6268895640969</ele>
        <time>2026-09-19T00:33:51Z</time>
      </trkpt>
      <trkpt lat="34.33481673357658" lon="108.9765200202724">
        <ele>392.00524143781513</ele>
        <time>2026-09-19T00:33:55Z</time>
      </trkpt>
      <trkpt lat="34.334951363259805" lon="108.9765361938477">
        <ele>391.97562656365335</ele>
        <time>2026-09-19T00:34:02Z</time>
      </trkpt>
      <trkpt lat="34.335054221394884" lon="108.97646921548197">
        <ele>392.24696922209114</ele>
        <time>2026-09-19T00:34:08Z</time>
      </trkpt>
      <trkpt lat="34.33513251708755" lon="108.97635767752405">
        <ele>392.4099746411666</ele>
        <time>2026-09-19T00:34:14Z</time>
      </trkpt>
      <trkpt lat="34.33518167030018" lon="108.97632432097393">
        <ele>392.6537954621017</ele>
        <time>2026-09-19T00:34:17Z</time>
      </trkpt>
      <trkpt lat="34.33547838706085" lon="108.97634138248017">
        <ele>392.3055052086711</ele>
        <time>2026-09-19T00:34:32Z</time>
      </trkpt>
      <trkpt lat="34.33576830778519" lon="108.976348907528">
        <ele>391.9342808080837</ele>
        <time>2026-09-19T00:34:47Z</time>
      </trkpt>
      <trkpt lat="34.33606994583853" lon="108.976380381052">
        <ele>391.19910733401775</ele>
        <time>2026-09-19T00:35:02Z</time>
      </trkpt>
      <trkpt lat="34.336131456829456" lon="108.97639647425001">
        <ele>390.6361647704616</ele>
        <time>2026-09-19T00:35:05Z</time>
      </trkpt>
      <trkpt lat="34.33638835717705" lon="108.97636231036907">
        <ele>391.21887855697423</ele>
        <time>2026-09-19T00:35:32Z</time>
      </trkpt>
      <trkpt lat="34.33651276156836" lon="108.97639481081652">
        <ele>390.76435648370534</ele>
        <time>2026-09-19T00:35:38Z</time>
      </trkpt>
      <trkpt lat="34.336788168016255" lon="108.97643911115534">
        <ele>391.18395043350756</ele>
        <time>2026-09-19T00:35:54Z</time>
      </trkpt>
      <trkpt lat="34.33700581608002" lon="108.97644520868226">
        <ele>391.8967895908281</ele>
        <time>2026-09-19T00:36:06Z</time>
      </trkpt>
      <trkpt lat="34.33706100779697" lon="108.97643044466298">
        <ele>391.7157259238884</ele>
        <time>2026-09-19T00:36:09Z</time>
      </trkpt>
      <trkpt lat="34.33734581341819" lon="108.97645620024446">
        <ele>390.8517899522558</ele>
        <time>2026-09-19T00:36:24Z</time>
      </trkpt>
      <trkpt lat="34.337624672937835" lon="108.97647274188772">
        <ele>391.5397897353396</ele>
        <time>2026-09-19T00:36:39Z</time>
      </trkpt>
      <trkpt lat="34.33791386446562" lon="108.97648060071016">
        <ele>392.3727609505877</ele>
        <time>2026-09-19T00:36:54Z</time>
      </trkpt>
      <trkpt lat="34.338213563733156" lon="108.97646760447722">
        <ele>391.3072113804519</ele>
        <time>2026-09-19T00:37:09Z</time>
      </trkpt>
      <trkpt lat="34.338519839709" lon="108.97644516991014">
        <ele>390.6689268415794</ele>
        <time>2026-09-19T00:37:24Z</time>
      </trkpt>
      <trkpt lat="34.33883260316931" lon="108.97641301556357">
        <ele>392.40764011256397</ele>
        <time>2026-09-19T00:37:40Z</time>
      </trkpt>
      <trkpt lat="34.339116709717274" lon="108.97633659717432">
        <ele>391.8059475449845</ele>
        <time>2026-09-19T00:37:55Z</time>
      </trkpt>
      <trkpt lat="34.33939434878151" lon="108.97625279504582">
        <ele>391.26346135605127</ele>
        <time>2026-09-19T00:38:10Z</time>
      </trkpt>
      <trkpt lat="34.339675449516676" lon="108.97616572292694">
        <ele>389.6417304286733</ele>
        <time>2026-09-19T00:38:25Z</time>
      </trkpt>
      <trkpt lat="34.3399533256356" lon="108.9760536520529">
        <ele>390.6916697761044</ele>
        <time>2026-09-19T00:38:40Z</time>
      </trkpt>
      <trkpt lat="34.34023984264725" lon="108.97594046114925">
        <ele>391.49159882590175</ele>
        <time>2026-09-19T00:38:55Z</time>
      </trkpt>
      <trkpt lat="34.34052938828001" lon="108.97583257422777">
        <ele>390.1297692079097</ele>
        <time>2026-09-19T00:39:10Z</time>
      </trkpt>
      <trkpt lat="34.340826068035064" lon="108.97573432473763">
        <ele>388.1966873370111</ele>
        <time>2026-09-19T00:39:25Z</time>
      </trkpt>
      <trkpt lat="34.3411129255871" lon="108.97565772105828">
        <ele>387.65081516467035</ele>
        <time>2026-09-19T00:39:40Z</time>
      </trkpt>
      <trkpt lat="34.34139332609039" lon="108.9755509036366">
        <ele>387.12893980834633</ele>
        <time>2026-09-19T00:39:55Z</time>
      </trkpt>
      <trkpt lat="34.34167826748462" lon="108.97544393347161">
        <ele>385.8660128256306</ele>
        <time>2026-09-19T00:40:11Z</time>
      </trkpt>
      <trkpt lat="34.341945219787995" lon="108.97533587396346">
        <ele>385.8300344143063</ele>
        <time>2026-09-19T00:40:26Z</time>
      </trkpt>
      <trkpt lat="34.34224219894337" lon="108.97519880720229">
        <ele>385.90061279106885</ele>
        <time>2026-09-19T00:40:47Z</time>
      </trkpt>
      <trkpt lat="34.34241033187375" lon="108.9751578066041">
        <ele>384.2302301330492</ele>
        <time>2026-09-19T00:40:56Z</time>
      </trkpt>
      <trkpt lat="34.34258103234531" lon="108.9750900527957">
        <ele>384.4328882060945</ele>
        <time>2026-09-19T00:41:05Z</time>
      </trkpt>
      <trkpt lat="34.34263373722388" lon="108.9750524519715">
        <ele>385.00540598481894</ele>
        <time>2026-09-19T00:41:08Z</time>
      </trkpt>
      <trkpt lat="34.34291623739672" lon="108.97496037489918">
        <ele>384.8455592887476</ele>
        <time>2026-09-19T00:41:23Z</time>
      </trkpt>
      <trkpt lat="34.3430237448947" lon="108.97490878358573">
        <ele>385.03349913004786</ele>
        <time>2026-09-19T00:41:29Z</time>
      </trkpt>
      <trkpt lat="34.343060574662616" lon="108.97485506230804">
        <ele>384.61945579200983</ele>
        <time>2026-09-19T00:41:32Z</time>
      </trkpt>
      <trkpt lat="34.343168194837006" lon="108.97452855010694">
        <ele>384.30303203407675</ele>
        <time>2026-09-19T00:41:47Z</time>
      </trkpt>
      <trkpt lat="34.34321757144221" lon="108.97448544779313">
        <ele>384.379914175719</ele>
        <time>2026-09-19T00:41:50Z</time>
      </trkpt>
      <trkpt lat="34.34351308455661" lon="108.9743751247886">
        <ele>385.08970682136714</ele>
        <time>2026-09-19T00:42:06Z</time>
      </trkpt>
      <trkpt lat="34.34381944770697" lon="108.9742588870136">
        <ele>383.9432032862678</ele>
        <time>2026-09-19T00:42:25Z</time>
      </trkpt>
      <trkpt lat="34.34408248729113" lon="108.97415121013984">
        <ele>383.98123506084085</ele>
        <time>2026-09-19T00:42:49Z</time>
      </trkpt>
      <trkpt lat="34.3443624705586" lon="108.97404230606595">
        <ele>384.28911836631596</ele>
        <time>2026-09-19T00:43:13Z</time>
      </trkpt>
      <trkpt lat="34.344565677859876" lon="108.97395355214591">
        <ele>384.4327436638996</ele>
        <time>2026-09-19T00:43:31Z</time>
      </trkpt>
      <trkpt lat="34.34464217086244" lon="108.97394516748898">
        <ele>383.71167120244354</ele>
        <time>2026-09-19T00:43:37Z</time>
      </trkpt>
      <trkpt lat="34.34495557841749" lon="108.97381834162509">
        <ele>385.00389739498496</ele>
        <time>2026-09-19T00:43:59Z</time>
      </trkpt>
      <trkpt lat="34.3452650436029" lon="108.97369215193324">
        <ele>384.6767031410709</ele>
        <time>2026-09-19T00:44:15Z</time>
      </trkpt>
      <trkpt lat="34.345493504432035" lon="108.97358755239215">
        <ele>385.83798308856785</ele>
        <time>2026-09-19T00:44:27Z</time>
      </trkpt>
      <trkpt lat="34.34572664869095" lon="108.97352262012193">
        <ele>384.5354273058474</ele>
        <time>2026-09-19T00:44:39Z</time>
      </trkpt>
      <trkpt lat="34.34584042229632" lon="108.9734772794737">
        <ele>384.4655571533367</ele>
        <time>2026-09-19T00:44:45Z</time>
      </trkpt>
      <trkpt lat="34.3459007906539" lon="108.97347699596263">
        <ele>384.66609430965036</ele>
        <time>2026-09-19T00:44:48Z</time>
      </trkpt>
      <trkpt lat="34.346118444271866" lon="108.97361055066031">
        <ele>383.71066985838115</ele>
        <time>2026-09-19T00:45:00Z</time>
      </trkpt>
      <trkpt lat="34.34618473041128" lon="108.97362678685582">
        <ele>384.0115283038467</ele>
        <time>2026-09-19T00:45:03Z</time>
      </trkpt>
      <trkpt lat="34.346349560370264" lon="108.9735747467588">
        <ele>385.4766457565129</ele>
        <time>2026-09-19T00:45:12Z</time>
      </trkpt>
      <trkpt lat="34.34647612132587" lon="108.97350476877597">
        <ele>385.5575558198616</ele>
        <time>2026-09-19T00:45:24Z</time>
      </trkpt>
      <trkpt lat="34.346738145929926" lon="108.97341728799643">
        <ele>387.522390040569</ele>
        <time>2026-09-19T00:45:48Z</time>
      </trkpt>
      <trkpt lat="34.34686148197255" lon="108.9733934856155">
        <ele>388.6305394805968</ele>
        <time>2026-09-19T00:46:00Z</time>
      </trkpt>
      <trkpt lat="34.34713232656957" lon="108.97348050347253">
        <ele>386.1277933809906</ele>
        <time>2026-09-19T00:46:20Z</time>
      </trkpt>
      <trkpt lat="34.34718745288809" lon="108.97347790318994">
        <ele>386.0812530275434</ele>
        <time>2026-09-19T00:46:24Z</time>
      </trkpt>
      <trkpt lat="34.347230716744335" lon="108.97344304655721">
        <ele>386.5077387923375</ele>
        <time>2026-09-19T00:46:27Z</time>
      </trkpt>
      <trkpt lat="34.347279721081364" lon="108.97329813707032">
        <ele>386.07023494690657</ele>
        <time>2026-09-19T00:46:33Z</time>
      </trkpt>
      <trkpt lat="34.347300230759764" lon="108.97310445447752">
        <ele>385.6383226113394</ele>
        <time>2026-09-19T00:46:42Z</time>
      </trkpt>
      <trkpt lat="34.34737409155851" lon="108.97301406023415">
        <ele>384.74356845300645</ele>
        <time>2026-09-19T00:46:48Z</time>
      </trkpt>
      <trkpt lat="34.34742287652353" lon="108.97299125090056">
        <ele>384.9842187585309</ele>
        <time>2026-09-19T00:46:51Z</time>
      </trkpt>
      <trkpt lat="34.347634993658076" lon="108.97302922485454">
        <ele>385.808766909875</ele>
        <time>2026-09-19T00:47:06Z</time>
      </trkpt>
      <trkpt lat="34.34762511994354" lon="108.97297407907045">
        <ele>387.0852288948372</ele>
        <time>2026-09-19T00:47:27Z</time>
      </trkpt>
      <trkpt lat="34.34757303094422" lon="108.97308645271917">
        <ele>382.6819646684453</ele>
        <time>2026-09-19T00:47:45Z</time>
      </trkpt>
      <trkpt lat="34.34765008959748" lon="108.97306177081455">
        <ele>384.3421011706814</ele>
        <time>2026-09-19T00:47:48Z</time>
      </trkpt>
      <trkpt lat="34.34776538553016" lon="108.9731451908244">
        <ele>384.93494926579297</ele>
        <time>2026-09-19T00:47:54Z</time>
      </trkpt>
      <trkpt lat="34.34782899621182" lon="108.97316652191702">
        <ele>385.23228570912033</ele>
        <time>2026-09-19T00:47:57Z</time>
      </trkpt>
      <trkpt lat="34.34800659492778" lon="108.97308340663496">
        <ele>384.60831481590867</ele>
        <time>2026-09-19T00:48:06Z</time>
      </trkpt>
      <trkpt lat="34.34822590639585" lon="108.97301947471344">
        <ele>384.83360573556274</ele>
        <time>2026-09-19T00:48:18Z</time>
      </trkpt>
      <trkpt lat="34.34827560110348" lon="108.97295334543202">
        <ele>384.5899998322129</ele>
        <time>2026-09-19T00:48:22Z</time>
      </trkpt>
      <trkpt lat="34.348313862333" lon="108.9728394574297">
        <ele>384.3143236497417</ele>
        <time>2026-09-19T00:48:28Z</time>
      </trkpt>
      <trkpt lat="34.34859437785439" lon="108.97274218455497">
        <ele>385.2681279145181</ele>
        <time>2026-09-19T00:48:43Z</time>
      </trkpt>
      <trkpt lat="34.34887149027122" lon="108.97264039898582">
        <ele>384.86778080649674</ele>
        <time>2026-09-19T00:48:58Z</time>
      </trkpt>
      <trkpt lat="34.349146501148475" lon="108.97254380344667">
        <ele>384.32890112139285</ele>
        <time>2026-09-19T00:49:13Z</time>
      </trkpt>
      <trkpt lat="34.349322276226694" lon="108.97248959610137">
        <ele>384.35812680982053</ele>
        <time>2026-09-19T00:49:22Z</time>
      </trkpt>
      <trkpt lat="34.349625522201" lon="108.97250998695122">
        <ele>384.06254865508527</ele>
        <time>2026-09-19T00:49:37Z</time>
      </trkpt>
      <trkpt lat="34.3496874636734" lon="108.97247727185157">
        <ele>384.78770237229764</ele>
        <time>2026-09-19T00:49:40Z</time>
      </trkpt>
      <trkpt lat="34.34974374992363" lon="108.9724721043655">
        <ele>384.1793011194095</ele>
        <time>2026-09-19T00:49:43Z</time>
      </trkpt>
      <trkpt lat="34.3500327403915" lon="108.97235017810684">
        <ele>384.36529279407114</ele>
        <time>2026-09-19T00:50:01Z</time>
      </trkpt>
      <trkpt lat="34.35033229960329" lon="108.97225023365866">
        <ele>383.1599107403308</ele>
        <time>2026-09-19T00:50:17Z</time>
      </trkpt>
      <trkpt lat="34.350648940703245" lon="108.9721169730804">
        <ele>383.2829169491306</ele>
        <time>2026-09-19T00:50:42Z</time>
      </trkpt>
      <trkpt lat="34.3509199392611" lon="108.97200114983424">
        <ele>383.803204189986</ele>
        <time>2026-09-19T00:51:00Z</time>
      </trkpt>
      <trkpt lat="34.35113791685125" lon="108.97195037406418">
        <ele>383.1669160621241</ele>
        <time>2026-09-19T00:51:12Z</time>
      </trkpt>
      <trkpt lat="34.3514019475573" lon="108.97182169439564">
        <ele>382.1273867711425</ele>
        <time>2026-09-19T00:51:27Z</time>
      </trkpt>
      <trkpt lat="34.35157380716893" lon="108.97178814369197">
        <ele>382.4170987578109</ele>
        <time>2026-09-19T00:51:36Z</time>
      </trkpt>
      <trkpt lat="34.35184217290677" lon="108.97170794663931">
        <ele>381.1323106735945</ele>
        <time>2026-09-19T00:51:51Z</time>
      </trkpt>
      <trkpt lat="34.35197821388083" lon="108.97163210533164">
        <ele>381.0777124846354</ele>
        <time>2026-09-19T00:52:03Z</time>
      </trkpt>
      <trkpt lat="34.3520406044477" lon="108.97162964100167">
        <ele>380.0224625375122</ele>
        <time>2026-09-19T00:52:09Z</time>
      </trkpt>
      <trkpt lat="34.3517518741188" lon="108.97172187053594">
        <ele>381.30474204104394</ele>
        <time>2026-09-19T00:53:02Z</time>
      </trkpt>
      <trkpt lat="34.351474129770565" lon="108.97182053856945">
        <ele>381.7882218211889</ele>
        <time>2026-09-19T00:53:26Z</time>
      </trkpt>
      <trkpt lat="34.35118994460268" lon="108.97193434483636">
        <ele>382.78541841357946</ele>
        <time>2026-09-19T00:53:50Z</time>
      </trkpt>
      <trkpt lat="34.35105434826146" lon="108.97198468627616">
        <ele>383.5373982442543</ele>
        <time>2026-09-19T00:54:02Z</time>
      </trkpt>
      <trkpt lat="34.35099513984447" lon="108.97202384254172">
        <ele>382.8834808394313</ele>
        <time>2026-09-19T00:54:08Z</time>
      </trkpt>
      <trkpt lat="34.35065462497337" lon="108.97215311154913">
        <ele>382.4507284471765</ele>
        <time>2026-09-19T00:54:37Z</time>
      </trkpt>
      <trkpt lat="34.35032654149123" lon="108.97227447194282">
        <ele>383.81088084354997</ele>
        <time>2026-09-19T00:55:05Z</time>
      </trkpt>
      <trkpt lat="34.35018066765296" lon="108.97232132220401">
        <ele>384.2638048483059</ele>
        <time>2026-09-19T00:55:17Z</time>
      </trkpt>
      <trkpt lat="34.350098155503254" lon="108.97232475821419">
        <ele>385.6311871642247</ele>
        <time>2026-09-19T00:55:23Z</time>
      </trkpt>
      <trkpt lat="34.349795657396506" lon="108.97244673052099">
        <ele>383.7216357626021</ele>
        <time>2026-09-19T00:55:47Z</time>
      </trkpt>
      <trkpt lat="34.34973764819557" lon="108.9724510738847">
        <ele>383.90672027878463</ele>
        <time>2026-09-19T00:55:59Z</time>
      </trkpt>
      <trkpt lat="34.34966087490084" lon="108.9724925123207">
        <ele>384.57799501158297</ele>
        <time>2026-09-19T00:56:05Z</time>
      </trkpt>
      <trkpt lat="34.349504662707886" lon="108.97250927308373">
        <ele>384.5234244475141</ele>
        <time>2026-09-19T00:56:17Z</time>
      </trkpt>
      <trkpt lat="34.349438104118185" lon="108.97249834274167">
        <ele>383.86907826084644</ele>
        <time>2026-09-19T00:56:23Z</time>
      </trkpt>
      <trkpt lat="34.3493822245077" lon="108.9724633846969">
        <ele>383.8041890496388</ele>
        <time>2026-09-19T00:56:26Z</time>
      </trkpt>
      <trkpt lat="34.34906187824892" lon="108.97256048729746">
        <ele>383.9022667761892</ele>
        <time>2026-09-19T00:56:42Z</time>
      </trkpt>
      <trkpt lat="34.34877289625936" lon="108.97267527050188">
        <ele>384.4597025755793</ele>
        <time>2026-09-19T00:56:57Z</time>
      </trkpt>
      <trkpt lat="34.34849818884363" lon="108.97277395212001">
        <ele>384.392536316067</ele>
        <time>2026-09-19T00:57:12Z</time>
      </trkpt>
      <trkpt lat="34.34820971392632" lon="108.97289486362804">
        <ele>384.57861189264804</ele>
        <time>2026-09-19T00:57:27Z</time>
      </trkpt>
      <trkpt lat="34.347926392413115" lon="108.97298969438239">
        <ele>386.14973011333495</ele>
        <time>2026-09-19T00:57:45Z</time>
      </trkpt>
      <trkpt lat="34.34779462942496" lon="108.97302926604972">
        <ele>386.225150808692</ele>
        <time>2026-09-19T00:57:54Z</time>
      </trkpt>
      <trkpt lat="34.347546693732916" lon="108.97301921669941">
        <ele>386.00257731135935</ele>
        <time>2026-09-19T00:58:15Z</time>
      </trkpt>
      <trkpt lat="34.34744190685388" lon="108.97297103597683">
        <ele>386.3459414979443</ele>
        <time>2026-09-19T00:58:30Z</time>
      </trkpt>
      <trkpt lat="34.34736788221286" lon="108.97299627567696">
        <ele>385.00792635884136</ele>
        <time>2026-09-19T00:58:36Z</time>
      </trkpt>
      <trkpt lat="34.3473321359712" lon="108.97304241713344">
        <ele>384.69331914931536</ele>
        <time>2026-09-19T00:58:40Z</time>
      </trkpt>
      <trkpt lat="34.347251809840245" lon="108.97338931894171">
        <ele>385.971099245362</ele>
        <time>2026-09-19T00:59:04Z</time>
      </trkpt>
      <trkpt lat="34.34722374292436" lon="108.97345958245262">
        <ele>385.9070353647694</ele>
        <time>2026-09-19T00:59:10Z</time>
      </trkpt>
      <trkpt lat="34.347135076014496" lon="108.97347787578786">
        <ele>385.5531543381512</ele>
        <time>2026-09-19T00:59:16Z</time>
      </trkpt>
      <trkpt lat="34.34684700320284" lon="108.97341271307607">
        <ele>385.4169433284551</ele>
        <time>2026-09-19T00:59:37Z</time>
      </trkpt>
      <trkpt lat="34.34679180651412" lon="108.97339961172332">
        <ele>384.55139419902116</ele>
        <time>2026-09-19T00:59:43Z</time>
      </trkpt>
      <trkpt lat="34.34672378072852" lon="108.97344538269017">
        <ele>385.16291883494705</ele>
        <time>2026-09-19T00:59:58Z</time>
      </trkpt>
      <trkpt lat="34.34664665033433" lon="108.97341107488018">
        <ele>384.17473974544555</ele>
        <time>2026-09-19T01:00:01Z</time>
      </trkpt>
      <trkpt lat="34.34658783192626" lon="108.97345775611656">
        <ele>385.0505706053227</ele>
        <time>2026-09-19T01:00:04Z</time>
      </trkpt>
      <trkpt lat="34.34650047341709" lon="108.97348433428883">
        <ele>385.4617758402601</ele>
        <time>2026-09-19T01:00:10Z</time>
      </trkpt>
      <trkpt lat="34.34643751151722" lon="108.9735279964898">
        <ele>384.82463171426207</ele>
        <time>2026-09-19T01:00:16Z</time>
      </trkpt>
      <trkpt lat="34.346389940589916" lon="108.97353115193418">
        <ele>384.34663030784577</ele>
        <time>2026-09-19T01:00:19Z</time>
      </trkpt>
      <trkpt lat="34.34635721467304" lon="108.97359439598934">
        <ele>383.6615210529417</ele>
        <time>2026-09-19T01:00:25Z</time>
      </trkpt>
      <trkpt lat="34.34621872982072" lon="108.9736145258957">
        <ele>384.7388436719775</ele>
        <time>2026-09-19T01:00:34Z</time>
      </trkpt>
      <trkpt lat="34.34614633819645" lon="108.97365162156919">
        <ele>384.7118583349511</ele>
        <time>2026-09-19T01:00:40Z</time>
      </trkpt>
      <trkpt lat="34.34609482769725" lon="108.97372322917684">
        <ele>384.8373304307461</ele>
        <time>2026-09-19T01:00:47Z</time>
      </trkpt>
      <trkpt lat="34.346006715002595" lon="108.97378634289609">
        <ele>383.67318020481616</ele>
        <time>2026-09-19T01:00:54Z</time>
      </trkpt>
      <trkpt lat="34.3459517873854" lon="108.97379254264531">
        <ele>384.1448051277548</ele>
        <time>2026-09-19T01:00:58Z</time>
      </trkpt>
      <trkpt lat="34.34584250285946" lon="108.97387847129129">
        <ele>383.6904505295679</ele>
        <time>2026-09-19T01:01:10Z</time>
      </trkpt>
      <trkpt lat="34.34572136990002" lon="108.97392235377943">
        <ele>384.5558028742671</ele>
        <time>2026-09-19T01:01:22Z</time>
      </trkpt>
      <trkpt lat="34.34576450034143" lon="108.97388376284773">
        <ele>383.34503120277077</ele>
        <time>2026-09-19T01:01:28Z</time>
      </trkpt>
      <trkpt lat="34.3457955082887" lon="108.97384214813894">
        <ele>371.70880126953125</ele>
        <time>2026-09-19T01:02:17Z</time>
      </trkpt>
      <trkpt lat="34.34566556672608" lon="108.97397140242863">
        <ele>383.0110329259187</ele>
        <time>2026-09-19T01:02:20Z</time>
      </trkpt>
      <trkpt lat="34.34548323266343" lon="108.97403286202047">
        <ele>383.83025948982686</ele>
        <time>2026-09-19T01:03:09Z</time>
      </trkpt>
      <trkpt lat="34.34547115686822" lon="108.97396741431999">
        <ele>384.1142583684996</ele>
        <time>2026-09-19T01:03:18Z</time>
      </trkpt>
      <trkpt lat="34.34555970561652" lon="108.97403089033139">
        <ele>383.89743274543434</ele>
        <time>2026-09-19T01:03:33Z</time>
      </trkpt>
      <trkpt lat="34.34567784633827" lon="108.9739443214731">
        <ele>384.69743448588997</ele>
        <time>2026-09-19T01:03:48Z</time>
      </trkpt>
      <trkpt lat="34.34572825036594" lon="108.97394401672324">
        <ele>383.7990356720984</ele>
        <time>2026-09-19T01:03:54Z</time>
      </trkpt>
      <trkpt lat="34.34577596667616" lon="108.9738787598165">
        <ele>383.1796712335199</ele>
        <time>2026-09-19T01:04:15Z</time>
      </trkpt>
      <trkpt lat="34.34591692362548" lon="108.9737443070913">
        <ele>385.6305875936523</ele>
        <time>2026-09-19T01:04:33Z</time>
      </trkpt>
      <trkpt lat="34.34601506126158" lon="108.97371659065006">
        <ele>384.7331704348326</ele>
        <time>2026-09-19T01:04:39Z</time>
      </trkpt>
      <trkpt lat="34.34606787405488" lon="108.97365477444731">
        <ele>384.49113865196705</ele>
        <time>2026-09-19T01:04:45Z</time>
      </trkpt>
      <trkpt lat="34.34605099074177" lon="108.97359414662506">
        <ele>384.7214883947745</ele>
        <time>2026-09-19T01:04:54Z</time>
      </trkpt>
      <trkpt lat="34.3459416760756" lon="108.97353115382093">
        <ele>384.78795480541885</ele>
        <time>2026-09-19T01:05:08Z</time>
      </trkpt>
      <trkpt lat="34.34581031156923" lon="108.97352397836659">
        <ele>384.0816090889275</ele>
        <time>2026-09-19T01:05:20Z</time>
      </trkpt>
      <trkpt lat="34.34560740933736" lon="108.9736196521479">
        <ele>384.3343666996807</ele>
        <time>2026-09-19T01:05:38Z</time>
      </trkpt>
      <trkpt lat="34.34531207394985" lon="108.9736889589584">
        <ele>384.2283934801817</ele>
        <time>2026-09-19T01:06:02Z</time>
      </trkpt>
      <trkpt lat="34.345020778008454" lon="108.97379307688594">
        <ele>384.3964046286419</ele>
        <time>2026-09-19T01:06:26Z</time>
      </trkpt>
      <trkpt lat="34.344727581343335" lon="108.9739122552529">
        <ele>384.2240665340796</ele>
        <time>2026-09-19T01:06:50Z</time>
      </trkpt>
      <trkpt lat="34.34445425070939" lon="108.97402093936185">
        <ele>384.2691520899534</ele>
        <time>2026-09-19T01:07:12Z</time>
      </trkpt>
      <trkpt lat="34.34418935133834" lon="108.97410081676894">
        <ele>384.5128920096904</ele>
        <time>2026-09-19T01:07:27Z</time>
      </trkpt>
      <trkpt lat="34.34390868373316" lon="108.9742072960757">
        <ele>384.9912002570927</ele>
        <time>2026-09-19T01:07:42Z</time>
      </trkpt>
      <trkpt lat="34.34363594146849" lon="108.97431787845609">
        <ele>385.14112708717585</ele>
        <time>2026-09-19T01:07:57Z</time>
      </trkpt>
      <trkpt lat="34.34347404365519" lon="108.97437567651447">
        <ele>384.57299573440105</ele>
        <time>2026-09-19T01:08:06Z</time>
      </trkpt>
      <trkpt lat="34.34344881537498" lon="108.97432694867318">
        <ele>384.44041219819337</ele>
        <time>2026-09-19T01:08:27Z</time>
      </trkpt>
      <trkpt lat="34.34333528501157" lon="108.97441803170564">
        <ele>385.25346204452217</ele>
        <time>2026-09-19T01:09:28Z</time>
      </trkpt>
      <trkpt lat="34.343192490906084" lon="108.97446626933043">
        <ele>385.16482468135655</ele>
        <time>2026-09-19T01:09:34Z</time>
      </trkpt>
      <trkpt lat="34.343132304723206" lon="108.9745556786826">
        <ele>385.34102982934564</ele>
        <time>2026-09-19T01:09:37Z</time>
      </trkpt>
      <trkpt lat="34.34305406737026" lon="108.97482801330293">
        <ele>384.40343579649925</ele>
        <time>2026-09-19T01:09:43Z</time>
      </trkpt>
      <trkpt lat="34.342975588110434" lon="108.9749160955411">
        <ele>386.30050429701805</ele>
        <time>2026-09-19T01:09:46Z</time>
      </trkpt>
      <trkpt lat="34.34288633601791" lon="108.97494034579842">
        <ele>384.7984329620376</ele>
        <time>2026-09-19T01:09:49Z</time>
      </trkpt>
      <trkpt lat="34.34266347909923" lon="108.97505185307068">
        <ele>384.8576899729669</ele>
        <time>2026-09-19T01:09:58Z</time>
      </trkpt>
      <trkpt lat="34.34259300918661" lon="108.9750650750369">
        <ele>384.2663705898449</ele>
        <time>2026-09-19T01:10:01Z</time>
      </trkpt>
      <trkpt lat="34.34232662936352" lon="108.97519730256562">
        <ele>385.15695234481245</ele>
        <time>2026-09-19T01:10:16Z</time>
      </trkpt>
      <trkpt lat="34.34203643257229" lon="108.9752978145659">
        <ele>385.6298879729584</ele>
        <time>2026-09-19T01:10:28Z</time>
      </trkpt>
      <trkpt lat="34.34196219139495" lon="108.97530285188648">
        <ele>384.46883208025247</ele>
        <time>2026-09-19T01:10:31Z</time>
      </trkpt>
      <trkpt lat="34.34185030084389" lon="108.97540009489592">
        <ele>385.38332427479327</ele>
        <time>2026-09-19T01:10:37Z</time>
      </trkpt>
      <trkpt lat="34.34158194775532" lon="108.97548452110907">
        <ele>385.9461562698707</ele>
        <time>2026-09-19T01:10:55Z</time>
      </trkpt>
      <trkpt lat="34.341401341118456" lon="108.97557386712481">
        <ele>384.766352747567</ele>
        <time>2026-09-19T01:11:04Z</time>
      </trkpt>
      <trkpt lat="34.34135512254608" lon="108.97556202539518">
        <ele>385.167716040276</ele>
        <time>2026-09-19T01:11:07Z</time>
      </trkpt>
      <trkpt lat="34.341273717035364" lon="108.97560246179503">
        <ele>385.12130336649716</ele>
        <time>2026-09-19T01:11:13Z</time>
      </trkpt>
      <trkpt lat="34.34119855466879" lon="108.97568056784954">
        <ele>385.2018419858068</ele>
        <time>2026-09-19T01:11:17Z</time>
      </trkpt>
      <trkpt lat="34.34109982417836" lon="108.97566730073386">
        <ele>384.49673277139664</ele>
        <time>2026-09-19T01:11:20Z</time>
      </trkpt>
      <trkpt lat="34.34081375201491" lon="108.97572740932718">
        <ele>386.206407382153</ele>
        <time>2026-09-19T01:11:32Z</time>
      </trkpt>
      <trkpt lat="34.34055612879207" lon="108.9758357398853">
        <ele>388.60836420580745</ele>
        <time>2026-09-19T01:11:50Z</time>
      </trkpt>
      <trkpt lat="34.34021882718932" lon="108.97596308466153">
        <ele>389.39160543028265</ele>
        <time>2026-09-19T01:12:17Z</time>
      </trkpt>
      <trkpt lat="34.33992139471516" lon="108.9760714195989">
        <ele>390.7035771217197</ele>
        <time>2026-09-19T01:12:41Z</time>
      </trkpt>
      <trkpt lat="34.33977907164702" lon="108.9761414893045">
        <ele>390.63582960516214</ele>
        <time>2026-09-19T01:12:53Z</time>
      </trkpt>
      <trkpt lat="34.339698588176326" lon="108.97615752321289">
        <ele>390.59987977240235</ele>
        <time>2026-09-19T01:12:59Z</time>
      </trkpt>
      <trkpt lat="34.33961136844142" lon="108.97620050718311">
        <ele>390.7390701798722</ele>
        <time>2026-09-19T01:13:05Z</time>
      </trkpt>
      <trkpt lat="34.339529902511615" lon="108.97621328188075">
        <ele>390.8055058410391</ele>
        <time>2026-09-19T01:13:11Z</time>
      </trkpt>
      <trkpt lat="34.33925412070824" lon="108.97630319841844">
        <ele>390.23763376660645</ele>
        <time>2026-09-19T01:13:27Z</time>
      </trkpt>
      <trkpt lat="34.338982368621174" lon="108.97637759667097">
        <ele>390.06721140630543</ele>
        <time>2026-09-19T01:13:39Z</time>
      </trkpt>
      <trkpt lat="34.338697245204486" lon="108.97643150851945">
        <ele>389.6708659147844</ele>
        <time>2026-09-19T01:13:51Z</time>
      </trkpt>
      <trkpt lat="34.33842076951904" lon="108.97645535082565">
        <ele>389.93870181776583</ele>
        <time>2026-09-19T01:14:03Z</time>
      </trkpt>
      <trkpt lat="34.338148722133155" lon="108.97647606325582">
        <ele>390.72587651386857</ele>
        <time>2026-09-19T01:14:15Z</time>
      </trkpt>
      <trkpt lat="34.337861537252785" lon="108.97646589562086">
        <ele>390.21615897584707</ele>
        <time>2026-09-19T01:14:39Z</time>
      </trkpt>
      <trkpt lat="34.33755439740823" lon="108.97645448733644">
        <ele>390.3913861522451</ele>
        <time>2026-09-19T01:15:03Z</time>
      </trkpt>
      <trkpt lat="34.337278586179075" lon="108.97644741347963">
        <ele>390.6274879304692</ele>
        <time>2026-09-19T01:15:28Z</time>
      </trkpt>
      <trkpt lat="34.33693249596696" lon="108.97641197293865">
        <ele>391.25827410351485</ele>
        <time>2026-09-19T01:15:52Z</time>
      </trkpt>
      <trkpt lat="34.33676911997102" lon="108.97640556694498">
        <ele>390.8908967291936</ele>
        <time>2026-09-19T01:16:04Z</time>
      </trkpt>
      <trkpt lat="34.33664362480879" lon="108.97645401108305">
        <ele>390.86266868840903</ele>
        <time>2026-09-19T01:16:16Z</time>
      </trkpt>
      <trkpt lat="34.33659244771604" lon="108.97642124300597">
        <ele>390.66365015972406</ele>
        <time>2026-09-19T01:17:10Z</time>
      </trkpt>
      <trkpt lat="34.33654686007434" lon="108.97642550809121">
        <ele>390.567479101941</ele>
        <time>2026-09-19T01:17:13Z</time>
      </trkpt>
      <trkpt lat="34.336472588827775" lon="108.97639380337492">
        <ele>390.3306196387857</ele>
        <time>2026-09-19T01:17:19Z</time>
      </trkpt>
      <trkpt lat="34.33639289401212" lon="108.97642764097066">
        <ele>390.7797742113471</ele>
        <time>2026-09-19T01:17:35Z</time>
      </trkpt>
      <trkpt lat="34.33632853841457" lon="108.97639336081079">
        <ele>390.99760333634913</ele>
        <time>2026-09-19T01:17:39Z</time>
      </trkpt>
      <trkpt lat="34.33620825933308" lon="108.97636145295971">
        <ele>390.57815251499414</ele>
        <time>2026-09-19T01:17:53Z</time>
      </trkpt>
      <trkpt lat="34.336110957093" lon="108.97635271260422">
        <ele>390.9333083536476</ele>
        <time>2026-09-19T01:18:02Z</time>
      </trkpt>
      <trkpt lat="34.335984572626714" lon="108.9763663600775">
        <ele>390.37266380060464</ele>
        <time>2026-09-19T01:18:08Z</time>
      </trkpt>
      <trkpt lat="34.3356918665202" lon="108.97632816462712">
        <ele>390.3230138113722</ele>
        <time>2026-09-19T01:18:23Z</time>
      </trkpt>
      <trkpt lat="34.3354946575907" lon="108.97631878255042">
        <ele>390.29439447261393</ele>
        <time>2026-09-19T01:18:32Z</time>
      </trkpt>
      <trkpt lat="34.33543311967269" lon="108.9763014290677">
        <ele>390.05047415569425</ele>
        <time>2026-09-19T01:18:35Z</time>
      </trkpt>
      <trkpt lat="34.335255606623896" lon="108.97634054208734">
        <ele>391.0408559544012</ele>
        <time>2026-09-19T01:18:44Z</time>
      </trkpt>
      <trkpt lat="34.33514896369352" lon="108.97632388853584">
        <ele>392.14638397842646</ele>
        <time>2026-09-19T01:18:50Z</time>
      </trkpt>
      <trkpt lat="34.33510670015703" lon="108.97635682073398">
        <ele>391.8513763844967</ele>
        <time>2026-09-19T01:18:53Z</time>
      </trkpt>
      <trkpt lat="34.335020813908535" lon="108.97646429942296">
        <ele>391.6618119524792</ele>
        <time>2026-09-19T01:19:05Z</time>
      </trkpt>
      <trkpt lat="34.33496646310581" lon="108.97649650474627">
        <ele>392.00970762223005</ele>
        <time>2026-09-19T01:19:08Z</time>
      </trkpt>
      <trkpt lat="34.33482949937143" lon="108.97650230969175">
        <ele>391.42806780245155</ele>
        <time>2026-09-19T01:19:14Z</time>
      </trkpt>
      <trkpt lat="34.33476741850901" lon="108.976479305165">
        <ele>391.72567092068493</ele>
        <time>2026-09-19T01:19:17Z</time>
      </trkpt>
      <trkpt lat="34.33463340808107" lon="108.97628848987932">
        <ele>390.5964631950483</ele>
        <time>2026-09-19T01:19:26Z</time>
      </trkpt>
      <trkpt lat="34.33458255241311" lon="108.97625346623548">
        <ele>391.1743671949953</ele>
        <time>2026-09-19T01:19:29Z</time>
      </trkpt>
      <trkpt lat="34.33444190250931" lon="108.97625651655075">
        <ele>390.61656134203076</ele>
        <time>2026-09-19T01:19:35Z</time>
      </trkpt>
      <trkpt lat="34.3343818482642" lon="108.97623898151316">
        <ele>391.3554618200287</ele>
        <time>2026-09-19T01:19:38Z</time>
      </trkpt>
      <trkpt lat="34.3342942956939" lon="108.97625089295572">
        <ele>391.42655943520367</ele>
        <time>2026-09-19T01:19:42Z</time>
      </trkpt>
      <trkpt lat="34.33393290700228" lon="108.97620765235298">
        <ele>392.48125485889614</ele>
        <time>2026-09-19T01:19:58Z</time>
      </trkpt>
      <trkpt lat="34.333863830985415" lon="108.97622143655653">
        <ele>391.62366656120867</ele>
        <time>2026-09-19T01:20:01Z</time>
      </trkpt>
      <trkpt lat="34.33379159569468" lon="108.97619457300226">
        <ele>392.17504805885255</ele>
        <time>2026-09-19T01:20:04Z</time>
      </trkpt>
      <trkpt lat="34.333503846725854" lon="108.97618507053453">
        <ele>392.0026262598112</ele>
        <time>2026-09-19T01:20:31Z</time>
      </trkpt>
      <trkpt lat="34.333172966089755" lon="108.97615328084017">
        <ele>392.7340735672042</ele>
        <time>2026-09-19T01:21:01Z</time>
      </trkpt>
      <trkpt lat="34.33290329767224" lon="108.97613536411419">
        <ele>392.80006633978337</ele>
        <time>2026-09-19T01:21:22Z</time>
      </trkpt>
      <trkpt lat="34.332822819688595" lon="108.97614850852005">
        <ele>392.6675459938124</ele>
        <time>2026-09-19T01:21:28Z</time>
      </trkpt>
      <trkpt lat="34.332746625171225" lon="108.97612747743936">
        <ele>392.9190851645544</ele>
        <time>2026-09-19T01:21:34Z</time>
      </trkpt>
      <trkpt lat="34.33268186649651" lon="108.97608487686306">
        <ele>393.03732953965664</ele>
        <time>2026-09-19T01:21:40Z</time>
      </trkpt>
      <trkpt lat="34.33258105589426" lon="108.97596167769822">
        <ele>393.51847095042467</ele>
        <time>2026-09-19T01:21:51Z</time>
      </trkpt>
      <trkpt lat="34.33253570612916" lon="108.97594873454884">
        <ele>393.0580145949498</ele>
        <time>2026-09-19T01:21:55Z</time>
      </trkpt>
      <trkpt lat="34.33224826648271" lon="108.97592208179937">
        <ele>392.5972199430689</ele>
        <time>2026-09-19T01:22:26Z</time>
      </trkpt>
      <trkpt lat="34.33194644927014" lon="108.97591284564402">
        <ele>392.2910926621407</ele>
        <time>2026-09-19T01:22:41Z</time>
      </trkpt>
      <trkpt lat="34.331884887816365" lon="108.97592467467605">
        <ele>392.6231001242995</ele>
        <time>2026-09-19T01:22:44Z</time>
      </trkpt>
      <trkpt lat="34.33182836332195" lon="108.9759643775023">
        <ele>393.04569227900356</ele>
        <time>2026-09-19T01:22:47Z</time>
      </trkpt>
      <trkpt lat="34.331716712078716" lon="108.97614448023896">
        <ele>393.2135267620906</ele>
        <time>2026-09-19T01:22:56Z</time>
      </trkpt>
      <trkpt lat="34.33166591747662" lon="108.97618747585767">
        <ele>392.20722876116633</ele>
        <time>2026-09-19T01:22:59Z</time>
      </trkpt>
      <trkpt lat="34.331372445328064" lon="108.97617181673726">
        <ele>394.68646738957614</ele>
        <time>2026-09-19T01:23:14Z</time>
      </trkpt>
      <trkpt lat="34.331176575786216" lon="108.97616223178363">
        <ele>393.4653660627082</ele>
        <time>2026-09-19T01:23:32Z</time>
      </trkpt>
      <trkpt lat="34.33103214414026" lon="108.9764449019119">
        <ele>393.37073191907257</ele>
        <time>2026-09-19T01:23:54Z</time>
      </trkpt>
      <trkpt lat="34.33096434313345" lon="108.97652829487949">
        <ele>393.4039324009791</ele>
        <time>2026-09-19T01:24:02Z</time>
      </trkpt>
      <trkpt lat="34.33083071288118" lon="108.97661394967827">
        <ele>393.5262024169788</ele>
        <time>2026-09-19T01:24:14Z</time>
      </trkpt>
      <trkpt lat="34.330770979310046" lon="108.97663216267038">
        <ele>394.01121860090643</ele>
        <time>2026-09-19T01:24:18Z</time>
      </trkpt>
      <trkpt lat="34.33072181807762" lon="108.9767017144586">
        <ele>393.80268319137394</ele>
        <time>2026-09-19T01:24:24Z</time>
      </trkpt>
      <trkpt lat="34.330700388905036" lon="108.97679097452918">
        <ele>394.7517575090751</ele>
        <time>2026-09-19T01:24:30Z</time>
      </trkpt>
      <trkpt lat="34.330718490341795" lon="108.9771794228976">
        <ele>395.2882656091824</ele>
        <time>2026-09-19T01:24:55Z</time>
      </trkpt>
      <trkpt lat="34.3306943226575" lon="108.97754267278384">
        <ele>394.9692635256797</ele>
        <time>2026-09-19T01:25:16Z</time>
      </trkpt>
      <trkpt lat="34.33069249789353" lon="108.9777853112079">
        <ele>394.21986218262464</ele>
        <time>2026-09-19T01:25:31Z</time>
      </trkpt>
      <trkpt lat="34.330674383691694" lon="108.97786913130066">
        <ele>394.4207893470302</ele>
        <time>2026-09-19T01:25:37Z</time>
      </trkpt>
      <trkpt lat="34.33061093790445" lon="108.97790378998181">
        <ele>394.3613783111796</ele>
        <time>2026-09-19T01:25:40Z</time>
      </trkpt>
      <trkpt lat="34.33059334244629" lon="108.97796874164445">
        <ele>393.5876208236441</ele>
        <time>2026-09-19T01:25:46Z</time>
      </trkpt>
      <trkpt lat="34.33059028127852" lon="108.97811334144995">
        <ele>394.7965867621824</ele>
        <time>2026-09-19T01:25:55Z</time>
      </trkpt>
      <trkpt lat="34.33061083191372" lon="108.97818541134467">
        <ele>393.6867429455742</ele>
        <time>2026-09-19T01:25:59Z</time>
      </trkpt>
      <trkpt lat="34.33066113557005" lon="108.97817041537319">
        <ele>395.25706234108657</ele>
        <time>2026-09-19T01:26:03Z</time>
      </trkpt>
      <trkpt lat="34.33069136909907" lon="108.97821081779885">
        <ele>394.74944684188813</ele>
        <time>2026-09-19T01:26:07Z</time>
      </trkpt>
      <trkpt lat="34.33067311837816" lon="108.97860645580991">
        <ele>393.91838526166975</ele>
        <time>2026-09-19T01:26:29Z</time>
      </trkpt>
      <trkpt lat="34.330657183125375" lon="108.97870693490638">
        <ele>394.3361081518233</ele>
        <time>2026-09-19T01:26:35Z</time>
      </trkpt>
      <trkpt lat="34.330592106938795" lon="108.97885544021644">
        <ele>394.50873807631433</ele>
        <time>2026-09-19T01:26:47Z</time>
      </trkpt>
      <trkpt lat="34.330593512219934" lon="108.97891018121214">
        <ele>394.5612449189648</ele>
        <time>2026-09-19T01:26:50Z</time>
      </trkpt>
      <trkpt lat="34.33054859528257" lon="108.97898329649624">
        <ele>394.81842718087137</ele>
        <time>2026-09-19T01:26:56Z</time>
      </trkpt>
      <trkpt lat="34.3304215820801" lon="108.97905083372827">
        <ele>396.08158458583057</ele>
        <time>2026-09-19T01:27:05Z</time>
      </trkpt>
      <trkpt lat="34.33029172261422" lon="108.97906045622972">
        <ele>395.89127051550895</ele>
        <time>2026-09-19T01:27:17Z</time>
      </trkpt>
      <trkpt lat="34.330201903421596" lon="108.97910447075446">
        <ele>395.1284770471975</ele>
        <time>2026-09-19T01:27:23Z</time>
      </trkpt>
      <trkpt lat="34.33015290413236" lon="108.9790905991613">
        <ele>395.30880903825164</ele>
        <time>2026-09-19T01:27:26Z</time>
      </trkpt>
      <trkpt lat="34.33011329009017" lon="108.97914391133986">
        <ele>395.0838869502768</ele>
        <time>2026-09-19T01:27:50Z</time>
      </trkpt>
      <trkpt lat="34.33004532811648" lon="108.97913998414556">
        <ele>394.62847881484777</ele>
        <time>2026-09-19T01:28:33Z</time>
      </trkpt>
      <trkpt lat="34.32999238133104" lon="108.97909340911232">
        <ele>394.6224809885025</ele>
        <time>2026-09-19T01:28:39Z</time>
      </trkpt>
      <trkpt lat="34.32999503530947" lon="108.97903154552773">
        <ele>395.0381842004135</ele>
        <time>2026-09-19T01:29:03Z</time>
      </trkpt>
      <trkpt lat="34.330024946220945" lon="108.97899086860009">
        <ele>395.1277407426387</ele>
        <time>2026-09-19T01:29:15Z</time>
      </trkpt>
      <trkpt lat="34.32995904786167" lon="108.97903077429977">
        <ele>399.8369142282754</ele>
        <time>2026-09-19T01:29:33Z</time>
      </trkpt>
      <trkpt lat="34.329944032099924" lon="108.97911788546477">
        <ele>399.90374777652323</ele>
        <time>2026-09-19T01:29:36Z</time>
      </trkpt>
      <trkpt lat="34.3299900253163" lon="108.97902204341143">
        <ele>394.9064365811646</ele>
        <time>2026-09-19T01:29:39Z</time>
      </trkpt>
      <trkpt lat="34.32994928608641" lon="108.9791467882303">
        <ele>394.87854056060314</ele>
        <time>2026-09-19T01:29:54Z</time>
      </trkpt>
      <trkpt lat="34.32980469140847" lon="108.9792045453321">
        <ele>394.99069180805236</ele>
        <time>2026-09-19T01:30:06Z</time>
      </trkpt>
      <trkpt lat="34.3298532979058" lon="108.9791665471074">
        <ele>394.99601781368256</ele>
        <time>2026-09-19T01:30:19Z</time>
      </trkpt>
      <trkpt lat="34.32986987950176" lon="108.97926392876359">
        <ele>394.75634389091283</ele>
        <time>2026-09-19T01:30:28Z</time>
      </trkpt>
      <trkpt lat="34.32989518644926" lon="108.97921539706053">
        <ele>395.5674915332347</ele>
        <time>2026-09-19T01:30:43Z</time>
      </trkpt>
      <trkpt lat="34.329932343393764" lon="108.97914922528527">
        <ele>395.2645903546363</ele>
        <time>2026-09-19T01:30:46Z</time>
      </trkpt>
      <trkpt lat="34.32988159904458" lon="108.9791289594291">
        <ele>395.4618137087673</ele>
        <time>2026-09-19T01:32:04Z</time>
      </trkpt>
      <trkpt lat="34.32993625399785" lon="108.97913536385339">
        <ele>394.77040157001466</ele>
        <time>2026-09-19T01:33:08Z</time>
      </trkpt>
      <trkpt lat="34.329880874669264" lon="108.9791263600743">
        <ele>395.49914187099785</ele>
        <time>2026-09-19T01:33:50Z</time>
      </trkpt>
      <trkpt lat="34.32991872372794" lon="108.97919019990985">
        <ele>395.13837081287056</ele>
        <time>2026-09-19T01:34:24Z</time>
      </trkpt>
      <trkpt lat="34.32990152441594" lon="108.97929964593013">
        <ele>395.4579824861139</ele>
        <time>2026-09-19T01:34:30Z</time>
      </trkpt>
      <trkpt lat="34.32984796944596" lon="108.97935076439599">
        <ele>395.08610274177045</ele>
        <time>2026-09-19T01:34:33Z</time>
      </trkpt>
      <trkpt lat="34.32990845348746" lon="108.97952796076545">
        <ele>395.943853138946</ele>
        <time>2026-09-19T01:34:39Z</time>
      </trkpt>
      <trkpt lat="34.329886107008896" lon="108.97957648704453">
        <ele>395.8421986820176</ele>
        <time>2026-09-19T01:34:42Z</time>
      </trkpt>
      <trkpt lat="34.32986686746832" lon="108.97985186949043">
        <ele>395.16075685992837</ele>
        <time>2026-09-19T01:35:00Z</time>
      </trkpt>
      <trkpt lat="34.329875110756014" lon="108.98005826689642">
        <ele>395.56716476380825</ele>
        <time>2026-09-19T01:35:15Z</time>
      </trkpt>
      <trkpt lat="34.32985290150369" lon="108.98016472430075">
        <ele>396.8340352829546</ele>
        <time>2026-09-19T01:35:21Z</time>
      </trkpt>
      <trkpt lat="34.32961550270089" lon="108.98036482468355">
        <ele>395.7056068200618</ele>
        <time>2026-09-19T01:35:45Z</time>
      </trkpt>
      <trkpt lat="34.329584694827204" lon="108.98040707897273">
        <ele>395.6725755603984</ele>
        <time>2026-09-19T01:35:48Z</time>
      </trkpt>
      <trkpt lat="34.329538819202995" lon="108.98033702410407">
        <ele>396.0088285803795</ele>
        <time>2026-09-19T01:35:51Z</time>
      </trkpt>
      <trkpt lat="34.32945590559196" lon="108.9803255563648">
        <ele>395.78211380075663</ele>
        <time>2026-09-19T01:35:57Z</time>
      </trkpt>
      <trkpt lat="34.32922223024274" lon="108.98039583830744">
        <ele>396.3099143700674</ele>
        <time>2026-09-19T01:36:15Z</time>
      </trkpt>
      <trkpt lat="34.32910567330804" lon="108.98049152502053">
        <ele>395.7873967560008</ele>
        <time>2026-09-19T01:36:28Z</time>
      </trkpt>
      <trkpt lat="34.329036566178154" lon="108.98059846308715">
        <ele>395.67413452640176</ele>
        <time>2026-09-19T01:36:36Z</time>
      </trkpt>
      <trkpt lat="34.328914236930004" lon="108.98063896691589">
        <ele>395.33143689110875</ele>
        <time>2026-09-19T01:36:47Z</time>
      </trkpt>
      <trkpt lat="34.32863735170201" lon="108.98064280899855">
        <ele>395.3374030292034</ele>
        <time>2026-09-19T01:37:08Z</time>
      </trkpt>
      <trkpt lat="34.3285883140375" lon="108.98062066720618">
        <ele>395.85567637346685</ele>
        <time>2026-09-19T01:37:11Z</time>
      </trkpt>
      <trkpt lat="34.32856283459499" lon="108.98051660840464">
        <ele>395.6651186514646</ele>
        <time>2026-09-19T01:37:17Z</time>
      </trkpt>
      <trkpt lat="34.32850299548298" lon="108.98034139837739">
        <ele>396.3123429948464</ele>
        <time>2026-09-19T01:37:26Z</time>
      </trkpt>
      <trkpt lat="34.328535089681736" lon="108.98028240094172">
        <ele>395.6817308217287</ele>
        <time>2026-09-19T01:37:35Z</time>
      </trkpt>
      <trkpt lat="34.32859445475057" lon="108.98027559387673">
        <ele>395.83150324132293</ele>
        <time>2026-09-19T01:40:32Z</time>
      </trkpt>
      <trkpt lat="34.32852700371063" lon="108.98029178058978">
        <ele>395.59924402087927</ele>
        <time>2026-09-19T01:41:02Z</time>
      </trkpt>
      <trkpt lat="34.32858088260131" lon="108.98028948691201">
        <ele>395.66110204719007</ele>
        <time>2026-09-19T01:41:59Z</time>
      </trkpt>
      <trkpt lat="34.32853449983091" lon="108.98030153720939">
        <ele>395.9824251094833</ele>
        <time>2026-09-19T01:44:46Z</time>
      </trkpt>
      <trkpt lat="34.32860809602922" lon="108.98038714218674">
        <ele>396.3355719521642</ele>
        <time>2026-09-19T01:44:57Z</time>
      </trkpt>
      <trkpt lat="34.328568806083105" lon="108.98052561783035">
        <ele>396.043762370944</ele>
        <time>2026-09-19T01:45:05Z</time>
      </trkpt>
      <trkpt lat="34.32856363333201" lon="108.98071179748545">
        <ele>395.7393941935152</ele>
        <time>2026-09-19T01:45:17Z</time>
      </trkpt>
      <trkpt lat="34.32850705375543" lon="108.98080899239068">
        <ele>396.42344654910266</ele>
        <time>2026-09-19T01:45:23Z</time>
      </trkpt>
      <trkpt lat="34.328463393904215" lon="108.98084147921254">
        <ele>396.03430714458227</ele>
        <time>2026-09-19T01:45:26Z</time>
      </trkpt>
      <trkpt lat="34.328352644887744" lon="108.98082261010045">
        <ele>394.4581610998139</ele>
        <time>2026-09-19T01:45:36Z</time>
      </trkpt>
      <trkpt lat="34.328405166050324" lon="108.98078398204304">
        <ele>395.4007075028494</ele>
        <time>2026-09-19T01:46:00Z</time>
      </trkpt>
      <trkpt lat="34.328484528609366" lon="108.98077208028712">
        <ele>395.8819722644985</ele>
        <time>2026-09-19T01:46:06Z</time>
      </trkpt>
      <trkpt lat="34.32854020343566" lon="108.98072173368142">
        <ele>395.75213734433055</ele>
        <time>2026-09-19T01:46:12Z</time>
      </trkpt>
      <trkpt lat="34.328538689055776" lon="108.98056582717939">
        <ele>396.1596815986559</ele>
        <time>2026-09-19T01:46:21Z</time>
      </trkpt>
    </trkseg>
  </trk>
</gpx>