<?xml version="1.0" encoding="UTF-8"?>
<gpx xmlns="http://www.topografix.com/GPX/1/1" xmlns:gpxtpx="http://www.garmin.com/xmlschemas/TrackPointExtension/v1" xmlns:xsi="http://www.w3.org/2001/XMLSchema-instance" xsi:schemaLocation="http://www.topografix.com/GPX/1/1 http://www.topografix.com/GPX/1/1/gpx.xsd" version="1.1" creator="gpx.py -- https://github.com/tkrajina/gpxpy">
  <trk>
    <name>gpx from keep</name>
    <type>Run</type>
    <trkseg>
      <trkpt lat="34.297942983128024" lon="108.71006140791297">
        <ele>389.4019931303337</ele>
        <time>2026-08-17T22:48:55Z</time>
      </trkpt>
      <trkpt lat="34.297994189749616" lon="108.7101713887336">
        <ele>388.83305793534964</ele>
        <time>2026-08-17T22:49:01Z</time>
      </trkpt>
      <trkpt lat="34.29803075369804" lon="108.71032942114257">
        <ele>388.5631053093821</ele>
        <time>2026-08-17T22:49:07Z</time>
      </trkpt>
      <trkpt lat="34.298020887964256" lon="108.71047080814134">
        <ele>389.5888450657949</ele>
        <time>2026-08-17T22:49:13Z</time>
      </trkpt>
      <trkpt lat="34.29809750503388" lon="108.71066500996196">
        <ele>389.1164678838104</ele>
        <time>2026-08-17T22:49:22Z</time>
      </trkpt>
      <trkpt lat="34.2980775172237" lon="108.7107855580187">
        <ele>389.64544896315783</ele>
        <time>2026-08-17T22:49:28Z</time>
      </trkpt>
      <trkpt lat="34.298082120131085" lon="108.71084885482138">
        <ele>389.84744847007096</ele>
        <time>2026-08-17T22:49:31Z</time>
      </trkpt>
      <trkpt lat="34.29813823916813" lon="108.71096845018484">
        <ele>389.9211250571534</ele>
        <time>2026-08-17T22:49:37Z</time>
      </trkpt>
      <trkpt lat="34.29817847580667" lon="108.71130106992925">
        <ele>389.5870884489268</ele>
        <time>2026-08-17T22:49:55Z</time>
      </trkpt>
      <trkpt lat="34.2981412779407" lon="108.71140603483572">
        <ele>390.67612104211</ele>
        <time>2026-08-17T22:50:01Z</time>
      </trkpt>
      <trkpt lat="34.297947851727535" lon="108.71148833231003">
        <ele>388.9004021110013</ele>
        <time>2026-08-17T22:50:13Z</time>
      </trkpt>
      <trkpt lat="34.29790969637658" lon="108.7115250041676">
        <ele>389.66628551576287</ele>
        <time>2026-08-17T22:50:16Z</time>
      </trkpt>
      <trkpt lat="34.29756419652783" lon="108.71163742786723">
        <ele>388.97148565389216</ele>
        <time>2026-08-17T22:50:38Z</time>
      </trkpt>
      <trkpt lat="34.29747482143709" lon="108.71169162269057">
        <ele>389.14290647022426</ele>
        <time>2026-08-17T22:50:44Z</time>
      </trkpt>
      <trkpt lat="34.29728124489331" lon="108.71173681864913">
        <ele>389.4638437330723</ele>
        <time>2026-08-17T22:50:56Z</time>
      </trkpt>
      <trkpt lat="34.29702870553006" lon="108.71185764709367">
        <ele>389.3268623659387</ele>
        <time>2026-08-17T22:51:11Z</time>
      </trkpt>
      <trkpt lat="34.29697349138733" lon="108.71186019654317">
        <ele>388.73450981266797</ele>
        <time>2026-08-17T22:51:14Z</time>
      </trkpt>
      <trkpt lat="34.296932504023644" lon="108.7118966884791">
        <ele>388.83430172502995</ele>
        <time>2026-08-17T22:51:17Z</time>
      </trkpt>
      <trkpt lat="34.29662655747088" lon="108.71202635677027">
        <ele>388.6116344537586</ele>
        <time>2026-08-17T22:51:35Z</time>
      </trkpt>
      <trkpt lat="34.296577481250026" lon="108.7120493002865">
        <ele>389.02396025136113</ele>
        <time>2026-08-17T22:51:38Z</time>
      </trkpt>
      <trkpt lat="34.296530082735124" lon="108.71209642042108">
        <ele>388.5898492857814</ele>
        <time>2026-08-17T22:51:41Z</time>
      </trkpt>
      <trkpt lat="34.29641736930965" lon="108.71211952162479">
        <ele>388.4627654822543</ele>
        <time>2026-08-17T22:51:47Z</time>
      </trkpt>
      <trkpt lat="34.29636399447447" lon="108.71210293268695">
        <ele>388.6969380462542</ele>
        <time>2026-08-17T22:51:50Z</time>
      </trkpt>
      <trkpt lat="34.296282761512806" lon="108.71201438993845">
        <ele>388.72844032291323</ele>
        <time>2026-08-17T22:51:56Z</time>
      </trkpt>
      <trkpt lat="34.29625057060381" lon="108.7118292875912">
        <ele>389.45202981028706</ele>
        <time>2026-08-17T22:52:05Z</time>
      </trkpt>
      <trkpt lat="34.29625910055211" lon="108.71176365627852">
        <ele>389.2242049034685</ele>
        <time>2026-08-17T22:52:08Z</time>
      </trkpt>
      <trkpt lat="34.296237285714746" lon="108.7117058557252">
        <ele>389.0248324489221</ele>
        <time>2026-08-17T22:52:11Z</time>
      </trkpt>
      <trkpt lat="34.296198231170045" lon="108.71132752512666">
        <ele>388.9648904250935</ele>
        <time>2026-08-17T22:52:29Z</time>
      </trkpt>
      <trkpt lat="34.29620331373722" lon="108.71126610296346">
        <ele>388.90832005627453</ele>
        <time>2026-08-17T22:52:32Z</time>
      </trkpt>
      <trkpt lat="34.29616717032507" lon="108.71110955614705">
        <ele>389.8781594187021</ele>
        <time>2026-08-17T22:52:40Z</time>
      </trkpt>
      <trkpt lat="34.29618036188963" lon="108.71094695765146">
        <ele>389.8560292618349</ele>
        <time>2026-08-17T22:52:48Z</time>
      </trkpt>
      <trkpt lat="34.29615226689759" lon="108.7108007988203">
        <ele>390.06124232243747</ele>
        <time>2026-08-17T22:52:56Z</time>
      </trkpt>
      <trkpt lat="34.29607743652431" lon="108.7105342730633">
        <ele>390.52882469817996</ele>
        <time>2026-08-17T22:53:18Z</time>
      </trkpt>
      <trkpt lat="34.296075118745904" lon="108.71043987043346">
        <ele>391.3301435187459</ele>
        <time>2026-08-17T22:53:24Z</time>
      </trkpt>
      <trkpt lat="34.296036107687016" lon="108.71029933267411">
        <ele>391.4137202426791</ele>
        <time>2026-08-17T22:53:33Z</time>
      </trkpt>
      <trkpt lat="34.29598635494444" lon="108.7099538052301">
        <ele>390.55995506513864</ele>
        <time>2026-08-17T22:53:51Z</time>
      </trkpt>
      <trkpt lat="34.295998681787275" lon="108.70982742674006">
        <ele>389.7275446066633</ele>
        <time>2026-08-17T22:53:57Z</time>
      </trkpt>
      <trkpt lat="34.295965278684854" lon="108.70970943649974">
        <ele>390.2855982175097</ele>
        <time>2026-08-17T22:54:03Z</time>
      </trkpt>
      <trkpt lat="34.295963131093494" lon="108.70958504871123">
        <ele>389.21018656063825</ele>
        <time>2026-08-17T22:54:09Z</time>
      </trkpt>
      <trkpt lat="34.29591651552371" lon="108.7093573969051">
        <ele>390.70409483090043</ele>
        <time>2026-08-17T22:54:24Z</time>
      </trkpt>
      <trkpt lat="34.295884142156694" lon="108.70925226164867">
        <ele>391.2923089303076</ele>
        <time>2026-08-17T22:54:33Z</time>
      </trkpt>
      <trkpt lat="34.29588075904922" lon="108.70897345142504">
        <ele>390.1961660226807</ele>
        <time>2026-08-17T22:54:47Z</time>
      </trkpt>
      <trkpt lat="34.29586166763543" lon="108.70873406219248">
        <ele>389.9878923371434</ele>
        <time>2026-08-17T22:54:58Z</time>
      </trkpt>
      <trkpt lat="34.29583292502613" lon="108.70864364549628">
        <ele>390.67878798767924</ele>
        <time>2026-08-17T22:55:04Z</time>
      </trkpt>
      <trkpt lat="34.29584378628895" lon="108.70845660216752">
        <ele>390.30566464643925</ele>
        <time>2026-08-17T22:55:16Z</time>
      </trkpt>
      <trkpt lat="34.295819359644675" lon="108.70840374835066">
        <ele>391.5583692025393</ele>
        <time>2026-08-17T22:55:19Z</time>
      </trkpt>
      <trkpt lat="34.29578249951178" lon="108.70810779162723">
        <ele>389.5673211859539</ele>
        <time>2026-08-17T22:55:34Z</time>
      </trkpt>
      <trkpt lat="34.29578799610589" lon="108.7079952608901">
        <ele>389.5239888513461</ele>
        <time>2026-08-17T22:55:40Z</time>
      </trkpt>
      <trkpt lat="34.29575311907084" lon="108.70781831244301">
        <ele>389.56793955061585</ele>
        <time>2026-08-17T22:55:52Z</time>
      </trkpt>
      <trkpt lat="34.29577247143941" lon="108.70743831646128">
        <ele>389.40508143696934</ele>
        <time>2026-08-17T22:56:13Z</time>
      </trkpt>
      <trkpt lat="34.29575448860048" lon="108.70737602160128">
        <ele>390.47018684539944</ele>
        <time>2026-08-17T22:56:16Z</time>
      </trkpt>
      <trkpt lat="34.2957499461927" lon="108.70718891909384">
        <ele>390.4206127282232</ele>
        <time>2026-08-17T22:56:25Z</time>
      </trkpt>
      <trkpt lat="34.295705612393" lon="108.70684756177775">
        <ele>388.84662918094546</ele>
        <time>2026-08-17T22:56:43Z</time>
      </trkpt>
      <trkpt lat="34.295665943691866" lon="108.70669336896451">
        <ele>389.26213068608195</ele>
        <time>2026-08-17T22:56:51Z</time>
      </trkpt>
      <trkpt lat="34.295648898978435" lon="108.70633848143758">
        <ele>388.82856305036694</ele>
        <time>2026-08-17T22:57:08Z</time>
      </trkpt>
      <trkpt lat="34.29571965866145" lon="108.70616994257603">
        <ele>389.25177783239633</ele>
        <time>2026-08-17T22:57:17Z</time>
      </trkpt>
      <trkpt lat="34.295790018072815" lon="108.70610043261892">
        <ele>387.8004703139886</ele>
        <time>2026-08-17T22:57:23Z</time>
      </trkpt>
      <trkpt lat="34.29601900336674" lon="108.70606162235138">
        <ele>388.8365598563105</ele>
        <time>2026-08-17T22:57:38Z</time>
      </trkpt>
      <trkpt lat="34.296051648627824" lon="108.70601905794982">
        <ele>388.28302870411426</ele>
        <time>2026-08-17T22:57:41Z</time>
      </trkpt>
      <trkpt lat="34.296126798554994" lon="108.70599495100028">
        <ele>389.49587396066636</ele>
        <time>2026-08-17T22:57:47Z</time>
      </trkpt>
      <trkpt lat="34.29640690874969" lon="108.70596175091805">
        <ele>388.53576026298106</ele>
        <time>2026-08-17T22:58:08Z</time>
      </trkpt>
      <trkpt lat="34.29669098175292" lon="108.70592485973786">
        <ele>388.4005439337343</ele>
        <time>2026-08-17T22:58:26Z</time>
      </trkpt>
      <trkpt lat="34.29683522723955" lon="108.70589157462464">
        <ele>388.1579889319837</ele>
        <time>2026-08-17T22:58:35Z</time>
      </trkpt>
      <trkpt lat="34.296926851768184" lon="108.70590250540488">
        <ele>387.9228652222082</ele>
        <time>2026-08-17T22:58:41Z</time>
      </trkpt>
      <trkpt lat="34.2972492315743" lon="108.70582446799199">
        <ele>389.16294274292886</ele>
        <time>2026-08-17T22:59:06Z</time>
      </trkpt>
      <trkpt lat="34.29748832439344" lon="108.70580108893714">
        <ele>389.24153790902346</ele>
        <time>2026-08-17T22:59:22Z</time>
      </trkpt>
      <trkpt lat="34.29762540686601" lon="108.70573459244355">
        <ele>390.4126582155004</ele>
        <time>2026-08-17T22:59:34Z</time>
      </trkpt>
      <trkpt lat="34.29770231725243" lon="108.70572129872909">
        <ele>389.91010373365134</ele>
        <time>2026-08-17T22:59:40Z</time>
      </trkpt>
      <trkpt lat="34.29775396226434" lon="108.70573884834839">
        <ele>388.3208318138495</ele>
        <time>2026-08-17T22:59:46Z</time>
      </trkpt>
      <trkpt lat="34.29807675092968" lon="108.70569237365326">
        <ele>388.9782131323591</ele>
        <time>2026-08-17T23:00:10Z</time>
      </trkpt>
      <trkpt lat="34.29840689291443" lon="108.70562399212037">
        <ele>389.4611183553934</ele>
        <time>2026-08-17T23:00:31Z</time>
      </trkpt>
      <trkpt lat="34.29868846294797" lon="108.70556701290732">
        <ele>388.90903873182833</ele>
        <time>2026-08-17T23:00:49Z</time>
      </trkpt>
      <trkpt lat="34.29878169737049" lon="108.70555772296473">
        <ele>389.61645524855703</ele>
        <time>2026-08-17T23:00:55Z</time>
      </trkpt>
      <trkpt lat="34.298951302037594" lon="108.70547671924747">
        <ele>390.30423618201166</ele>
        <time>2026-08-17T23:01:11Z</time>
      </trkpt>
      <trkpt lat="34.299029142551994" lon="108.70548501529285">
        <ele>389.78977349679917</ele>
        <time>2026-08-17T23:01:18Z</time>
      </trkpt>
      <trkpt lat="34.29918378412998" lon="108.7054494318955">
        <ele>390.7270623976365</ele>
        <time>2026-08-17T23:01:30Z</time>
      </trkpt>
      <trkpt lat="34.29922684916711" lon="108.70546732647054">
        <ele>391.1349504198879</ele>
        <time>2026-08-17T23:01:33Z</time>
      </trkpt>
      <trkpt lat="34.29920528132547" lon="108.70552106857669">
        <ele>391.2235517175868</ele>
        <time>2026-08-17T23:01:36Z</time>
      </trkpt>
      <trkpt lat="34.29889506870466" lon="108.70561550264664">
        <ele>390.7465245863423</ele>
        <time>2026-08-17T23:01:54Z</time>
      </trkpt>
      <trkpt lat="34.298594077491764" lon="108.70570859126876">
        <ele>390.77985851094127</ele>
        <time>2026-08-17T23:02:15Z</time>
      </trkpt>
      <trkpt lat="34.29838228839344" lon="108.70571382276948">
        <ele>388.919897319749</ele>
        <time>2026-08-17T23:02:30Z</time>
      </trkpt>
      <trkpt lat="34.29809881424308" lon="108.70577289863554">
        <ele>388.00059308391064</ele>
        <time>2026-08-17T23:02:48Z</time>
      </trkpt>
      <trkpt lat="34.29792004051709" lon="108.70582055650576">
        <ele>387.3886249177158</ele>
        <time>2026-08-17T23:03:00Z</time>
      </trkpt>
      <trkpt lat="34.29774913985848" lon="108.70582061178395">
        <ele>389.11521572992206</ele>
        <time>2026-08-17T23:03:11Z</time>
      </trkpt>
      <trkpt lat="34.29768380792446" lon="108.70584928239492">
        <ele>388.72941412217915</ele>
        <time>2026-08-17T23:03:15Z</time>
      </trkpt>
      <trkpt lat="34.29744257290246" lon="108.70588657988951">
        <ele>388.89179435092956</ele>
        <time>2026-08-17T23:03:31Z</time>
      </trkpt>
      <trkpt lat="34.297214231537595" lon="108.7059457404465">
        <ele>388.6232474697754</ele>
        <time>2026-08-17T23:03:49Z</time>
      </trkpt>
      <trkpt lat="34.297167923735714" lon="108.70597246762048">
        <ele>388.0961587326601</ele>
        <time>2026-08-17T23:03:52Z</time>
      </trkpt>
      <trkpt lat="34.296981897941656" lon="108.70598070505508">
        <ele>388.58033697120845</ele>
        <time>2026-08-17T23:04:04Z</time>
      </trkpt>
      <trkpt lat="34.296935393663375" lon="108.70600371042785">
        <ele>388.1256268052384</ele>
        <time>2026-08-17T23:04:07Z</time>
      </trkpt>
      <trkpt lat="34.29685403131711" lon="108.70600261101134">
        <ele>389.1229030592367</ele>
        <time>2026-08-17T23:04:13Z</time>
      </trkpt>
      <trkpt lat="34.29663463075795" lon="108.70604601648552">
        <ele>388.87390946689993</ele>
        <time>2026-08-17T23:04:28Z</time>
      </trkpt>
      <trkpt lat="34.29639799924382" lon="108.70607532653203">
        <ele>388.0560938725248</ele>
        <time>2026-08-17T23:04:43Z</time>
      </trkpt>
      <trkpt lat="34.29634961117785" lon="108.70606648977758">
        <ele>389.1906879339367</ele>
        <time>2026-08-17T23:04:46Z</time>
      </trkpt>
      <trkpt lat="34.296177420212935" lon="108.70612756592666">
        <ele>389.69763968512416</ele>
        <time>2026-08-17T23:04:58Z</time>
      </trkpt>
      <trkpt lat="34.29609564759885" lon="108.70613511054428">
        <ele>389.65379442926496</ele>
        <time>2026-08-17T23:05:04Z</time>
      </trkpt>
      <trkpt lat="34.29605031829091" lon="108.7061122874151">
        <ele>390.7117910925299</ele>
        <time>2026-08-17T23:05:07Z</time>
      </trkpt>
      <trkpt lat="34.29598712220709" lon="108.70615562756375">
        <ele>389.076503617689</ele>
        <time>2026-08-17T23:05:11Z</time>
      </trkpt>
      <trkpt lat="34.29582732055576" lon="108.70617753622813">
        <ele>390.7869758224115</ele>
        <time>2026-08-17T23:05:22Z</time>
      </trkpt>
      <trkpt lat="34.295753291203084" lon="108.70615754603455">
        <ele>391.464249660261</ele>
        <time>2026-08-17T23:05:29Z</time>
      </trkpt>
      <trkpt lat="34.295757885512344" lon="108.70610252129757">
        <ele>391.408949714154</ele>
        <time>2026-08-17T23:05:32Z</time>
      </trkpt>
      <trkpt lat="34.29606427845409" lon="108.70602908591995">
        <ele>389.82649453077465</ele>
        <time>2026-08-17T23:05:50Z</time>
      </trkpt>
      <trkpt lat="34.296334613825174" lon="108.70597679275973">
        <ele>388.6739849662408</ele>
        <time>2026-08-17T23:06:05Z</time>
      </trkpt>
      <trkpt lat="34.29660673679347" lon="108.70594596107448">
        <ele>388.3482155269012</ele>
        <time>2026-08-17T23:06:20Z</time>
      </trkpt>
      <trkpt lat="34.296874560339475" lon="108.70588393397513">
        <ele>388.0701398374513</ele>
        <time>2026-08-17T23:06:35Z</time>
      </trkpt>
      <trkpt lat="34.29716019210009" lon="108.70584466021783">
        <ele>389.4514431124553</ele>
        <time>2026-08-17T23:06:50Z</time>
      </trkpt>
      <trkpt lat="34.2972218719807" lon="108.70584621748029">
        <ele>387.41748551558703</ele>
        <time>2026-08-17T23:06:53Z</time>
      </trkpt>
      <trkpt lat="34.297350423482776" lon="108.70579142333148">
        <ele>388.6403524139896</ele>
        <time>2026-08-17T23:07:05Z</time>
      </trkpt>
      <trkpt lat="34.2975866914365" lon="108.70576863045262">
        <ele>389.2471549967304</ele>
        <time>2026-08-17T23:07:22Z</time>
      </trkpt>
      <trkpt lat="34.297655318301764" lon="108.70573322038905">
        <ele>389.97363105695695</ele>
        <time>2026-08-17T23:07:26Z</time>
      </trkpt>
      <trkpt lat="34.29773381619738" lon="108.70575721337504">
        <ele>387.66490058787167</ele>
        <time>2026-08-17T23:07:30Z</time>
      </trkpt>
      <trkpt lat="34.29803009955695" lon="108.70569420164851">
        <ele>388.61168846394867</ele>
        <time>2026-08-17T23:07:48Z</time>
      </trkpt>
      <trkpt lat="34.29823486206319" lon="108.70566982362257">
        <ele>387.63844451121986</ele>
        <time>2026-08-17T23:08:00Z</time>
      </trkpt>
      <trkpt lat="34.29854117069231" lon="108.70560200059492">
        <ele>387.9014347810298</ele>
        <time>2026-08-17T23:08:18Z</time>
      </trkpt>
      <trkpt lat="34.298830534886164" lon="108.70551962728624">
        <ele>389.7047266960144</ele>
        <time>2026-08-17T23:08:36Z</time>
      </trkpt>
      <trkpt lat="34.299181776624145" lon="108.7054707455862">
        <ele>389.63506821356714</ele>
        <time>2026-08-17T23:09:03Z</time>
      </trkpt>
      <trkpt lat="34.29915965047198" lon="108.70553452817258">
        <ele>389.116490740329</ele>
        <time>2026-08-17T23:09:09Z</time>
      </trkpt>
      <trkpt lat="34.29884547503353" lon="108.70564078628352">
        <ele>389.2074343552813</ele>
        <time>2026-08-17T23:09:29Z</time>
      </trkpt>
      <trkpt lat="34.298559847873754" lon="108.70567822762898">
        <ele>388.6389120677486</ele>
        <time>2026-08-17T23:09:49Z</time>
      </trkpt>
      <trkpt lat="34.29827536337754" lon="108.70573897594198">
        <ele>387.88237895350903</ele>
        <time>2026-08-17T23:10:07Z</time>
      </trkpt>
      <trkpt lat="34.29796893619338" lon="108.70579674630757">
        <ele>388.3544771214947</ele>
        <time>2026-08-17T23:10:25Z</time>
      </trkpt>
      <trkpt lat="34.29767406029497" lon="108.70583706024979">
        <ele>389.7899429509416</ele>
        <time>2026-08-17T23:10:43Z</time>
      </trkpt>
      <trkpt lat="34.29742612200819" lon="108.7058975086519">
        <ele>387.71051640901715</ele>
        <time>2026-08-17T23:10:58Z</time>
      </trkpt>
      <trkpt lat="34.29732514574994" lon="108.7059005748049">
        <ele>387.52319582924247</ele>
        <time>2026-08-17T23:11:04Z</time>
      </trkpt>
      <trkpt lat="34.29706157938403" lon="108.70597549126434">
        <ele>389.4913011994213</ele>
        <time>2026-08-17T23:11:25Z</time>
      </trkpt>
      <trkpt lat="34.296874269573635" lon="108.706000378002">
        <ele>388.65685151237994</ele>
        <time>2026-08-17T23:11:37Z</time>
      </trkpt>
      <trkpt lat="34.29675502716341" lon="108.70603561146544">
        <ele>388.7614489970729</ele>
        <time>2026-08-17T23:11:44Z</time>
      </trkpt>
      <trkpt lat="34.296484566075634" lon="108.70605895395569">
        <ele>388.79647224675864</ele>
        <time>2026-08-17T23:11:59Z</time>
      </trkpt>
      <trkpt lat="34.296214296765704" lon="108.70611035905058">
        <ele>388.7462737420574</ele>
        <time>2026-08-17T23:12:23Z</time>
      </trkpt>
      <trkpt lat="34.295911637867874" lon="108.70614376426002">
        <ele>389.5240393318236</ele>
        <time>2026-08-17T23:12:41Z</time>
      </trkpt>
      <trkpt lat="34.29585558670271" lon="108.70613803783608">
        <ele>389.4071595836431</ele>
        <time>2026-08-17T23:12:44Z</time>
      </trkpt>
      <trkpt lat="34.29579983752869" lon="108.70616127133698">
        <ele>389.27394265681505</ele>
        <time>2026-08-17T23:12:47Z</time>
      </trkpt>
      <trkpt lat="34.295731789852965" lon="108.70613593155578">
        <ele>390.54589142277837</ele>
        <time>2026-08-17T23:12:53Z</time>
      </trkpt>
      <trkpt lat="34.29578956575428" lon="108.70608507042243">
        <ele>390.0288065597415</ele>
        <time>2026-08-17T23:12:56Z</time>
      </trkpt>
      <trkpt lat="34.296000985681964" lon="108.70605275359902">
        <ele>389.40304108243436</ele>
        <time>2026-08-17T23:13:08Z</time>
      </trkpt>
      <trkpt lat="34.29618520464248" lon="108.70599692342573">
        <ele>390.07995481137186</ele>
        <time>2026-08-17T23:13:23Z</time>
      </trkpt>
      <trkpt lat="34.29631177116412" lon="108.70599130148253">
        <ele>389.31470726057887</ele>
        <time>2026-08-17T23:13:32Z</time>
      </trkpt>
      <trkpt lat="34.29660760454865" lon="108.70593287149285">
        <ele>389.0199089832604</ele>
        <time>2026-08-17T23:13:48Z</time>
      </trkpt>
      <trkpt lat="34.29688278632972" lon="108.7058878393711">
        <ele>388.31245200522244</ele>
        <time>2026-08-17T23:14:03Z</time>
      </trkpt>
      <trkpt lat="34.2970030007372" lon="108.7058848381628">
        <ele>388.54977224674076</ele>
        <time>2026-08-17T23:14:09Z</time>
      </trkpt>
      <trkpt lat="34.29711934022582" lon="108.7058475991556">
        <ele>388.8013799665496</ele>
        <time>2026-08-17T23:14:15Z</time>
      </trkpt>
      <trkpt lat="34.29739258763415" lon="108.70579790635145">
        <ele>388.6328400494531</ele>
        <time>2026-08-17T23:14:30Z</time>
      </trkpt>
      <trkpt lat="34.297619977112376" lon="108.7057603816841">
        <ele>387.94601080566645</ele>
        <time>2026-08-17T23:14:42Z</time>
      </trkpt>
      <trkpt lat="34.29768603520635" lon="108.70572147201433">
        <ele>388.9985260106623</ele>
        <time>2026-08-17T23:14:48Z</time>
      </trkpt>
      <trkpt lat="34.29781275711491" lon="108.70573347016243">
        <ele>388.0531476698816</ele>
        <time>2026-08-17T23:15:00Z</time>
      </trkpt>
      <trkpt lat="34.2980822448891" lon="108.7056793000578">
        <ele>388.5517932102084</ele>
        <time>2026-08-17T23:15:21Z</time>
      </trkpt>
      <trkpt lat="34.298175894589946" lon="108.70566192706734">
        <ele>388.79631488677114</ele>
        <time>2026-08-17T23:15:27Z</time>
      </trkpt>
      <trkpt lat="34.29823045148405" lon="108.70567883075974">
        <ele>388.17932955082506</ele>
        <time>2026-08-17T23:15:30Z</time>
      </trkpt>
      <trkpt lat="34.298287897687686" lon="108.70564614321543">
        <ele>388.54075504560024</ele>
        <time>2026-08-17T23:15:33Z</time>
      </trkpt>
      <trkpt lat="34.29856440208626" lon="108.70560034495425">
        <ele>388.36855108849704</ele>
        <time>2026-08-17T23:15:49Z</time>
      </trkpt>
      <trkpt lat="34.29881106165417" lon="108.70551934351859">
        <ele>390.19249691907316</ele>
        <time>2026-08-17T23:16:07Z</time>
      </trkpt>
      <trkpt lat="34.29910633669817" lon="108.70549439435618">
        <ele>390.2803750578314</ele>
        <time>2026-08-17T23:16:25Z</time>
      </trkpt>
      <trkpt lat="34.29920656267099" lon="108.70545881285416">
        <ele>390.34400741383433</ele>
        <time>2026-08-17T23:16:31Z</time>
      </trkpt>
      <trkpt lat="34.29931116473547" lon="108.70555003849026">
        <ele>391.3371878378093</ele>
        <time>2026-08-17T23:16:40Z</time>
      </trkpt>
      <trkpt lat="34.29933748126819" lon="108.70564253722421">
        <ele>391.64012647699565</ele>
        <time>2026-08-17T23:16:46Z</time>
      </trkpt>
      <trkpt lat="34.29934384483511" lon="108.70584519386499">
        <ele>390.87766384053975</ele>
        <time>2026-08-17T23:16:58Z</time>
      </trkpt>
      <trkpt lat="34.299395948249426" lon="108.70609988793854">
        <ele>390.3238278962672</ele>
        <time>2026-08-17T23:17:10Z</time>
      </trkpt>
      <trkpt lat="34.299442530145356" lon="108.70638452846788">
        <ele>390.844268836081</ele>
        <time>2026-08-17T23:17:22Z</time>
      </trkpt>
      <trkpt lat="34.299434952807076" lon="108.70652894809712">
        <ele>390.0305805327371</ele>
        <time>2026-08-17T23:17:28Z</time>
      </trkpt>
      <trkpt lat="34.29945783952583" lon="108.70659674602608">
        <ele>390.6251630699262</ele>
        <time>2026-08-17T23:17:31Z</time>
      </trkpt>
      <trkpt lat="34.29949480197079" lon="108.70692974518373">
        <ele>392.0741029968485</ele>
        <time>2026-08-17T23:17:47Z</time>
      </trkpt>
      <trkpt lat="34.29954087805936" lon="108.7069467598526">
        <ele>391.16324188839644</ele>
        <time>2026-08-17T23:17:57Z</time>
      </trkpt>
      <trkpt lat="34.29957414508971" lon="108.70699808485723">
        <ele>391.82910368870944</ele>
        <time>2026-08-17T23:18:01Z</time>
      </trkpt>
      <trkpt lat="34.299588604164036" lon="108.70706669905546">
        <ele>391.1266201073304</ele>
        <time>2026-08-17T23:18:04Z</time>
      </trkpt>
      <trkpt lat="34.2995733597846" lon="108.70718146149076">
        <ele>390.3562382180244</ele>
        <time>2026-08-17T23:18:10Z</time>
      </trkpt>
      <trkpt lat="34.299526566985634" lon="108.70722398800876">
        <ele>390.2128704143688</ele>
        <time>2026-08-17T23:18:13Z</time>
      </trkpt>
      <trkpt lat="34.29949547151715" lon="108.70727895717239">
        <ele>390.4568576607853</ele>
        <time>2026-08-17T23:18:16Z</time>
      </trkpt>
      <trkpt lat="34.29948549270122" lon="108.70747769217142">
        <ele>390.7824416421354</ele>
        <time>2026-08-17T23:18:25Z</time>
      </trkpt>
      <trkpt lat="34.29953011811657" lon="108.707828339854">
        <ele>392.25327100791037</ele>
        <time>2026-08-17T23:18:43Z</time>
      </trkpt>
      <trkpt lat="34.29954999673663" lon="108.70801133845951">
        <ele>392.3190975729376</ele>
        <time>2026-08-17T23:18:55Z</time>
      </trkpt>
      <trkpt lat="34.29959396541863" lon="108.7081475441231">
        <ele>392.28995952103287</ele>
        <time>2026-08-17T23:19:04Z</time>
      </trkpt>
      <trkpt lat="34.29960236770239" lon="108.70823538678512">
        <ele>392.9995599295944</ele>
        <time>2026-08-17T23:19:10Z</time>
      </trkpt>
      <trkpt lat="34.29964370628923" lon="108.70832645764294">
        <ele>392.01439603138715</ele>
        <time>2026-08-17T23:19:16Z</time>
      </trkpt>
      <trkpt lat="34.299606294604494" lon="108.70837813414262">
        <ele>391.54528594203293</ele>
        <time>2026-08-17T23:19:19Z</time>
      </trkpt>
      <trkpt lat="34.299582091691576" lon="108.70846589181231">
        <ele>391.6886336421594</ele>
        <time>2026-08-17T23:19:25Z</time>
      </trkpt>
      <trkpt lat="34.299667252938704" lon="108.70880681074098">
        <ele>391.7422259869054</ele>
        <time>2026-08-17T23:19:46Z</time>
      </trkpt>
      <trkpt lat="34.299703573494575" lon="108.70893788608555">
        <ele>391.79415217228234</ele>
        <time>2026-08-17T23:19:53Z</time>
      </trkpt>
      <trkpt lat="34.299709526573594" lon="108.70912527232372">
        <ele>391.8982851142064</ele>
        <time>2026-08-17T23:20:02Z</time>
      </trkpt>
      <trkpt lat="34.29974865931587" lon="108.70946236569107">
        <ele>390.97706138994545</ele>
        <time>2026-08-17T23:20:23Z</time>
      </trkpt>
      <trkpt lat="34.29979828944572" lon="108.70954573482626">
        <ele>391.47892206534743</ele>
        <time>2026-08-17T23:20:29Z</time>
      </trkpt>
      <trkpt lat="34.2998149621514" lon="108.70960815350885">
        <ele>391.7823307486251</ele>
        <time>2026-08-17T23:20:32Z</time>
      </trkpt>
      <trkpt lat="34.29978481267295" lon="108.70967749927932">
        <ele>390.070481848903</ele>
        <time>2026-08-17T23:20:35Z</time>
      </trkpt>
      <trkpt lat="34.2997919004901" lon="108.70981749930964">
        <ele>391.04722622036934</ele>
        <time>2026-08-17T23:20:41Z</time>
      </trkpt>
      <trkpt lat="34.29985870114738" lon="108.71016146783998">
        <ele>391.9542516646907</ele>
        <time>2026-08-17T23:20:56Z</time>
      </trkpt>
      <trkpt lat="34.2998772794018" lon="108.71022823363671">
        <ele>391.59448823612183</ele>
        <time>2026-08-17T23:20:59Z</time>
      </trkpt>
      <trkpt lat="34.29987397091044" lon="108.71028792277812">
        <ele>391.32140391506255</ele>
        <time>2026-08-17T23:21:02Z</time>
      </trkpt>
      <trkpt lat="34.29976793747319" lon="108.71035894944372">
        <ele>388.640993013978</ele>
        <time>2026-08-17T23:21:11Z</time>
      </trkpt>
      <trkpt lat="34.29963856064489" lon="108.71051333603613">
        <ele>390.2829900793731</ele>
        <time>2026-08-17T23:21:23Z</time>
      </trkpt>
      <trkpt lat="34.299538479767385" lon="108.71057370001097">
        <ele>390.90413102228194</ele>
        <time>2026-08-17T23:21:29Z</time>
      </trkpt>
      <trkpt lat="34.299488457262186" lon="108.71064157648094">
        <ele>392.4674292681739</ele>
        <time>2026-08-17T23:21:35Z</time>
      </trkpt>
      <trkpt lat="34.299497955593075" lon="108.71069569300478">
        <ele>393.5595673052594</ele>
        <time>2026-08-17T23:21:41Z</time>
      </trkpt>
      <trkpt lat="34.299418899391036" lon="108.71083828138244">
        <ele>390.2877247836441</ele>
        <time>2026-08-17T23:21:53Z</time>
      </trkpt>
      <trkpt lat="34.29914148810621" lon="108.71094771474286">
        <ele>390.4601521557197</ele>
        <time>2026-08-17T23:22:51Z</time>
      </trkpt>
      <trkpt lat="34.29888534702301" lon="108.71105837962033">
        <ele>390.13151083141565</ele>
        <time>2026-08-17T23:23:09Z</time>
      </trkpt>
      <trkpt lat="34.29862614848965" lon="108.71116256080927">
        <ele>389.44311719201505</ele>
        <time>2026-08-17T23:23:24Z</time>
      </trkpt>
      <trkpt lat="34.29853398256513" lon="108.7112280354712">
        <ele>389.81902308389544</ele>
        <time>2026-08-17T23:23:30Z</time>
      </trkpt>
      <trkpt lat="34.29825875619638" lon="108.7113377643624">
        <ele>390.6077330922708</ele>
        <time>2026-08-17T23:23:51Z</time>
      </trkpt>
      <trkpt lat="34.29818297021978" lon="108.71131250931111">
        <ele>390.31345715839416</ele>
        <time>2026-08-17T23:23:57Z</time>
      </trkpt>
      <trkpt lat="34.29811611267161" lon="108.71110910384266">
        <ele>389.11321705486625</ele>
        <time>2026-08-17T23:24:07Z</time>
      </trkpt>
      <trkpt lat="34.29806385912018" lon="108.71089952176472">
        <ele>388.98223004769534</ele>
        <time>2026-08-17T23:24:17Z</time>
      </trkpt>
      <trkpt lat="34.298067020611484" lon="108.71080674651849">
        <ele>389.54313501529396</ele>
        <time>2026-08-17T23:24:23Z</time>
      </trkpt>
      <trkpt lat="34.298037188535346" lon="108.7107227210242">
        <ele>389.3786533297971</ele>
        <time>2026-08-17T23:24:29Z</time>
      </trkpt>
      <trkpt lat="34.298053287692454" lon="108.71060301240175">
        <ele>389.16532787308097</ele>
        <time>2026-08-17T23:24:35Z</time>
      </trkpt>
      <trkpt lat="34.29802251583689" lon="108.71053621661173">
        <ele>389.0037271492183</ele>
        <time>2026-08-17T23:24:38Z</time>
      </trkpt>
      <trkpt lat="34.29801266092529" lon="108.7104624704631">
        <ele>389.10104700084776</ele>
        <time>2026-08-17T23:24:41Z</time>
      </trkpt>
      <trkpt lat="34.298029602404036" lon="108.71031493067024">
        <ele>388.6374390311539</ele>
        <time>2026-08-17T23:24:47Z</time>
      </trkpt>
      <trkpt lat="34.29797563594133" lon="108.71016902931561">
        <ele>388.3400125093758</ele>
        <time>2026-08-17T23:24:56Z</time>
      </trkpt>
      <trkpt lat="34.297665990835675" lon="108.71026850536674">
        <ele>388.155514604412</ele>
        <time>2026-08-17T23:25:20Z</time>
      </trkpt>
      <trkpt lat="34.297701084587004" lon="108.71039152780311">
        <ele>388.22384794428945</ele>
        <time>2026-08-17T23:25:26Z</time>
      </trkpt>
      <trkpt lat="34.2977364736046" lon="108.71043896518245">
        <ele>387.27413756679744</ele>
        <time>2026-08-17T23:25:29Z</time>
      </trkpt>
      <trkpt lat="34.29787558002228" lon="108.71049086084913">
        <ele>387.5138560347259</ele>
        <time>2026-08-17T23:25:38Z</time>
      </trkpt>
      <trkpt lat="34.29794328791609" lon="108.71054710077564">
        <ele>387.7095833104104</ele>
        <time>2026-08-17T23:25:44Z</time>
      </trkpt>
    </trkseg>
  </trk>
</gpx>