<?xml version="1.0" encoding="UTF-8"?>
<gpx xmlns="http://www.topografix.com/GPX/1/1" xmlns:gpxtpx="http://www.garmin.com/xmlschemas/TrackPointExtension/v1" xmlns:xsi="http://www.w3.org/2001/XMLSchema-instance" xsi:schemaLocation="http://www.topografix.com/GPX/1/1 http://www.topografix.com/GPX/1/1/gpx.xsd" version="1.1" creator="gpx.py -- https://github.com/tkrajina/gpxpy">
  <trk>
    <name>gpx from keep</name>
    <type>Ride</type>
    <trkseg>
      <trkpt lat="34.328263670909934" lon="108.98033851782814">
        <ele>396.95289039611816</ele>
        <time>2022-03-15T23:36:19Z</time>
      </trkpt>
      <trkpt lat="34.328763137682884" lon="108.98039241862877">
        <ele>397.2110939025879</ele>
        <time>2022-03-15T23:36:36Z</time>
      </trkpt>
      <trkpt lat="34.32883567796289" lon="108.9803114348552">
        <ele>397.16182708740234</ele>
        <time>2022-03-15T23:36:41Z</time>
      </trkpt>
      <trkpt lat="34.328745622506055" lon="108.98048334658048">
        <ele>397.09526443481445</ele>
        <time>2022-03-15T23:36:47Z</time>
      </trkpt>
      <trkpt lat="34.3287051373993" lon="108.9805272216217">
        <ele>395.3153948912529</ele>
        <time>2022-03-15T23:36:55Z</time>
      </trkpt>
      <trkpt lat="34.328610233620616" lon="108.98071330414679">
        <ele>395.0354549624026</ele>
        <time>2022-03-15T23:37:07Z</time>
      </trkpt>
      <trkpt lat="34.32844526894455" lon="108.98079387597151">
        <ele>395.59600185696036</ele>
        <time>2022-03-15T23:37:18Z</time>
      </trkpt>
      <trkpt lat="34.32827653111019" lon="108.98084545472871">
        <ele>394.6872060149908</ele>
        <time>2022-03-15T23:37:29Z</time>
      </trkpt>
      <trkpt lat="34.328211743330534" lon="108.98090274315986">
        <ele>394.49111642315984</ele>
        <time>2022-03-15T23:37:33Z</time>
      </trkpt>
      <trkpt lat="34.32813640624936" lon="108.98093025708421">
        <ele>394.72734906710684</ele>
        <time>2022-03-15T23:37:38Z</time>
      </trkpt>
      <trkpt lat="34.32814864450419" lon="108.98100797324962">
        <ele>394.69440246000886</ele>
        <time>2022-03-15T23:37:49Z</time>
      </trkpt>
      <trkpt lat="34.32816827041739" lon="108.98106693259042">
        <ele>395.00183521956205</ele>
        <time>2022-03-15T23:38:17Z</time>
      </trkpt>
      <trkpt lat="34.3281850459157" lon="108.98115445397298">
        <ele>395.0253265136853</ele>
        <time>2022-03-15T23:38:21Z</time>
      </trkpt>
      <trkpt lat="34.328276115739094" lon="108.98136796098554">
        <ele>394.89961504749954</ele>
        <time>2022-03-15T23:38:30Z</time>
      </trkpt>
      <trkpt lat="34.32833697048299" lon="108.98145407364949">
        <ele>394.67662551347166</ele>
        <time>2022-03-15T23:38:33Z</time>
      </trkpt>
      <trkpt lat="34.32836339678966" lon="108.98154164761718">
        <ele>394.3104306329042</ele>
        <time>2022-03-15T23:38:35Z</time>
      </trkpt>
      <trkpt lat="34.32843086992735" lon="108.98157642196959">
        <ele>394.5310338465497</ele>
        <time>2022-03-15T23:38:37Z</time>
      </trkpt>
      <trkpt lat="34.32836002832466" lon="108.98186176248507">
        <ele>394.9406865146011</ele>
        <time>2022-03-15T23:38:49Z</time>
      </trkpt>
      <trkpt lat="34.32836789065768" lon="108.98196115724194">
        <ele>395.3321873424575</ele>
        <time>2022-03-15T23:38:53Z</time>
      </trkpt>
      <trkpt lat="34.32835435202386" lon="108.98205797179783">
        <ele>394.65741105470806</ele>
        <time>2022-03-15T23:38:56Z</time>
      </trkpt>
      <trkpt lat="34.32814016267228" lon="108.9825383036833">
        <ele>393.81586273387074</ele>
        <time>2022-03-15T23:39:09Z</time>
      </trkpt>
      <trkpt lat="34.328085638986266" lon="108.98260082592124">
        <ele>393.46590634807944</ele>
        <time>2022-03-15T23:39:11Z</time>
      </trkpt>
      <trkpt lat="34.32805475297935" lon="108.98276008490554">
        <ele>393.368872907944</ele>
        <time>2022-03-15T23:39:15Z</time>
      </trkpt>
      <trkpt lat="34.32809476453854" lon="108.98291647466466">
        <ele>392.9927208907902</ele>
        <time>2022-03-15T23:39:17Z</time>
      </trkpt>
      <trkpt lat="34.32810742227467" lon="108.98303173898539">
        <ele>392.5966250272468</ele>
        <time>2022-03-15T23:39:19Z</time>
      </trkpt>
      <trkpt lat="34.32820641817684" lon="108.98331803051326">
        <ele>391.4905167017132</ele>
        <time>2022-03-15T23:39:23Z</time>
      </trkpt>
      <trkpt lat="34.32824720884642" lon="108.98356137682946">
        <ele>391.1163263740018</ele>
        <time>2022-03-15T23:39:27Z</time>
      </trkpt>
      <trkpt lat="34.328256032061404" lon="108.9837059174657">
        <ele>391.75749141257256</ele>
        <time>2022-03-15T23:39:31Z</time>
      </trkpt>
      <trkpt lat="34.328299607162805" lon="108.98391979905894">
        <ele>391.5230052275583</ele>
        <time>2022-03-15T23:39:37Z</time>
      </trkpt>
      <trkpt lat="34.32830606638509" lon="108.98426661523209">
        <ele>391.46177545469254</ele>
        <time>2022-03-15T23:39:45Z</time>
      </trkpt>
      <trkpt lat="34.328319700940035" lon="108.98435560784102">
        <ele>390.26741242036223</ele>
        <time>2022-03-15T23:39:47Z</time>
      </trkpt>
      <trkpt lat="34.32830670335716" lon="108.9849205790026">
        <ele>391.0547763798386</ele>
        <time>2022-03-15T23:39:59Z</time>
      </trkpt>
      <trkpt lat="34.32826704758257" lon="108.98505707272804">
        <ele>391.4619009690359</ele>
        <time>2022-03-15T23:40:03Z</time>
      </trkpt>
      <trkpt lat="34.32825370695842" lon="108.98526888516157">
        <ele>392.0398763678968</ele>
        <time>2022-03-15T23:40:07Z</time>
      </trkpt>
      <trkpt lat="34.32826514344389" lon="108.98552879404308">
        <ele>391.9691252531484</ele>
        <time>2022-03-15T23:40:11Z</time>
      </trkpt>
      <trkpt lat="34.32822341695882" lon="108.98615567058351">
        <ele>392.3855420956388</ele>
        <time>2022-03-15T23:40:22Z</time>
      </trkpt>
      <trkpt lat="34.32824522504986" lon="108.98675017936993">
        <ele>392.9221399240196</ele>
        <time>2022-03-15T23:40:32Z</time>
      </trkpt>
      <trkpt lat="34.328246366907926" lon="108.9868671236283">
        <ele>392.7935992665589</ele>
        <time>2022-03-15T23:40:34Z</time>
      </trkpt>
      <trkpt lat="34.32828618520484" lon="108.98711418158852">
        <ele>393.6615344667807</ele>
        <time>2022-03-15T23:40:38Z</time>
      </trkpt>
      <trkpt lat="34.32828152358658" lon="108.98723347485597">
        <ele>393.27454379666597</ele>
        <time>2022-03-15T23:40:40Z</time>
      </trkpt>
      <trkpt lat="34.3283123307768" lon="108.98762063703914">
        <ele>393.0699817687273</ele>
        <time>2022-03-15T23:40:47Z</time>
      </trkpt>
      <trkpt lat="34.328287907634945" lon="108.98771143728655">
        <ele>392.3332828702405</ele>
        <time>2022-03-15T23:40:49Z</time>
      </trkpt>
      <trkpt lat="34.32830535075093" lon="108.98779824830247">
        <ele>392.3057424221188</ele>
        <time>2022-03-15T23:40:51Z</time>
      </trkpt>
      <trkpt lat="34.32828615149225" lon="108.9879112623237">
        <ele>393.0883274329826</ele>
        <time>2022-03-15T23:40:54Z</time>
      </trkpt>
      <trkpt lat="34.328288680934364" lon="108.98837154001815">
        <ele>391.6624353537336</ele>
        <time>2022-03-15T23:41:05Z</time>
      </trkpt>
      <trkpt lat="34.32833106897012" lon="108.98850986466071">
        <ele>391.2160435002297</ele>
        <time>2022-03-15T23:41:09Z</time>
      </trkpt>
      <trkpt lat="34.32832659697922" lon="108.98868400566111">
        <ele>391.45062982849777</ele>
        <time>2022-03-15T23:41:13Z</time>
      </trkpt>
      <trkpt lat="34.32834252522212" lon="108.98882838823916">
        <ele>391.5432925922796</ele>
        <time>2022-03-15T23:41:17Z</time>
      </trkpt>
      <trkpt lat="34.32833266447776" lon="108.98913343691832">
        <ele>392.4642641283572</ele>
        <time>2022-03-15T23:41:25Z</time>
      </trkpt>
      <trkpt lat="34.328350579724926" lon="108.98928765686071">
        <ele>391.6631313674152</ele>
        <time>2022-03-15T23:41:29Z</time>
      </trkpt>
      <trkpt lat="34.328202689077756" lon="108.98929695007163">
        <ele>391.38389632012695</ele>
        <time>2022-03-15T23:41:31Z</time>
      </trkpt>
      <trkpt lat="34.32807658327955" lon="108.98943959238893">
        <ele>391.227676439099</ele>
        <time>2022-03-15T23:41:37Z</time>
      </trkpt>
      <trkpt lat="34.32783704076057" lon="108.99053578086425">
        <ele>391.52921734843403</ele>
        <time>2022-03-15T23:42:32Z</time>
      </trkpt>
      <trkpt lat="34.32785164915953" lon="108.99070761369822">
        <ele>390.8224213225767</ele>
        <time>2022-03-15T23:42:36Z</time>
      </trkpt>
      <trkpt lat="34.32788295441896" lon="108.99080640288686">
        <ele>391.93550202436745</ele>
        <time>2022-03-15T23:42:40Z</time>
      </trkpt>
      <trkpt lat="34.32796947465083" lon="108.99089307645508">
        <ele>390.6714865611866</ele>
        <time>2022-03-15T23:42:42Z</time>
      </trkpt>
      <trkpt lat="34.32804128048517" lon="108.9910502894715">
        <ele>391.8892269395292</ele>
        <time>2022-03-15T23:42:44Z</time>
      </trkpt>
      <trkpt lat="34.328047635026216" lon="108.99116669685421">
        <ele>391.82484719809145</ele>
        <time>2022-03-15T23:42:46Z</time>
      </trkpt>
      <trkpt lat="34.32796271070614" lon="108.99120154256813">
        <ele>392.0304318405688</ele>
        <time>2022-03-15T23:42:48Z</time>
      </trkpt>
      <trkpt lat="34.3279634607636" lon="108.99144527397159">
        <ele>393.06377925910056</ele>
        <time>2022-03-15T23:42:56Z</time>
      </trkpt>
      <trkpt lat="34.32793907950589" lon="108.99160368534656">
        <ele>394.2021198505536</ele>
        <time>2022-03-15T23:43:00Z</time>
      </trkpt>
      <trkpt lat="34.32792980847632" lon="108.99191877976153">
        <ele>395.069238117896</ele>
        <time>2022-03-15T23:43:08Z</time>
      </trkpt>
      <trkpt lat="34.32796858182026" lon="108.99199531248355">
        <ele>394.3206377821043</ele>
        <time>2022-03-15T23:43:11Z</time>
      </trkpt>
      <trkpt lat="34.32800827124264" lon="108.99224747388514">
        <ele>392.5979499127716</ele>
        <time>2022-03-15T23:43:19Z</time>
      </trkpt>
      <trkpt lat="34.32796419513329" lon="108.99276501966372">
        <ele>393.7539208922535</ele>
        <time>2022-03-15T23:43:33Z</time>
      </trkpt>
      <trkpt lat="34.32794738156374" lon="108.99291212412551">
        <ele>396.14634641446173</ele>
        <time>2022-03-15T23:43:37Z</time>
      </trkpt>
      <trkpt lat="34.32796944378619" lon="108.9934112368615">
        <ele>397.29807050153613</ele>
        <time>2022-03-15T23:43:49Z</time>
      </trkpt>
      <trkpt lat="34.32800836966686" lon="108.99355300634228">
        <ele>395.92499453388155</ele>
        <time>2022-03-15T23:43:53Z</time>
      </trkpt>
      <trkpt lat="34.32805919473656" lon="108.99409953362697">
        <ele>395.98041844181716</ele>
        <time>2022-03-15T23:44:05Z</time>
      </trkpt>
      <trkpt lat="34.3280768297068" lon="108.99425981649112">
        <ele>395.5479544335976</ele>
        <time>2022-03-15T23:44:09Z</time>
      </trkpt>
      <trkpt lat="34.328069314965596" lon="108.99450874588248">
        <ele>394.5642996598035</ele>
        <time>2022-03-15T23:44:15Z</time>
      </trkpt>
      <trkpt lat="34.32812812059617" lon="108.99488113386917">
        <ele>394.5713186189532</ele>
        <time>2022-03-15T23:44:23Z</time>
      </trkpt>
      <trkpt lat="34.328188731655715" lon="108.99508064373623">
        <ele>394.2372576985508</ele>
        <time>2022-03-15T23:44:27Z</time>
      </trkpt>
      <trkpt lat="34.3282319039888" lon="108.99548662387559">
        <ele>393.62631243187934</ele>
        <time>2022-03-15T23:44:35Z</time>
      </trkpt>
      <trkpt lat="34.32822841924888" lon="108.99579941034746">
        <ele>393.48272951412946</ele>
        <time>2022-03-15T23:44:43Z</time>
      </trkpt>
      <trkpt lat="34.3282768829163" lon="108.99599399292111">
        <ele>392.42232369072735</ele>
        <time>2022-03-15T23:44:49Z</time>
      </trkpt>
      <trkpt lat="34.32832690819814" lon="108.99608599548368">
        <ele>394.62966602202505</ele>
        <time>2022-03-15T23:44:53Z</time>
      </trkpt>
      <trkpt lat="34.32835037912404" lon="108.99617374720468">
        <ele>393.4151787906885</ele>
        <time>2022-03-15T23:44:57Z</time>
      </trkpt>
      <trkpt lat="34.32843386593386" lon="108.99625438581675">
        <ele>395.24007967393845</ele>
        <time>2022-03-15T23:45:03Z</time>
      </trkpt>
      <trkpt lat="34.32849279651277" lon="108.99634588023059">
        <ele>393.99707341287285</ele>
        <time>2022-03-15T23:45:08Z</time>
      </trkpt>
      <trkpt lat="34.32845293027543" lon="108.99653275673975">
        <ele>395.3951506400481</ele>
        <time>2022-03-15T23:45:12Z</time>
      </trkpt>
      <trkpt lat="34.328359637125985" lon="108.99717046548294">
        <ele>398.4256193144247</ele>
        <time>2022-03-15T23:45:31Z</time>
      </trkpt>
      <trkpt lat="34.32833145608998" lon="108.99728931760833">
        <ele>397.51456901896745</ele>
        <time>2022-03-15T23:45:35Z</time>
      </trkpt>
      <trkpt lat="34.32825761824516" lon="108.9974788549671">
        <ele>396.8525706967339</ele>
        <time>2022-03-15T23:45:39Z</time>
      </trkpt>
      <trkpt lat="34.32823405870513" lon="108.99762258249231">
        <ele>396.08136520534754</ele>
        <time>2022-03-15T23:45:43Z</time>
      </trkpt>
      <trkpt lat="34.32824549766756" lon="108.99772170175254">
        <ele>397.2448087418452</ele>
        <time>2022-03-15T23:45:45Z</time>
      </trkpt>
      <trkpt lat="34.328227286246126" lon="108.99791572762041">
        <ele>397.01895986963063</ele>
        <time>2022-03-15T23:45:49Z</time>
      </trkpt>
      <trkpt lat="34.3282385754808" lon="108.99800696630628">
        <ele>397.64332477841526</ele>
        <time>2022-03-15T23:45:51Z</time>
      </trkpt>
      <trkpt lat="34.32821323930425" lon="108.99817884620359">
        <ele>395.5996856400743</ele>
        <time>2022-03-15T23:45:55Z</time>
      </trkpt>
      <trkpt lat="34.32821501506222" lon="108.99848630900519">
        <ele>397.4520615050569</ele>
        <time>2022-03-15T23:46:03Z</time>
      </trkpt>
      <trkpt lat="34.32827466757479" lon="108.9987360416647">
        <ele>397.27633884642273</ele>
        <time>2022-03-15T23:46:11Z</time>
      </trkpt>
      <trkpt lat="34.32836257988098" lon="108.99933816869506">
        <ele>396.81347295828164</ele>
        <time>2022-03-15T23:46:31Z</time>
      </trkpt>
      <trkpt lat="34.32840241029279" lon="108.99956404523812">
        <ele>397.6972484411672</ele>
        <time>2022-03-15T23:46:37Z</time>
      </trkpt>
      <trkpt lat="34.32839239140433" lon="108.99965121329846">
        <ele>396.5892609618604</ele>
        <time>2022-03-15T23:46:39Z</time>
      </trkpt>
      <trkpt lat="34.32843987621404" lon="109.00016292822224">
        <ele>396.5553135462105</ele>
        <time>2022-03-15T23:46:51Z</time>
      </trkpt>
      <trkpt lat="34.32781604800418" lon="109.00345032804292">
        <ele>397.5890380991623</ele>
        <time>2022-03-15T23:46:53Z</time>
      </trkpt>
      <trkpt lat="34.32783100920389" lon="109.00361141372895">
        <ele>396.9900755910203</ele>
        <time>2022-03-15T23:46:55Z</time>
      </trkpt>
      <trkpt lat="34.327817655223214" lon="109.00372502519218">
        <ele>397.08044387958944</ele>
        <time>2022-03-15T23:46:57Z</time>
      </trkpt>
      <trkpt lat="34.32784433444608" lon="109.00433619355904">
        <ele>394.45182681735605</ele>
        <time>2022-03-15T23:47:07Z</time>
      </trkpt>
      <trkpt lat="34.32784544032459" lon="109.00455772832356">
        <ele>394.31835322175175</ele>
        <time>2022-03-15T23:47:11Z</time>
      </trkpt>
      <trkpt lat="34.32811396721989" lon="109.00339890968753">
        <ele>395.4330595359206</ele>
        <time>2022-03-15T23:47:21Z</time>
      </trkpt>
      <trkpt lat="34.32804826478009" lon="109.00411026527063">
        <ele>394.6875661900267</ele>
        <time>2022-03-15T23:47:23Z</time>
      </trkpt>
      <trkpt lat="34.328051581714895" lon="109.00475826630574">
        <ele>392.74311965238303</ele>
        <time>2022-03-15T23:47:25Z</time>
      </trkpt>
      <trkpt lat="34.327994327450654" lon="109.00535655128313">
        <ele>394.5156870642677</ele>
        <time>2022-03-15T23:47:31Z</time>
      </trkpt>
      <trkpt lat="34.327895244438096" lon="109.00579732826043">
        <ele>394.8185421563685</ele>
        <time>2022-03-15T23:47:37Z</time>
      </trkpt>
      <trkpt lat="34.327888162800086" lon="109.00620586012559">
        <ele>395.8352962108329</ele>
        <time>2022-03-15T23:47:45Z</time>
      </trkpt>
      <trkpt lat="34.32787060333956" lon="109.006321185195">
        <ele>394.7933421591297</ele>
        <time>2022-03-15T23:47:47Z</time>
      </trkpt>
      <trkpt lat="34.3279785385982" lon="109.00661798855525">
        <ele>397.2407554388046</ele>
        <time>2022-03-15T23:47:53Z</time>
      </trkpt>
      <trkpt lat="34.32796412720308" lon="109.00703141860299">
        <ele>395.535747426562</ele>
        <time>2022-03-15T23:47:59Z</time>
      </trkpt>
      <trkpt lat="34.32797187275281" lon="109.00728537249798">
        <ele>394.63564472459257</ele>
        <time>2022-03-15T23:48:03Z</time>
      </trkpt>
      <trkpt lat="34.327954945966" lon="109.00740780303414">
        <ele>393.9070594087243</ele>
        <time>2022-03-15T23:48:05Z</time>
      </trkpt>
      <trkpt lat="34.32795693387919" lon="109.00766368482074">
        <ele>395.2306404802948</ele>
        <time>2022-03-15T23:48:09Z</time>
      </trkpt>
      <trkpt lat="34.327928872281504" lon="109.0079413784967">
        <ele>393.5387442857027</ele>
        <time>2022-03-15T23:48:13Z</time>
      </trkpt>
      <trkpt lat="34.32793677585034" lon="109.00849026896844">
        <ele>392.2842069603503</ele>
        <time>2022-03-15T23:48:21Z</time>
      </trkpt>
      <trkpt lat="34.32794518780033" lon="109.00906599219243">
        <ele>392.10671268962324</ele>
        <time>2022-03-15T23:48:29Z</time>
      </trkpt>
      <trkpt lat="34.327929057820946" lon="109.00965346626782">
        <ele>388.45049222465605</ele>
        <time>2022-03-15T23:48:37Z</time>
      </trkpt>
      <trkpt lat="34.32793361291942" lon="109.0102333451641">
        <ele>386.43288389220834</ele>
        <time>2022-03-15T23:48:45Z</time>
      </trkpt>
      <trkpt lat="34.327904787411626" lon="109.010801430638">
        <ele>387.91471356432885</ele>
        <time>2022-03-15T23:48:55Z</time>
      </trkpt>
      <trkpt lat="34.327879399741455" lon="109.01120064969813">
        <ele>387.0626082168892</ele>
        <time>2022-03-15T23:49:03Z</time>
      </trkpt>
      <trkpt lat="34.32789312050493" lon="109.01169688528381">
        <ele>388.91895034443587</ele>
        <time>2022-03-15T23:49:13Z</time>
      </trkpt>
      <trkpt lat="34.32787405180821" lon="109.01221622135903">
        <ele>387.78711105138063</ele>
        <time>2022-03-15T23:49:23Z</time>
      </trkpt>
      <trkpt lat="34.327841077038194" lon="109.01252914032189">
        <ele>387.7509548906237</ele>
        <time>2022-03-15T23:49:29Z</time>
      </trkpt>
      <trkpt lat="34.32786913347356" lon="109.01311930632153">
        <ele>390.85928239300847</ele>
        <time>2022-03-15T23:49:41Z</time>
      </trkpt>
      <trkpt lat="34.32788364768784" lon="109.01352228303612">
        <ele>390.0306617282331</ele>
        <time>2022-03-15T23:49:49Z</time>
      </trkpt>
      <trkpt lat="34.327926319523776" lon="109.01403697501132">
        <ele>390.39561846107244</ele>
        <time>2022-03-15T23:49:59Z</time>
      </trkpt>
      <trkpt lat="34.32791180276784" lon="109.01412566792875">
        <ele>390.7189170466736</ele>
        <time>2022-03-15T23:50:01Z</time>
      </trkpt>
      <trkpt lat="34.3279415275131" lon="109.01465398404795">
        <ele>390.10605311207473</ele>
        <time>2022-03-15T23:50:13Z</time>
      </trkpt>
      <trkpt lat="34.32796335822741" lon="109.01473882167953">
        <ele>389.9563450142741</ele>
        <time>2022-03-15T23:50:15Z</time>
      </trkpt>
      <trkpt lat="34.32796610233783" lon="109.01525155435414">
        <ele>388.4648572765291</ele>
        <time>2022-03-15T23:50:23Z</time>
      </trkpt>
      <trkpt lat="34.32800335842831" lon="109.01577055464494">
        <ele>388.5551027916372</ele>
        <time>2022-03-15T23:50:33Z</time>
      </trkpt>
      <trkpt lat="34.3280224579354" lon="109.01606170353406">
        <ele>388.15695486962795</ele>
        <time>2022-03-15T23:50:41Z</time>
      </trkpt>
      <trkpt lat="34.32792531703832" lon="109.01665569926439">
        <ele>388.0788816297427</ele>
        <time>2022-03-15T23:50:57Z</time>
      </trkpt>
      <trkpt lat="34.327863347724026" lon="109.01693485421583">
        <ele>388.92078622151166</ele>
        <time>2022-03-15T23:51:03Z</time>
      </trkpt>
      <trkpt lat="34.32782210304665" lon="109.01701434375065">
        <ele>389.3447843687609</ele>
        <time>2022-03-15T23:51:05Z</time>
      </trkpt>
      <trkpt lat="34.327758699022986" lon="109.01725939084486">
        <ele>389.72428669128567</ele>
        <time>2022-03-15T23:51:11Z</time>
      </trkpt>
      <trkpt lat="34.327720159539" lon="109.01733503664845">
        <ele>389.94889650307596</ele>
        <time>2022-03-15T23:51:13Z</time>
      </trkpt>
      <trkpt lat="34.327690188357955" lon="109.01748581475621">
        <ele>389.4959096899256</ele>
        <time>2022-03-15T23:51:17Z</time>
      </trkpt>
      <trkpt lat="34.32765655371253" lon="109.01796923620765">
        <ele>390.1944296685979</ele>
        <time>2022-03-15T23:51:29Z</time>
      </trkpt>
      <trkpt lat="34.32756453843414" lon="109.018498310675">
        <ele>388.9155157553032</ele>
        <time>2022-03-15T23:51:41Z</time>
      </trkpt>
      <trkpt lat="34.32752668874058" lon="109.01865166557633">
        <ele>389.3086361149326</ele>
        <time>2022-03-15T23:51:45Z</time>
      </trkpt>
      <trkpt lat="34.327428339472505" lon="109.01894827808681">
        <ele>392.080025870353</ele>
        <time>2022-03-15T23:51:53Z</time>
      </trkpt>
      <trkpt lat="34.32738292646998" lon="109.01902751866038">
        <ele>390.8535754373297</ele>
        <time>2022-03-15T23:51:55Z</time>
      </trkpt>
      <trkpt lat="34.327187863008945" lon="109.0194777953052">
        <ele>389.39843505620956</ele>
        <time>2022-03-15T23:52:07Z</time>
      </trkpt>
      <trkpt lat="34.3270039836243" lon="109.01975203161784">
        <ele>388.38846931792796</ele>
        <time>2022-03-15T23:52:15Z</time>
      </trkpt>
      <trkpt lat="34.32694218629875" lon="109.01987839400026">
        <ele>388.6441497700289</ele>
        <time>2022-03-15T23:52:19Z</time>
      </trkpt>
      <trkpt lat="34.32660649411459" lon="109.02030968570509">
        <ele>389.6490712016821</ele>
        <time>2022-03-15T23:52:33Z</time>
      </trkpt>
      <trkpt lat="34.32627365094407" lon="109.02057730870507">
        <ele>389.6945284716785</ele>
        <time>2022-03-15T23:52:45Z</time>
      </trkpt>
      <trkpt lat="34.32616383504614" lon="109.02068975020924">
        <ele>390.0482776230201</ele>
        <time>2022-03-15T23:52:49Z</time>
      </trkpt>
      <trkpt lat="34.32588947619287" lon="109.02082685337918">
        <ele>389.2934580594301</ele>
        <time>2022-03-15T23:52:57Z</time>
      </trkpt>
      <trkpt lat="34.32541131491045" lon="109.0209859560131">
        <ele>389.2457254594192</ele>
        <time>2022-03-15T23:53:09Z</time>
      </trkpt>
      <trkpt lat="34.32516789105362" lon="109.02105131089085">
        <ele>389.3616672400385</ele>
        <time>2022-03-15T23:53:15Z</time>
      </trkpt>
      <trkpt lat="34.32474767792186" lon="109.02122062618831">
        <ele>389.7880679452792</ele>
        <time>2022-03-15T23:53:25Z</time>
      </trkpt>
      <trkpt lat="34.32465119924295" lon="109.02124744926743">
        <ele>389.9679256537929</ele>
        <time>2022-03-15T23:53:27Z</time>
      </trkpt>
      <trkpt lat="34.32441766746315" lon="109.02123827592078">
        <ele>390.200463748537</ele>
        <time>2022-03-15T23:53:33Z</time>
      </trkpt>
      <trkpt lat="34.32392926769944" lon="109.02139194932481">
        <ele>392.74700336996466</ele>
        <time>2022-03-15T23:53:43Z</time>
      </trkpt>
      <trkpt lat="34.32376742543993" lon="109.02144197173524">
        <ele>392.76060113310814</ele>
        <time>2022-03-15T23:53:47Z</time>
      </trkpt>
      <trkpt lat="34.323526032358814" lon="109.02154533298507">
        <ele>393.42616605758667</ele>
        <time>2022-03-15T23:53:53Z</time>
      </trkpt>
      <trkpt lat="34.32336239787172" lon="109.02169328586953">
        <ele>392.48503624647856</ele>
        <time>2022-03-15T23:53:57Z</time>
      </trkpt>
      <trkpt lat="34.323285495776936" lon="109.02179505942647">
        <ele>392.1859365068376</ele>
        <time>2022-03-15T23:53:59Z</time>
      </trkpt>
      <trkpt lat="34.323016457337644" lon="109.02194850352603">
        <ele>391.6257840571925</ele>
        <time>2022-03-15T23:54:07Z</time>
      </trkpt>
      <trkpt lat="34.322519411279984" lon="109.02208306078217">
        <ele>389.9205882232636</ele>
        <time>2022-03-15T23:54:21Z</time>
      </trkpt>
      <trkpt lat="34.32212721426046" lon="109.02211671296736">
        <ele>388.7491125520319</ele>
        <time>2022-03-15T23:54:33Z</time>
      </trkpt>
      <trkpt lat="34.32200440889104" lon="109.022106804108">
        <ele>388.19214413594455</ele>
        <time>2022-03-15T23:54:37Z</time>
      </trkpt>
      <trkpt lat="34.321592606383376" lon="109.02216952630435">
        <ele>387.379129037261</ele>
        <time>2022-03-15T23:54:49Z</time>
      </trkpt>
      <trkpt lat="34.321081017187645" lon="109.0222134770431">
        <ele>385.59351088665426</ele>
        <time>2022-03-15T23:55:03Z</time>
      </trkpt>
      <trkpt lat="34.32085909803136" lon="109.02221240002625">
        <ele>385.1857638983056</ele>
        <time>2022-03-15T23:55:09Z</time>
      </trkpt>
      <trkpt lat="34.320650876561544" lon="109.02218067038274">
        <ele>385.13297600112855</ele>
        <time>2022-03-15T23:55:15Z</time>
      </trkpt>
      <trkpt lat="34.32015299183023" lon="109.02224561539566">
        <ele>383.75104989111423</ele>
        <time>2022-03-15T23:55:29Z</time>
      </trkpt>
      <trkpt lat="34.319627149288465" lon="109.0223955079406">
        <ele>384.7492398098111</ele>
        <time>2022-03-15T23:55:43Z</time>
      </trkpt>
      <trkpt lat="34.31921703752926" lon="109.02245946369916">
        <ele>384.4938182560727</ele>
        <time>2022-03-15T23:55:53Z</time>
      </trkpt>
      <trkpt lat="34.31914462562275" lon="109.02245780738406">
        <ele>385.0858722003177</ele>
        <time>2022-03-15T23:55:55Z</time>
      </trkpt>
      <trkpt lat="34.31883189753098" lon="109.02249673109247">
        <ele>386.0156457480043</ele>
        <time>2022-03-15T23:56:03Z</time>
      </trkpt>
      <trkpt lat="34.31866339335808" lon="109.02248551411607">
        <ele>385.6866082753986</ele>
        <time>2022-03-15T23:56:07Z</time>
      </trkpt>
      <trkpt lat="34.318505712938475" lon="109.02249600853453">
        <ele>385.07200512103736</ele>
        <time>2022-03-15T23:56:11Z</time>
      </trkpt>
      <trkpt lat="34.31792791592721" lon="109.02269531946642">
        <ele>384.74006793648005</ele>
        <time>2022-03-15T23:56:29Z</time>
      </trkpt>
      <trkpt lat="34.31781206833786" lon="109.02270008094882">
        <ele>385.56624962762</ele>
        <time>2022-03-15T23:56:31Z</time>
      </trkpt>
      <trkpt lat="34.31740544268238" lon="109.02289170377728">
        <ele>386.75668438337743</ele>
        <time>2022-03-15T23:56:41Z</time>
      </trkpt>
      <trkpt lat="34.31726856133677" lon="109.02295652770798">
        <ele>387.6487366054207</ele>
        <time>2022-03-15T23:56:49Z</time>
      </trkpt>
      <trkpt lat="34.31712698597726" lon="109.02298456143959">
        <ele>387.4708814378828</ele>
        <time>2022-03-15T23:56:55Z</time>
      </trkpt>
      <trkpt lat="34.316993527756836" lon="109.02297231139154">
        <ele>387.1095161186531</ele>
        <time>2022-03-15T23:56:57Z</time>
      </trkpt>
      <trkpt lat="34.316750101589705" lon="109.0230665608441">
        <ele>387.1521092345938</ele>
        <time>2022-03-15T23:57:01Z</time>
      </trkpt>
      <trkpt lat="34.31666441771719" lon="109.02315412242199">
        <ele>387.3966021211818</ele>
        <time>2022-03-15T23:57:03Z</time>
      </trkpt>
      <trkpt lat="34.316566361699515" lon="109.02330042238347">
        <ele>387.75562061648816</ele>
        <time>2022-03-15T23:57:05Z</time>
      </trkpt>
      <trkpt lat="34.31636011327651" lon="109.02355154717587">
        <ele>387.88645888026804</ele>
        <time>2022-03-15T23:57:09Z</time>
      </trkpt>
      <trkpt lat="34.31624836236455" lon="109.02366325466737">
        <ele>388.82363717537373</ele>
        <time>2022-03-15T23:57:11Z</time>
      </trkpt>
      <trkpt lat="34.31602691553806" lon="109.02379967418027">
        <ele>388.9049549000338</ele>
        <time>2022-03-15T23:57:15Z</time>
      </trkpt>
      <trkpt lat="34.315754062091635" lon="109.02403175212822">
        <ele>390.8122754143551</ele>
        <time>2022-03-15T23:57:21Z</time>
      </trkpt>
      <trkpt lat="34.31564338532464" lon="109.024103473787">
        <ele>390.40300295408815</ele>
        <time>2022-03-15T23:57:23Z</time>
      </trkpt>
      <trkpt lat="34.31522597180287" lon="109.02440776773871">
        <ele>391.1857054932043</ele>
        <time>2022-03-15T23:57:33Z</time>
      </trkpt>
      <trkpt lat="34.31493352262349" lon="109.02461448652458">
        <ele>391.8137059705332</ele>
        <time>2022-03-15T23:57:41Z</time>
      </trkpt>
      <trkpt lat="34.314646836926826" lon="109.02475146795386">
        <ele>390.97337623592466</ele>
        <time>2022-03-15T23:57:47Z</time>
      </trkpt>
      <trkpt lat="34.31458031067967" lon="109.02482353115055">
        <ele>391.3344825366512</ele>
        <time>2022-03-15T23:57:49Z</time>
      </trkpt>
      <trkpt lat="34.31418022475898" lon="109.02510784782454">
        <ele>390.471918893978</ele>
        <time>2022-03-15T23:57:59Z</time>
      </trkpt>
      <trkpt lat="34.31374418233625" lon="109.02533361756105">
        <ele>390.5461210794747</ele>
        <time>2022-03-15T23:58:09Z</time>
      </trkpt>
      <trkpt lat="34.31334542066418" lon="109.02549257489518">
        <ele>390.72876845113933</ele>
        <time>2022-03-15T23:58:17Z</time>
      </trkpt>
      <trkpt lat="34.31291985628327" lon="109.02574381309948">
        <ele>391.86007632967085</ele>
        <time>2022-03-15T23:58:27Z</time>
      </trkpt>
      <trkpt lat="34.312687652073045" lon="109.02589427814944">
        <ele>392.434917175211</ele>
        <time>2022-03-15T23:58:33Z</time>
      </trkpt>
      <trkpt lat="34.312560866367235" lon="109.02600547963732">
        <ele>392.44477060157806</ele>
        <time>2022-03-15T23:58:37Z</time>
      </trkpt>
      <trkpt lat="34.31259664385873" lon="109.02612135922281">
        <ele>392.7033618623391</ele>
        <time>2022-03-15T23:58:41Z</time>
      </trkpt>
      <trkpt lat="34.31250383935034" lon="109.0262938243293">
        <ele>392.92464968096465</ele>
        <time>2022-03-15T23:58:45Z</time>
      </trkpt>
      <trkpt lat="34.31235463377296" lon="109.02628222267053">
        <ele>393.31895641144365</ele>
        <time>2022-03-15T23:58:47Z</time>
      </trkpt>
      <trkpt lat="34.31218572640783" lon="109.02637826326918">
        <ele>393.4239622531459</ele>
        <time>2022-03-15T23:58:53Z</time>
      </trkpt>
      <trkpt lat="34.31204521152576" lon="109.02652789923738">
        <ele>394.39082641899586</ele>
        <time>2022-03-15T23:58:57Z</time>
      </trkpt>
      <trkpt lat="34.31197114964948" lon="109.02666564089505">
        <ele>394.981472723186</ele>
        <time>2022-03-15T23:59:01Z</time>
      </trkpt>
      <trkpt lat="34.311813546195616" lon="109.02701151764603">
        <ele>393.6199352974072</ele>
        <time>2022-03-15T23:59:11Z</time>
      </trkpt>
      <trkpt lat="34.31172292286883" lon="109.0272872951567">
        <ele>394.09946787916124</ele>
        <time>2022-03-15T23:59:19Z</time>
      </trkpt>
      <trkpt lat="34.31171066458656" lon="109.02741459889977">
        <ele>393.9437002427876</ele>
        <time>2022-03-15T23:59:23Z</time>
      </trkpt>
      <trkpt lat="34.311665163150394" lon="109.02752352455744">
        <ele>394.1334580508992</ele>
        <time>2022-03-15T23:59:27Z</time>
      </trkpt>
      <trkpt lat="34.311556730054775" lon="109.02770764497572">
        <ele>393.8146389592439</ele>
        <time>2022-03-15T23:59:35Z</time>
      </trkpt>
      <trkpt lat="34.311546117038134" lon="109.02782701051318">
        <ele>394.50939960964024</ele>
        <time>2022-03-15T23:59:39Z</time>
      </trkpt>
      <trkpt lat="34.311566514799836" lon="109.0279694755354">
        <ele>394.4874414242804</ele>
        <time>2022-03-15T23:59:43Z</time>
      </trkpt>
      <trkpt lat="34.31152771291367" lon="109.02808060909732">
        <ele>393.9491343982518</ele>
        <time>2022-03-15T23:59:47Z</time>
      </trkpt>
      <trkpt lat="34.31154324650931" lon="109.02823159460921">
        <ele>393.87799215782434</ele>
        <time>2022-03-15T23:59:51Z</time>
      </trkpt>
      <trkpt lat="34.31158383615496" lon="109.02834662008782">
        <ele>394.07916594389826</ele>
        <time>2022-03-15T23:59:53Z</time>
      </trkpt>
      <trkpt lat="34.31158799338759" lon="109.02850435207702">
        <ele>393.7368185771629</ele>
        <time>2022-03-15T23:59:57Z</time>
      </trkpt>
      <trkpt lat="34.311567856856406" lon="109.02865229673426">
        <ele>393.51545142475516</ele>
        <time>2022-03-16T00:00:01Z</time>
      </trkpt>
      <trkpt lat="34.31151395620361" lon="109.02877912833377">
        <ele>393.53610555268824</ele>
        <time>2022-03-16T00:00:05Z</time>
      </trkpt>
      <trkpt lat="34.31124821975644" lon="109.02912498184052">
        <ele>393.41476957313716</ele>
        <time>2022-03-16T00:00:17Z</time>
      </trkpt>
      <trkpt lat="34.310834730891315" lon="109.02935536057007">
        <ele>392.20000544562936</ele>
        <time>2022-03-16T00:00:29Z</time>
      </trkpt>
      <trkpt lat="34.310544832634825" lon="109.02949376098113">
        <ele>392.69110490195453</ele>
        <time>2022-03-16T00:00:37Z</time>
      </trkpt>
      <trkpt lat="34.31048160430812" lon="109.02954003307482">
        <ele>392.6287701446563</ele>
        <time>2022-03-16T00:00:39Z</time>
      </trkpt>
      <trkpt lat="34.31034476255553" lon="109.029600155349">
        <ele>392.8878090037033</ele>
        <time>2022-03-16T00:00:43Z</time>
      </trkpt>
      <trkpt lat="34.31006018506567" lon="109.02967235653576">
        <ele>392.6906404532492</ele>
        <time>2022-03-16T00:00:51Z</time>
      </trkpt>
      <trkpt lat="34.309796452660485" lon="109.02968885020033">
        <ele>393.3981834165752</ele>
        <time>2022-03-16T00:00:59Z</time>
      </trkpt>
      <trkpt lat="34.309641702409856" lon="109.02973501440668">
        <ele>393.93137934897095</ele>
        <time>2022-03-16T00:01:03Z</time>
      </trkpt>
      <trkpt lat="34.30920636982701" lon="109.02973130110169">
        <ele>396.81429466977715</ele>
        <time>2022-03-16T00:01:15Z</time>
      </trkpt>
      <trkpt lat="34.30883566558256" lon="109.02975979091646">
        <ele>397.8264113487676</ele>
        <time>2022-03-16T00:01:21Z</time>
      </trkpt>
      <trkpt lat="34.30869544215946" lon="109.0297996338557">
        <ele>397.91018041130155</ele>
        <time>2022-03-16T00:01:23Z</time>
      </trkpt>
      <trkpt lat="34.30852143402095" lon="109.02979127688465">
        <ele>398.39727795217186</ele>
        <time>2022-03-16T00:01:25Z</time>
      </trkpt>
      <trkpt lat="34.30816070153464" lon="109.02987098133032">
        <ele>397.7857252340764</ele>
        <time>2022-03-16T00:01:29Z</time>
      </trkpt>
      <trkpt lat="34.30797332979355" lon="109.02989458069248">
        <ele>397.2666775248945</ele>
        <time>2022-03-16T00:01:31Z</time>
      </trkpt>
      <trkpt lat="34.30758416722865" lon="109.03014468363494">
        <ele>395.79053574521095</ele>
        <time>2022-03-16T00:01:35Z</time>
      </trkpt>
      <trkpt lat="34.30718566585804" lon="109.03039437417456">
        <ele>395.3323791436851</ele>
        <time>2022-03-16T00:01:39Z</time>
      </trkpt>
      <trkpt lat="34.307095235061524" lon="109.03053057407531">
        <ele>394.08915244974196</ele>
        <time>2022-03-16T00:01:41Z</time>
      </trkpt>
      <trkpt lat="34.30673196617673" lon="109.03095275077162">
        <ele>392.7192470449954</ele>
        <time>2022-03-16T00:01:45Z</time>
      </trkpt>
      <trkpt lat="34.306627900690756" lon="109.03111059987411">
        <ele>392.4835379226133</ele>
        <time>2022-03-16T00:01:47Z</time>
      </trkpt>
      <trkpt lat="34.30652170310545" lon="109.03141713314699">
        <ele>391.2103092810139</ele>
        <time>2022-03-16T00:01:51Z</time>
      </trkpt>
      <trkpt lat="34.306459362507105" lon="109.0316884051463">
        <ele>390.87104175332934</ele>
        <time>2022-03-16T00:01:55Z</time>
      </trkpt>
      <trkpt lat="34.30642907433669" lon="109.03228420094948">
        <ele>392.64773786999285</ele>
        <time>2022-03-16T00:02:05Z</time>
      </trkpt>
      <trkpt lat="34.30645519510851" lon="109.03287834596509">
        <ele>392.1345378709957</ele>
        <time>2022-03-16T00:02:15Z</time>
      </trkpt>
      <trkpt lat="34.30646849007686" lon="109.03309327677626">
        <ele>392.65098747983575</ele>
        <time>2022-03-16T00:02:19Z</time>
      </trkpt>
      <trkpt lat="34.30652840126882" lon="109.03328222824393">
        <ele>393.1525533236563</ele>
        <time>2022-03-16T00:02:23Z</time>
      </trkpt>
      <trkpt lat="34.30653121753655" lon="109.03390052459363">
        <ele>392.8300509005785</ele>
        <time>2022-03-16T00:02:33Z</time>
      </trkpt>
      <trkpt lat="34.306535858885645" lon="109.0342420669686">
        <ele>393.1378135755658</ele>
        <time>2022-03-16T00:02:39Z</time>
      </trkpt>
      <trkpt lat="34.3065988344093" lon="109.03469906373519">
        <ele>392.75511298142374</ele>
        <time>2022-03-16T00:02:47Z</time>
      </trkpt>
      <trkpt lat="34.30660837420956" lon="109.03504613551169">
        <ele>392.79242931772023</ele>
        <time>2022-03-16T00:02:53Z</time>
      </trkpt>
      <trkpt lat="34.3066341566024" lon="109.03541262670286">
        <ele>392.72719834186137</ele>
        <time>2022-03-16T00:02:59Z</time>
      </trkpt>
      <trkpt lat="34.306654268990826" lon="109.03552344999157">
        <ele>392.88495831843466</ele>
        <time>2022-03-16T00:03:01Z</time>
      </trkpt>
      <trkpt lat="34.3066535653996" lon="109.0356335558477">
        <ele>391.62345482409</ele>
        <time>2022-03-16T00:03:03Z</time>
      </trkpt>
      <trkpt lat="34.306673861738965" lon="109.03573163972605">
        <ele>392.51564773730934</ele>
        <time>2022-03-16T00:03:05Z</time>
      </trkpt>
      <trkpt lat="34.30666153249304" lon="109.03584789893364">
        <ele>392.476136457175</ele>
        <time>2022-03-16T00:03:07Z</time>
      </trkpt>
      <trkpt lat="34.30667599931017" lon="109.03594572702073">
        <ele>392.4401918994263</ele>
        <time>2022-03-16T00:03:09Z</time>
      </trkpt>
      <trkpt lat="34.30659955597352" lon="109.03597683838375">
        <ele>392.0551227359101</ele>
        <time>2022-03-16T00:03:17Z</time>
      </trkpt>
      <trkpt lat="34.30657421582249" lon="109.03608248248241">
        <ele>391.70238860324025</ele>
        <time>2022-03-16T00:03:23Z</time>
      </trkpt>
      <trkpt lat="34.30662218193865" lon="109.03671033257476">
        <ele>392.23951598163694</ele>
        <time>2022-03-16T00:04:01Z</time>
      </trkpt>
      <trkpt lat="34.30661821135808" lon="109.03701066010777">
        <ele>391.8068224256858</ele>
        <time>2022-03-16T00:04:19Z</time>
      </trkpt>
      <trkpt lat="34.30654802887087" lon="109.0370932697937">
        <ele>392.00389885157347</ele>
        <time>2022-03-16T00:04:31Z</time>
      </trkpt>
      <trkpt lat="34.306392608767105" lon="109.03719214272158">
        <ele>391.1312420805916</ele>
        <time>2022-03-16T00:04:54Z</time>
      </trkpt>
      <trkpt lat="34.306395747625785" lon="109.037231149529">
        <ele>391.3420065427199</ele>
        <time>2022-03-16T00:05:06Z</time>
      </trkpt>
    </trkseg>
  </trk>
</gpx>