<?xml version="1.0" encoding="UTF-8"?>
<gpx xmlns="http://www.topografix.com/GPX/1/1" xmlns:gpxtpx="http://www.garmin.com/xmlschemas/TrackPointExtension/v1" xmlns:xsi="http://www.w3.org/2001/XMLSchema-instance" xsi:schemaLocation="http://www.topografix.com/GPX/1/1 http://www.topografix.com/GPX/1/1/gpx.xsd" version="1.1" creator="gpx.py -- https://github.com/tkrajina/gpxpy">
  <trk>
    <name>gpx from keep</name>
    <type>Run</type>
    <trkseg>
      <trkpt lat="34.297318273811825" lon="108.71049306125502">
        <ele>392.57731154383106</ele>
        <time>2026-08-26T22:51:58Z</time>
      </trkpt>
      <trkpt lat="34.29705700526612" lon="108.71028290143352">
        <ele>392.11649573195666</ele>
        <time>2026-08-26T22:52:11Z</time>
      </trkpt>
      <trkpt lat="34.297197516477716" lon="108.71044325834083">
        <ele>391.0337143111974</ele>
        <time>2026-08-26T22:52:18Z</time>
      </trkpt>
      <trkpt lat="34.297209536953794" lon="108.7103839057069">
        <ele>390.9059066940099</ele>
        <time>2026-08-26T22:52:21Z</time>
      </trkpt>
      <trkpt lat="34.29768958544038" lon="108.71033927807963">
        <ele>393.31598661859715</ele>
        <time>2026-08-26T22:52:56Z</time>
      </trkpt>
      <trkpt lat="34.29759891296213" lon="108.7104667885004">
        <ele>392.6496420184595</ele>
        <time>2026-08-26T22:53:02Z</time>
      </trkpt>
      <trkpt lat="34.29775565370065" lon="108.7104063659208">
        <ele>387.4012931669131</ele>
        <time>2026-08-26T22:53:12Z</time>
      </trkpt>
      <trkpt lat="34.297722808085084" lon="108.71032285544376">
        <ele>388.0946545600891</ele>
        <time>2026-08-26T22:53:15Z</time>
      </trkpt>
      <trkpt lat="34.29771776653262" lon="108.71017704941218">
        <ele>387.49428911693394</ele>
        <time>2026-08-26T22:53:21Z</time>
      </trkpt>
      <trkpt lat="34.29781056798941" lon="108.71013964934734">
        <ele>387.77714093774557</ele>
        <time>2026-08-26T22:53:27Z</time>
      </trkpt>
      <trkpt lat="34.29801050128029" lon="108.71018897713684">
        <ele>388.4397184420377</ele>
        <time>2026-08-26T22:53:39Z</time>
      </trkpt>
      <trkpt lat="34.298069596360875" lon="108.71029306129438">
        <ele>388.50925415288657</ele>
        <time>2026-08-26T22:53:45Z</time>
      </trkpt>
      <trkpt lat="34.29805960602678" lon="108.71041595329234">
        <ele>389.5141915604472</ele>
        <time>2026-08-26T22:53:51Z</time>
      </trkpt>
      <trkpt lat="34.29813243584985" lon="108.71078170900354">
        <ele>388.82528370339423</ele>
        <time>2026-08-26T22:54:13Z</time>
      </trkpt>
      <trkpt lat="34.29815546297132" lon="108.71088912059227">
        <ele>388.10993075650185</ele>
        <time>2026-08-26T22:54:19Z</time>
      </trkpt>
      <trkpt lat="34.29821417516665" lon="108.71098465526315">
        <ele>390.23544775974005</ele>
        <time>2026-08-26T22:54:25Z</time>
      </trkpt>
      <trkpt lat="34.2981785035139" lon="108.71110621938651">
        <ele>389.3542256206274</ele>
        <time>2026-08-26T22:54:31Z</time>
      </trkpt>
      <trkpt lat="34.29817508000233" lon="108.71120297776199">
        <ele>388.6726837325841</ele>
        <time>2026-08-26T22:54:37Z</time>
      </trkpt>
      <trkpt lat="34.298199207128604" lon="108.71126814646591">
        <ele>388.567303288728</ele>
        <time>2026-08-26T22:54:43Z</time>
      </trkpt>
      <trkpt lat="34.29820200221713" lon="108.71136515234487">
        <ele>390.39869704004377</ele>
        <time>2026-08-26T22:54:49Z</time>
      </trkpt>
      <trkpt lat="34.29817905599732" lon="108.71141501971424">
        <ele>389.3888232493773</ele>
        <time>2026-08-26T22:54:52Z</time>
      </trkpt>
      <trkpt lat="34.29807693029438" lon="108.71143334242637">
        <ele>389.63855436630547</ele>
        <time>2026-08-26T22:54:58Z</time>
      </trkpt>
      <trkpt lat="34.29781981630116" lon="108.71153483688462">
        <ele>388.54809177387506</ele>
        <time>2026-08-26T22:55:16Z</time>
      </trkpt>
      <trkpt lat="34.2975592713808" lon="108.71166669787739">
        <ele>389.24530362244695</ele>
        <time>2026-08-26T22:55:34Z</time>
      </trkpt>
      <trkpt lat="34.29751763794295" lon="108.71169233878608">
        <ele>389.4213945828378</ele>
        <time>2026-08-26T22:55:37Z</time>
      </trkpt>
      <trkpt lat="34.2974267481497" lon="108.71170029555165">
        <ele>388.7406203299761</ele>
        <time>2026-08-26T22:55:43Z</time>
      </trkpt>
      <trkpt lat="34.297140684882116" lon="108.71180020498247">
        <ele>389.0001830942929</ele>
        <time>2026-08-26T22:56:01Z</time>
      </trkpt>
      <trkpt lat="34.29684762452481" lon="108.71194475625116">
        <ele>389.02714741043746</ele>
        <time>2026-08-26T22:56:21Z</time>
      </trkpt>
      <trkpt lat="34.29658432143348" lon="108.71205395167127">
        <ele>388.79155235365033</ele>
        <time>2026-08-26T22:56:37Z</time>
      </trkpt>
      <trkpt lat="34.29644077960792" lon="108.7121066236919">
        <ele>387.47386742569506</ele>
        <time>2026-08-26T22:56:46Z</time>
      </trkpt>
      <trkpt lat="34.29639178853974" lon="108.71209712071528">
        <ele>387.9281894201413</ele>
        <time>2026-08-26T22:56:49Z</time>
      </trkpt>
      <trkpt lat="34.296308979689016" lon="108.71202395581592">
        <ele>388.04300792887807</ele>
        <time>2026-08-26T22:56:55Z</time>
      </trkpt>
      <trkpt lat="34.29628828826682" lon="108.71197023305565">
        <ele>388.03092423360795</ele>
        <time>2026-08-26T22:56:58Z</time>
      </trkpt>
      <trkpt lat="34.296260285872386" lon="108.71161916582224">
        <ele>388.971062425524</ele>
        <time>2026-08-26T22:57:16Z</time>
      </trkpt>
      <trkpt lat="34.29623920379527" lon="108.711445856712">
        <ele>389.0060102501884</ele>
        <time>2026-08-26T22:57:25Z</time>
      </trkpt>
      <trkpt lat="34.29625055179771" lon="108.71139130234103">
        <ele>389.30234165582806</ele>
        <time>2026-08-26T22:57:28Z</time>
      </trkpt>
      <trkpt lat="34.2961870177262" lon="108.7109779969877">
        <ele>390.12491849064827</ele>
        <time>2026-08-26T22:57:49Z</time>
      </trkpt>
      <trkpt lat="34.29615315709914" lon="108.71069761185038">
        <ele>389.1651712898165</ele>
        <time>2026-08-26T22:58:04Z</time>
      </trkpt>
      <trkpt lat="34.29612742689769" lon="108.71063745268863">
        <ele>389.17105876933783</ele>
        <time>2026-08-26T22:58:07Z</time>
      </trkpt>
      <trkpt lat="34.296069059938425" lon="108.71026977799303">
        <ele>390.2114248480648</ele>
        <time>2026-08-26T22:58:27Z</time>
      </trkpt>
      <trkpt lat="34.296021676558816" lon="108.7098895177674">
        <ele>390.3076382074505</ele>
        <time>2026-08-26T22:58:47Z</time>
      </trkpt>
      <trkpt lat="34.29599129167697" lon="108.7095368685206">
        <ele>389.5546317938715</ele>
        <time>2026-08-26T22:59:05Z</time>
      </trkpt>
      <trkpt lat="34.295927074830345" lon="108.7092196117706">
        <ele>389.6511382497847</ele>
        <time>2026-08-26T22:59:20Z</time>
      </trkpt>
      <trkpt lat="34.295898996484574" lon="108.70886507092726">
        <ele>388.39263349119574</ele>
        <time>2026-08-26T22:59:38Z</time>
      </trkpt>
      <trkpt lat="34.29587037111023" lon="108.70874234640317">
        <ele>389.12721405923367</ele>
        <time>2026-08-26T22:59:44Z</time>
      </trkpt>
      <trkpt lat="34.29587066861239" lon="108.70838003741987">
        <ele>390.2176203439012</ele>
        <time>2026-08-26T23:00:02Z</time>
      </trkpt>
      <trkpt lat="34.29580162500891" lon="108.70801140717903">
        <ele>389.3268663594499</ele>
        <time>2026-08-26T23:00:20Z</time>
      </trkpt>
      <trkpt lat="34.295777375424805" lon="108.70764110791548">
        <ele>390.09829377382994</ele>
        <time>2026-08-26T23:00:38Z</time>
      </trkpt>
      <trkpt lat="34.29577789274685" lon="108.70732617768884">
        <ele>389.24619908444583</ele>
        <time>2026-08-26T23:00:54Z</time>
      </trkpt>
      <trkpt lat="34.295736576236074" lon="108.706951358903">
        <ele>389.04300067108124</ele>
        <time>2026-08-26T23:01:12Z</time>
      </trkpt>
      <trkpt lat="34.29569311178046" lon="108.70660422835438">
        <ele>389.9316985439509</ele>
        <time>2026-08-26T23:01:30Z</time>
      </trkpt>
      <trkpt lat="34.29566985437588" lon="108.70643495927338">
        <ele>391.11785801127553</ele>
        <time>2026-08-26T23:01:42Z</time>
      </trkpt>
      <trkpt lat="34.29567715848227" lon="108.70633794224885">
        <ele>390.8056356748566</ele>
        <time>2026-08-26T23:01:48Z</time>
      </trkpt>
      <trkpt lat="34.29570774680576" lon="108.70623812333311">
        <ele>390.787545719184</ele>
        <time>2026-08-26T23:01:54Z</time>
      </trkpt>
      <trkpt lat="34.295760721493636" lon="108.70614272295664">
        <ele>390.6946765463799</ele>
        <time>2026-08-26T23:02:00Z</time>
      </trkpt>
      <trkpt lat="34.2958269055149" lon="108.70606862545607">
        <ele>390.7263362519443</ele>
        <time>2026-08-26T23:02:06Z</time>
      </trkpt>
      <trkpt lat="34.29612813331269" lon="108.70601836114723">
        <ele>390.3835644060746</ele>
        <time>2026-08-26T23:02:24Z</time>
      </trkpt>
      <trkpt lat="34.296342235327025" lon="108.70596707264224">
        <ele>390.1475135460496</ele>
        <time>2026-08-26T23:02:37Z</time>
      </trkpt>
      <trkpt lat="34.296618253820256" lon="108.7059407120911">
        <ele>389.65204256027937</ele>
        <time>2026-08-26T23:02:52Z</time>
      </trkpt>
      <trkpt lat="34.296928329925414" lon="108.70588060143808">
        <ele>388.92027463112026</ele>
        <time>2026-08-26T23:03:10Z</time>
      </trkpt>
      <trkpt lat="34.29719842048967" lon="108.70583326930989">
        <ele>389.08365189656615</ele>
        <time>2026-08-26T23:03:25Z</time>
      </trkpt>
      <trkpt lat="34.29734360681222" lon="108.70580692142042">
        <ele>387.5148831503466</ele>
        <time>2026-08-26T23:03:34Z</time>
      </trkpt>
      <trkpt lat="34.29742878189257" lon="108.70576935879451">
        <ele>388.1242107283324</ele>
        <time>2026-08-26T23:03:40Z</time>
      </trkpt>
      <trkpt lat="34.297506822413105" lon="108.70578454660321">
        <ele>388.1366959037259</ele>
        <time>2026-08-26T23:03:46Z</time>
      </trkpt>
      <trkpt lat="34.29766845316925" lon="108.70572966123875">
        <ele>388.1875831829384</ele>
        <time>2026-08-26T23:03:58Z</time>
      </trkpt>
      <trkpt lat="34.29781510360069" lon="108.70569540921751">
        <ele>388.72222826536745</ele>
        <time>2026-08-26T23:04:10Z</time>
      </trkpt>
      <trkpt lat="34.29805408430542" lon="108.70569434694185">
        <ele>389.418670588173</ele>
        <time>2026-08-26T23:04:28Z</time>
      </trkpt>
      <trkpt lat="34.298182512776116" lon="108.70566027122975">
        <ele>389.2955716662109</ele>
        <time>2026-08-26T23:04:37Z</time>
      </trkpt>
      <trkpt lat="34.29827524047818" lon="108.70560993190259">
        <ele>389.98700984194875</ele>
        <time>2026-08-26T23:04:45Z</time>
      </trkpt>
      <trkpt lat="34.29834287839251" lon="108.70561676838341">
        <ele>388.80144512746483</ele>
        <time>2026-08-26T23:04:51Z</time>
      </trkpt>
      <trkpt lat="34.2986237358754" lon="108.70557755616265">
        <ele>389.7447563149035</ele>
        <time>2026-08-26T23:05:15Z</time>
      </trkpt>
      <trkpt lat="34.29895554105565" lon="108.70548969343064">
        <ele>390.44142703246325</ele>
        <time>2026-08-26T23:05:42Z</time>
      </trkpt>
      <trkpt lat="34.29920012042211" lon="108.70544312098257">
        <ele>390.00514005310833</ele>
        <time>2026-08-26T23:06:00Z</time>
      </trkpt>
      <trkpt lat="34.29924125909952" lon="108.70547471264457">
        <ele>390.4388056145981</ele>
        <time>2026-08-26T23:06:03Z</time>
      </trkpt>
      <trkpt lat="34.29919015322416" lon="108.70553595750181">
        <ele>390.35660627670586</ele>
        <time>2026-08-26T23:06:07Z</time>
      </trkpt>
      <trkpt lat="34.29914686458449" lon="108.70556213684694">
        <ele>390.73735405597836</ele>
        <time>2026-08-26T23:06:10Z</time>
      </trkpt>
      <trkpt lat="34.29885778867214" lon="108.70560405657146">
        <ele>390.52399447839707</ele>
        <time>2026-08-26T23:06:28Z</time>
      </trkpt>
      <trkpt lat="34.298539585840636" lon="108.70566616480976">
        <ele>389.18942171987146</ele>
        <time>2026-08-26T23:06:47Z</time>
      </trkpt>
      <trkpt lat="34.29826221298664" lon="108.70571282525732">
        <ele>389.6201872462407</ele>
        <time>2026-08-26T23:07:04Z</time>
      </trkpt>
      <trkpt lat="34.29795810614934" lon="108.70578247117494">
        <ele>389.40341518074274</ele>
        <time>2026-08-26T23:07:22Z</time>
      </trkpt>
      <trkpt lat="34.29768449303175" lon="108.70582392525841">
        <ele>388.50371109042317</ele>
        <time>2026-08-26T23:07:37Z</time>
      </trkpt>
      <trkpt lat="34.29758494180609" lon="108.70585288203351">
        <ele>389.1465766886249</ele>
        <time>2026-08-26T23:07:43Z</time>
      </trkpt>
      <trkpt lat="34.29747756351005" lon="108.70586581105285">
        <ele>387.89276527334005</ele>
        <time>2026-08-26T23:07:49Z</time>
      </trkpt>
      <trkpt lat="34.297216720863496" lon="108.70592232654046">
        <ele>388.3914589593187</ele>
        <time>2026-08-26T23:08:04Z</time>
      </trkpt>
      <trkpt lat="34.29691369795015" lon="108.70597979201246">
        <ele>388.55948122311383</ele>
        <time>2026-08-26T23:08:25Z</time>
      </trkpt>
      <trkpt lat="34.29683070079512" lon="108.70598705149028">
        <ele>387.8597286120057</ele>
        <time>2026-08-26T23:08:31Z</time>
      </trkpt>
      <trkpt lat="34.29647208088092" lon="108.70604492932655">
        <ele>389.0257458817214</ele>
        <time>2026-08-26T23:08:53Z</time>
      </trkpt>
      <trkpt lat="34.29619400856835" lon="108.70610735052338">
        <ele>389.7550745168701</ele>
        <time>2026-08-26T23:09:08Z</time>
      </trkpt>
      <trkpt lat="34.2961376675765" lon="108.70611991553666">
        <ele>388.7855067374185</ele>
        <time>2026-08-26T23:09:11Z</time>
      </trkpt>
      <trkpt lat="34.29608320098499" lon="108.70610472365544">
        <ele>389.4862321987748</ele>
        <time>2026-08-26T23:09:14Z</time>
      </trkpt>
      <trkpt lat="34.295830770844034" lon="108.7061400206013">
        <ele>389.71169813908637</ele>
        <time>2026-08-26T23:09:29Z</time>
      </trkpt>
      <trkpt lat="34.295770244568274" lon="108.70610979762219">
        <ele>390.1264703180641</ele>
        <time>2026-08-26T23:09:35Z</time>
      </trkpt>
      <trkpt lat="34.295809273657206" lon="108.70607811897817">
        <ele>390.2662149434909</ele>
        <time>2026-08-26T23:09:38Z</time>
      </trkpt>
      <trkpt lat="34.29610928609632" lon="108.70602728170091">
        <ele>388.79439915623516</ele>
        <time>2026-08-26T23:09:56Z</time>
      </trkpt>
      <trkpt lat="34.29637858573082" lon="108.70596848377214">
        <ele>388.66650217119604</ele>
        <time>2026-08-26T23:10:11Z</time>
      </trkpt>
      <trkpt lat="34.2966513603902" lon="108.70592607841337">
        <ele>389.82227807305753</ele>
        <time>2026-08-26T23:10:26Z</time>
      </trkpt>
      <trkpt lat="34.296889607039674" lon="108.70589899077927">
        <ele>387.7022930756211</ele>
        <time>2026-08-26T23:10:38Z</time>
      </trkpt>
      <trkpt lat="34.29693772591623" lon="108.70587161822097">
        <ele>388.52166853286326</ele>
        <time>2026-08-26T23:10:41Z</time>
      </trkpt>
      <trkpt lat="34.29711767000942" lon="108.70585846015989">
        <ele>387.52887441497296</ele>
        <time>2026-08-26T23:10:50Z</time>
      </trkpt>
      <trkpt lat="34.29733956089925" lon="108.70580244562962">
        <ele>388.4607572183013</ele>
        <time>2026-08-26T23:11:08Z</time>
      </trkpt>
      <trkpt lat="34.297374888313" lon="108.7057653859701">
        <ele>390.06797322258353</ele>
        <time>2026-08-26T23:11:12Z</time>
      </trkpt>
      <trkpt lat="34.29753020311861" lon="108.70573932603507">
        <ele>389.014710675925</ele>
        <time>2026-08-26T23:11:24Z</time>
      </trkpt>
      <trkpt lat="34.29760283852488" lon="108.70574541940503">
        <ele>388.6798325078562</ele>
        <time>2026-08-26T23:11:30Z</time>
      </trkpt>
      <trkpt lat="34.29766735770684" lon="108.70572773539918">
        <ele>388.60732854902744</ele>
        <time>2026-08-26T23:11:36Z</time>
      </trkpt>
      <trkpt lat="34.29771521956741" lon="108.70573873122657">
        <ele>388.35427452716976</ele>
        <time>2026-08-26T23:11:39Z</time>
      </trkpt>
      <trkpt lat="34.29801110145021" lon="108.70568531847938">
        <ele>389.2531380308792</ele>
        <time>2026-08-26T23:11:57Z</time>
      </trkpt>
      <trkpt lat="34.29830901449614" lon="108.70564504787063">
        <ele>389.17556972429156</ele>
        <time>2026-08-26T23:12:15Z</time>
      </trkpt>
      <trkpt lat="34.29861446632081" lon="108.70558616482168">
        <ele>389.6857844395563</ele>
        <time>2026-08-26T23:12:33Z</time>
      </trkpt>
      <trkpt lat="34.29891216144537" lon="108.70551117061912">
        <ele>391.71130783855915</ele>
        <time>2026-08-26T23:12:51Z</time>
      </trkpt>
      <trkpt lat="34.299214507393735" lon="108.7054536330406">
        <ele>389.6176282707602</ele>
        <time>2026-08-26T23:13:14Z</time>
      </trkpt>
      <trkpt lat="34.29922309508327" lon="108.70551137086773">
        <ele>390.51651983428746</ele>
        <time>2026-08-26T23:13:18Z</time>
      </trkpt>
      <trkpt lat="34.2991765316799" lon="108.70553921600145">
        <ele>389.9078312590718</ele>
        <time>2026-08-26T23:13:21Z</time>
      </trkpt>
      <trkpt lat="34.29897336013677" lon="108.70559608323249">
        <ele>389.22785468399525</ele>
        <time>2026-08-26T23:13:33Z</time>
      </trkpt>
      <trkpt lat="34.29892113239929" lon="108.70559335875254">
        <ele>388.8547158362344</ele>
        <time>2026-08-26T23:13:36Z</time>
      </trkpt>
      <trkpt lat="34.29882182945207" lon="108.7056345876996">
        <ele>390.1580640338361</ele>
        <time>2026-08-26T23:13:42Z</time>
      </trkpt>
      <trkpt lat="34.298524526497644" lon="108.70568191146107">
        <ele>388.8148347111419</ele>
        <time>2026-08-26T23:14:00Z</time>
      </trkpt>
      <trkpt lat="34.298220963741" lon="108.70570885063385">
        <ele>389.6300772782415</ele>
        <time>2026-08-26T23:14:24Z</time>
      </trkpt>
      <trkpt lat="34.29817486516578" lon="108.70573663340416">
        <ele>389.44728181231767</ele>
        <time>2026-08-26T23:14:27Z</time>
      </trkpt>
      <trkpt lat="34.297881385686345" lon="108.70579563093085">
        <ele>387.9138580067083</ele>
        <time>2026-08-26T23:14:45Z</time>
      </trkpt>
      <trkpt lat="34.2978291257864" lon="108.70578900379806">
        <ele>387.74732229392976</ele>
        <time>2026-08-26T23:14:48Z</time>
      </trkpt>
      <trkpt lat="34.29768104396847" lon="108.70583112871137">
        <ele>388.6399028375745</ele>
        <time>2026-08-26T23:14:57Z</time>
      </trkpt>
      <trkpt lat="34.297627973009305" lon="108.70582186590403">
        <ele>388.46304227784276</ele>
        <time>2026-08-26T23:15:00Z</time>
      </trkpt>
      <trkpt lat="34.297334964847465" lon="108.70588834580342">
        <ele>388.42914914898574</ele>
        <time>2026-08-26T23:15:17Z</time>
      </trkpt>
      <trkpt lat="34.2971334096116" lon="108.70591597472313">
        <ele>388.6792562045157</ele>
        <time>2026-08-26T23:15:28Z</time>
      </trkpt>
      <trkpt lat="34.296897446771915" lon="108.70599886141196">
        <ele>388.67678685020655</ele>
        <time>2026-08-26T23:15:46Z</time>
      </trkpt>
      <trkpt lat="34.29662737239759" lon="108.7060261295942">
        <ele>388.6233964320272</ele>
        <time>2026-08-26T23:16:04Z</time>
      </trkpt>
      <trkpt lat="34.2963214844612" lon="108.7060833551976">
        <ele>389.8685410050675</ele>
        <time>2026-08-26T23:16:22Z</time>
      </trkpt>
      <trkpt lat="34.296066376762155" lon="108.70611223886478">
        <ele>388.985929813236</ele>
        <time>2026-08-26T23:16:40Z</time>
      </trkpt>
      <trkpt lat="34.29596619748274" lon="108.70613991865743">
        <ele>390.6527256332338</ele>
        <time>2026-08-26T23:16:46Z</time>
      </trkpt>
      <trkpt lat="34.29590420184141" lon="108.70612979226706">
        <ele>389.9187295055017</ele>
        <time>2026-08-26T23:16:49Z</time>
      </trkpt>
      <trkpt lat="34.29579054992526" lon="108.70615131883734">
        <ele>390.5435140719637</ele>
        <time>2026-08-26T23:16:58Z</time>
      </trkpt>
      <trkpt lat="34.295798403116855" lon="108.70607446894547">
        <ele>390.2426178595051</ele>
        <time>2026-08-26T23:17:01Z</time>
      </trkpt>
      <trkpt lat="34.29590217070677" lon="108.70603836147063">
        <ele>389.45071905478835</ele>
        <time>2026-08-26T23:17:10Z</time>
      </trkpt>
      <trkpt lat="34.296134016559144" lon="108.70600438037762">
        <ele>389.91787126567215</ele>
        <time>2026-08-26T23:17:28Z</time>
      </trkpt>
      <trkpt lat="34.296198040950706" lon="108.70596942723779">
        <ele>389.7292147241533</ele>
        <time>2026-08-26T23:17:34Z</time>
      </trkpt>
      <trkpt lat="34.29649741567652" lon="108.70595244321058">
        <ele>389.0933189149946</ele>
        <time>2026-08-26T23:17:52Z</time>
      </trkpt>
      <trkpt lat="34.2967960147299" lon="108.70591169479302">
        <ele>389.36468360573053</ele>
        <time>2026-08-26T23:18:07Z</time>
      </trkpt>
      <trkpt lat="34.29694970901009" lon="108.70587228120384">
        <ele>389.64841858297586</ele>
        <time>2026-08-26T23:18:16Z</time>
      </trkpt>
      <trkpt lat="34.29707753712302" lon="108.70586017434991">
        <ele>389.1734683876857</ele>
        <time>2026-08-26T23:18:22Z</time>
      </trkpt>
      <trkpt lat="34.29716390688302" lon="108.70582438184586">
        <ele>389.58242667559534</ele>
        <time>2026-08-26T23:18:28Z</time>
      </trkpt>
      <trkpt lat="34.297227051322416" lon="108.70583261038678">
        <ele>389.0086668888107</ele>
        <time>2026-08-26T23:18:34Z</time>
      </trkpt>
      <trkpt lat="34.29751405303253" lon="108.70580124588453">
        <ele>389.08282496780157</ele>
        <time>2026-08-26T23:18:55Z</time>
      </trkpt>
      <trkpt lat="34.2977056584739" lon="108.70576595957756">
        <ele>388.5021194797009</ele>
        <time>2026-08-26T23:19:07Z</time>
      </trkpt>
      <trkpt lat="34.297759629032704" lon="108.70577427868642">
        <ele>388.22054628189653</ele>
        <time>2026-08-26T23:19:10Z</time>
      </trkpt>
      <trkpt lat="34.29797705343075" lon="108.70570653469831">
        <ele>388.60733774956316</ele>
        <time>2026-08-26T23:19:23Z</time>
      </trkpt>
      <trkpt lat="34.29824949613242" lon="108.70566700160326">
        <ele>388.83754094783217</ele>
        <time>2026-08-26T23:19:39Z</time>
      </trkpt>
      <trkpt lat="34.29852955863538" lon="108.70561448235166">
        <ele>388.6422148011625</ele>
        <time>2026-08-26T23:19:54Z</time>
      </trkpt>
      <trkpt lat="34.29875599793723" lon="108.70553001069194">
        <ele>390.08568499516696</ele>
        <time>2026-08-26T23:20:12Z</time>
      </trkpt>
      <trkpt lat="34.29902404773137" lon="108.7054830605771">
        <ele>390.62431430257857</ele>
        <time>2026-08-26T23:20:33Z</time>
      </trkpt>
      <trkpt lat="34.2992310714487" lon="108.70544409310516">
        <ele>390.86837025824934</ele>
        <time>2026-08-26T23:20:48Z</time>
      </trkpt>
      <trkpt lat="34.299338026183406" lon="108.70565770512003">
        <ele>390.90147700347006</ele>
        <time>2026-08-26T23:21:00Z</time>
      </trkpt>
      <trkpt lat="34.29938782221907" lon="108.70601487257707">
        <ele>390.9385357424617</ele>
        <time>2026-08-26T23:21:21Z</time>
      </trkpt>
      <trkpt lat="34.299436522361816" lon="108.70636010398837">
        <ele>391.44151575211436</ele>
        <time>2026-08-26T23:21:38Z</time>
      </trkpt>
      <trkpt lat="34.29944914664762" lon="108.70666939959565">
        <ele>390.39937058929354</ele>
        <time>2026-08-26T23:21:53Z</time>
      </trkpt>
      <trkpt lat="34.299475554690346" lon="108.70671444944807">
        <ele>391.1130940159783</ele>
        <time>2026-08-26T23:21:56Z</time>
      </trkpt>
      <trkpt lat="34.299509227182455" lon="108.70690125095953">
        <ele>390.93412002548575</ele>
        <time>2026-08-26T23:22:08Z</time>
      </trkpt>
      <trkpt lat="34.29948869537644" lon="108.70697321045016">
        <ele>388.3440782139078</ele>
        <time>2026-08-26T23:22:20Z</time>
      </trkpt>
      <trkpt lat="34.299513439310466" lon="108.70710701447291">
        <ele>389.0000231573358</ele>
        <time>2026-08-26T23:22:26Z</time>
      </trkpt>
      <trkpt lat="34.29954484265744" lon="108.70718004180114">
        <ele>390.22591410949826</ele>
        <time>2026-08-26T23:22:32Z</time>
      </trkpt>
      <trkpt lat="34.299536276368045" lon="108.70735755598321">
        <ele>390.9724352583289</ele>
        <time>2026-08-26T23:22:41Z</time>
      </trkpt>
      <trkpt lat="34.2994923708787" lon="108.7074126879407">
        <ele>390.4894084427506</ele>
        <time>2026-08-26T23:22:44Z</time>
      </trkpt>
      <trkpt lat="34.29950362124619" lon="108.707473692981">
        <ele>390.4003913477063</ele>
        <time>2026-08-26T23:22:47Z</time>
      </trkpt>
      <trkpt lat="34.29949284347293" lon="108.70753326702139">
        <ele>389.2169019347057</ele>
        <time>2026-08-26T23:22:50Z</time>
      </trkpt>
      <trkpt lat="34.299514975807796" lon="108.7076336636167">
        <ele>390.28355373069644</ele>
        <time>2026-08-26T23:22:56Z</time>
      </trkpt>
      <trkpt lat="34.299502185251285" lon="108.70771164486894">
        <ele>391.0719633875415</ele>
        <time>2026-08-26T23:23:02Z</time>
      </trkpt>
      <trkpt lat="34.29951755044083" lon="108.70783939393351">
        <ele>391.19762915652245</ele>
        <time>2026-08-26T23:23:11Z</time>
      </trkpt>
      <trkpt lat="34.29956256519991" lon="108.70791973981403">
        <ele>391.46449529286474</ele>
        <time>2026-08-26T23:23:17Z</time>
      </trkpt>
      <trkpt lat="34.29957617028547" lon="108.7081084455509">
        <ele>391.9491066634655</ele>
        <time>2026-08-26T23:23:29Z</time>
      </trkpt>
      <trkpt lat="34.299548811675066" lon="108.70822043100458">
        <ele>389.6970379455015</ele>
        <time>2026-08-26T23:23:36Z</time>
      </trkpt>
      <trkpt lat="34.299613130335146" lon="108.70857313210898">
        <ele>390.1732432032004</ele>
        <time>2026-08-26T23:24:06Z</time>
      </trkpt>
      <trkpt lat="34.299619688530676" lon="108.70862723245877">
        <ele>389.87155115045607</ele>
        <time>2026-08-26T23:24:09Z</time>
      </trkpt>
      <trkpt lat="34.29964509531909" lon="108.70867223984669">
        <ele>390.1713928608224</ele>
        <time>2026-08-26T23:24:12Z</time>
      </trkpt>
      <trkpt lat="34.29967705158428" lon="108.70901137268568">
        <ele>391.6550258016214</ele>
        <time>2026-08-26T23:24:30Z</time>
      </trkpt>
      <trkpt lat="34.29973219704544" lon="108.70928758342512">
        <ele>389.76109476201236</ele>
        <time>2026-08-26T23:24:45Z</time>
      </trkpt>
      <trkpt lat="34.299722495727416" lon="108.7093490630643">
        <ele>388.73011448886245</ele>
        <time>2026-08-26T23:24:48Z</time>
      </trkpt>
      <trkpt lat="34.29974036507118" lon="108.70948908758344">
        <ele>389.22583748586476</ele>
        <time>2026-08-26T23:24:57Z</time>
      </trkpt>
      <trkpt lat="34.299799069350826" lon="108.70957414583366">
        <ele>389.2076842812821</ele>
        <time>2026-08-26T23:25:03Z</time>
      </trkpt>
      <trkpt lat="34.29980383928057" lon="108.70964430575228">
        <ele>390.09753876179457</ele>
        <time>2026-08-26T23:25:06Z</time>
      </trkpt>
      <trkpt lat="34.29978334295458" lon="108.70974400942131">
        <ele>390.3036436457187</ele>
        <time>2026-08-26T23:25:12Z</time>
      </trkpt>
      <trkpt lat="34.29984395033542" lon="108.71002143912051">
        <ele>391.58617347851396</ele>
        <time>2026-08-26T23:25:27Z</time>
      </trkpt>
      <trkpt lat="34.299847462712904" lon="108.71019077021832">
        <ele>394.0665658451617</ele>
        <time>2026-08-26T23:25:39Z</time>
      </trkpt>
      <trkpt lat="34.29980073906931" lon="108.71033259613058">
        <ele>390.96236017905176</ele>
        <time>2026-08-26T23:25:49Z</time>
      </trkpt>
      <trkpt lat="34.29972014787037" lon="108.7104786428311">
        <ele>391.9964603772387</ele>
        <time>2026-08-26T23:26:01Z</time>
      </trkpt>
      <trkpt lat="34.29957809003465" lon="108.71052761724823">
        <ele>391.1194150717929</ele>
        <time>2026-08-26T23:26:13Z</time>
      </trkpt>
      <trkpt lat="34.29950964314241" lon="108.71058361188958">
        <ele>393.4825718635693</ele>
        <time>2026-08-26T23:26:19Z</time>
      </trkpt>
      <trkpt lat="34.299484470943995" lon="108.71077224758088">
        <ele>392.96698663011193</ele>
        <time>2026-08-26T23:26:31Z</time>
      </trkpt>
      <trkpt lat="34.29941555212773" lon="108.71083049264986">
        <ele>391.2796184755862</ele>
        <time>2026-08-26T23:26:37Z</time>
      </trkpt>
      <trkpt lat="34.29936178082648" lon="108.71087053136041">
        <ele>391.90435320697725</ele>
        <time>2026-08-26T23:28:22Z</time>
      </trkpt>
      <trkpt lat="34.29906516749094" lon="108.71099115068859">
        <ele>390.9311677161604</ele>
        <time>2026-08-26T23:28:46Z</time>
      </trkpt>
      <trkpt lat="34.29876537029104" lon="108.7111201857323">
        <ele>390.7442632401362</ele>
        <time>2026-08-26T23:29:10Z</time>
      </trkpt>
      <trkpt lat="34.298458087690065" lon="108.71124043083196">
        <ele>389.3105991650373</ele>
        <time>2026-08-26T23:29:34Z</time>
      </trkpt>
      <trkpt lat="34.29839838110289" lon="108.71131189933766">
        <ele>390.1675998773426</ele>
        <time>2026-08-26T23:29:40Z</time>
      </trkpt>
      <trkpt lat="34.29830707655693" lon="108.71132985089679">
        <ele>389.3651934163645</ele>
        <time>2026-08-26T23:29:46Z</time>
      </trkpt>
      <trkpt lat="34.2982562499151" lon="108.71136223671716">
        <ele>388.7807887233794</ele>
        <time>2026-08-26T23:29:49Z</time>
      </trkpt>
      <trkpt lat="34.2982085647696" lon="108.71129169855038">
        <ele>388.591771283187</ele>
        <time>2026-08-26T23:29:53Z</time>
      </trkpt>
      <trkpt lat="34.29812238724981" lon="108.71102883377131">
        <ele>388.16958689223975</ele>
        <time>2026-08-26T23:30:08Z</time>
      </trkpt>
      <trkpt lat="34.2981363228555" lon="108.71093765607152">
        <ele>389.59279632475227</ele>
        <time>2026-08-26T23:30:14Z</time>
      </trkpt>
      <trkpt lat="34.2981272318936" lon="108.71083780097192">
        <ele>390.2150597060099</ele>
        <time>2026-08-26T23:30:20Z</time>
      </trkpt>
      <trkpt lat="34.298083004059094" lon="108.71075662859226">
        <ele>388.64728781953454</ele>
        <time>2026-08-26T23:30:26Z</time>
      </trkpt>
      <trkpt lat="34.298060877003266" lon="108.71066165701644">
        <ele>388.94027053564787</ele>
        <time>2026-08-26T23:30:32Z</time>
      </trkpt>
      <trkpt lat="34.298078422081815" lon="108.71045479442783">
        <ele>389.0397623097524</ele>
        <time>2026-08-26T23:30:44Z</time>
      </trkpt>
      <trkpt lat="34.298014437140004" lon="108.71016953634046">
        <ele>388.160870404914</ele>
        <time>2026-08-26T23:31:02Z</time>
      </trkpt>
      <trkpt lat="34.29781614273007" lon="108.7101993439027">
        <ele>389.49190045986325</ele>
        <time>2026-08-26T23:31:14Z</time>
      </trkpt>
      <trkpt lat="34.29774107696665" lon="108.71024205047041">
        <ele>388.43778687156737</ele>
        <time>2026-08-26T23:31:20Z</time>
      </trkpt>
      <trkpt lat="34.297720729348256" lon="108.71031340660687">
        <ele>389.6414095433429</ele>
        <time>2026-08-26T23:31:26Z</time>
      </trkpt>
      <trkpt lat="34.29778565110305" lon="108.71044928186369">
        <ele>387.6592431720346</ele>
        <time>2026-08-26T23:31:35Z</time>
      </trkpt>
      <trkpt lat="34.29783218842866" lon="108.71046295163424">
        <ele>388.46437786426395</ele>
        <time>2026-08-26T23:31:44Z</time>
      </trkpt>
    </trkseg>
  </trk>
</gpx>