<?xml version="1.0" encoding="UTF-8"?>
<gpx xmlns="http://www.topografix.com/GPX/1/1" xmlns:gpxtpx="http://www.garmin.com/xmlschemas/TrackPointExtension/v1" xmlns:xsi="http://www.w3.org/2001/XMLSchema-instance" xsi:schemaLocation="http://www.topografix.com/GPX/1/1 http://www.topografix.com/GPX/1/1/gpx.xsd" version="1.1" creator="gpx.py -- https://github.com/tkrajina/gpxpy">
  <trk>
    <name>gpx from keep</name>
    <type>Ride</type>
    <trkseg>
      <trkpt lat="34.306108495187466" lon="109.0378977921708">
        <ele>400.05291748046875</ele>
        <time>2022-03-22T10:06:25Z</time>
      </trkpt>
      <trkpt lat="34.30647765205603" lon="109.03753422134616">
        <ele>400.05291748046875</ele>
        <time>2022-03-22T10:08:01Z</time>
      </trkpt>
      <trkpt lat="34.306108495187466" lon="109.0378977921708">
        <ele>400.05291748046875</ele>
        <time>2022-03-22T10:08:08Z</time>
      </trkpt>
      <trkpt lat="34.306115369100745" lon="109.03732761035016">
        <ele>390.1154479980469</ele>
        <time>2022-03-22T10:08:21Z</time>
      </trkpt>
      <trkpt lat="34.306108495187466" lon="109.0378977921708">
        <ele>385.2307434082031</ele>
        <time>2022-03-22T10:08:27Z</time>
      </trkpt>
      <trkpt lat="34.30618809369673" lon="109.03719846736031">
        <ele>380.2818908691406</ele>
        <time>2022-03-22T10:08:40Z</time>
      </trkpt>
      <trkpt lat="34.30621289431101" lon="109.03732087353255">
        <ele>379.5736389160156</ele>
        <time>2022-03-22T10:08:48Z</time>
      </trkpt>
      <trkpt lat="34.30629123428261" lon="109.03714303300492">
        <ele>379.4438781738281</ele>
        <time>2022-03-22T10:08:55Z</time>
      </trkpt>
      <trkpt lat="34.30650607152292" lon="109.03707439238246">
        <ele>379.3808288574219</ele>
        <time>2022-03-22T10:09:01Z</time>
      </trkpt>
      <trkpt lat="34.306593602829444" lon="109.0370622872778">
        <ele>379.3606872558594</ele>
        <time>2022-03-22T10:09:03Z</time>
      </trkpt>
      <trkpt lat="34.306415559616454" lon="109.03702681736301">
        <ele>391.1114051773749</ele>
        <time>2022-03-22T10:09:07Z</time>
      </trkpt>
      <trkpt lat="34.306360017615106" lon="109.03695189408458">
        <ele>391.53586462649554</ele>
        <time>2022-03-22T10:09:16Z</time>
      </trkpt>
      <trkpt lat="34.3064438949763" lon="109.03688633277852">
        <ele>391.76215814612806</ele>
        <time>2022-03-22T10:09:23Z</time>
      </trkpt>
      <trkpt lat="34.306511692720825" lon="109.03692042222549">
        <ele>391.89804506581277</ele>
        <time>2022-03-22T10:09:26Z</time>
      </trkpt>
      <trkpt lat="34.30657519210527" lon="109.03697833097316">
        <ele>391.860214012675</ele>
        <time>2022-03-22T10:09:32Z</time>
      </trkpt>
      <trkpt lat="34.30664914207424" lon="109.03694957240545">
        <ele>392.1144811436534</ele>
        <time>2022-03-22T10:09:37Z</time>
      </trkpt>
      <trkpt lat="34.30660907570027" lon="109.03687691750788">
        <ele>392.13215388916433</ele>
        <time>2022-03-22T10:09:42Z</time>
      </trkpt>
      <trkpt lat="34.30661273089364" lon="109.03677343203776">
        <ele>392.3033955153078</ele>
        <time>2022-03-22T10:09:54Z</time>
      </trkpt>
      <trkpt lat="34.306608168618276" lon="109.03669200419144">
        <ele>390.9273007782176</ele>
        <time>2022-03-22T10:10:35Z</time>
      </trkpt>
      <trkpt lat="34.306513172889865" lon="109.03629343641589">
        <ele>392.8871854702011</ele>
        <time>2022-03-22T10:10:47Z</time>
      </trkpt>
      <trkpt lat="34.30644058005733" lon="109.03608452552632">
        <ele>392.3309755884111</ele>
        <time>2022-03-22T10:10:53Z</time>
      </trkpt>
      <trkpt lat="34.30643644992165" lon="109.03588274323877">
        <ele>393.31051408685744</ele>
        <time>2022-03-22T10:10:58Z</time>
      </trkpt>
      <trkpt lat="34.306468075105286" lon="109.0356409125838">
        <ele>393.3132851133123</ele>
        <time>2022-03-22T10:11:04Z</time>
      </trkpt>
      <trkpt lat="34.30646766935287" lon="109.03553380256332">
        <ele>393.5437839226797</ele>
        <time>2022-03-22T10:11:07Z</time>
      </trkpt>
      <trkpt lat="34.306401486925715" lon="109.03535310778008">
        <ele>393.005547856912</ele>
        <time>2022-03-22T10:11:14Z</time>
      </trkpt>
      <trkpt lat="34.306387712156265" lon="109.03524817796045">
        <ele>392.4763837605715</ele>
        <time>2022-03-22T10:11:17Z</time>
      </trkpt>
      <trkpt lat="34.30640270999302" lon="109.03514516385272">
        <ele>392.78743516188115</ele>
        <time>2022-03-22T10:11:20Z</time>
      </trkpt>
      <trkpt lat="34.30654351501758" lon="109.03484318129887">
        <ele>393.46419344004244</ele>
        <time>2022-03-22T10:11:28Z</time>
      </trkpt>
      <trkpt lat="34.30647966359754" lon="109.03447417411313">
        <ele>394.01062819641083</ele>
        <time>2022-03-22T10:11:40Z</time>
      </trkpt>
      <trkpt lat="34.30643864683633" lon="109.03436038659903">
        <ele>393.8469362584874</ele>
        <time>2022-03-22T10:11:44Z</time>
      </trkpt>
      <trkpt lat="34.30634855435854" lon="109.03424781378071">
        <ele>393.45809441711754</ele>
        <time>2022-03-22T10:11:48Z</time>
      </trkpt>
      <trkpt lat="34.306271218322024" lon="109.03410876691456">
        <ele>393.3136006779969</ele>
        <time>2022-03-22T10:11:52Z</time>
      </trkpt>
      <trkpt lat="34.306244002405926" lon="109.03397095171668">
        <ele>392.8644399009645</ele>
        <time>2022-03-22T10:11:56Z</time>
      </trkpt>
      <trkpt lat="34.306248782456635" lon="109.03383975986003">
        <ele>393.97284848149866</ele>
        <time>2022-03-22T10:12:00Z</time>
      </trkpt>
      <trkpt lat="34.306190055526216" lon="109.033573485367">
        <ele>394.89441923610866</ele>
        <time>2022-03-22T10:12:08Z</time>
      </trkpt>
      <trkpt lat="34.306122781675015" lon="109.03297476208058">
        <ele>392.47371312603354</ele>
        <time>2022-03-22T10:12:22Z</time>
      </trkpt>
      <trkpt lat="34.306104820386714" lon="109.03287599166894">
        <ele>392.8762980280444</ele>
        <time>2022-03-22T10:12:24Z</time>
      </trkpt>
      <trkpt lat="34.306113360537054" lon="109.0324160201899">
        <ele>393.51563011296093</ele>
        <time>2022-03-22T10:12:33Z</time>
      </trkpt>
      <trkpt lat="34.3059986411678" lon="109.03204501979165">
        <ele>393.4264358524233</ele>
        <time>2022-03-22T10:12:42Z</time>
      </trkpt>
      <trkpt lat="34.305996588236155" lon="109.03194742675545">
        <ele>393.6450092019513</ele>
        <time>2022-03-22T10:12:44Z</time>
      </trkpt>
      <trkpt lat="34.306046701162295" lon="109.03183942401982">
        <ele>393.3945896103978</ele>
        <time>2022-03-22T10:12:46Z</time>
      </trkpt>
      <trkpt lat="34.30641772400933" lon="109.03149505225788">
        <ele>393.6419641170651</ele>
        <time>2022-03-22T10:12:55Z</time>
      </trkpt>
      <trkpt lat="34.30662537046387" lon="109.03130470892907">
        <ele>392.71981836576015</ele>
        <time>2022-03-22T10:13:01Z</time>
      </trkpt>
      <trkpt lat="34.30704068052453" lon="109.03104974192651">
        <ele>392.19802967924625</ele>
        <time>2022-03-22T10:13:13Z</time>
      </trkpt>
      <trkpt lat="34.30722612378284" lon="109.03097411756951">
        <ele>392.05263327620924</ele>
        <time>2022-03-22T10:13:18Z</time>
      </trkpt>
      <trkpt lat="34.307570036528844" lon="109.03093618794306">
        <ele>393.49310860503465</ele>
        <time>2022-03-22T10:13:28Z</time>
      </trkpt>
      <trkpt lat="34.30784603274769" lon="109.03085926480856">
        <ele>394.2529548695311</ele>
        <time>2022-03-22T10:13:36Z</time>
      </trkpt>
      <trkpt lat="34.30813075585331" lon="109.03085115306054">
        <ele>394.5620078407228</ele>
        <time>2022-03-22T10:13:44Z</time>
      </trkpt>
      <trkpt lat="34.30820823693116" lon="109.03083460994975">
        <ele>395.02896392159164</ele>
        <time>2022-03-22T10:13:46Z</time>
      </trkpt>
      <trkpt lat="34.30864096670364" lon="109.03065393663249">
        <ele>394.08971130661666</ele>
        <time>2022-03-22T10:13:58Z</time>
      </trkpt>
      <trkpt lat="34.30871668903998" lon="109.03062628730157">
        <ele>393.6282528908923</ele>
        <time>2022-03-22T10:14:00Z</time>
      </trkpt>
      <trkpt lat="34.30915577502375" lon="109.03036808548876">
        <ele>393.4079397758469</ele>
        <time>2022-03-22T10:14:12Z</time>
      </trkpt>
      <trkpt lat="34.30938884696323" lon="109.03022204049496">
        <ele>393.5231519397348</ele>
        <time>2022-03-22T10:14:16Z</time>
      </trkpt>
      <trkpt lat="34.309512729757586" lon="109.03011466762862">
        <ele>393.43476132303476</ele>
        <time>2022-03-22T10:14:20Z</time>
      </trkpt>
      <trkpt lat="34.30991081293657" lon="109.02989265992048">
        <ele>393.4750369125977</ele>
        <time>2022-03-22T10:14:28Z</time>
      </trkpt>
      <trkpt lat="34.31002809512355" lon="109.02983555331792">
        <ele>393.4188460279256</ele>
        <time>2022-03-22T10:14:30Z</time>
      </trkpt>
      <trkpt lat="34.31023135371824" lon="109.02968787030844">
        <ele>392.43262643832713</ele>
        <time>2022-03-22T10:14:34Z</time>
      </trkpt>
      <trkpt lat="34.31039868643787" lon="109.0295919452279">
        <ele>391.32882196176797</ele>
        <time>2022-03-22T10:14:38Z</time>
      </trkpt>
      <trkpt lat="34.31078270522212" lon="109.02928002890546">
        <ele>391.1708794236183</ele>
        <time>2022-03-22T10:14:46Z</time>
      </trkpt>
      <trkpt lat="34.310869516537174" lon="109.02920963716517">
        <ele>391.2700365316123</ele>
        <time>2022-03-22T10:14:48Z</time>
      </trkpt>
      <trkpt lat="34.31113807077865" lon="109.02891196068029">
        <ele>390.82258867751807</ele>
        <time>2022-03-22T10:14:56Z</time>
      </trkpt>
      <trkpt lat="34.311303868168984" lon="109.0286538775717">
        <ele>391.0542404027656</ele>
        <time>2022-03-22T10:15:02Z</time>
      </trkpt>
      <trkpt lat="34.31140656961733" lon="109.02836055282039">
        <ele>391.89019091427326</ele>
        <time>2022-03-22T10:15:08Z</time>
      </trkpt>
      <trkpt lat="34.31147060896122" lon="109.02806453217858">
        <ele>392.0959404790774</ele>
        <time>2022-03-22T10:15:14Z</time>
      </trkpt>
      <trkpt lat="34.31147265172053" lon="109.02787327797337">
        <ele>392.7590785557404</ele>
        <time>2022-03-22T10:15:18Z</time>
      </trkpt>
      <trkpt lat="34.311525768640855" lon="109.02737807539165">
        <ele>392.77292687259614</ele>
        <time>2022-03-22T10:15:28Z</time>
      </trkpt>
      <trkpt lat="34.31169844577035" lon="109.0268584047148">
        <ele>392.76099765487015</ele>
        <time>2022-03-22T10:15:38Z</time>
      </trkpt>
      <trkpt lat="34.311804717709386" lon="109.02667906720427">
        <ele>392.9876598780975</ele>
        <time>2022-03-22T10:15:42Z</time>
      </trkpt>
      <trkpt lat="34.312085381386204" lon="109.02640860527515">
        <ele>392.88484401162714</ele>
        <time>2022-03-22T10:15:50Z</time>
      </trkpt>
      <trkpt lat="34.312296801948435" lon="109.02626461501595">
        <ele>393.1769194826484</ele>
        <time>2022-03-22T10:15:56Z</time>
      </trkpt>
      <trkpt lat="34.31238105480642" lon="109.02622727137998">
        <ele>392.8869639756158</ele>
        <time>2022-03-22T10:15:58Z</time>
      </trkpt>
      <trkpt lat="34.31250704629939" lon="109.02612579531632">
        <ele>392.62934515904635</ele>
        <time>2022-03-22T10:16:02Z</time>
      </trkpt>
      <trkpt lat="34.31264317860702" lon="109.02611504378564">
        <ele>391.9149641087279</ele>
        <time>2022-03-22T10:16:04Z</time>
      </trkpt>
      <trkpt lat="34.31273483789262" lon="109.02607198243773">
        <ele>392.3504669209942</ele>
        <time>2022-03-22T10:16:06Z</time>
      </trkpt>
      <trkpt lat="34.31315286856444" lon="109.02578364237823">
        <ele>391.55587140191346</ele>
        <time>2022-03-22T10:16:18Z</time>
      </trkpt>
      <trkpt lat="34.31338172354487" lon="109.0256837292257">
        <ele>392.0193456960842</ele>
        <time>2022-03-22T10:16:24Z</time>
      </trkpt>
      <trkpt lat="34.31345736254114" lon="109.02566651832204">
        <ele>392.2799392901361</ele>
        <time>2022-03-22T10:16:26Z</time>
      </trkpt>
      <trkpt lat="34.313921701449644" lon="109.02548735178287">
        <ele>392.70400224719197</ele>
        <time>2022-03-22T10:16:38Z</time>
      </trkpt>
      <trkpt lat="34.314071640435884" lon="109.02540745322247">
        <ele>391.80366304144263</ele>
        <time>2022-03-22T10:16:42Z</time>
      </trkpt>
      <trkpt lat="34.31415402849197" lon="109.02538498439367">
        <ele>392.36560634337366</ele>
        <time>2022-03-22T10:16:44Z</time>
      </trkpt>
      <trkpt lat="34.31433803311079" lon="109.02522006885428">
        <ele>391.72459694277495</ele>
        <time>2022-03-22T10:16:50Z</time>
      </trkpt>
      <trkpt lat="34.31443703466226" lon="109.02520412879808">
        <ele>391.3281101230532</ele>
        <time>2022-03-22T10:16:52Z</time>
      </trkpt>
      <trkpt lat="34.314630596920416" lon="109.0250441161619">
        <ele>391.0529583664611</ele>
        <time>2022-03-22T10:16:58Z</time>
      </trkpt>
      <trkpt lat="34.31500549362144" lon="109.02478104190511">
        <ele>390.7354528494179</ele>
        <time>2022-03-22T10:17:08Z</time>
      </trkpt>
      <trkpt lat="34.31537827563024" lon="109.02450030252935">
        <ele>390.3311670329422</ele>
        <time>2022-03-22T10:17:18Z</time>
      </trkpt>
      <trkpt lat="34.315791433333224" lon="109.02426508546607">
        <ele>390.35648262221366</ele>
        <time>2022-03-22T10:17:28Z</time>
      </trkpt>
      <trkpt lat="34.315954369532456" lon="109.02419958129494">
        <ele>390.58335577044636</ele>
        <time>2022-03-22T10:17:32Z</time>
      </trkpt>
      <trkpt lat="34.316087540239" lon="109.0241253461874">
        <ele>390.1422122977674</ele>
        <time>2022-03-22T10:17:36Z</time>
      </trkpt>
      <trkpt lat="34.316164135198875" lon="109.0240346051139">
        <ele>389.9498520717025</ele>
        <time>2022-03-22T10:17:40Z</time>
      </trkpt>
      <trkpt lat="34.31612247770917" lon="109.02390597263182">
        <ele>390.91942039784044</ele>
        <time>2022-03-22T10:17:44Z</time>
      </trkpt>
      <trkpt lat="34.31615642344749" lon="109.02372560753626">
        <ele>390.7523451708257</ele>
        <time>2022-03-22T10:18:02Z</time>
      </trkpt>
      <trkpt lat="34.316243482412766" lon="109.0235888298467">
        <ele>390.18928823806345</ele>
        <time>2022-03-22T10:18:21Z</time>
      </trkpt>
      <trkpt lat="34.31623364797677" lon="109.02342554907518">
        <ele>389.832555222325</ele>
        <time>2022-03-22T10:18:25Z</time>
      </trkpt>
      <trkpt lat="34.316049989899376" lon="109.02291729772884">
        <ele>388.73204072006047</ele>
        <time>2022-03-22T10:18:37Z</time>
      </trkpt>
      <trkpt lat="34.31588251808113" lon="109.0224771270452">
        <ele>389.25300578866154</ele>
        <time>2022-03-22T10:18:47Z</time>
      </trkpt>
      <trkpt lat="34.31583164634124" lon="109.02237844753563">
        <ele>389.6229004766792</ele>
        <time>2022-03-22T10:18:51Z</time>
      </trkpt>
      <trkpt lat="34.31583311678091" lon="109.02228631980903">
        <ele>390.33517960179597</ele>
        <time>2022-03-22T10:18:57Z</time>
      </trkpt>
      <trkpt lat="34.315878202763095" lon="109.02221710755856">
        <ele>390.1649839421734</ele>
        <time>2022-03-22T10:19:03Z</time>
      </trkpt>
      <trkpt lat="34.31591350936758" lon="109.02199415194458">
        <ele>391.65945909544826</ele>
        <time>2022-03-22T10:19:09Z</time>
      </trkpt>
      <trkpt lat="34.31591365032523" lon="109.0218806858374">
        <ele>392.3980293693021</ele>
        <time>2022-03-22T10:19:11Z</time>
      </trkpt>
      <trkpt lat="34.3159539064119" lon="109.02166716509853">
        <ele>392.9873241567984</ele>
        <time>2022-03-22T10:19:15Z</time>
      </trkpt>
      <trkpt lat="34.315944254529484" lon="109.02138271096167">
        <ele>394.07615388557315</ele>
        <time>2022-03-22T10:19:21Z</time>
      </trkpt>
      <trkpt lat="34.3159562937227" lon="109.021208254799">
        <ele>395.2382349455729</ele>
        <time>2022-03-22T10:19:25Z</time>
      </trkpt>
      <trkpt lat="34.31594534745225" lon="109.02092156693325">
        <ele>394.6496309870854</ele>
        <time>2022-03-22T10:19:31Z</time>
      </trkpt>
      <trkpt lat="34.315964615433536" lon="109.02075397059086">
        <ele>394.7961911223829</ele>
        <time>2022-03-22T10:19:35Z</time>
      </trkpt>
      <trkpt lat="34.31596066408481" lon="109.02033755103972">
        <ele>396.11052659898996</ele>
        <time>2022-03-22T10:19:46Z</time>
      </trkpt>
      <trkpt lat="34.31597462673429" lon="109.02003272269259">
        <ele>397.70352807454765</ele>
        <time>2022-03-22T10:19:54Z</time>
      </trkpt>
      <trkpt lat="34.31596114500982" lon="109.01993726149176">
        <ele>397.8731869775802</ele>
        <time>2022-03-22T10:19:56Z</time>
      </trkpt>
      <trkpt lat="34.315992529639324" lon="109.01937407557766">
        <ele>399.46995075792074</ele>
        <time>2022-03-22T10:20:08Z</time>
      </trkpt>
      <trkpt lat="34.31596697036063" lon="109.01904858030464">
        <ele>400.2175704250112</ele>
        <time>2022-03-22T10:20:14Z</time>
      </trkpt>
      <trkpt lat="34.31599478223275" lon="109.01857033314998">
        <ele>402.24123379588127</ele>
        <time>2022-03-22T10:20:24Z</time>
      </trkpt>
      <trkpt lat="34.3159425342591" lon="109.0178900840977">
        <ele>404.6065861694515</ele>
        <time>2022-03-22T10:20:38Z</time>
      </trkpt>
      <trkpt lat="34.31592757598874" lon="109.01729617637655">
        <ele>405.01000238768756</ele>
        <time>2022-03-22T10:20:54Z</time>
      </trkpt>
      <trkpt lat="34.31589991567532" lon="109.0167457669786">
        <ele>406.29592205025256</ele>
        <time>2022-03-22T10:21:10Z</time>
      </trkpt>
      <trkpt lat="34.31591794918851" lon="109.01650207006534">
        <ele>407.86641019396484</ele>
        <time>2022-03-22T10:21:16Z</time>
      </trkpt>
      <trkpt lat="34.31592001180791" lon="109.01617562327499">
        <ele>407.96384590677917</ele>
        <time>2022-03-22T10:21:24Z</time>
      </trkpt>
      <trkpt lat="34.315881611688894" lon="109.01560345480668">
        <ele>409.55896395258605</ele>
        <time>2022-03-22T10:21:36Z</time>
      </trkpt>
      <trkpt lat="34.31591921154833" lon="109.0153387448589">
        <ele>408.42812472302467</ele>
        <time>2022-03-22T10:21:42Z</time>
      </trkpt>
      <trkpt lat="34.315890577954356" lon="109.0147877524917">
        <ele>409.5252129826695</ele>
        <time>2022-03-22T10:21:52Z</time>
      </trkpt>
      <trkpt lat="34.31590113804442" lon="109.01419426692482">
        <ele>410.6815772205591</ele>
        <time>2022-03-22T10:22:04Z</time>
      </trkpt>
      <trkpt lat="34.31590175232457" lon="109.01356457632953">
        <ele>409.5743850823492</ele>
        <time>2022-03-22T10:22:14Z</time>
      </trkpt>
      <trkpt lat="34.31592371972646" lon="109.0130033367443">
        <ele>409.9701207205653</ele>
        <time>2022-03-22T10:22:22Z</time>
      </trkpt>
      <trkpt lat="34.315947253763476" lon="109.01286120702704">
        <ele>408.95727322250605</ele>
        <time>2022-03-22T10:22:24Z</time>
      </trkpt>
      <trkpt lat="34.31594769003244" lon="109.01227922823993">
        <ele>409.8311566160992</ele>
        <time>2022-03-22T10:22:34Z</time>
      </trkpt>
      <trkpt lat="34.315949569289614" lon="109.01214096139459">
        <ele>409.36157567985356</ele>
        <time>2022-03-22T10:22:36Z</time>
      </trkpt>
      <trkpt lat="34.31592796010262" lon="109.011703130313">
        <ele>409.31950299069285</ele>
        <time>2022-03-22T10:22:44Z</time>
      </trkpt>
      <trkpt lat="34.31592577678351" lon="109.01114875780475">
        <ele>408.9116660822183</ele>
        <time>2022-03-22T10:22:54Z</time>
      </trkpt>
      <trkpt lat="34.3159174451347" lon="109.01062580768313">
        <ele>409.30737608950585</ele>
        <time>2022-03-22T10:23:04Z</time>
      </trkpt>
      <trkpt lat="34.31591104399865" lon="109.01010463882533">
        <ele>409.3939743945375</ele>
        <time>2022-03-22T10:23:14Z</time>
      </trkpt>
      <trkpt lat="34.315935819448256" lon="109.00988286698487">
        <ele>408.3169267876074</ele>
        <time>2022-03-22T10:23:18Z</time>
      </trkpt>
      <trkpt lat="34.315985442685125" lon="109.00977970581972">
        <ele>408.7060443209484</ele>
        <time>2022-03-22T10:23:20Z</time>
      </trkpt>
      <trkpt lat="34.316067519591805" lon="109.00973023999576">
        <ele>409.06121698766947</ele>
        <time>2022-03-22T10:23:22Z</time>
      </trkpt>
      <trkpt lat="34.3161602088039" lon="109.00973973948228">
        <ele>408.8100625667721</ele>
        <time>2022-03-22T10:23:24Z</time>
      </trkpt>
      <trkpt lat="34.31662232099456" lon="109.0097021521328">
        <ele>408.91249182540923</ele>
        <time>2022-03-22T10:23:36Z</time>
      </trkpt>
      <trkpt lat="34.31711631052452" lon="109.00971391634423">
        <ele>409.52128809690475</ele>
        <time>2022-03-22T10:23:48Z</time>
      </trkpt>
      <trkpt lat="34.31761837758459" lon="109.00971368187125">
        <ele>409.4206995004788</ele>
        <time>2022-03-22T10:24:02Z</time>
      </trkpt>
      <trkpt lat="34.31793705001259" lon="109.00968765159868">
        <ele>409.7699124077335</ele>
        <time>2022-03-22T10:24:10Z</time>
      </trkpt>
      <trkpt lat="34.318015847828946" lon="109.00966594430015">
        <ele>410.0204510819167</ele>
        <time>2022-03-22T10:24:12Z</time>
      </trkpt>
      <trkpt lat="34.31847105189753" lon="109.00960917605825">
        <ele>409.24476672522724</ele>
        <time>2022-03-22T10:24:22Z</time>
      </trkpt>
      <trkpt lat="34.318653267395405" lon="109.00961791722371">
        <ele>409.24466062616557</ele>
        <time>2022-03-22T10:24:26Z</time>
      </trkpt>
      <trkpt lat="34.318954330971735" lon="109.00961359686602">
        <ele>409.05281941685826</ele>
        <time>2022-03-22T10:24:32Z</time>
      </trkpt>
      <trkpt lat="34.31905429436866" lon="109.00962815270819">
        <ele>408.7194064054638</ele>
        <time>2022-03-22T10:24:34Z</time>
      </trkpt>
      <trkpt lat="34.31915577982537" lon="109.00960855319484">
        <ele>408.70882236771286</ele>
        <time>2022-03-22T10:24:36Z</time>
      </trkpt>
      <trkpt lat="34.31965848401238" lon="109.0096075539487">
        <ele>408.7160101896152</ele>
        <time>2022-03-22T10:24:46Z</time>
      </trkpt>
      <trkpt lat="34.3198599579426" lon="109.00959867369852">
        <ele>408.92288252990693</ele>
        <time>2022-03-22T10:24:50Z</time>
      </trkpt>
      <trkpt lat="34.31996115549137" lon="109.00961488927435">
        <ele>408.8678244603798</ele>
        <time>2022-03-22T10:24:52Z</time>
      </trkpt>
      <trkpt lat="34.32045646424241" lon="109.00959042779921">
        <ele>407.49660649802536</ele>
        <time>2022-03-22T10:25:02Z</time>
      </trkpt>
      <trkpt lat="34.32068102058653" lon="109.00958487006675">
        <ele>406.07428194768727</ele>
        <time>2022-03-22T10:25:06Z</time>
      </trkpt>
      <trkpt lat="34.32120806240859" lon="109.00959635821287">
        <ele>404.5922527629882</ele>
        <time>2022-03-22T10:25:16Z</time>
      </trkpt>
      <trkpt lat="34.32162872468868" lon="109.00957870524635">
        <ele>404.37089066952467</ele>
        <time>2022-03-22T10:25:24Z</time>
      </trkpt>
      <trkpt lat="34.3221512310579" lon="109.0095520432666">
        <ele>403.73878641054034</ele>
        <time>2022-03-22T10:25:34Z</time>
      </trkpt>
      <trkpt lat="34.322375686912444" lon="109.00954671342514">
        <ele>403.40371393505484</ele>
        <time>2022-03-22T10:25:38Z</time>
      </trkpt>
      <trkpt lat="34.32280893551907" lon="109.00951561957443">
        <ele>402.2302878499031</ele>
        <time>2022-03-22T10:25:46Z</time>
      </trkpt>
      <trkpt lat="34.32323613988845" lon="109.00945486275079">
        <ele>400.1759089194238</ele>
        <time>2022-03-22T10:25:54Z</time>
      </trkpt>
      <trkpt lat="34.323354517420704" lon="109.00945768012728">
        <ele>399.8167033614591</ele>
        <time>2022-03-22T10:25:56Z</time>
      </trkpt>
      <trkpt lat="34.323787825213785" lon="109.00939857081993">
        <ele>398.1285492470488</ele>
        <time>2022-03-22T10:26:04Z</time>
      </trkpt>
      <trkpt lat="34.324250280452006" lon="109.00923278525079">
        <ele>398.7448773905635</ele>
        <time>2022-03-22T10:26:14Z</time>
      </trkpt>
      <trkpt lat="34.324428791165296" lon="109.00918134255029">
        <ele>398.6476613692939</ele>
        <time>2022-03-22T10:26:18Z</time>
      </trkpt>
      <trkpt lat="34.324773402069994" lon="109.00900879251985">
        <ele>397.2584669785574</ele>
        <time>2022-03-22T10:26:26Z</time>
      </trkpt>
      <trkpt lat="34.32521246257588" lon="109.00884074266635">
        <ele>396.50257238559425</ele>
        <time>2022-03-22T10:26:36Z</time>
      </trkpt>
      <trkpt lat="34.32530607851445" lon="109.00881124329187">
        <ele>396.56629902590066</ele>
        <time>2022-03-22T10:26:38Z</time>
      </trkpt>
      <trkpt lat="34.32571576836297" lon="109.00857427433728">
        <ele>396.0075237080455</ele>
        <time>2022-03-22T10:26:48Z</time>
      </trkpt>
      <trkpt lat="34.326138851114536" lon="109.0083438489746">
        <ele>395.35590214654803</ele>
        <time>2022-03-22T10:26:58Z</time>
      </trkpt>
      <trkpt lat="34.326549548340786" lon="109.00809392728245">
        <ele>395.0333593916148</ele>
        <time>2022-03-22T10:27:08Z</time>
      </trkpt>
      <trkpt lat="34.32693713341616" lon="109.00781895314438">
        <ele>395.0395952630788</ele>
        <time>2022-03-22T10:27:18Z</time>
      </trkpt>
      <trkpt lat="34.32723635411711" lon="109.00759716593001">
        <ele>394.44409484323114</ele>
        <time>2022-03-22T10:27:26Z</time>
      </trkpt>
      <trkpt lat="34.32739806569137" lon="109.00750903903662">
        <ele>394.52237837109715</ele>
        <time>2022-03-22T10:27:30Z</time>
      </trkpt>
      <trkpt lat="34.32781892850559" lon="109.0071966312153">
        <ele>392.9872082043439</ele>
        <time>2022-03-22T10:27:42Z</time>
      </trkpt>
      <trkpt lat="34.32801491576575" lon="109.007092052937">
        <ele>393.30963209364563</ele>
        <time>2022-03-22T10:27:48Z</time>
      </trkpt>
      <trkpt lat="34.328115650239994" lon="109.00706159865503">
        <ele>394.00554846040905</ele>
        <time>2022-03-22T10:27:52Z</time>
      </trkpt>
      <trkpt lat="34.32812838187432" lon="109.00680812221405">
        <ele>394.61876767128706</ele>
        <time>2022-03-22T10:28:04Z</time>
      </trkpt>
      <trkpt lat="34.328093079385084" lon="109.0063544601454">
        <ele>394.6847643721849</ele>
        <time>2022-03-22T10:28:16Z</time>
      </trkpt>
      <trkpt lat="34.32810787694331" lon="109.00610844974454">
        <ele>394.32224542926997</ele>
        <time>2022-03-22T10:28:22Z</time>
      </trkpt>
      <trkpt lat="34.32807952821677" lon="109.0055415045508">
        <ele>393.32488264422864</ele>
        <time>2022-03-22T10:28:34Z</time>
      </trkpt>
      <trkpt lat="34.328054300469695" lon="109.00532636841764">
        <ele>394.00190593022853</ele>
        <time>2022-03-22T10:28:38Z</time>
      </trkpt>
      <trkpt lat="34.32799162108228" lon="109.00514416972904">
        <ele>394.1156230587512</ele>
        <time>2022-03-22T10:28:42Z</time>
      </trkpt>
      <trkpt lat="34.32799151926344" lon="109.00492376815575">
        <ele>393.82643061876297</ele>
        <time>2022-03-22T10:28:46Z</time>
      </trkpt>
      <trkpt lat="34.327948875647465" lon="109.00484505774216">
        <ele>394.3597475402057</ele>
        <time>2022-03-22T10:28:48Z</time>
      </trkpt>
      <trkpt lat="34.32793718302756" lon="109.00430697575062">
        <ele>394.9624776877463</ele>
        <time>2022-03-22T10:28:58Z</time>
      </trkpt>
      <trkpt lat="34.327956814622254" lon="109.00407600618674">
        <ele>395.80720668658614</ele>
        <time>2022-03-22T10:29:02Z</time>
      </trkpt>
      <trkpt lat="34.328007828869964" lon="109.00384850609578">
        <ele>394.88321074750274</ele>
        <time>2022-03-22T10:29:06Z</time>
      </trkpt>
      <trkpt lat="34.328035975387145" lon="109.00363938961263">
        <ele>392.94265294168144</ele>
        <time>2022-03-22T10:29:10Z</time>
      </trkpt>
      <trkpt lat="34.32803330135088" lon="109.00342875579437">
        <ele>393.32632186450064</ele>
        <time>2022-03-22T10:29:14Z</time>
      </trkpt>
      <trkpt lat="34.328052253745895" lon="109.00331866566265">
        <ele>393.374355324544</ele>
        <time>2022-03-22T10:29:16Z</time>
      </trkpt>
      <trkpt lat="34.328022232744495" lon="109.00275517446507">
        <ele>395.0550313182175</ele>
        <time>2022-03-22T10:29:26Z</time>
      </trkpt>
      <trkpt lat="34.32799419033482" lon="109.00252080229393">
        <ele>394.4775672946125</ele>
        <time>2022-03-22T10:29:30Z</time>
      </trkpt>
      <trkpt lat="34.32795258926071" lon="109.00195437235242">
        <ele>395.31115161441267</ele>
        <time>2022-03-22T10:29:40Z</time>
      </trkpt>
      <trkpt lat="34.32792645928408" lon="109.00173738041455">
        <ele>395.104841819033</ele>
        <time>2022-03-22T10:29:44Z</time>
      </trkpt>
      <trkpt lat="34.32789874214821" lon="109.00117516700487">
        <ele>394.6042493758723</ele>
        <time>2022-03-22T10:29:54Z</time>
      </trkpt>
      <trkpt lat="34.32790866792622" lon="109.00061219848763">
        <ele>395.28761397395283</ele>
        <time>2022-03-22T10:30:04Z</time>
      </trkpt>
      <trkpt lat="34.32788602104873" lon="109.00019794182712">
        <ele>394.3428272260353</ele>
        <time>2022-03-22T10:30:12Z</time>
      </trkpt>
      <trkpt lat="34.32782468994844" lon="108.9998996687967">
        <ele>393.5009129634127</ele>
        <time>2022-03-22T10:30:18Z</time>
      </trkpt>
      <trkpt lat="34.32781868694114" lon="108.99968975765289">
        <ele>393.68278229795396</ele>
        <time>2022-03-22T10:30:22Z</time>
      </trkpt>
      <trkpt lat="34.32789213643155" lon="108.9991075768769">
        <ele>392.6779293837026</ele>
        <time>2022-03-22T10:30:32Z</time>
      </trkpt>
      <trkpt lat="34.32794621412512" lon="108.99862769117836">
        <ele>393.0754205118865</ele>
        <time>2022-03-22T10:30:40Z</time>
      </trkpt>
      <trkpt lat="34.32791923562368" lon="108.99829417515059">
        <ele>393.93177941441536</ele>
        <time>2022-03-22T10:30:46Z</time>
      </trkpt>
      <trkpt lat="34.327927014639975" lon="108.99796510051567">
        <ele>394.14214697573334</ele>
        <time>2022-03-22T10:30:52Z</time>
      </trkpt>
      <trkpt lat="34.32795793929423" lon="108.9976432759572">
        <ele>393.54163272771984</ele>
        <time>2022-03-22T10:30:58Z</time>
      </trkpt>
      <trkpt lat="34.32795633206028" lon="108.99752896983173">
        <ele>394.1072690943256</ele>
        <time>2022-03-22T10:31:00Z</time>
      </trkpt>
      <trkpt lat="34.32798116807442" lon="108.99742585750288">
        <ele>394.17706524953246</ele>
        <time>2022-03-22T10:31:02Z</time>
      </trkpt>
      <trkpt lat="34.327973858427455" lon="108.99733672710207">
        <ele>394.4577223258093</ele>
        <time>2022-03-22T10:31:04Z</time>
      </trkpt>
      <trkpt lat="34.32798929064596" lon="108.99711998086077">
        <ele>394.55595835857093</ele>
        <time>2022-03-22T10:31:08Z</time>
      </trkpt>
      <trkpt lat="34.32796875694331" lon="108.99669652710499">
        <ele>393.69081523735076</ele>
        <time>2022-03-22T10:31:16Z</time>
      </trkpt>
      <trkpt lat="34.32798956583016" lon="108.99657867727157">
        <ele>393.5942834401503</ele>
        <time>2022-03-22T10:31:18Z</time>
      </trkpt>
      <trkpt lat="34.32799874607373" lon="108.99593248436815">
        <ele>395.07166346907616</ele>
        <time>2022-03-22T10:31:30Z</time>
      </trkpt>
      <trkpt lat="34.32801746595727" lon="108.9957039908182">
        <ele>393.9523424031213</ele>
        <time>2022-03-22T10:31:34Z</time>
      </trkpt>
      <trkpt lat="34.3280053075113" lon="108.99526101621848">
        <ele>394.2889179047197</ele>
        <time>2022-03-22T10:31:42Z</time>
      </trkpt>
      <trkpt lat="34.32800673615505" lon="108.99494999823456">
        <ele>394.0945039810613</ele>
        <time>2022-03-22T10:31:48Z</time>
      </trkpt>
      <trkpt lat="34.3279947529463" lon="108.99485614551848">
        <ele>394.39225764386356</ele>
        <time>2022-03-22T10:31:50Z</time>
      </trkpt>
      <trkpt lat="34.3280093850495" lon="108.9947514114914">
        <ele>395.42416574340314</ele>
        <time>2022-03-22T10:31:52Z</time>
      </trkpt>
      <trkpt lat="34.32801497201807" lon="108.99443886148632">
        <ele>395.47342103533447</ele>
        <time>2022-03-22T10:31:58Z</time>
      </trkpt>
      <trkpt lat="34.32799767384968" lon="108.99423201513194">
        <ele>395.2798690618947</ele>
        <time>2022-03-22T10:32:02Z</time>
      </trkpt>
      <trkpt lat="34.32800585449696" lon="108.99369143165288">
        <ele>395.2912892140448</ele>
        <time>2022-03-22T10:32:12Z</time>
      </trkpt>
      <trkpt lat="34.328014393440675" lon="108.99358438341739">
        <ele>395.0510418135673</ele>
        <time>2022-03-22T10:32:14Z</time>
      </trkpt>
      <trkpt lat="34.32800483035403" lon="108.99347881689519">
        <ele>395.16067072562873</ele>
        <time>2022-03-22T10:32:16Z</time>
      </trkpt>
      <trkpt lat="34.3280221589752" lon="108.99338047954625">
        <ele>394.52037544362247</ele>
        <time>2022-03-22T10:32:18Z</time>
      </trkpt>
      <trkpt lat="34.32800451847696" lon="108.99326879147739">
        <ele>395.5077638523653</ele>
        <time>2022-03-22T10:32:20Z</time>
      </trkpt>
      <trkpt lat="34.3279805807804" lon="108.99284142629973">
        <ele>396.091807635501</ele>
        <time>2022-03-22T10:32:28Z</time>
      </trkpt>
      <trkpt lat="34.327987904907246" lon="108.99230305802459">
        <ele>393.72754371073097</ele>
        <time>2022-03-22T10:32:38Z</time>
      </trkpt>
      <trkpt lat="34.32801186159364" lon="108.99174333464707">
        <ele>394.91998302936554</ele>
        <time>2022-03-22T10:32:48Z</time>
      </trkpt>
      <trkpt lat="34.32803836705091" lon="108.99105486147911">
        <ele>394.3089262256399</ele>
        <time>2022-03-22T10:32:58Z</time>
      </trkpt>
      <trkpt lat="34.32805489945224" lon="108.9905048930122">
        <ele>391.80372559372336</ele>
        <time>2022-03-22T10:33:04Z</time>
      </trkpt>
      <trkpt lat="34.32803857794898" lon="108.99034388207717">
        <ele>391.6338651366532</ele>
        <time>2022-03-22T10:33:06Z</time>
      </trkpt>
      <trkpt lat="34.32803612885813" lon="108.98981321331631">
        <ele>391.2041833437979</ele>
        <time>2022-03-22T10:33:14Z</time>
      </trkpt>
      <trkpt lat="34.32801347210542" lon="108.98939696673183">
        <ele>391.8295702757314</ele>
        <time>2022-03-22T10:33:22Z</time>
      </trkpt>
      <trkpt lat="34.3280221982993" lon="108.98928856863189">
        <ele>392.0820574760437</ele>
        <time>2022-03-22T10:33:24Z</time>
      </trkpt>
      <trkpt lat="34.32800006057101" lon="108.9890630033876">
        <ele>391.9532990437001</ele>
        <time>2022-03-22T10:33:28Z</time>
      </trkpt>
      <trkpt lat="34.32800623658663" lon="108.98896034212413">
        <ele>392.0391275379807</ele>
        <time>2022-03-22T10:33:30Z</time>
      </trkpt>
      <trkpt lat="34.32791962508177" lon="108.98861471006708">
        <ele>392.64221359044313</ele>
        <time>2022-03-22T10:33:36Z</time>
      </trkpt>
      <trkpt lat="34.32789707657938" lon="108.98838574136558">
        <ele>392.8560126684606</ele>
        <time>2022-03-22T10:33:40Z</time>
      </trkpt>
      <trkpt lat="34.32793919742968" lon="108.98778455458638">
        <ele>394.0181876970455</ele>
        <time>2022-03-22T10:33:50Z</time>
      </trkpt>
      <trkpt lat="34.32793860729727" lon="108.98766103672598">
        <ele>393.5078346244991</ele>
        <time>2022-03-22T10:33:52Z</time>
      </trkpt>
      <trkpt lat="34.3279122755005" lon="108.98742139011357">
        <ele>393.8110757144168</ele>
        <time>2022-03-22T10:33:56Z</time>
      </trkpt>
      <trkpt lat="34.32786770144807" lon="108.98732259062447">
        <ele>393.90266471356153</ele>
        <time>2022-03-22T10:33:58Z</time>
      </trkpt>
      <trkpt lat="34.32785730237314" lon="108.98720719683521">
        <ele>393.6502752844244</ele>
        <time>2022-03-22T10:34:00Z</time>
      </trkpt>
      <trkpt lat="34.327814556375415" lon="108.98709569257943">
        <ele>393.80938214156777</ele>
        <time>2022-03-22T10:34:02Z</time>
      </trkpt>
      <trkpt lat="34.3278699740037" lon="108.98668386241889">
        <ele>395.2368728509173</ele>
        <time>2022-03-22T10:34:10Z</time>
      </trkpt>
      <trkpt lat="34.3278593231496" lon="108.9865436490375">
        <ele>395.5152037004009</ele>
        <time>2022-03-22T10:34:12Z</time>
      </trkpt>
      <trkpt lat="34.32788175879568" lon="108.98592088236043">
        <ele>392.128859302029</ele>
        <time>2022-03-22T10:34:22Z</time>
      </trkpt>
      <trkpt lat="34.32788752723157" lon="108.98580726563188">
        <ele>391.2199262827635</ele>
        <time>2022-03-22T10:34:24Z</time>
      </trkpt>
      <trkpt lat="34.327863948387105" lon="108.98567440091817">
        <ele>391.663248562254</ele>
        <time>2022-03-22T10:34:26Z</time>
      </trkpt>
      <trkpt lat="34.327870721646505" lon="108.9855664293402">
        <ele>392.11315567512065</ele>
        <time>2022-03-22T10:34:28Z</time>
      </trkpt>
      <trkpt lat="34.32791111446811" lon="108.98542986636994">
        <ele>393.14162228628993</ele>
        <time>2022-03-22T10:34:30Z</time>
      </trkpt>
      <trkpt lat="34.32798738831354" lon="108.9848953038802">
        <ele>391.87006940413266</ele>
        <time>2022-03-22T10:34:40Z</time>
      </trkpt>
      <trkpt lat="34.32799932758806" lon="108.9846333253171">
        <ele>392.39977641031146</ele>
        <time>2022-03-22T10:34:46Z</time>
      </trkpt>
      <trkpt lat="34.32797871527558" lon="108.98450685107511">
        <ele>392.13290783483535</ele>
        <time>2022-03-22T10:34:50Z</time>
      </trkpt>
      <trkpt lat="34.32800182265165" lon="108.9843773276521">
        <ele>392.75036647636443</ele>
        <time>2022-03-22T10:34:54Z</time>
      </trkpt>
      <trkpt lat="34.328021016390416" lon="108.98435734635483">
        <ele>392.395693058148</ele>
        <time>2022-03-22T10:35:02Z</time>
      </trkpt>
      <trkpt lat="34.328153937241204" lon="108.98417987107383">
        <ele>392.34887394774705</ele>
        <time>2022-03-22T10:36:05Z</time>
      </trkpt>
      <trkpt lat="34.32812485349639" lon="108.98409402599714">
        <ele>392.13498928491026</ele>
        <time>2022-03-22T10:36:07Z</time>
      </trkpt>
      <trkpt lat="34.32811326296865" lon="108.98392614289756">
        <ele>391.4499484412372</ele>
        <time>2022-03-22T10:36:11Z</time>
      </trkpt>
      <trkpt lat="34.3280816491161" lon="108.98384230846295">
        <ele>392.4350088927895</ele>
        <time>2022-03-22T10:36:13Z</time>
      </trkpt>
      <trkpt lat="34.32809153250228" lon="108.98324944586105">
        <ele>393.68139101937413</ele>
        <time>2022-03-22T10:36:29Z</time>
      </trkpt>
      <trkpt lat="34.32807864494023" lon="108.98286023027414">
        <ele>393.82910066936165</ele>
        <time>2022-03-22T10:36:40Z</time>
      </trkpt>
      <trkpt lat="34.32802271788497" lon="108.98246488574951">
        <ele>394.5486408388242</ele>
        <time>2022-03-22T10:36:52Z</time>
      </trkpt>
      <trkpt lat="34.32797614474899" lon="108.98235806491105">
        <ele>394.40196431800723</ele>
        <time>2022-03-22T10:36:56Z</time>
      </trkpt>
      <trkpt lat="34.327990506351775" lon="108.98221099667448">
        <ele>394.3973458074033</ele>
        <time>2022-03-22T10:37:01Z</time>
      </trkpt>
      <trkpt lat="34.32793090035708" lon="108.98183840114108">
        <ele>395.4230107003823</ele>
        <time>2022-03-22T10:37:13Z</time>
      </trkpt>
      <trkpt lat="34.3279715305326" lon="108.981453180323">
        <ele>394.9559116270393</ele>
        <time>2022-03-22T10:37:25Z</time>
      </trkpt>
      <trkpt lat="34.32806415299729" lon="108.98130638226094">
        <ele>394.3694074489176</ele>
        <time>2022-03-22T10:37:31Z</time>
      </trkpt>
      <trkpt lat="34.328190743705235" lon="108.98103236890414">
        <ele>394.4322915263474</ele>
        <time>2022-03-22T10:37:50Z</time>
      </trkpt>
      <trkpt lat="34.32822019264245" lon="108.98081828549951">
        <ele>394.4457943364978</ele>
        <time>2022-03-22T10:38:01Z</time>
      </trkpt>
      <trkpt lat="34.32826031583603" lon="108.98073644498798">
        <ele>394.88809186127037</ele>
        <time>2022-03-22T10:38:09Z</time>
      </trkpt>
      <trkpt lat="34.328365785502776" lon="108.9808166181304">
        <ele>394.79260554071516</ele>
        <time>2022-03-22T10:38:27Z</time>
      </trkpt>
      <trkpt lat="34.328449616868376" lon="108.98081176774816">
        <ele>394.9948825882748</ele>
        <time>2022-03-22T10:38:32Z</time>
      </trkpt>
      <trkpt lat="34.32854394727716" lon="108.98085264288767">
        <ele>394.83185447286814</ele>
        <time>2022-03-22T10:38:36Z</time>
      </trkpt>
      <trkpt lat="34.32858895849177" lon="108.98092534277343">
        <ele>395.09862762410194</ele>
        <time>2022-03-22T10:38:42Z</time>
      </trkpt>
      <trkpt lat="34.328621605063276" lon="108.98103325635765">
        <ele>395.0741003602743</ele>
        <time>2022-03-22T10:38:58Z</time>
      </trkpt>
      <trkpt lat="34.328589709795835" lon="108.98082850518601">
        <ele>395.7306583728641</ele>
        <time>2022-03-22T10:40:33Z</time>
      </trkpt>
      <trkpt lat="34.328569795641585" lon="108.980727926857">
        <ele>395.4206258188933</ele>
        <time>2022-03-22T10:40:39Z</time>
      </trkpt>
      <trkpt lat="34.32858203197853" lon="108.98049667469438">
        <ele>395.75911065004766</ele>
        <time>2022-03-22T10:40:52Z</time>
      </trkpt>
      <trkpt lat="34.328606009830786" lon="108.98038200274345">
        <ele>395.8919836608693</ele>
        <time>2022-03-22T10:40:58Z</time>
      </trkpt>
      <trkpt lat="34.32866000045748" lon="108.98034055484395">
        <ele>396.0433804150671</ele>
        <time>2022-03-22T10:41:08Z</time>
      </trkpt>
    </trkseg>
  </trk>
</gpx>