<?xml version="1.0" encoding="UTF-8"?>
<gpx xmlns="http://www.topografix.com/GPX/1/1" xmlns:gpxtpx="http://www.garmin.com/xmlschemas/TrackPointExtension/v1" xmlns:xsi="http://www.w3.org/2001/XMLSchema-instance" xsi:schemaLocation="http://www.topografix.com/GPX/1/1 http://www.topografix.com/GPX/1/1/gpx.xsd" version="1.1" creator="gpx.py -- https://github.com/tkrajina/gpxpy">
  <trk>
    <name>gpx from keep</name>
    <type>Ride</type>
    <trkseg>
      <trkpt lat="34.306342045774365" lon="109.03702405034156">
        <ele>394.2768363952637</ele>
        <time>2022-03-14T11:45:03Z</time>
      </trkpt>
      <trkpt lat="34.30644442702619" lon="109.03702021832568">
        <ele>394.3497314453125</ele>
        <time>2022-03-14T11:45:10Z</time>
      </trkpt>
      <trkpt lat="34.30653625393395" lon="109.03711290695911">
        <ele>394.1443061828613</ele>
        <time>2022-03-14T11:45:17Z</time>
      </trkpt>
      <trkpt lat="34.3062141356958" lon="109.03685559390256">
        <ele>391.4976197304204</ele>
        <time>2022-03-14T11:45:22Z</time>
      </trkpt>
      <trkpt lat="34.30640474112728" lon="109.03691126438017">
        <ele>391.51910949498415</ele>
        <time>2022-03-14T11:45:31Z</time>
      </trkpt>
      <trkpt lat="34.30656881961308" lon="109.03689707321787">
        <ele>392.0902221221477</ele>
        <time>2022-03-14T11:45:47Z</time>
      </trkpt>
      <trkpt lat="34.30663494517872" lon="109.03673261808572">
        <ele>392.2367276288569</ele>
        <time>2022-03-14T11:46:03Z</time>
      </trkpt>
      <trkpt lat="34.30657555138865" lon="109.036536596276">
        <ele>392.28226925618947</ele>
        <time>2022-03-14T11:46:15Z</time>
      </trkpt>
      <trkpt lat="34.30657232678493" lon="109.03627291415859">
        <ele>391.98244646191597</ele>
        <time>2022-03-14T11:46:36Z</time>
      </trkpt>
      <trkpt lat="34.30655659825748" lon="109.03620425619">
        <ele>391.8292484199628</ele>
        <time>2022-03-14T11:46:43Z</time>
      </trkpt>
      <trkpt lat="34.30656211450322" lon="109.03615906455462">
        <ele>392.0265213306993</ele>
        <time>2022-03-14T11:46:50Z</time>
      </trkpt>
      <trkpt lat="34.30653119476464" lon="109.03606957791605">
        <ele>391.8571444824338</ele>
        <time>2022-03-14T11:47:06Z</time>
      </trkpt>
      <trkpt lat="34.30648775545524" lon="109.0357774875804">
        <ele>392.1413839282468</ele>
        <time>2022-03-14T11:47:15Z</time>
      </trkpt>
      <trkpt lat="34.30650641199029" lon="109.03559142142417">
        <ele>392.8367099808529</ele>
        <time>2022-03-14T11:47:23Z</time>
      </trkpt>
      <trkpt lat="34.30645166574301" lon="109.03530348962977">
        <ele>392.599107299</ele>
        <time>2022-03-14T11:47:32Z</time>
      </trkpt>
      <trkpt lat="34.30641714626756" lon="109.0352264598019">
        <ele>392.09112623147666</ele>
        <time>2022-03-14T11:47:34Z</time>
      </trkpt>
      <trkpt lat="34.3064377360265" lon="109.03504913368326">
        <ele>392.2028877045959</ele>
        <time>2022-03-14T11:47:38Z</time>
      </trkpt>
      <trkpt lat="34.30649376233952" lon="109.03483247666573">
        <ele>392.9578674668446</ele>
        <time>2022-03-14T11:47:44Z</time>
      </trkpt>
      <trkpt lat="34.306438022654284" lon="109.03447662734466">
        <ele>392.9944522548467</ele>
        <time>2022-03-14T11:47:52Z</time>
      </trkpt>
      <trkpt lat="34.30641948703575" lon="109.03427240535504">
        <ele>392.6195690287277</ele>
        <time>2022-03-14T11:47:58Z</time>
      </trkpt>
      <trkpt lat="34.30638518353444" lon="109.03412668147898">
        <ele>392.68281200155616</ele>
        <time>2022-03-14T11:48:02Z</time>
      </trkpt>
      <trkpt lat="34.30629906577087" lon="109.0340414675488">
        <ele>392.23697653692216</ele>
        <time>2022-03-14T11:48:04Z</time>
      </trkpt>
      <trkpt lat="34.30620939635373" lon="109.03383065548093">
        <ele>392.06446156464517</ele>
        <time>2022-03-14T11:48:09Z</time>
      </trkpt>
      <trkpt lat="34.306192033051076" lon="109.03368276382601">
        <ele>392.05922977626324</ele>
        <time>2022-03-14T11:48:13Z</time>
      </trkpt>
      <trkpt lat="34.30624138311281" lon="109.03358046574108">
        <ele>391.93127424642444</ele>
        <time>2022-03-14T11:48:15Z</time>
      </trkpt>
      <trkpt lat="34.30631995568058" lon="109.03348654781101">
        <ele>392.20188260264695</ele>
        <time>2022-03-14T11:48:17Z</time>
      </trkpt>
      <trkpt lat="34.30634248181057" lon="109.03339580846753">
        <ele>392.28331720549613</ele>
        <time>2022-03-14T11:48:19Z</time>
      </trkpt>
      <trkpt lat="34.30635943535522" lon="109.03287335031469">
        <ele>392.1136018699035</ele>
        <time>2022-03-14T11:48:29Z</time>
      </trkpt>
      <trkpt lat="34.30640127755318" lon="109.03266579448781">
        <ele>392.3940126961097</ele>
        <time>2022-03-14T11:48:34Z</time>
      </trkpt>
      <trkpt lat="34.30636723261943" lon="109.03245989151607">
        <ele>393.0849202144891</ele>
        <time>2022-03-14T11:48:39Z</time>
      </trkpt>
      <trkpt lat="34.30637141635794" lon="109.03222411978503">
        <ele>393.14183520525694</ele>
        <time>2022-03-14T11:48:45Z</time>
      </trkpt>
      <trkpt lat="34.30631875030208" lon="109.03200421310207">
        <ele>392.8742558369413</ele>
        <time>2022-03-14T11:48:50Z</time>
      </trkpt>
      <trkpt lat="34.30630489052096" lon="109.03176778471541">
        <ele>392.5870464639738</ele>
        <time>2022-03-14T11:48:54Z</time>
      </trkpt>
      <trkpt lat="34.30626413402706" lon="109.03155982424343">
        <ele>391.642169944942</ele>
        <time>2022-03-14T11:48:58Z</time>
      </trkpt>
      <trkpt lat="34.30637643414551" lon="109.0313457712439">
        <ele>391.56273023504764</ele>
        <time>2022-03-14T11:49:02Z</time>
      </trkpt>
      <trkpt lat="34.30659165122793" lon="109.03119174293263">
        <ele>391.4173226384446</ele>
        <time>2022-03-14T11:49:06Z</time>
      </trkpt>
      <trkpt lat="34.307051304112335" lon="109.030975925086">
        <ele>391.4434141172096</ele>
        <time>2022-03-14T11:49:18Z</time>
      </trkpt>
      <trkpt lat="34.307509726257585" lon="109.03084852448936">
        <ele>392.77228117361665</ele>
        <time>2022-03-14T11:49:30Z</time>
      </trkpt>
      <trkpt lat="34.30797583697201" lon="109.0307662817081">
        <ele>394.3400869918987</ele>
        <time>2022-03-14T11:49:42Z</time>
      </trkpt>
      <trkpt lat="34.308461426654226" lon="109.03068808878143">
        <ele>394.7715135384351</ele>
        <time>2022-03-14T11:49:54Z</time>
      </trkpt>
      <trkpt lat="34.30874389225084" lon="109.03062621936661">
        <ele>394.7709486419335</ele>
        <time>2022-03-14T11:50:02Z</time>
      </trkpt>
      <trkpt lat="34.30915403609577" lon="109.03043844424451">
        <ele>395.16156845446676</ele>
        <time>2022-03-14T11:50:16Z</time>
      </trkpt>
      <trkpt lat="34.30936270568253" lon="109.03029138785337">
        <ele>395.2869155751541</ele>
        <time>2022-03-14T11:50:24Z</time>
      </trkpt>
      <trkpt lat="34.309545933245424" lon="109.03011566768635">
        <ele>394.8702793940902</ele>
        <time>2022-03-14T11:50:32Z</time>
      </trkpt>
      <trkpt lat="34.30961852845058" lon="109.03001338730867">
        <ele>394.8282573809847</ele>
        <time>2022-03-14T11:50:36Z</time>
      </trkpt>
      <trkpt lat="34.31000583223053" lon="109.02968405025885">
        <ele>393.6012130882591</ele>
        <time>2022-03-14T11:50:46Z</time>
      </trkpt>
      <trkpt lat="34.31029793690842" lon="109.0293970611439">
        <ele>392.62191728968173</ele>
        <time>2022-03-14T11:50:56Z</time>
      </trkpt>
      <trkpt lat="34.31058177810481" lon="109.02891838705474">
        <ele>391.1539535531774</ele>
        <time>2022-03-14T11:51:08Z</time>
      </trkpt>
      <trkpt lat="34.31075835652649" lon="109.02863099669476">
        <ele>390.90656433813274</ele>
        <time>2022-03-14T11:51:14Z</time>
      </trkpt>
      <trkpt lat="34.31102088470838" lon="109.02806544866804">
        <ele>390.32875523809344</ele>
        <time>2022-03-14T11:51:24Z</time>
      </trkpt>
      <trkpt lat="34.3111770886843" lon="109.02765271609807">
        <ele>390.6263244440779</ele>
        <time>2022-03-14T11:51:31Z</time>
      </trkpt>
      <trkpt lat="34.311331751406776" lon="109.02734688285024">
        <ele>391.5122217340395</ele>
        <time>2022-03-14T11:51:37Z</time>
      </trkpt>
      <trkpt lat="34.311659876359194" lon="109.02696823032205">
        <ele>392.1963097965345</ele>
        <time>2022-03-14T11:51:46Z</time>
      </trkpt>
      <trkpt lat="34.311967425687804" lon="109.02656329941595">
        <ele>391.9403478493914</ele>
        <time>2022-03-14T11:52:04Z</time>
      </trkpt>
      <trkpt lat="34.312087404917875" lon="109.02655285942777">
        <ele>391.9703428661451</ele>
        <time>2022-03-14T11:52:06Z</time>
      </trkpt>
      <trkpt lat="34.31248076250049" lon="109.02616803450076">
        <ele>393.5254956986755</ele>
        <time>2022-03-14T11:52:16Z</time>
      </trkpt>
      <trkpt lat="34.31279976188859" lon="109.02594799846128">
        <ele>393.5255375225097</ele>
        <time>2022-03-14T11:52:24Z</time>
      </trkpt>
      <trkpt lat="34.31311331596827" lon="109.02577481344477">
        <ele>393.5011040372774</ele>
        <time>2022-03-14T11:52:32Z</time>
      </trkpt>
      <trkpt lat="34.313539441776484" lon="109.0254818353596">
        <ele>392.722423995845</ele>
        <time>2022-03-14T11:52:44Z</time>
      </trkpt>
      <trkpt lat="34.31391101523758" lon="109.02519908085755">
        <ele>391.7065689796582</ele>
        <time>2022-03-14T11:52:54Z</time>
      </trkpt>
      <trkpt lat="34.31406350508765" lon="109.02509670478372">
        <ele>391.60058871656656</ele>
        <time>2022-03-14T11:52:58Z</time>
      </trkpt>
      <trkpt lat="34.31424015092548" lon="109.02493653257989">
        <ele>390.89437540248036</ele>
        <time>2022-03-14T11:53:04Z</time>
      </trkpt>
      <trkpt lat="34.314519750706175" lon="109.02476845671536">
        <ele>390.6416494725272</ele>
        <time>2022-03-14T11:53:12Z</time>
      </trkpt>
      <trkpt lat="34.31496365407177" lon="109.02442621339272">
        <ele>390.9081759881228</ele>
        <time>2022-03-14T11:53:26Z</time>
      </trkpt>
      <trkpt lat="34.315036239347435" lon="109.02432516460716">
        <ele>390.43187715671957</ele>
        <time>2022-03-14T11:53:28Z</time>
      </trkpt>
      <trkpt lat="34.31513018973455" lon="109.02424645163286">
        <ele>389.9367866292596</ele>
        <time>2022-03-14T11:53:30Z</time>
      </trkpt>
      <trkpt lat="34.315278062031474" lon="109.02403920613527">
        <ele>389.1309264861047</ele>
        <time>2022-03-14T11:53:36Z</time>
      </trkpt>
      <trkpt lat="34.31534375684748" lon="109.02398137301985">
        <ele>389.49356636498123</ele>
        <time>2022-03-14T11:53:38Z</time>
      </trkpt>
      <trkpt lat="34.31550982210162" lon="109.02391506024705">
        <ele>388.9924265826121</ele>
        <time>2022-03-14T11:53:48Z</time>
      </trkpt>
      <trkpt lat="34.31615697844791" lon="109.02358031345777">
        <ele>389.44618158228695</ele>
        <time>2022-03-14T11:53:59Z</time>
      </trkpt>
      <trkpt lat="34.316062352263316" lon="109.02315900443378">
        <ele>388.21628099214286</ele>
        <time>2022-03-14T11:54:09Z</time>
      </trkpt>
      <trkpt lat="34.315940461825974" lon="109.0227827375448">
        <ele>388.21501003578305</ele>
        <time>2022-03-14T11:54:17Z</time>
      </trkpt>
      <trkpt lat="34.31583008258287" lon="109.0225446049823">
        <ele>388.9798514721915</ele>
        <time>2022-03-14T11:54:23Z</time>
      </trkpt>
      <trkpt lat="34.31580669892454" lon="109.02245511634703">
        <ele>389.2087007770315</ele>
        <time>2022-03-14T11:54:25Z</time>
      </trkpt>
      <trkpt lat="34.31581627130217" lon="109.02222021969978">
        <ele>389.87022142112255</ele>
        <time>2022-03-14T11:54:31Z</time>
      </trkpt>
      <trkpt lat="34.315844369576794" lon="109.02212889692844">
        <ele>390.0308672292158</ele>
        <time>2022-03-14T11:54:33Z</time>
      </trkpt>
      <trkpt lat="34.31586583527177" lon="109.02182480214498">
        <ele>391.5103424536064</ele>
        <time>2022-03-14T11:54:39Z</time>
      </trkpt>
      <trkpt lat="34.31589145422496" lon="109.02167422598232">
        <ele>392.37570061162114</ele>
        <time>2022-03-14T11:54:43Z</time>
      </trkpt>
      <trkpt lat="34.31586254525965" lon="109.02111703586651">
        <ele>395.0364783424884</ele>
        <time>2022-03-14T11:54:57Z</time>
      </trkpt>
      <trkpt lat="34.3158529354702" lon="109.02051874388991">
        <ele>396.24018964450806</ele>
        <time>2022-03-14T11:55:11Z</time>
      </trkpt>
      <trkpt lat="34.31586262771316" lon="109.0199826151277">
        <ele>397.97815863322467</ele>
        <time>2022-03-14T11:55:23Z</time>
      </trkpt>
      <trkpt lat="34.315878141196606" lon="109.0193084644789">
        <ele>399.49914632644504</ele>
        <time>2022-03-14T11:55:39Z</time>
      </trkpt>
      <trkpt lat="34.315862949102616" lon="109.01887372684753">
        <ele>401.00032584834844</ele>
        <time>2022-03-14T11:55:50Z</time>
      </trkpt>
      <trkpt lat="34.315875152857956" lon="109.01869681262313">
        <ele>401.57841231673956</ele>
        <time>2022-03-14T11:55:54Z</time>
      </trkpt>
      <trkpt lat="34.315834204372756" lon="109.01841952215662">
        <ele>402.96150266285986</ele>
        <time>2022-03-14T11:56:06Z</time>
      </trkpt>
      <trkpt lat="34.31582291714045" lon="109.01817571493528">
        <ele>403.2141460189596</ele>
        <time>2022-03-14T11:56:14Z</time>
      </trkpt>
      <trkpt lat="34.315759255988034" lon="109.01758396883282">
        <ele>404.79701790958643</ele>
        <time>2022-03-14T11:56:34Z</time>
      </trkpt>
      <trkpt lat="34.315740537685585" lon="109.01745921978626">
        <ele>404.69839159492403</ele>
        <time>2022-03-14T11:56:38Z</time>
      </trkpt>
      <trkpt lat="34.31575392054665" lon="109.01715439523073">
        <ele>405.5309320865199</ele>
        <time>2022-03-14T11:56:46Z</time>
      </trkpt>
      <trkpt lat="34.315748657563425" lon="109.01670697194251">
        <ele>406.8333336673677</ele>
        <time>2022-03-14T11:56:58Z</time>
      </trkpt>
      <trkpt lat="34.31569391681449" lon="109.01607282292905">
        <ele>408.36956267245114</ele>
        <time>2022-03-14T11:57:14Z</time>
      </trkpt>
      <trkpt lat="34.31572160270385" lon="109.01566420212616">
        <ele>408.2088578026742</ele>
        <time>2022-03-14T11:57:22Z</time>
      </trkpt>
      <trkpt lat="34.31569195315542" lon="109.01530693822694">
        <ele>408.35677955765277</ele>
        <time>2022-03-14T11:57:30Z</time>
      </trkpt>
      <trkpt lat="34.31566390271301" lon="109.01514783509097">
        <ele>408.6193703887984</ele>
        <time>2022-03-14T11:57:34Z</time>
      </trkpt>
      <trkpt lat="34.31572589394486" lon="109.014619729309">
        <ele>408.71477275248617</ele>
        <time>2022-03-14T11:57:46Z</time>
      </trkpt>
      <trkpt lat="34.315779082055734" lon="109.01410941669603">
        <ele>408.24502712581307</ele>
        <time>2022-03-14T11:57:58Z</time>
      </trkpt>
      <trkpt lat="34.31575090964868" lon="109.01372065695865">
        <ele>408.05841627623886</ele>
        <time>2022-03-14T11:58:08Z</time>
      </trkpt>
      <trkpt lat="34.31578542855783" lon="109.01347504801896">
        <ele>407.9817066481337</ele>
        <time>2022-03-14T11:58:14Z</time>
      </trkpt>
      <trkpt lat="34.31577598825172" lon="109.01333284868181">
        <ele>408.17965990211815</ele>
        <time>2022-03-14T11:58:18Z</time>
      </trkpt>
      <trkpt lat="34.31579690119158" lon="109.01316903122107">
        <ele>408.51660244818777</ele>
        <time>2022-03-14T11:58:22Z</time>
      </trkpt>
      <trkpt lat="34.3157810154226" lon="109.01302815023033">
        <ele>408.3930237069726</ele>
        <time>2022-03-14T11:58:26Z</time>
      </trkpt>
      <trkpt lat="34.31580520490753" lon="109.01286003756356">
        <ele>408.82902174722403</ele>
        <time>2022-03-14T11:58:30Z</time>
      </trkpt>
      <trkpt lat="34.31578129376777" lon="109.01240171853387">
        <ele>408.80802426300943</ele>
        <time>2022-03-14T11:58:42Z</time>
      </trkpt>
      <trkpt lat="34.315827046591544" lon="109.01221793607446">
        <ele>408.82371246721596</ele>
        <time>2022-03-14T11:58:46Z</time>
      </trkpt>
      <trkpt lat="34.31581024561421" lon="109.01194211799992">
        <ele>409.15388422925025</ele>
        <time>2022-03-14T11:58:52Z</time>
      </trkpt>
      <trkpt lat="34.31587169389013" lon="109.01181206549477">
        <ele>409.8229971975088</ele>
        <time>2022-03-14T11:58:54Z</time>
      </trkpt>
      <trkpt lat="34.316200192209024" lon="109.01160802805897">
        <ele>410.7532359259203</ele>
        <time>2022-03-14T11:59:02Z</time>
      </trkpt>
      <trkpt lat="34.31624547382251" lon="109.01149360296893">
        <ele>411.2028912855312</ele>
        <time>2022-03-14T11:59:06Z</time>
      </trkpt>
      <trkpt lat="34.31637493847242" lon="109.01130846029639">
        <ele>410.8494002716616</ele>
        <time>2022-03-14T11:59:11Z</time>
      </trkpt>
      <trkpt lat="34.31642138143825" lon="109.01117170430109">
        <ele>410.88155447505414</ele>
        <time>2022-03-14T11:59:15Z</time>
      </trkpt>
      <trkpt lat="34.316729504917106" lon="109.01068041627857">
        <ele>410.75522883050144</ele>
        <time>2022-03-14T11:59:27Z</time>
      </trkpt>
      <trkpt lat="34.31679011962074" lon="109.01057080140426">
        <ele>410.6072515072301</ele>
        <time>2022-03-14T11:59:29Z</time>
      </trkpt>
      <trkpt lat="34.31693619644508" lon="109.01029163728164">
        <ele>411.041421524249</ele>
        <time>2022-03-14T11:59:33Z</time>
      </trkpt>
      <trkpt lat="34.31725498355363" lon="109.00998452509756">
        <ele>410.8610209124163</ele>
        <time>2022-03-14T11:59:41Z</time>
      </trkpt>
      <trkpt lat="34.31759843626309" lon="109.00978025630438">
        <ele>409.8677147747949</ele>
        <time>2022-03-14T11:59:49Z</time>
      </trkpt>
      <trkpt lat="34.31772664368343" lon="109.00975249818778">
        <ele>410.36920217145234</ele>
        <time>2022-03-14T11:59:51Z</time>
      </trkpt>
      <trkpt lat="34.31786260795384" lon="109.00969970764051">
        <ele>409.86415448319167</ele>
        <time>2022-03-14T11:59:53Z</time>
      </trkpt>
      <trkpt lat="34.318299622826764" lon="109.00963913022942">
        <ele>408.98248234577477</ele>
        <time>2022-03-14T12:00:02Z</time>
      </trkpt>
      <trkpt lat="34.31879293143044" lon="109.00960672479127">
        <ele>408.5037394259125</ele>
        <time>2022-03-14T12:00:10Z</time>
      </trkpt>
      <trkpt lat="34.31928005595617" lon="109.00958256414114">
        <ele>407.2330772606656</ele>
        <time>2022-03-14T12:00:18Z</time>
      </trkpt>
      <trkpt lat="34.319390645222335" lon="109.00956518788527">
        <ele>407.43598820641637</ele>
        <time>2022-03-14T12:00:20Z</time>
      </trkpt>
      <trkpt lat="34.31992079570438" lon="109.00953235166541">
        <ele>406.1789643615484</ele>
        <time>2022-03-14T12:00:30Z</time>
      </trkpt>
      <trkpt lat="34.32045774364613" lon="109.00952744375388">
        <ele>404.3936873860657</ele>
        <time>2022-03-14T12:00:40Z</time>
      </trkpt>
      <trkpt lat="34.32068519793906" lon="109.00956495340073">
        <ele>403.6644979743287</ele>
        <time>2022-03-14T12:00:44Z</time>
      </trkpt>
      <trkpt lat="34.32102687509819" lon="109.00958767724354">
        <ele>402.91174032725394</ele>
        <time>2022-03-14T12:00:50Z</time>
      </trkpt>
      <trkpt lat="34.32148668833362" lon="109.00957517163228">
        <ele>401.50463704764843</ele>
        <time>2022-03-14T12:00:58Z</time>
      </trkpt>
      <trkpt lat="34.32197602275705" lon="109.00957409572088">
        <ele>400.3866804689169</ele>
        <time>2022-03-14T12:01:06Z</time>
      </trkpt>
      <trkpt lat="34.3224704666181" lon="109.00957196046825">
        <ele>400.252406029962</ele>
        <time>2022-03-14T12:01:14Z</time>
      </trkpt>
      <trkpt lat="34.32296941277358" lon="109.00951806937103">
        <ele>398.3116280036047</ele>
        <time>2022-03-14T12:01:22Z</time>
      </trkpt>
      <trkpt lat="34.323214480833855" lon="109.00945305269153">
        <ele>397.83261883072555</ele>
        <time>2022-03-14T12:01:26Z</time>
      </trkpt>
      <trkpt lat="34.32372885968238" lon="109.00937730015667">
        <ele>396.3471137592569</ele>
        <time>2022-03-14T12:01:34Z</time>
      </trkpt>
      <trkpt lat="34.324154057401635" lon="109.00925958042399">
        <ele>395.94064630102366</ele>
        <time>2022-03-14T12:01:42Z</time>
      </trkpt>
      <trkpt lat="34.324583324800045" lon="109.00910831117923">
        <ele>395.93815600220114</ele>
        <time>2022-03-14T12:01:52Z</time>
      </trkpt>
      <trkpt lat="34.3250450162465" lon="109.0089155214298">
        <ele>395.4612312493846</ele>
        <time>2022-03-14T12:02:02Z</time>
      </trkpt>
      <trkpt lat="34.325493414496464" lon="109.00869860952096">
        <ele>395.72292453609407</ele>
        <time>2022-03-14T12:02:12Z</time>
      </trkpt>
      <trkpt lat="34.32594324207109" lon="109.00844623934778">
        <ele>395.1168583519757</ele>
        <time>2022-03-14T12:02:22Z</time>
      </trkpt>
      <trkpt lat="34.326380874309656" lon="109.00816212185867">
        <ele>394.63866262696683</ele>
        <time>2022-03-14T12:02:32Z</time>
      </trkpt>
      <trkpt lat="34.32682684660045" lon="109.00786432957933">
        <ele>394.41021575033665</ele>
        <time>2022-03-14T12:02:42Z</time>
      </trkpt>
      <trkpt lat="34.32716434702637" lon="109.00763200862046">
        <ele>394.1029589083046</ele>
        <time>2022-03-14T12:02:50Z</time>
      </trkpt>
      <trkpt lat="34.32723372434731" lon="109.0075642600444">
        <ele>394.3628238979727</ele>
        <time>2022-03-14T12:02:52Z</time>
      </trkpt>
      <trkpt lat="34.32763288977557" lon="109.00728289220399">
        <ele>394.0726334005594</ele>
        <time>2022-03-14T12:03:02Z</time>
      </trkpt>
      <trkpt lat="34.32787181920787" lon="109.00715373199613">
        <ele>394.0819970490411</ele>
        <time>2022-03-14T12:03:08Z</time>
      </trkpt>
      <trkpt lat="34.328088280761406" lon="109.00701763969704">
        <ele>394.1355132749304</ele>
        <time>2022-03-14T12:03:16Z</time>
      </trkpt>
      <trkpt lat="34.328092456596146" lon="109.00702953220144">
        <ele>394.2161683673039</ele>
        <time>2022-03-14T12:03:24Z</time>
      </trkpt>
      <trkpt lat="34.32812125470702" lon="109.00689082425852">
        <ele>394.53193328436464</ele>
        <time>2022-03-14T12:03:47Z</time>
      </trkpt>
      <trkpt lat="34.32810051272366" lon="109.00673036835131">
        <ele>394.5656741671264</ele>
        <time>2022-03-14T12:03:51Z</time>
      </trkpt>
      <trkpt lat="34.328061786842056" lon="109.00658944368273">
        <ele>394.43204519804567</ele>
        <time>2022-03-14T12:03:55Z</time>
      </trkpt>
      <trkpt lat="34.328045338848085" lon="109.00640848441716">
        <ele>394.274872421287</ele>
        <time>2022-03-14T12:03:59Z</time>
      </trkpt>
      <trkpt lat="34.328050070195964" lon="109.00628072048563">
        <ele>394.77257376071066</ele>
        <time>2022-03-14T12:04:03Z</time>
      </trkpt>
      <trkpt lat="34.32801672334988" lon="109.00612000356857">
        <ele>395.7957398798317</ele>
        <time>2022-03-14T12:04:07Z</time>
      </trkpt>
      <trkpt lat="34.328020232421274" lon="109.00595459624202">
        <ele>395.78516763448715</ele>
        <time>2022-03-14T12:04:11Z</time>
      </trkpt>
      <trkpt lat="34.32800253100912" lon="109.00583311240078">
        <ele>395.4299833914265</ele>
        <time>2022-03-14T12:04:14Z</time>
      </trkpt>
      <trkpt lat="34.32795308335451" lon="109.00571493219408">
        <ele>395.29734292346984</ele>
        <time>2022-03-14T12:04:16Z</time>
      </trkpt>
      <trkpt lat="34.32790989356518" lon="109.00548504616388">
        <ele>395.4110777825117</ele>
        <time>2022-03-14T12:04:20Z</time>
      </trkpt>
      <trkpt lat="34.32790923516118" lon="109.00536693682392">
        <ele>394.8571560336277</ele>
        <time>2022-03-14T12:04:22Z</time>
      </trkpt>
      <trkpt lat="34.32785775592963" lon="109.00516469523643">
        <ele>394.9085968192667</ele>
        <time>2022-03-14T12:04:26Z</time>
      </trkpt>
      <trkpt lat="34.327853938158015" lon="109.00506756431972">
        <ele>395.3241335321218</ele>
        <time>2022-03-14T12:04:28Z</time>
      </trkpt>
      <trkpt lat="34.327799403663285" lon="109.00481784133541">
        <ele>394.3926375033334</ele>
        <time>2022-03-14T12:04:34Z</time>
      </trkpt>
      <trkpt lat="34.32782648041102" lon="109.00444727310916">
        <ele>394.75827972590923</ele>
        <time>2022-03-14T12:04:40Z</time>
      </trkpt>
      <trkpt lat="34.327909001832616" lon="109.00408283708055">
        <ele>395.65837715007365</ele>
        <time>2022-03-14T12:04:46Z</time>
      </trkpt>
      <trkpt lat="34.32793023377194" lon="109.00375199751812">
        <ele>394.8511077268049</ele>
        <time>2022-03-14T12:04:52Z</time>
      </trkpt>
      <trkpt lat="34.3279549433697" lon="109.00365572785066">
        <ele>394.7599877305329</ele>
        <time>2022-03-14T12:04:54Z</time>
      </trkpt>
      <trkpt lat="34.32794634264109" lon="109.00341403403843">
        <ele>395.14898799546063</ele>
        <time>2022-03-14T12:04:58Z</time>
      </trkpt>
      <trkpt lat="34.32796208069882" lon="109.00303062328838">
        <ele>394.9918111609295</ele>
        <time>2022-03-14T12:05:04Z</time>
      </trkpt>
      <trkpt lat="34.32793019632633" lon="109.00275820872764">
        <ele>394.80269924458116</ele>
        <time>2022-03-14T12:05:08Z</time>
      </trkpt>
      <trkpt lat="34.3279333829077" lon="109.0022496182441">
        <ele>396.03381546307355</ele>
        <time>2022-03-14T12:05:18Z</time>
      </trkpt>
      <trkpt lat="34.32791510000911" lon="109.00215008379678">
        <ele>396.73631692677736</ele>
        <time>2022-03-14T12:05:20Z</time>
      </trkpt>
      <trkpt lat="34.327925621630875" lon="109.00200633269158">
        <ele>396.63716246932745</ele>
        <time>2022-03-14T12:05:22Z</time>
      </trkpt>
      <trkpt lat="34.32786603792733" lon="109.00160799163926">
        <ele>396.72218691930175</ele>
        <time>2022-03-14T12:05:30Z</time>
      </trkpt>
      <trkpt lat="34.32783654232006" lon="109.00114805848393">
        <ele>396.4506954010576</ele>
        <time>2022-03-14T12:05:38Z</time>
      </trkpt>
      <trkpt lat="34.327899199627396" lon="109.00060344929263">
        <ele>396.609011487104</ele>
        <time>2022-03-14T12:05:48Z</time>
      </trkpt>
      <trkpt lat="34.32788375748303" lon="109.00039395729266">
        <ele>396.28680801112205</ele>
        <time>2022-03-14T12:05:52Z</time>
      </trkpt>
      <trkpt lat="34.327893579371796" lon="109.00005530066213">
        <ele>395.49826250690967</ele>
        <time>2022-03-14T12:05:58Z</time>
      </trkpt>
      <trkpt lat="34.327920666349705" lon="108.99964285821302">
        <ele>396.37506832461804</ele>
        <time>2022-03-14T12:06:06Z</time>
      </trkpt>
      <trkpt lat="34.32791990162356" lon="108.99908841131118">
        <ele>394.42951772455126</ele>
        <time>2022-03-14T12:06:14Z</time>
      </trkpt>
      <trkpt lat="34.32791025166025" lon="108.99883466042563">
        <ele>394.45765696745366</ele>
        <time>2022-03-14T12:06:18Z</time>
      </trkpt>
      <trkpt lat="34.32787689816682" lon="108.9986263467947">
        <ele>394.2183141345158</ele>
        <time>2022-03-14T12:06:22Z</time>
      </trkpt>
      <trkpt lat="34.327877257432455" lon="108.99839319336708">
        <ele>395.5386969028041</ele>
        <time>2022-03-14T12:06:26Z</time>
      </trkpt>
      <trkpt lat="34.32785125890287" lon="108.99818243439815">
        <ele>395.7510408554226</ele>
        <time>2022-03-14T12:06:30Z</time>
      </trkpt>
      <trkpt lat="34.32787312167373" lon="108.99793925537918">
        <ele>395.3842802774161</ele>
        <time>2022-03-14T12:06:34Z</time>
      </trkpt>
      <trkpt lat="34.327867199344674" lon="108.99772330817038">
        <ele>395.35160951316357</ele>
        <time>2022-03-14T12:06:38Z</time>
      </trkpt>
      <trkpt lat="34.32788446214577" lon="108.99759895133124">
        <ele>395.08731317706406</ele>
        <time>2022-03-14T12:06:40Z</time>
      </trkpt>
      <trkpt lat="34.32787836537162" lon="108.997479389497">
        <ele>395.1008312692866</ele>
        <time>2022-03-14T12:06:42Z</time>
      </trkpt>
      <trkpt lat="34.32789511995254" lon="108.99723647244399">
        <ele>394.9920865194872</ele>
        <time>2022-03-14T12:06:46Z</time>
      </trkpt>
      <trkpt lat="34.327875178524906" lon="108.9971354443086">
        <ele>395.42240722477436</ele>
        <time>2022-03-14T12:06:48Z</time>
      </trkpt>
      <trkpt lat="34.3279143924913" lon="108.9966707355346">
        <ele>395.10671767313033</ele>
        <time>2022-03-14T12:06:56Z</time>
      </trkpt>
      <trkpt lat="34.32790523646565" lon="108.99655676195054">
        <ele>394.8500865790993</ele>
        <time>2022-03-14T12:06:58Z</time>
      </trkpt>
      <trkpt lat="34.327922836932444" lon="108.99595077877134">
        <ele>394.4113011592999</ele>
        <time>2022-03-14T12:07:08Z</time>
      </trkpt>
      <trkpt lat="34.327921071068765" lon="108.99582639197304">
        <ele>394.9019963173196</ele>
        <time>2022-03-14T12:07:10Z</time>
      </trkpt>
      <trkpt lat="34.327959468364156" lon="108.99569393381196">
        <ele>394.65196233894676</ele>
        <time>2022-03-14T12:07:12Z</time>
      </trkpt>
      <trkpt lat="34.32795148193547" lon="108.99536246599504">
        <ele>396.00104557629675</ele>
        <time>2022-03-14T12:07:18Z</time>
      </trkpt>
      <trkpt lat="34.32802350125405" lon="108.99493341052207">
        <ele>394.62657124269754</ele>
        <time>2022-03-14T12:07:26Z</time>
      </trkpt>
      <trkpt lat="34.32802749791636" lon="108.9946742130694">
        <ele>394.2892131358385</ele>
        <time>2022-03-14T12:07:32Z</time>
      </trkpt>
      <trkpt lat="34.328066437709936" lon="108.99449243652865">
        <ele>394.9350347854197</ele>
        <time>2022-03-14T12:07:36Z</time>
      </trkpt>
      <trkpt lat="34.328076147008524" lon="108.99423803779207">
        <ele>395.72102405596524</ele>
        <time>2022-03-14T12:07:42Z</time>
      </trkpt>
      <trkpt lat="34.32806555730679" lon="108.99407018035483">
        <ele>394.87996986787766</ele>
        <time>2022-03-14T12:07:46Z</time>
      </trkpt>
      <trkpt lat="34.32801004857044" lon="108.9939792590371">
        <ele>394.162625875324</ele>
        <time>2022-03-14T12:07:50Z</time>
      </trkpt>
      <trkpt lat="34.32801645983443" lon="108.99370406206313">
        <ele>394.13923645671457</ele>
        <time>2022-03-14T12:08:00Z</time>
      </trkpt>
      <trkpt lat="34.3278950367389" lon="108.9931840009477">
        <ele>395.0729518625885</ele>
        <time>2022-03-14T12:08:12Z</time>
      </trkpt>
      <trkpt lat="34.32785380875376" lon="108.99285654604915">
        <ele>395.4272372154519</ele>
        <time>2022-03-14T12:08:18Z</time>
      </trkpt>
      <trkpt lat="34.32786971202797" lon="108.99262695365893">
        <ele>394.5795558337122</ele>
        <time>2022-03-14T12:08:22Z</time>
      </trkpt>
      <trkpt lat="34.3279332920884" lon="108.99224673359076">
        <ele>393.2106752060354</ele>
        <time>2022-03-14T12:08:28Z</time>
      </trkpt>
      <trkpt lat="34.3279511426926" lon="108.99182767640087">
        <ele>393.0024881064892</ele>
        <time>2022-03-14T12:08:36Z</time>
      </trkpt>
      <trkpt lat="34.32793645969728" lon="108.99168107163095">
        <ele>393.1909071691334</ele>
        <time>2022-03-14T12:08:40Z</time>
      </trkpt>
      <trkpt lat="34.32797535654453" lon="108.99148901130822">
        <ele>392.31465717125684</ele>
        <time>2022-03-14T12:08:44Z</time>
      </trkpt>
      <trkpt lat="34.327978995246184" lon="108.99134693418067">
        <ele>392.54189129173756</ele>
        <time>2022-03-14T12:08:48Z</time>
      </trkpt>
      <trkpt lat="34.32801202061851" lon="108.99123435167623">
        <ele>392.2892205696553</ele>
        <time>2022-03-14T12:08:52Z</time>
      </trkpt>
      <trkpt lat="34.328016323311644" lon="108.99116649166088">
        <ele>392.8222827715799</ele>
        <time>2022-03-14T12:09:02Z</time>
      </trkpt>
      <trkpt lat="34.32802475644851" lon="108.99100842709726">
        <ele>392.2298962911591</ele>
        <time>2022-03-14T12:09:07Z</time>
      </trkpt>
      <trkpt lat="34.328023918437346" lon="108.99088781016982">
        <ele>392.19507953338325</ele>
        <time>2022-03-14T12:09:11Z</time>
      </trkpt>
      <trkpt lat="34.32796035012615" lon="108.990763494035">
        <ele>391.7015855843201</ele>
        <time>2022-03-14T12:09:15Z</time>
      </trkpt>
      <trkpt lat="34.32799173569368" lon="108.99039221890139">
        <ele>392.0566208008677</ele>
        <time>2022-03-14T12:09:23Z</time>
      </trkpt>
      <trkpt lat="34.328017589074825" lon="108.99026576457938">
        <ele>391.9822585918009</ele>
        <time>2022-03-14T12:09:25Z</time>
      </trkpt>
      <trkpt lat="34.32801951687537" lon="108.99000835492">
        <ele>392.60239548794925</ele>
        <time>2022-03-14T12:09:31Z</time>
      </trkpt>
      <trkpt lat="34.32798476371331" lon="108.989864787366">
        <ele>392.69087207410485</ele>
        <time>2022-03-14T12:09:35Z</time>
      </trkpt>
      <trkpt lat="34.32792186500874" lon="108.98976013290304">
        <ele>393.7710701422766</ele>
        <time>2022-03-14T12:09:39Z</time>
      </trkpt>
      <trkpt lat="34.327918681184705" lon="108.98966093675183">
        <ele>394.71500535681844</ele>
        <time>2022-03-14T12:09:43Z</time>
      </trkpt>
      <trkpt lat="34.327953656651545" lon="108.98945142319141">
        <ele>394.8788634445518</ele>
        <time>2022-03-14T12:09:51Z</time>
      </trkpt>
      <trkpt lat="34.32790228387286" lon="108.98932704163838">
        <ele>393.9017383316532</ele>
        <time>2022-03-14T12:09:55Z</time>
      </trkpt>
      <trkpt lat="34.32781980632458" lon="108.9892338338225">
        <ele>393.41655989177525</ele>
        <time>2022-03-14T12:09:59Z</time>
      </trkpt>
      <trkpt lat="34.3277795076438" lon="108.98913523226777">
        <ele>393.5582579150796</ele>
        <time>2022-03-14T12:10:03Z</time>
      </trkpt>
      <trkpt lat="34.327835449277806" lon="108.98888931174943">
        <ele>393.8061508173123</ele>
        <time>2022-03-14T12:10:11Z</time>
      </trkpt>
      <trkpt lat="34.32778638890714" lon="108.98858204665264">
        <ele>394.14547695498914</ele>
        <time>2022-03-14T12:10:23Z</time>
      </trkpt>
      <trkpt lat="34.327654449584614" lon="108.98815082109847">
        <ele>394.6279850779101</ele>
        <time>2022-03-14T12:10:40Z</time>
      </trkpt>
      <trkpt lat="34.32754273872892" lon="108.98763818402384">
        <ele>394.72602405492216</ele>
        <time>2022-03-14T12:11:00Z</time>
      </trkpt>
      <trkpt lat="34.32751744011375" lon="108.9875270531251">
        <ele>394.1565565634519</ele>
        <time>2022-03-14T12:11:04Z</time>
      </trkpt>
      <trkpt lat="34.32752507709122" lon="108.98738843766047">
        <ele>394.1524397684261</ele>
        <time>2022-03-14T12:11:08Z</time>
      </trkpt>
      <trkpt lat="34.327560421169935" lon="108.98727941626252">
        <ele>394.0478761633858</ele>
        <time>2022-03-14T12:11:12Z</time>
      </trkpt>
      <trkpt lat="34.32765339964103" lon="108.98718422200585">
        <ele>393.52328068297356</ele>
        <time>2022-03-14T12:11:24Z</time>
      </trkpt>
      <trkpt lat="34.327750024962" lon="108.98682935552814">
        <ele>393.41729425732046</ele>
        <time>2022-03-14T12:11:57Z</time>
      </trkpt>
      <trkpt lat="34.32769185014258" lon="108.98629279122075">
        <ele>393.2057351274416</ele>
        <time>2022-03-14T12:12:10Z</time>
      </trkpt>
      <trkpt lat="34.32755457314785" lon="108.98607589323245">
        <ele>391.87153615709394</ele>
        <time>2022-03-14T12:12:20Z</time>
      </trkpt>
      <trkpt lat="34.32758361957111" lon="108.98579537646367">
        <ele>392.4530457807705</ele>
        <time>2022-03-14T12:12:24Z</time>
      </trkpt>
      <trkpt lat="34.32755577900818" lon="108.98564902994931">
        <ele>392.88147164322436</ele>
        <time>2022-03-14T12:12:28Z</time>
      </trkpt>
      <trkpt lat="34.327619137070634" lon="108.98404423182046">
        <ele>392.9872559029609</ele>
        <time>2022-03-14T12:12:30Z</time>
      </trkpt>
      <trkpt lat="34.327567424861236" lon="108.98359202037973">
        <ele>393.43221239279956</ele>
        <time>2022-03-14T12:12:32Z</time>
      </trkpt>
      <trkpt lat="34.32762836844042" lon="108.98300253585684">
        <ele>394.3906808216125</ele>
        <time>2022-03-14T12:12:36Z</time>
      </trkpt>
      <trkpt lat="34.327652382963045" lon="108.98285144373072">
        <ele>394.59534708131105</ele>
        <time>2022-03-14T12:12:38Z</time>
      </trkpt>
      <trkpt lat="34.32775425986789" lon="108.9826342630869">
        <ele>394.94348127394915</ele>
        <time>2022-03-14T12:12:42Z</time>
      </trkpt>
      <trkpt lat="34.32784926172702" lon="108.98230653033855">
        <ele>396.0576776107773</ele>
        <time>2022-03-14T12:12:50Z</time>
      </trkpt>
      <trkpt lat="34.32784267385458" lon="108.98221309848145">
        <ele>395.71502916980535</ele>
        <time>2022-03-14T12:12:52Z</time>
      </trkpt>
      <trkpt lat="34.32775782437317" lon="108.9822198689447">
        <ele>395.4930480699986</ele>
        <time>2022-03-14T12:12:54Z</time>
      </trkpt>
      <trkpt lat="34.32772789374789" lon="108.98211659134093">
        <ele>395.1857594912872</ele>
        <time>2022-03-14T12:12:56Z</time>
      </trkpt>
      <trkpt lat="34.327721132733416" lon="108.98180772753427">
        <ele>395.3568107848987</ele>
        <time>2022-03-14T12:13:04Z</time>
      </trkpt>
      <trkpt lat="34.32769540938414" lon="108.98169464314583">
        <ele>395.8761220090091</ele>
        <time>2022-03-14T12:13:08Z</time>
      </trkpt>
      <trkpt lat="34.32777267709987" lon="108.98156583600141">
        <ele>395.3775919172913</ele>
        <time>2022-03-14T12:13:16Z</time>
      </trkpt>
      <trkpt lat="34.32780950015079" lon="108.98138116541035">
        <ele>394.69481843616813</ele>
        <time>2022-03-14T12:13:23Z</time>
      </trkpt>
      <trkpt lat="34.32783074087264" lon="108.98126484942448">
        <ele>395.57403766270727</ele>
        <time>2022-03-14T12:13:27Z</time>
      </trkpt>
      <trkpt lat="34.327882363112025" lon="108.98113807954783">
        <ele>394.51951219979674</ele>
        <time>2022-03-14T12:13:31Z</time>
      </trkpt>
      <trkpt lat="34.327960925098566" lon="108.98103079112127">
        <ele>394.45787603221834</ele>
        <time>2022-03-14T12:13:35Z</time>
      </trkpt>
      <trkpt lat="34.328230984389435" lon="108.9808778750948">
        <ele>394.6583773056045</ele>
        <time>2022-03-14T12:13:47Z</time>
      </trkpt>
      <trkpt lat="34.32829492525548" lon="108.9808239019017">
        <ele>395.052591917105</ele>
        <time>2022-03-14T12:13:55Z</time>
      </trkpt>
      <trkpt lat="34.32837030042009" lon="108.98080528983827">
        <ele>395.9886083919555</ele>
        <time>2022-03-14T12:14:01Z</time>
      </trkpt>
      <trkpt lat="34.32845006751801" lon="108.98080952036854">
        <ele>395.5752007700503</ele>
        <time>2022-03-14T12:14:07Z</time>
      </trkpt>
      <trkpt lat="34.328546791623886" lon="108.98076347473592">
        <ele>395.5899053076282</ele>
        <time>2022-03-14T12:14:13Z</time>
      </trkpt>
      <trkpt lat="34.32859917714104" lon="108.98060149524497">
        <ele>395.68708180543035</ele>
        <time>2022-03-14T12:14:25Z</time>
      </trkpt>
      <trkpt lat="34.32858570907681" lon="108.9803375827041">
        <ele>395.8859727745876</ele>
        <time>2022-03-14T12:14:50Z</time>
      </trkpt>
    </trkseg>
  </trk>
</gpx>