<?xml version="1.0" encoding="UTF-8"?>
<gpx xmlns="http://www.topografix.com/GPX/1/1" xmlns:gpxtpx="http://www.garmin.com/xmlschemas/TrackPointExtension/v1" xmlns:xsi="http://www.w3.org/2001/XMLSchema-instance" xsi:schemaLocation="http://www.topografix.com/GPX/1/1 http://www.topografix.com/GPX/1/1/gpx.xsd" version="1.1" creator="gpx.py -- https://github.com/tkrajina/gpxpy">
  <trk>
    <name>gpx from keep</name>
    <type>Ride</type>
    <trkseg>
      <trkpt lat="34.32829340347257" lon="108.98046457505197">
        <ele>474.4419250488281</ele>
        <time>2022-05-04T23:08:01Z</time>
      </trkpt>
      <trkpt lat="34.328335951001314" lon="108.98059896217484">
        <ele>464.46087646484375</ele>
        <time>2022-05-04T23:08:13Z</time>
      </trkpt>
      <trkpt lat="34.32835875179159" lon="108.98048677330375">
        <ele>431.1288146972656</ele>
        <time>2022-05-04T23:08:37Z</time>
      </trkpt>
      <trkpt lat="34.32802224243974" lon="108.98038602667692">
        <ele>412.9344482421875</ele>
        <time>2022-05-04T23:08:59Z</time>
      </trkpt>
      <trkpt lat="34.32874849050452" lon="108.98035006603169">
        <ele>393.97705078125</ele>
        <time>2022-05-04T23:09:29Z</time>
      </trkpt>
      <trkpt lat="34.328560728242635" lon="108.98032074461976">
        <ele>391.0185241699219</ele>
        <time>2022-05-04T23:09:36Z</time>
      </trkpt>
      <trkpt lat="34.32868681232473" lon="108.98002725227205">
        <ele>390.6050720214844</ele>
        <time>2022-05-04T23:09:44Z</time>
      </trkpt>
      <trkpt lat="34.32871188514142" lon="108.98016657202164">
        <ele>395.86933874349535</ele>
        <time>2022-05-04T23:09:51Z</time>
      </trkpt>
      <trkpt lat="34.328603826780295" lon="108.9804774498727">
        <ele>395.81073998381675</ele>
        <time>2022-05-04T23:09:55Z</time>
      </trkpt>
      <trkpt lat="34.3285965047904" lon="108.98056489584202">
        <ele>395.8477513471216</ele>
        <time>2022-05-04T23:09:59Z</time>
      </trkpt>
      <trkpt lat="34.328650653601144" lon="108.98073483287222">
        <ele>395.67406178079545</ele>
        <time>2022-05-04T23:10:08Z</time>
      </trkpt>
      <trkpt lat="34.328603738674104" lon="108.98080238843038">
        <ele>395.6239241519943</ele>
        <time>2022-05-04T23:10:13Z</time>
      </trkpt>
      <trkpt lat="34.32822191417616" lon="108.98084349183574">
        <ele>394.7407038817182</ele>
        <time>2022-05-04T23:10:40Z</time>
      </trkpt>
      <trkpt lat="34.32817083038311" lon="108.98088580101555">
        <ele>394.916437972337</ele>
        <time>2022-05-04T23:10:51Z</time>
      </trkpt>
      <trkpt lat="34.32813810606024" lon="108.9810266321095">
        <ele>394.4178997185081</ele>
        <time>2022-05-04T23:11:23Z</time>
      </trkpt>
      <trkpt lat="34.32823494419616" lon="108.98155183110086">
        <ele>394.11841266974807</ele>
        <time>2022-05-04T23:11:38Z</time>
      </trkpt>
      <trkpt lat="34.32822733377187" lon="108.98164676793427">
        <ele>394.4230805737898</ele>
        <time>2022-05-04T23:11:40Z</time>
      </trkpt>
      <trkpt lat="34.328252600591625" lon="108.9817709742936">
        <ele>394.71116558276117</ele>
        <time>2022-05-04T23:11:43Z</time>
      </trkpt>
      <trkpt lat="34.32822571674849" lon="108.98202096596884">
        <ele>395.015996677801</ele>
        <time>2022-05-04T23:11:49Z</time>
      </trkpt>
      <trkpt lat="34.32814762550981" lon="108.98226921025586">
        <ele>393.7168748443946</ele>
        <time>2022-05-04T23:11:53Z</time>
      </trkpt>
      <trkpt lat="34.32812384388937" lon="108.98280469465209">
        <ele>393.8528822250664</ele>
        <time>2022-05-04T23:12:05Z</time>
      </trkpt>
      <trkpt lat="34.32814733547914" lon="108.98301817752285">
        <ele>394.62340796831995</ele>
        <time>2022-05-04T23:12:09Z</time>
      </trkpt>
      <trkpt lat="34.32814582816178" lon="108.98334664135633">
        <ele>393.5270050102845</ele>
        <time>2022-05-04T23:12:15Z</time>
      </trkpt>
      <trkpt lat="34.32822973809131" lon="108.98372773388124">
        <ele>392.9018890056759</ele>
        <time>2022-05-04T23:12:25Z</time>
      </trkpt>
      <trkpt lat="34.32821268656773" lon="108.9837588306038">
        <ele>392.52170701604337</ele>
        <time>2022-05-04T23:12:33Z</time>
      </trkpt>
      <trkpt lat="34.328088764577274" lon="108.98402484182178">
        <ele>392.01210460439324</ele>
        <time>2022-05-04T23:13:06Z</time>
      </trkpt>
      <trkpt lat="34.32790464839547" lon="108.9843838036318">
        <ele>391.91147704422474</ele>
        <time>2022-05-04T23:13:16Z</time>
      </trkpt>
      <trkpt lat="34.327880819824024" lon="108.98477960884145">
        <ele>391.7269692737609</ele>
        <time>2022-05-04T23:13:25Z</time>
      </trkpt>
      <trkpt lat="34.32789552242275" lon="108.98490315350269">
        <ele>392.2754679955542</ele>
        <time>2022-05-04T23:13:28Z</time>
      </trkpt>
      <trkpt lat="34.327906984835" lon="108.98528432657713">
        <ele>392.56177824828774</ele>
        <time>2022-05-04T23:13:36Z</time>
      </trkpt>
      <trkpt lat="34.327948673832005" lon="108.98574413189598">
        <ele>391.7591876871884</ele>
        <time>2022-05-04T23:13:46Z</time>
      </trkpt>
      <trkpt lat="34.327952088312955" lon="108.98629008769791">
        <ele>392.3595783896744</ele>
        <time>2022-05-04T23:13:58Z</time>
      </trkpt>
      <trkpt lat="34.32795065158791" lon="108.98678548039938">
        <ele>392.7497661067173</ele>
        <time>2022-05-04T23:14:09Z</time>
      </trkpt>
      <trkpt lat="34.32797870519141" lon="108.98704355066576">
        <ele>393.34137630462646</ele>
        <time>2022-05-04T23:14:15Z</time>
      </trkpt>
      <trkpt lat="34.327959326563104" lon="108.98761362156881">
        <ele>394.82106417790055</ele>
        <time>2022-05-04T23:14:27Z</time>
      </trkpt>
      <trkpt lat="34.32794948282817" lon="108.98819239905824">
        <ele>394.12398095428944</ele>
        <time>2022-05-04T23:14:39Z</time>
      </trkpt>
      <trkpt lat="34.327936374019636" lon="108.98876249061443">
        <ele>392.83246987033635</ele>
        <time>2022-05-04T23:14:51Z</time>
      </trkpt>
      <trkpt lat="34.327918016747056" lon="108.98930647902976">
        <ele>392.60040701180696</ele>
        <time>2022-05-04T23:15:03Z</time>
      </trkpt>
      <trkpt lat="34.32789630311703" lon="108.98989550031406">
        <ele>391.70755981933326</ele>
        <time>2022-05-04T23:15:17Z</time>
      </trkpt>
      <trkpt lat="34.3278835568804" lon="108.9900817547694">
        <ele>392.1278761969879</ele>
        <time>2022-05-04T23:15:21Z</time>
      </trkpt>
      <trkpt lat="34.327901275903926" lon="108.99037059935763">
        <ele>392.5959901660681</ele>
        <time>2022-05-04T23:15:29Z</time>
      </trkpt>
      <trkpt lat="34.327894974177696" lon="108.99062025434883">
        <ele>392.3100626608357</ele>
        <time>2022-05-04T23:15:35Z</time>
      </trkpt>
      <trkpt lat="34.3279239742245" lon="108.99079594513076">
        <ele>391.148827326484</ele>
        <time>2022-05-04T23:15:39Z</time>
      </trkpt>
      <trkpt lat="34.32801442295622" lon="108.99096320799832">
        <ele>391.3309161970392</ele>
        <time>2022-05-04T23:15:43Z</time>
      </trkpt>
      <trkpt lat="34.32803427277337" lon="108.99105707593314">
        <ele>392.39557033777237</ele>
        <time>2022-05-04T23:15:45Z</time>
      </trkpt>
      <trkpt lat="34.328103197244374" lon="108.99112262560435">
        <ele>392.07664728723466</ele>
        <time>2022-05-04T23:15:47Z</time>
      </trkpt>
      <trkpt lat="34.3280815103958" lon="108.99126265196098">
        <ele>393.34485508687794</ele>
        <time>2022-05-04T23:15:51Z</time>
      </trkpt>
      <trkpt lat="34.328027993928515" lon="108.99136756757929">
        <ele>394.27163821458817</ele>
        <time>2022-05-04T23:15:53Z</time>
      </trkpt>
      <trkpt lat="34.32799278935807" lon="108.99153433032245">
        <ele>395.02453889977187</ele>
        <time>2022-05-04T23:15:57Z</time>
      </trkpt>
      <trkpt lat="34.327967163408545" lon="108.99198546212226">
        <ele>394.24148750677705</ele>
        <time>2022-05-04T23:16:07Z</time>
      </trkpt>
      <trkpt lat="34.32801228507012" lon="108.99228090644554">
        <ele>393.6107979072258</ele>
        <time>2022-05-04T23:16:15Z</time>
      </trkpt>
      <trkpt lat="34.32796232773821" lon="108.99283097257216">
        <ele>393.64601442217827</ele>
        <time>2022-05-04T23:16:27Z</time>
      </trkpt>
      <trkpt lat="34.32797639506497" lon="108.99334998266798">
        <ele>393.8185965651646</ele>
        <time>2022-05-04T23:16:39Z</time>
      </trkpt>
      <trkpt lat="34.327993371654046" lon="108.99400874013347">
        <ele>395.52003074157983</ele>
        <time>2022-05-04T23:16:55Z</time>
      </trkpt>
      <trkpt lat="34.32801988422838" lon="108.994310268201">
        <ele>394.72759538609535</ele>
        <time>2022-05-04T23:17:03Z</time>
      </trkpt>
      <trkpt lat="34.32807847342873" lon="108.99476585990334">
        <ele>395.7069213613868</ele>
        <time>2022-05-04T23:17:13Z</time>
      </trkpt>
      <trkpt lat="34.32807218167996" lon="108.99519517677271">
        <ele>394.67671922873706</ele>
        <time>2022-05-04T23:17:21Z</time>
      </trkpt>
      <trkpt lat="34.32804900740097" lon="108.99540693834649">
        <ele>394.2643075697124</ele>
        <time>2022-05-04T23:17:25Z</time>
      </trkpt>
      <trkpt lat="34.32806052580582" lon="108.99560382961967">
        <ele>393.62045432720333</ele>
        <time>2022-05-04T23:17:29Z</time>
      </trkpt>
      <trkpt lat="34.32803840857231" lon="108.99570107380796">
        <ele>394.3736375560984</ele>
        <time>2022-05-04T23:17:31Z</time>
      </trkpt>
      <trkpt lat="34.327943454637946" lon="108.99593931650548">
        <ele>394.7380416300148</ele>
        <time>2022-05-04T23:17:39Z</time>
      </trkpt>
      <trkpt lat="34.32796221805681" lon="108.99623956748383">
        <ele>395.25937675498426</ele>
        <time>2022-05-04T23:17:47Z</time>
      </trkpt>
      <trkpt lat="34.32793282785304" lon="108.99679610171295">
        <ele>395.0501218996942</ele>
        <time>2022-05-04T23:17:59Z</time>
      </trkpt>
      <trkpt lat="34.32792713916806" lon="108.99699180805756">
        <ele>395.0822184551507</ele>
        <time>2022-05-04T23:18:03Z</time>
      </trkpt>
      <trkpt lat="34.327903747251575" lon="108.99709727357713">
        <ele>395.74904816783965</ele>
        <time>2022-05-04T23:18:05Z</time>
      </trkpt>
      <trkpt lat="34.32790346422059" lon="108.9977728803811">
        <ele>394.6018011532724</ele>
        <time>2022-05-04T23:18:19Z</time>
      </trkpt>
      <trkpt lat="34.32790946534742" lon="108.99798125867486">
        <ele>393.860461210832</ele>
        <time>2022-05-04T23:18:25Z</time>
      </trkpt>
      <trkpt lat="34.32786044949731" lon="108.99807494928326">
        <ele>394.29558597691357</ele>
        <time>2022-05-04T23:18:37Z</time>
      </trkpt>
      <trkpt lat="34.32786997883674" lon="108.99829782224555">
        <ele>394.4358225399628</ele>
        <time>2022-05-04T23:18:50Z</time>
      </trkpt>
      <trkpt lat="34.32790807110016" lon="108.99844711332419">
        <ele>394.0725510949269</ele>
        <time>2022-05-04T23:18:54Z</time>
      </trkpt>
      <trkpt lat="34.32789013108064" lon="108.99861565524907">
        <ele>393.67983803432435</ele>
        <time>2022-05-04T23:18:58Z</time>
      </trkpt>
      <trkpt lat="34.327908497852576" lon="108.99914446590222">
        <ele>392.88070106878877</ele>
        <time>2022-05-04T23:19:14Z</time>
      </trkpt>
      <trkpt lat="34.32793290413395" lon="108.99942720373572">
        <ele>393.1140397666022</ele>
        <time>2022-05-04T23:19:22Z</time>
      </trkpt>
      <trkpt lat="34.327943301149396" lon="109.00003668022684">
        <ele>392.99098789691925</ele>
        <time>2022-05-04T23:19:36Z</time>
      </trkpt>
      <trkpt lat="34.32794999600984" lon="109.00066725599967">
        <ele>393.37845670990646</ele>
        <time>2022-05-04T23:19:50Z</time>
      </trkpt>
      <trkpt lat="34.327947967013785" lon="109.00135361837447">
        <ele>394.18640208337456</ele>
        <time>2022-05-04T23:20:06Z</time>
      </trkpt>
      <trkpt lat="34.32794412322038" lon="109.00172699760985">
        <ele>394.00001200381666</ele>
        <time>2022-05-04T23:20:14Z</time>
      </trkpt>
      <trkpt lat="34.327957418713474" lon="109.0018880996806">
        <ele>394.54730325285345</ele>
        <time>2022-05-04T23:20:18Z</time>
      </trkpt>
      <trkpt lat="34.32791109251125" lon="109.00248501226397">
        <ele>394.57009402569383</ele>
        <time>2022-05-04T23:20:31Z</time>
      </trkpt>
      <trkpt lat="34.327896005447705" lon="109.00260891845578">
        <ele>394.0299796676263</ele>
        <time>2022-05-04T23:20:33Z</time>
      </trkpt>
      <trkpt lat="34.32793464929434" lon="109.00319194537065">
        <ele>394.0124543895945</ele>
        <time>2022-05-04T23:20:47Z</time>
      </trkpt>
      <trkpt lat="34.327858334735424" lon="109.00376151616088">
        <ele>394.01399905234575</ele>
        <time>2022-05-04T23:20:59Z</time>
      </trkpt>
      <trkpt lat="34.32791394161243" lon="109.0043154607972">
        <ele>394.32150249555707</ele>
        <time>2022-05-04T23:21:09Z</time>
      </trkpt>
      <trkpt lat="34.327898645927846" lon="109.00454039714614">
        <ele>394.0284193949774</ele>
        <time>2022-05-04T23:21:15Z</time>
      </trkpt>
      <trkpt lat="34.3279205791548" lon="109.00490358658182">
        <ele>393.2851476110518</ele>
        <time>2022-05-04T23:21:27Z</time>
      </trkpt>
      <trkpt lat="34.327905870537464" lon="109.00519432019414">
        <ele>394.3676920905709</ele>
        <time>2022-05-04T23:21:35Z</time>
      </trkpt>
      <trkpt lat="34.32791893212501" lon="109.00531359465553">
        <ele>394.01906806696206</ele>
        <time>2022-05-04T23:21:39Z</time>
      </trkpt>
      <trkpt lat="34.32789476760268" lon="109.00589884452289">
        <ele>394.2462308369577</ele>
        <time>2022-05-04T23:21:55Z</time>
      </trkpt>
      <trkpt lat="34.327868435299834" lon="109.00636837589906">
        <ele>394.6201085476205</ele>
        <time>2022-05-04T23:22:05Z</time>
      </trkpt>
      <trkpt lat="34.32783657747381" lon="109.00652814651825">
        <ele>394.32774138171226</ele>
        <time>2022-05-04T23:22:07Z</time>
      </trkpt>
      <trkpt lat="34.32785662679675" lon="109.0066298443798">
        <ele>394.11463531758636</ele>
        <time>2022-05-04T23:22:09Z</time>
      </trkpt>
      <trkpt lat="34.327849977733116" lon="109.00672824912388">
        <ele>393.9446498816833</ele>
        <time>2022-05-04T23:22:11Z</time>
      </trkpt>
      <trkpt lat="34.32787952877413" lon="109.00727665952618">
        <ele>393.32727587781847</ele>
        <time>2022-05-04T23:22:23Z</time>
      </trkpt>
      <trkpt lat="34.32785441792491" lon="109.00792087219493">
        <ele>393.15738434065133</ele>
        <time>2022-05-04T23:22:31Z</time>
      </trkpt>
      <trkpt lat="34.327899465473614" lon="109.00856367523268">
        <ele>393.3587434301153</ele>
        <time>2022-05-04T23:22:39Z</time>
      </trkpt>
      <trkpt lat="34.3279286069315" lon="109.00922495449375">
        <ele>392.26247759815305</ele>
        <time>2022-05-04T23:22:47Z</time>
      </trkpt>
      <trkpt lat="34.3279319644426" lon="109.00983623423915">
        <ele>387.8065346349031</ele>
        <time>2022-05-04T23:22:55Z</time>
      </trkpt>
      <trkpt lat="34.327918746855154" lon="109.01040398394737">
        <ele>386.6680617341772</ele>
        <time>2022-05-04T23:23:03Z</time>
      </trkpt>
      <trkpt lat="34.327914711212365" lon="109.01102086616709">
        <ele>386.29309654515237</ele>
        <time>2022-05-04T23:23:15Z</time>
      </trkpt>
      <trkpt lat="34.32792718672863" lon="109.01154353266318">
        <ele>388.44341073092073</ele>
        <time>2022-05-04T23:23:27Z</time>
      </trkpt>
      <trkpt lat="34.32788822599051" lon="109.01211736323657">
        <ele>386.75430643744767</ele>
        <time>2022-05-04T23:23:39Z</time>
      </trkpt>
      <trkpt lat="34.327887386592316" lon="109.0127673728236">
        <ele>388.6478772908449</ele>
        <time>2022-05-04T23:23:53Z</time>
      </trkpt>
      <trkpt lat="34.32788675885976" lon="109.01331402887048">
        <ele>390.2291004108265</ele>
        <time>2022-05-04T23:24:05Z</time>
      </trkpt>
      <trkpt lat="34.32788602248032" lon="109.01349196836672">
        <ele>390.27791682071984</ele>
        <time>2022-05-04T23:24:09Z</time>
      </trkpt>
      <trkpt lat="34.32791477288974" lon="109.01414500206491">
        <ele>390.1065918803215</ele>
        <time>2022-05-04T23:24:23Z</time>
      </trkpt>
      <trkpt lat="34.32793713262013" lon="109.01450529719835">
        <ele>389.32837210502476</ele>
        <time>2022-05-04T23:24:31Z</time>
      </trkpt>
      <trkpt lat="34.32792704409399" lon="109.01511980785097">
        <ele>387.5665114708245</ele>
        <time>2022-05-04T23:24:43Z</time>
      </trkpt>
      <trkpt lat="34.32792886496098" lon="109.01567312395709">
        <ele>387.8550446834415</ele>
        <time>2022-05-04T23:24:55Z</time>
      </trkpt>
      <trkpt lat="34.327931505253616" lon="109.01601056493946">
        <ele>388.56384738441557</ele>
        <time>2022-05-04T23:25:03Z</time>
      </trkpt>
      <trkpt lat="34.32788730246951" lon="109.01655327526657">
        <ele>387.99532905127853</ele>
        <time>2022-05-04T23:25:15Z</time>
      </trkpt>
      <trkpt lat="34.3277921068268" lon="109.01699491189844">
        <ele>387.61862268764526</ele>
        <time>2022-05-04T23:25:25Z</time>
      </trkpt>
      <trkpt lat="34.3277184106399" lon="109.01723279628345">
        <ele>389.08459109067917</ele>
        <time>2022-05-04T23:25:31Z</time>
      </trkpt>
      <trkpt lat="34.327658198780085" lon="109.01764895479731">
        <ele>388.6563478447497</ele>
        <time>2022-05-04T23:25:41Z</time>
      </trkpt>
      <trkpt lat="34.327663390706334" lon="109.0179739892748">
        <ele>388.9857565127313</ele>
        <time>2022-05-04T23:25:49Z</time>
      </trkpt>
      <trkpt lat="34.327697523693885" lon="109.01829976673092">
        <ele>388.46072111744434</ele>
        <time>2022-05-04T23:25:57Z</time>
      </trkpt>
      <trkpt lat="34.327552239585465" lon="109.0186167192237">
        <ele>387.6649778820574</ele>
        <time>2022-05-04T23:26:05Z</time>
      </trkpt>
      <trkpt lat="34.32728458678459" lon="109.01903967153274">
        <ele>388.4834187217057</ele>
        <time>2022-05-04T23:26:17Z</time>
      </trkpt>
      <trkpt lat="34.327030771415316" lon="109.01948933334897">
        <ele>387.8899611765519</ele>
        <time>2022-05-04T23:26:29Z</time>
      </trkpt>
      <trkpt lat="34.326993840678306" lon="109.01957156941552">
        <ele>388.2014180980623</ele>
        <time>2022-05-04T23:26:31Z</time>
      </trkpt>
      <trkpt lat="34.32665927783956" lon="109.0200143942772">
        <ele>387.82532820198685</ele>
        <time>2022-05-04T23:26:43Z</time>
      </trkpt>
      <trkpt lat="34.32631559830921" lon="109.02042049252321">
        <ele>387.07091001048684</ele>
        <time>2022-05-04T23:26:55Z</time>
      </trkpt>
      <trkpt lat="34.32591316858288" lon="109.02077102276718">
        <ele>388.0927659133449</ele>
        <time>2022-05-04T23:27:07Z</time>
      </trkpt>
      <trkpt lat="34.32549699421487" lon="109.02106301071689">
        <ele>387.69764766748995</ele>
        <time>2022-05-04T23:27:19Z</time>
      </trkpt>
      <trkpt lat="34.32507750641494" lon="109.02130765007301">
        <ele>388.57848022691905</ele>
        <time>2022-05-04T23:27:31Z</time>
      </trkpt>
      <trkpt lat="34.32462893356325" lon="109.02149822482207">
        <ele>388.5074478276074</ele>
        <time>2022-05-04T23:27:43Z</time>
      </trkpt>
      <trkpt lat="34.32418239922866" lon="109.02164237991919">
        <ele>388.00787037517875</ele>
        <time>2022-05-04T23:27:55Z</time>
      </trkpt>
      <trkpt lat="34.32388479063658" lon="109.02170616185867">
        <ele>389.206659165211</ele>
        <time>2022-05-04T23:28:03Z</time>
      </trkpt>
      <trkpt lat="34.32380798952427" lon="109.02170100767844">
        <ele>388.6199319306761</ele>
        <time>2022-05-04T23:28:05Z</time>
      </trkpt>
      <trkpt lat="34.32336260860955" lon="109.02175773533975">
        <ele>390.77120393980294</ele>
        <time>2022-05-04T23:28:17Z</time>
      </trkpt>
      <trkpt lat="34.322895597108385" lon="109.02178583660982">
        <ele>390.60519932676107</ele>
        <time>2022-05-04T23:28:29Z</time>
      </trkpt>
      <trkpt lat="34.32251693490327" lon="109.02180543830924">
        <ele>390.3693193793297</ele>
        <time>2022-05-04T23:28:39Z</time>
      </trkpt>
      <trkpt lat="34.32205797375619" lon="109.02174412232655">
        <ele>389.97259870450944</ele>
        <time>2022-05-04T23:28:51Z</time>
      </trkpt>
      <trkpt lat="34.321606142952234" lon="109.02169939239577">
        <ele>391.1185315679759</ele>
        <time>2022-05-04T23:29:03Z</time>
      </trkpt>
      <trkpt lat="34.32111952187157" lon="109.0216252675752">
        <ele>391.8632383290678</ele>
        <time>2022-05-04T23:29:16Z</time>
      </trkpt>
      <trkpt lat="34.320679895762055" lon="109.02156704237346">
        <ele>391.54516476765275</ele>
        <time>2022-05-04T23:29:28Z</time>
      </trkpt>
      <trkpt lat="34.32024785503363" lon="109.0215104077201">
        <ele>391.08947861846536</ele>
        <time>2022-05-04T23:29:40Z</time>
      </trkpt>
      <trkpt lat="34.319795306510784" lon="109.02144454572395">
        <ele>391.4574909415096</ele>
        <time>2022-05-04T23:29:52Z</time>
      </trkpt>
      <trkpt lat="34.319350365917735" lon="109.02142385208356">
        <ele>391.0351962605491</ele>
        <time>2022-05-04T23:30:04Z</time>
      </trkpt>
      <trkpt lat="34.318909301320275" lon="109.021428434862">
        <ele>391.0399617170915</ele>
        <time>2022-05-04T23:30:16Z</time>
      </trkpt>
      <trkpt lat="34.318612393481835" lon="109.02143471184776">
        <ele>391.5535041978583</ele>
        <time>2022-05-04T23:30:24Z</time>
      </trkpt>
      <trkpt lat="34.318115706860944" lon="109.02149561871029">
        <ele>391.59572601504624</ele>
        <time>2022-05-04T23:30:38Z</time>
      </trkpt>
      <trkpt lat="34.317605399526606" lon="109.02156013154773">
        <ele>391.94673257507384</ele>
        <time>2022-05-04T23:30:52Z</time>
      </trkpt>
      <trkpt lat="34.317425807471395" lon="109.02159279328808">
        <ele>392.11974503751844</ele>
        <time>2022-05-04T23:30:57Z</time>
      </trkpt>
      <trkpt lat="34.317125578232336" lon="109.02160582926246">
        <ele>391.2365226550028</ele>
        <time>2022-05-04T23:31:05Z</time>
      </trkpt>
      <trkpt lat="34.31698700346387" lon="109.0216428632886">
        <ele>391.83967790193856</ele>
        <time>2022-05-04T23:31:09Z</time>
      </trkpt>
      <trkpt lat="34.31672515419269" lon="109.02166985985583">
        <ele>391.1700784675777</ele>
        <time>2022-05-04T23:31:16Z</time>
      </trkpt>
      <trkpt lat="34.31626204406841" lon="109.02181184378202">
        <ele>391.840205591172</ele>
        <time>2022-05-04T23:31:29Z</time>
      </trkpt>
      <trkpt lat="34.3161353442645" lon="109.02188097693727">
        <ele>391.8603568337858</ele>
        <time>2022-05-04T23:31:33Z</time>
      </trkpt>
      <trkpt lat="34.31607194761957" lon="109.02199542033874">
        <ele>391.6749742273241</ele>
        <time>2022-05-04T23:31:37Z</time>
      </trkpt>
      <trkpt lat="34.3160472891241" lon="109.02213543446128">
        <ele>390.71865188423544</ele>
        <time>2022-05-04T23:31:41Z</time>
      </trkpt>
      <trkpt lat="34.31594501692701" lon="109.02221227762139">
        <ele>390.2328414572403</ele>
        <time>2022-05-04T23:31:55Z</time>
      </trkpt>
      <trkpt lat="34.315821987225206" lon="109.0224156861268">
        <ele>390.6031975746155</ele>
        <time>2022-05-04T23:32:28Z</time>
      </trkpt>
      <trkpt lat="34.315808273619034" lon="109.02256917387265">
        <ele>389.80177843756974</ele>
        <time>2022-05-04T23:32:32Z</time>
      </trkpt>
      <trkpt lat="34.31582774387474" lon="109.02265439392667">
        <ele>389.67365299817175</ele>
        <time>2022-05-04T23:32:34Z</time>
      </trkpt>
      <trkpt lat="34.31603396446324" lon="109.02314138212371">
        <ele>387.1443500230089</ele>
        <time>2022-05-04T23:32:46Z</time>
      </trkpt>
      <trkpt lat="34.3161951264858" lon="109.02347889579862">
        <ele>388.24037285055965</ele>
        <time>2022-05-04T23:32:54Z</time>
      </trkpt>
      <trkpt lat="34.31622064351789" lon="109.02356547569315">
        <ele>387.7092213835567</ele>
        <time>2022-05-04T23:32:56Z</time>
      </trkpt>
      <trkpt lat="34.31622220965581" lon="109.02365677608672">
        <ele>387.6421147538349</ele>
        <time>2022-05-04T23:32:58Z</time>
      </trkpt>
      <trkpt lat="34.31609172683218" lon="109.02379524190863">
        <ele>388.593659453094</ele>
        <time>2022-05-04T23:33:03Z</time>
      </trkpt>
      <trkpt lat="34.31568929649313" lon="109.02400895292841">
        <ele>389.55501568038017</ele>
        <time>2022-05-04T23:33:15Z</time>
      </trkpt>
      <trkpt lat="34.31531497572197" lon="109.02423521583589">
        <ele>389.5176000026986</ele>
        <time>2022-05-04T23:33:27Z</time>
      </trkpt>
      <trkpt lat="34.31521101372292" lon="109.02433773234138">
        <ele>389.8399868849665</ele>
        <time>2022-05-04T23:33:31Z</time>
      </trkpt>
      <trkpt lat="34.315132407089315" lon="109.02437805152591">
        <ele>389.94384335074574</ele>
        <time>2022-05-04T23:33:33Z</time>
      </trkpt>
      <trkpt lat="34.314922869763954" lon="109.02455471914804">
        <ele>390.5117415562272</ele>
        <time>2022-05-04T23:33:41Z</time>
      </trkpt>
      <trkpt lat="34.31466572187436" lon="109.02469758917343">
        <ele>390.86238144151866</ele>
        <time>2022-05-04T23:33:49Z</time>
      </trkpt>
      <trkpt lat="34.31438356323545" lon="109.02490820786294">
        <ele>390.3735801978037</ele>
        <time>2022-05-04T23:33:59Z</time>
      </trkpt>
      <trkpt lat="34.31406306679552" lon="109.0251501521407">
        <ele>389.5860198698938</ele>
        <time>2022-05-04T23:34:09Z</time>
      </trkpt>
      <trkpt lat="34.31358756281375" lon="109.02535098305766">
        <ele>391.3132919734344</ele>
        <time>2022-05-04T23:34:21Z</time>
      </trkpt>
      <trkpt lat="34.31313565690763" lon="109.02558321734381">
        <ele>390.9779654769227</ele>
        <time>2022-05-04T23:34:33Z</time>
      </trkpt>
      <trkpt lat="34.312925807273466" lon="109.02571612363658">
        <ele>391.39496004395187</ele>
        <time>2022-05-04T23:34:39Z</time>
      </trkpt>
      <trkpt lat="34.31259230913647" lon="109.02592247572117">
        <ele>392.02723378129303</ele>
        <time>2022-05-04T23:34:49Z</time>
      </trkpt>
      <trkpt lat="34.31233312552165" lon="109.02621465985257">
        <ele>392.07960835658014</ele>
        <time>2022-05-04T23:35:01Z</time>
      </trkpt>
      <trkpt lat="34.31225685459471" lon="109.02623290409535">
        <ele>393.09428318217397</ele>
        <time>2022-05-04T23:35:03Z</time>
      </trkpt>
      <trkpt lat="34.31194765171387" lon="109.0264927459742">
        <ele>393.33605087082833</ele>
        <time>2022-05-04T23:35:17Z</time>
      </trkpt>
      <trkpt lat="34.31189538564203" lon="109.026582415279">
        <ele>392.78226172644645</ele>
        <time>2022-05-04T23:35:23Z</time>
      </trkpt>
      <trkpt lat="34.31182354183777" lon="109.0266505353918">
        <ele>392.9747916078195</ele>
        <time>2022-05-04T23:35:26Z</time>
      </trkpt>
      <trkpt lat="34.3116892341157" lon="109.02685848431331">
        <ele>392.385259013623</ele>
        <time>2022-05-04T23:35:33Z</time>
      </trkpt>
      <trkpt lat="34.31163031243513" lon="109.0269796736002">
        <ele>392.5726655330509</ele>
        <time>2022-05-04T23:35:37Z</time>
      </trkpt>
      <trkpt lat="34.311435002044426" lon="109.02720215799096">
        <ele>392.62905124761164</ele>
        <time>2022-05-04T23:35:45Z</time>
      </trkpt>
      <trkpt lat="34.3113498751264" lon="109.02734857832448">
        <ele>391.7344631953165</ele>
        <time>2022-05-04T23:35:49Z</time>
      </trkpt>
      <trkpt lat="34.31127935269537" lon="109.02761482028632">
        <ele>391.96113954205066</ele>
        <time>2022-05-04T23:35:55Z</time>
      </trkpt>
      <trkpt lat="34.31128730214077" lon="109.0282317573949">
        <ele>391.8285817122087</ele>
        <time>2022-05-04T23:36:09Z</time>
      </trkpt>
      <trkpt lat="34.31126250143148" lon="109.02850336080769">
        <ele>392.10560172237456</ele>
        <time>2022-05-04T23:36:15Z</time>
      </trkpt>
      <trkpt lat="34.31113793197141" lon="109.02884135820759">
        <ele>390.45525715500116</ele>
        <time>2022-05-04T23:36:23Z</time>
      </trkpt>
      <trkpt lat="34.31089915992267" lon="109.02909600283166">
        <ele>390.68570007104427</ele>
        <time>2022-05-04T23:36:31Z</time>
      </trkpt>
      <trkpt lat="34.31051203375288" lon="109.02942588238193">
        <ele>390.28605331480503</ele>
        <time>2022-05-04T23:36:43Z</time>
      </trkpt>
      <trkpt lat="34.31044058722429" lon="109.02947368836168">
        <ele>390.82410282921046</ele>
        <time>2022-05-04T23:36:45Z</time>
      </trkpt>
      <trkpt lat="34.31035406254205" lon="109.02950303420869">
        <ele>390.47897487692535</ele>
        <time>2022-05-04T23:36:47Z</time>
      </trkpt>
      <trkpt lat="34.309871442853336" lon="109.0294790820385">
        <ele>390.7670764187351</ele>
        <time>2022-05-04T23:36:59Z</time>
      </trkpt>
      <trkpt lat="34.30956783563577" lon="109.02939859754333">
        <ele>391.06148149073124</ele>
        <time>2022-05-04T23:37:07Z</time>
      </trkpt>
      <trkpt lat="34.30935215202602" lon="109.02925797037808">
        <ele>392.57504728995264</ele>
        <time>2022-05-04T23:37:13Z</time>
      </trkpt>
      <trkpt lat="34.30911307647648" lon="109.02901875170299">
        <ele>392.4070914108306</ele>
        <time>2022-05-04T23:37:21Z</time>
      </trkpt>
      <trkpt lat="34.308913124827406" lon="109.02890827990574">
        <ele>393.67782408744097</ele>
        <time>2022-05-04T23:37:27Z</time>
      </trkpt>
      <trkpt lat="34.30876828423187" lon="109.02887954753513">
        <ele>393.98520791344345</ele>
        <time>2022-05-04T23:37:31Z</time>
      </trkpt>
      <trkpt lat="34.308491075972135" lon="109.02887473580225">
        <ele>393.04067480470985</ele>
        <time>2022-05-04T23:37:39Z</time>
      </trkpt>
      <trkpt lat="34.308319853499015" lon="109.02892453365993">
        <ele>392.17318622395396</ele>
        <time>2022-05-04T23:37:44Z</time>
      </trkpt>
      <trkpt lat="34.30823393921933" lon="109.02898099616331">
        <ele>392.14837807044387</ele>
        <time>2022-05-04T23:37:47Z</time>
      </trkpt>
      <trkpt lat="34.30805663313188" lon="109.02921910186916">
        <ele>392.76920770667493</ele>
        <time>2022-05-04T23:37:55Z</time>
      </trkpt>
      <trkpt lat="34.3078987426476" lon="109.0295018075121">
        <ele>393.949798126705</ele>
        <time>2022-05-04T23:38:03Z</time>
      </trkpt>
      <trkpt lat="34.30779353666887" lon="109.02963135965211">
        <ele>394.0840491000563</ele>
        <time>2022-05-04T23:38:07Z</time>
      </trkpt>
      <trkpt lat="34.30765892484894" lon="109.02987546250046">
        <ele>394.2970212539658</ele>
        <time>2022-05-04T23:38:15Z</time>
      </trkpt>
      <trkpt lat="34.30756114897234" lon="109.02999219880513">
        <ele>394.67643762473017</ele>
        <time>2022-05-04T23:38:19Z</time>
      </trkpt>
      <trkpt lat="34.30717506413925" lon="109.03026838388728">
        <ele>393.47166381496936</ele>
        <time>2022-05-04T23:38:29Z</time>
      </trkpt>
      <trkpt lat="34.30699863112444" lon="109.03034352925455">
        <ele>393.2291354080662</ele>
        <time>2022-05-04T23:38:33Z</time>
      </trkpt>
      <trkpt lat="34.30656406241849" lon="109.03063952358146">
        <ele>391.9916277434677</ele>
        <time>2022-05-04T23:38:47Z</time>
      </trkpt>
      <trkpt lat="34.306320976273774" lon="109.03072463219314">
        <ele>391.6574929924682</ele>
        <time>2022-05-04T23:38:53Z</time>
      </trkpt>
      <trkpt lat="34.306290007004826" lon="109.03084904027853">
        <ele>391.23392733652145</ele>
        <time>2022-05-04T23:38:59Z</time>
      </trkpt>
      <trkpt lat="34.30630205519915" lon="109.03099836200732">
        <ele>390.9616981204599</ele>
        <time>2022-05-04T23:39:03Z</time>
      </trkpt>
      <trkpt lat="34.306347495460685" lon="109.03117713967032">
        <ele>389.87710757832974</ele>
        <time>2022-05-04T23:39:07Z</time>
      </trkpt>
      <trkpt lat="34.306357293258046" lon="109.03128196155522">
        <ele>390.79355437960476</ele>
        <time>2022-05-04T23:39:09Z</time>
      </trkpt>
      <trkpt lat="34.30634805583026" lon="109.03137589995382">
        <ele>391.3471548203379</ele>
        <time>2022-05-04T23:39:11Z</time>
      </trkpt>
      <trkpt lat="34.30640717906504" lon="109.03198476996218">
        <ele>391.56106789037585</ele>
        <time>2022-05-04T23:39:23Z</time>
      </trkpt>
      <trkpt lat="34.30642926340851" lon="109.03250652826063">
        <ele>392.91644716542214</ele>
        <time>2022-05-04T23:39:33Z</time>
      </trkpt>
      <trkpt lat="34.30646768396134" lon="109.03280010219936">
        <ele>392.8522754209116</ele>
        <time>2022-05-04T23:39:39Z</time>
      </trkpt>
      <trkpt lat="34.30647982591033" lon="109.03301198382202">
        <ele>392.5399346156046</ele>
        <time>2022-05-04T23:39:43Z</time>
      </trkpt>
      <trkpt lat="34.306463097162705" lon="109.03311336036789">
        <ele>392.59859463665634</ele>
        <time>2022-05-04T23:39:45Z</time>
      </trkpt>
      <trkpt lat="34.306472762323985" lon="109.03321464322339">
        <ele>391.80832699034363</ele>
        <time>2022-05-04T23:39:47Z</time>
      </trkpt>
      <trkpt lat="34.306524922408194" lon="109.03339270392448">
        <ele>392.7591876871884</ele>
        <time>2022-05-04T23:39:51Z</time>
      </trkpt>
      <trkpt lat="34.30654358078327" lon="109.0336994228728">
        <ele>392.7111724568531</ele>
        <time>2022-05-04T23:39:57Z</time>
      </trkpt>
      <trkpt lat="34.30655953929526" lon="109.03422173198331">
        <ele>392.567167182453</ele>
        <time>2022-05-04T23:40:07Z</time>
      </trkpt>
      <trkpt lat="34.306591979259814" lon="109.03472909608227">
        <ele>392.8473148178309</ele>
        <time>2022-05-04T23:40:17Z</time>
      </trkpt>
      <trkpt lat="34.3065666346446" lon="109.03483244179431">
        <ele>392.2636782974005</ele>
        <time>2022-05-04T23:40:19Z</time>
      </trkpt>
      <trkpt lat="34.30663334800813" lon="109.03540222598807">
        <ele>393.19852610491216</ele>
        <time>2022-05-04T23:40:31Z</time>
      </trkpt>
      <trkpt lat="34.30666558204347" lon="109.0357011892838">
        <ele>393.0906225582585</ele>
        <time>2022-05-04T23:40:37Z</time>
      </trkpt>
      <trkpt lat="34.306655819960305" lon="109.03579243379478">
        <ele>392.8684266731143</ele>
        <time>2022-05-04T23:40:39Z</time>
      </trkpt>
      <trkpt lat="34.30672233240828" lon="109.03634999840843">
        <ele>393.53966670669615</ele>
        <time>2022-05-04T23:40:53Z</time>
      </trkpt>
      <trkpt lat="34.306734725595916" lon="109.03647501827376">
        <ele>393.44039754010737</ele>
        <time>2022-05-04T23:40:57Z</time>
      </trkpt>
      <trkpt lat="34.306644979778035" lon="109.03655509901809">
        <ele>391.47837186139077</ele>
        <time>2022-05-04T23:41:07Z</time>
      </trkpt>
      <trkpt lat="34.306642615647355" lon="109.0367254196487">
        <ele>391.43334459140897</ele>
        <time>2022-05-04T23:41:20Z</time>
      </trkpt>
      <trkpt lat="34.30663077966489" lon="109.0369140069156">
        <ele>391.74146152753383</ele>
        <time>2022-05-04T23:41:35Z</time>
      </trkpt>
      <trkpt lat="34.30658558965073" lon="109.03697856294868">
        <ele>391.67173049226403</ele>
        <time>2022-05-04T23:41:45Z</time>
      </trkpt>
      <trkpt lat="34.30647241744048" lon="109.03705220685588">
        <ele>391.54448858089745</ele>
        <time>2022-05-04T23:41:56Z</time>
      </trkpt>
      <trkpt lat="34.30634235738065" lon="109.03719763143653">
        <ele>390.94057621154934</ele>
        <time>2022-05-04T23:42:28Z</time>
      </trkpt>
    </trkseg>
  </trk>
</gpx>